{
"type": "FeatureCollection",
"name": "BUCKI_1548_walking",
"crs": { "type": "name", "properties": { "name": "urn:ogc:def:crs:OGC:1.3:CRS84" } },
"features": [
{"type":"Feature","properties":{"highway":"footway","name":null,"category":"Footpath (pedestrian only)"},"geometry":{"type":"MultiLineString","coordinates":[[[-0.7004446,51.525631],[-0.7002647,51.5256805],[-0.699973,51.525831],[-0.698758,51.526458],[-0.6980895,51.526803],[-0.6978268,51.5269386],[-0.6975951,51.527041],[-0.6971488,51.5272884]]]}},
{"type":"Feature","properties":{"highway":"footway","name":"Taplow FP23/24","category":"Footpath (pedestrian only)"},"geometry":{"type":"MultiLineString","coordinates":[[[-0.7009673,51.5241732],[-0.7010491,51.5241595],[-0.7012532,51.5241174],[-0.7012832,51.5241075],[-0.7013069,51.5240928],[-0.7013191,51.5240749],[-0.7013272,51.5240531]]]}},
{"type":"Feature","properties":{"highway":"footway","name":null,"category":"Footpath (pedestrian only)"},"geometry":{"type":"MultiLineString","coordinates":[[[-0.6860775,51.5291815],[-0.686154,51.5291577],[-0.6863217,51.5290805],[-0.6880061,51.5280773],[-0.6884111,51.5277883],[-0.6884727,51.5276994],[-0.6886146,51.5264097],[-0.6913751,51.525055],[-0.691526,51.5250262],[-0.6917318,51.5250267],[-0.6918351,51.5250258]]]}},
{"type":"Feature","properties":{"highway":"path","name":"Amerden Lane","category":"Shared path"},"geometry":{"type":"MultiLineString","coordinates":[[[-0.6920961,51.521877],[-0.6919866,51.521895],[-0.6917597,51.5219293],[-0.6909159,51.5220699],[-0.690195,51.5221271]]]}},
{"type":"Feature","properties":{"highway":"footway","name":null,"category":"Footpath (pedestrian only)"},"geometry":{"type":"MultiLineString","coordinates":[[[-0.7021113,51.5219987],[-0.702082,51.5220052],[-0.7021242,51.52222],[-0.7021143,51.5223979],[-0.7020596,51.5226753],[-0.7020453,51.5227477]]]}},
{"type":"Feature","properties":{"highway":"footway","name":null,"category":"Footpath (pedestrian only)"},"geometry":{"type":"MultiLineString","coordinates":[[[-0.702082,51.5220052],[-0.7020494,51.5217684],[-0.7019864,51.5215281],[-0.7019072,51.5212812]]]}},
{"type":"Feature","properties":{"highway":"footway","name":null,"category":"Footpath (pedestrian only)"},"geometry":{"type":"MultiLineString","coordinates":[[[-0.7161743,51.5248475],[-0.7159659,51.525797],[-0.7157537,51.5261399],[-0.7157381,51.5261808],[-0.715726,51.5262125],[-0.7157072,51.5262384],[-0.7156871,51.5262584],[-0.7156482,51.5262676],[-0.7156093,51.5262643],[-0.7155557,51.5262509],[-0.7155063,51.5262316],[-0.714924,51.5259981]]]}},
{"type":"Feature","properties":{"highway":"footway","name":null,"category":"Footpath (pedestrian only)"},"geometry":{"type":"MultiLineString","coordinates":[[[-0.7165165,51.5243385],[-0.7162949,51.5247469]]]}},
{"type":"Feature","properties":{"highway":"footway","name":null,"category":"Footpath (pedestrian only)"},"geometry":{"type":"MultiLineString","coordinates":[[[-0.7167615,51.5239845],[-0.7165165,51.5243385]]]}},
{"type":"Feature","properties":{"highway":"footway","name":null,"category":"Footpath (pedestrian only)"},"geometry":{"type":"MultiLineString","coordinates":[[[-0.7027877,51.5219503],[-0.7026769,51.521923],[-0.7026407,51.5219267]]]}},
{"type":"Feature","properties":{"highway":"footway","name":"Guards Club Bridge","category":"Footpath (pedestrian only)"},"geometry":{"type":"MultiLineString","coordinates":[[[-0.7026044,51.5219304],[-0.7021622,51.5219876]]]}},
{"type":"Feature","properties":{"highway":"footway","name":null,"category":"Footpath (pedestrian only)"},"geometry":{"type":"MultiLineString","coordinates":[[[-0.6964187,51.5276364],[-0.6962072,51.5277344]]]}},
{"type":"Feature","properties":{"highway":"footway","name":null,"category":"Footpath (pedestrian only)"},"geometry":{"type":"MultiLineString","coordinates":[[[-0.7064344,51.5198498],[-0.7066887,51.5193826]]]}},
{"type":"Feature","properties":{"highway":"footway","name":null,"category":"Footpath (pedestrian only)"},"geometry":{"type":"MultiLineString","coordinates":[[[-0.6962072,51.5277344],[-0.6956527,51.5280289],[-0.6949947,51.5283671],[-0.6942611,51.5287637],[-0.6941914,51.5288539]]]}},
{"type":"Feature","properties":{"highway":"footway","name":null,"category":"Footpath (pedestrian only)"},"geometry":{"type":"MultiLineString","coordinates":[[[-0.6971488,51.5272884],[-0.6969073,51.5273955]]]}},
{"type":"Feature","properties":{"highway":"footway","name":null,"category":"Footpath (pedestrian only)"},"geometry":{"type":"MultiLineString","coordinates":[[[-0.7034679,51.5214796],[-0.7030548,51.5214629],[-0.7027921,51.5214838],[-0.7026077,51.5215498],[-0.7026412,51.5216716],[-0.7026859,51.5217933],[-0.7027877,51.5219503],[-0.7028089,51.5220402],[-0.7029095,51.522082],[-0.7031018,51.5220989]]]}},
{"type":"Feature","properties":{"highway":"footway","name":null,"category":"Footpath (pedestrian only)"},"geometry":{"type":"MultiLineString","coordinates":[[[-0.7030997,51.5251304],[-0.7029518,51.525096],[-0.7025646,51.5250364]]]}},
{"type":"Feature","properties":{"highway":"footway","name":null,"category":"Footpath (pedestrian only)"},"geometry":{"type":"MultiLineString","coordinates":[[[-0.7029881,51.5239932],[-0.7030068,51.5240107],[-0.7030184,51.5240295],[-0.7030272,51.5240508],[-0.7030257,51.5240752],[-0.7029953,51.5242636]]]}},
{"type":"Feature","properties":{"highway":"footway","name":null,"category":"Footpath (pedestrian only)"},"geometry":{"type":"MultiLineString","coordinates":[[[-0.7029667,51.5242832],[-0.7029323,51.5242823],[-0.7028641,51.5242806],[-0.7027255,51.5242909],[-0.7027213,51.5243223],[-0.702671,51.5243328],[-0.7026858,51.5245681],[-0.7027145,51.5246027],[-0.7026615,51.5247534],[-0.7031978,51.5248309],[-0.703271,51.5248415]]]}},
{"type":"Feature","properties":{"highway":"footway","name":null,"category":"Footpath (pedestrian only)"},"geometry":{"type":"MultiLineString","coordinates":[[[-0.7030213,51.5246179],[-0.7027904,51.5245977],[-0.7027145,51.5246027]]]}},
{"type":"Feature","properties":{"highway":"footway","name":null,"category":"Footpath (pedestrian only)"},"geometry":{"type":"MultiLineString","coordinates":[[[-0.716275,51.5223562],[-0.7173061,51.5222823]]]}},
{"type":"Feature","properties":{"highway":"footway","name":null,"category":"Footpath (pedestrian only)"},"geometry":{"type":"MultiLineString","coordinates":[[[-0.7126694,51.5239246],[-0.7127936,51.5236981]]]}},
{"type":"Feature","properties":{"highway":"footway","name":null,"category":"Footpath (pedestrian only)"},"geometry":{"type":"MultiLineString","coordinates":[[[-0.7120844,51.5242914],[-0.7121452,51.5242394],[-0.7121804,51.5241643],[-0.7121911,51.5240849],[-0.7121774,51.5240285],[-0.7121352,51.5239138],[-0.7121419,51.5238629],[-0.7122489,51.5238754],[-0.7126694,51.5239246]]]}},
{"type":"Feature","properties":{"highway":"footway","name":null,"category":"Footpath (pedestrian only)"},"geometry":{"type":"MultiLineString","coordinates":[[[-0.714924,51.5259981],[-0.7149518,51.5259469],[-0.7148919,51.5258249]]]}},
{"type":"Feature","properties":{"highway":"path","name":null,"category":"Shared path"},"geometry":{"type":"MultiLineString","coordinates":[[[-0.7096254,51.5237415],[-0.709616,51.5237029],[-0.7096011,51.5235373]]]}},
{"type":"Feature","properties":{"highway":"footway","name":null,"category":"Footpath (pedestrian only)"},"geometry":{"type":"MultiLineString","coordinates":[[[-0.7173061,51.5222823],[-0.7173168,51.5223254],[-0.717151,51.5227192],[-0.7171305,51.5227495],[-0.7169509,51.522861],[-0.7168835,51.5229468],[-0.7168051,51.5230574],[-0.7168082,51.5230647]]]}},
{"type":"Feature","properties":{"highway":"footway","name":null,"category":"Footpath (pedestrian only)"},"geometry":{"type":"MultiLineString","coordinates":[[[-0.7127936,51.5236981],[-0.7130389,51.5236251],[-0.7130804,51.5236127],[-0.7135767,51.5234872]]]}},
{"type":"Feature","properties":{"highway":"footway","name":null,"category":"Footpath (pedestrian only)"},"geometry":{"type":"MultiLineString","coordinates":[[[-0.7125936,51.5236532],[-0.7124819,51.523613],[-0.712447,51.5235746]]]}},
{"type":"Feature","properties":{"highway":"footway","name":null,"category":"Footpath (pedestrian only)"},"geometry":{"type":"MultiLineString","coordinates":[[[-0.7061296,51.5219264],[-0.7060151,51.5218578],[-0.7051447,51.5218704],[-0.7050374,51.5218988]]]}},
{"type":"Feature","properties":{"highway":"footway","name":null,"category":"Footpath (pedestrian only)"},"geometry":{"type":"MultiLineString","coordinates":[[[-0.7036212,51.5241281],[-0.7036162,51.5240931],[-0.7035883,51.52408],[-0.7032396,51.5242176],[-0.7030502,51.5242698]]]}},
{"type":"Feature","properties":{"highway":"footway","name":"Sadlers Mews","category":"Footpath (pedestrian only)"},"geometry":{"type":"MultiLineString","coordinates":[[[-0.7073484,51.523498],[-0.7078419,51.5235781],[-0.708296,51.5235564]]]}},
{"type":"Feature","properties":{"highway":"footway","name":null,"category":"Footpath (pedestrian only)"},"geometry":{"type":"MultiLineString","coordinates":[[[-0.7074327,51.5222295],[-0.707409,51.5219251],[-0.7063504,51.5218829],[-0.7061361,51.5219555]]]}},
{"type":"Feature","properties":{"highway":"footway","name":null,"category":"Footpath (pedestrian only)"},"geometry":{"type":"MultiLineString","coordinates":[[[-0.7013244,51.5238816],[-0.7013744,51.5238079],[-0.7013988,51.52378],[-0.7014219,51.5237505],[-0.701454,51.5236942],[-0.7014779,51.5236265],[-0.701496,51.5235567],[-0.701502,51.5235166],[-0.7015084,51.5235007],[-0.7015213,51.5234887],[-0.7015364,51.5234799],[-0.7015694,51.5234648],[-0.7016075,51.5234525],[-0.7016114,51.5233793],[-0.7016066,51.5232922],[-0.7015723,51.5231381],[-0.7015225,51.5229984],[-0.7015173,51.5229837],[-0.7013395,51.5224558],[-0.7010939,51.5224022]]]}},
{"type":"Feature","properties":{"highway":"footway","name":"Taplow FP23/24","category":"Footpath (pedestrian only)"},"geometry":{"type":"MultiLineString","coordinates":[[[-0.7013272,51.5240531],[-0.701325,51.5240007],[-0.7013199,51.5239061],[-0.7013244,51.5238816]]]}},
{"type":"Feature","properties":{"highway":"footway","name":null,"category":"Footpath (pedestrian only)"},"geometry":{"type":"MultiLineString","coordinates":[[[-0.7162949,51.5247469],[-0.7161743,51.5248475]]]}},
{"type":"Feature","properties":{"highway":"footway","name":null,"category":"Footpath (pedestrian only)"},"geometry":{"type":"MultiLineString","coordinates":[[[-0.7161743,51.5248475],[-0.7162233,51.5246382]]]}},
{"type":"Feature","properties":{"highway":"footway","name":null,"category":"Footpath (pedestrian only)"},"geometry":{"type":"MultiLineString","coordinates":[[[-0.6996087,51.5234607],[-0.6994808,51.5234545],[-0.6995341,51.5231188],[-0.6985348,51.5226255],[-0.6984334,51.5226151]]]}},
{"type":"Feature","properties":{"highway":"footway","name":null,"category":"Footpath (pedestrian only)"},"geometry":{"type":"MultiLineString","coordinates":[[[-0.6998424,51.5226212],[-0.7007051,51.5225726],[-0.7006837,51.5228547]]]}},
{"type":"Feature","properties":{"highway":"footway","name":null,"category":"Footpath (pedestrian only)"},"geometry":{"type":"MultiLineString","coordinates":[[[-0.6937464,51.5232232],[-0.69395,51.5233503]]]}},
{"type":"Feature","properties":{"highway":"footway","name":null,"category":"Footpath (pedestrian only)"},"geometry":{"type":"MultiLineString","coordinates":[[[-0.6944892,51.5233903],[-0.6950756,51.5233517]]]}},
{"type":"Feature","properties":{"highway":"footway","name":null,"category":"Footpath (pedestrian only)"},"geometry":{"type":"MultiLineString","coordinates":[[[-0.69395,51.5233503],[-0.6944892,51.5233903]]]}},
{"type":"Feature","properties":{"highway":"track","name":null,"category":"Track"},"geometry":{"type":"MultiLineString","coordinates":[[[-0.6963425,51.5363121],[-0.6965786,51.5353912],[-0.6966745,51.5349928],[-0.6966864,51.5349364],[-0.6967395,51.5343301],[-0.696879,51.533943],[-0.6972867,51.5320309],[-0.6973618,51.5315503],[-0.6974315,51.5309129],[-0.6973993,51.530082],[-0.6973242,51.529835],[-0.6969322,51.5290819],[-0.6968572,51.5289378]]]}},
{"type":"Feature","properties":{"highway":"footway","name":null,"category":"Footpath (pedestrian only)"},"geometry":{"type":"MultiLineString","coordinates":[[[-0.714924,51.5259981],[-0.7148007,51.5261334]]]}},
{"type":"Feature","properties":{"highway":"footway","name":null,"category":"Footpath (pedestrian only)"},"geometry":{"type":"MultiLineString","coordinates":[[[-0.7148007,51.5261334],[-0.7147738,51.5262569],[-0.7147618,51.5264421],[-0.7147794,51.5265783]]]}},
{"type":"Feature","properties":{"highway":"footway","name":null,"category":"Footpath (pedestrian only)"},"geometry":{"type":"MultiLineString","coordinates":[[[-0.7163235,51.524649],[-0.7162233,51.5246382],[-0.7159332,51.524596],[-0.7157971,51.5245902],[-0.7157233,51.5245948],[-0.7156651,51.5246214],[-0.7152472,51.5247907],[-0.7151832,51.5247818],[-0.7150991,51.5247767],[-0.7150547,51.5247739],[-0.7150233,51.5247909],[-0.7149952,51.5247934],[-0.7149482,51.5247975],[-0.7148771,51.5247608],[-0.7147839,51.5246783],[-0.7143675,51.5243094],[-0.7143366,51.5242865],[-0.714291,51.5242652],[-0.7142387,51.5242439],[-0.7137989,51.5241375],[-0.7131258,51.5239801]]]}},
{"type":"Feature","properties":{"highway":"footway","name":null,"category":"Footpath (pedestrian only)"},"geometry":{"type":"MultiLineString","coordinates":[[[-0.7101865,51.5254236],[-0.7103287,51.5253788],[-0.7104958,51.5252738],[-0.7105785,51.5252485],[-0.7111641,51.5250697],[-0.7116616,51.5246295],[-0.7116855,51.5245676],[-0.7117054,51.5245162]]]}},
{"type":"Feature","properties":{"highway":"path","name":null,"category":"Shared path"},"geometry":{"type":"MultiLineString","coordinates":[[[-0.7046794,51.5240179],[-0.7044071,51.5240516]]]}},
{"type":"Feature","properties":{"highway":"footway","name":null,"category":"Footpath (pedestrian only)"},"geometry":{"type":"MultiLineString","coordinates":[[[-0.7028976,51.5240494],[-0.7027879,51.5239742]]]}},
{"type":"Feature","properties":{"highway":"footway","name":null,"category":"Footpath (pedestrian only)"},"geometry":{"type":"MultiLineString","coordinates":[[[-0.7028375,51.5238422],[-0.7027738,51.523839],[-0.7027533,51.5238344],[-0.7027406,51.5238237],[-0.7027213,51.5238145],[-0.7026918,51.5238038]]]}},
{"type":"Feature","properties":{"highway":"footway","name":null,"category":"Footpath (pedestrian only)"},"geometry":{"type":"MultiLineString","coordinates":[[[-0.7029907,51.5243321],[-0.7030123,51.5244095],[-0.7030213,51.5246179],[-0.7031978,51.5248309]]]}},
{"type":"Feature","properties":{"highway":"path","name":null,"category":"Shared path"},"geometry":{"type":"MultiLineString","coordinates":[[[-0.7148007,51.5261334],[-0.7140389,51.5258505],[-0.7132182,51.5253791],[-0.7130693,51.5252514],[-0.7130311,51.5251733],[-0.7129292,51.5249646],[-0.7129137,51.52494],[-0.712793,51.5247475],[-0.7126012,51.5244863],[-0.7121774,51.5240285]]]}},
{"type":"Feature","properties":{"highway":"footway","name":null,"category":"Footpath (pedestrian only)"},"geometry":{"type":"MultiLineString","coordinates":[[[-0.7028093,51.5222891],[-0.7027914,51.5222395],[-0.7026769,51.521923],[-0.7026675,51.5219044]]]}},
{"type":"Feature","properties":{"highway":"footway","name":null,"category":"Footpath (pedestrian only)"},"geometry":{"type":"MultiLineString","coordinates":[[[-0.7115303,51.5236334],[-0.711751,51.5236147],[-0.7119079,51.5236123],[-0.7119804,51.5236113]]]}},
{"type":"Feature","properties":{"highway":"footway","name":"Lantern Walk","category":"Footpath (pedestrian only)"},"geometry":{"type":"MultiLineString","coordinates":[[[-0.7067605,51.5227685],[-0.7067846,51.5229421],[-0.7067256,51.5229471],[-0.7067745,51.5232492]]]}},
{"type":"Feature","properties":{"highway":"footway","name":null,"category":"Footpath (pedestrian only)"},"geometry":{"type":"MultiLineString","coordinates":[[[-0.707317,51.5227342],[-0.7067605,51.5227685]]]}},
{"type":"Feature","properties":{"highway":"footway","name":null,"category":"Footpath (pedestrian only)"},"geometry":{"type":"MultiLineString","coordinates":[[[-0.6980762,51.5321996],[-0.6980723,51.531946],[-0.6979924,51.5317746],[-0.6978966,51.5316117],[-0.6978645,51.531376],[-0.6978667,51.5312232],[-0.697869,51.5310669],[-0.6978005,51.5305984],[-0.6977176,51.5300307],[-0.6976572,51.5296996],[-0.6975555,51.5294452],[-0.6975535,51.5292797],[-0.6976773,51.5292644],[-0.6977384,51.5291822],[-0.6977525,51.5291169],[-0.6977641,51.5290634]]]}},
{"type":"Feature","properties":{"highway":"footway","name":null,"category":"Footpath (pedestrian only)"},"geometry":{"type":"MultiLineString","coordinates":[[[-0.6978005,51.5305984],[-0.6979009,51.5305937],[-0.6980057,51.5305887]]]}},
{"type":"Feature","properties":{"highway":"footway","name":null,"category":"Footpath (pedestrian only)"},"geometry":{"type":"MultiLineString","coordinates":[[[-0.6977149,51.5272265],[-0.6976681,51.5271643],[-0.6975951,51.527041]]]}},
{"type":"Feature","properties":{"highway":"footway","name":null,"category":"Footpath (pedestrian only)"},"geometry":{"type":"MultiLineString","coordinates":[[[-0.7039976,51.5238093],[-0.7043152,51.5238125],[-0.7053449,51.5237983],[-0.7054749,51.5237962],[-0.7058246,51.5237904],[-0.7071982,51.5237629]]]}},
{"type":"Feature","properties":{"highway":"footway","name":null,"category":"Footpath (pedestrian only)"},"geometry":{"type":"MultiLineString","coordinates":[[[-0.7128438,51.5239633],[-0.7129284,51.5239565],[-0.7130877,51.5239755],[-0.7131258,51.5239801]]]}},
{"type":"Feature","properties":{"highway":"footway","name":null,"category":"Footpath (pedestrian only)"},"geometry":{"type":"MultiLineString","coordinates":[[[-0.7129284,51.5239565],[-0.7127051,51.5239084],[-0.7123144,51.523853],[-0.7121455,51.5238346]]]}},
{"type":"Feature","properties":{"highway":"footway","name":null,"category":"Footpath (pedestrian only)"},"geometry":{"type":"MultiLineString","coordinates":[[[-0.7121455,51.5238346],[-0.7121419,51.5238629]]]}},
{"type":"Feature","properties":{"highway":"footway","name":null,"category":"Footpath (pedestrian only)"},"geometry":{"type":"MultiLineString","coordinates":[[[-0.6978667,51.5312232],[-0.6983216,51.5311822]]]}},
{"type":"Feature","properties":{"highway":"footway","name":null,"category":"Footpath (pedestrian only)"},"geometry":{"type":"MultiLineString","coordinates":[[[-0.6976773,51.5292644],[-0.6975555,51.5294452]]]}},
{"type":"Feature","properties":{"highway":"path","name":null,"category":"Shared path"},"geometry":{"type":"MultiLineString","coordinates":[[[-0.6998541,51.5255214],[-0.6998383,51.5255934],[-0.6998383,51.5256452],[-0.699973,51.525831],[-0.6998495,51.5261039]]]}},
{"type":"Feature","properties":{"highway":"path","name":null,"category":"Shared path"},"geometry":{"type":"MultiLineString","coordinates":[[[-0.6980709,51.5264653],[-0.6979323,51.5264325],[-0.697877,51.526376],[-0.6978672,51.5263011],[-0.6979204,51.5262042],[-0.6980546,51.5261415],[-0.6982125,51.5257094],[-0.6981789,51.5256689],[-0.6981631,51.5256124],[-0.6982066,51.5255572],[-0.6982954,51.5255068],[-0.6986794,51.5252783],[-0.6987689,51.5249151],[-0.6991419,51.5243603]]]}},
{"type":"Feature","properties":{"highway":"path","name":null,"category":"Shared path"},"geometry":{"type":"MultiLineString","coordinates":[[[-0.6985085,51.5259758],[-0.6983052,51.5262717],[-0.6980709,51.5264653],[-0.6979575,51.526559],[-0.6977764,51.5267345],[-0.697735,51.5268094],[-0.6977626,51.526883],[-0.6978268,51.5269386]]]}},
{"type":"Feature","properties":{"highway":"path","name":null,"category":"Shared path"},"geometry":{"type":"MultiLineString","coordinates":[[[-0.6994872,51.5266842],[-0.6993431,51.526764],[-0.6990756,51.5267114],[-0.698758,51.526458],[-0.6985992,51.5263085],[-0.6985085,51.5259758],[-0.6988123,51.5256431],[-0.6990294,51.5255873],[-0.6992504,51.5255118],[-0.6997261,51.5255879]]]}},
{"type":"Feature","properties":{"highway":"path","name":null,"category":"Shared path"},"geometry":{"type":"MultiLineString","coordinates":[[[-0.6996637,51.5263742],[-0.6994872,51.5266842],[-0.6995424,51.5267959],[-0.6998202,51.526885]]]}},
{"type":"Feature","properties":{"highway":"path","name":null,"category":"Shared path"},"geometry":{"type":"MultiLineString","coordinates":[[[-0.7000251,51.5252575],[-0.7000544,51.5252184],[-0.7000903,51.5251426],[-0.7000992,51.5251037],[-0.7001107,51.5250379]]]}},
{"type":"Feature","properties":{"highway":"path","name":null,"category":"Shared path"},"geometry":{"type":"MultiLineString","coordinates":[[[-0.6986794,51.5252783],[-0.6990294,51.5255873]]]}},
{"type":"Feature","properties":{"highway":"path","name":null,"category":"Shared path"},"geometry":{"type":"MultiLineString","coordinates":[[[-0.7096011,51.5235373],[-0.7095641,51.5234409]]]}},
{"type":"Feature","properties":{"highway":"footway","name":null,"category":"Footpath (pedestrian only)"},"geometry":{"type":"MultiLineString","coordinates":[[[-0.7148007,51.5261334],[-0.7150528,51.5262552],[-0.7154408,51.5264335],[-0.7154906,51.5264564]]]}},
{"type":"Feature","properties":{"highway":"footway","name":null,"category":"Footpath (pedestrian only)"},"geometry":{"type":"MultiLineString","coordinates":[[[-0.7027945,51.5239083],[-0.7028126,51.5238765],[-0.7028375,51.5238422]]]}},
{"type":"Feature","properties":{"highway":"path","name":null,"category":"Shared path"},"geometry":{"type":"MultiLineString","coordinates":[[[-0.714924,51.5259981],[-0.7150698,51.5257345],[-0.7150554,51.5255832]]]}},
{"type":"Feature","properties":{"highway":"path","name":null,"category":"Shared path"},"geometry":{"type":"MultiLineString","coordinates":[[[-0.710227,51.5277073],[-0.7101992,51.5276562],[-0.7101931,51.5276449]]]}},
{"type":"Feature","properties":{"highway":"footway","name":null,"category":"Footpath (pedestrian only)"},"geometry":{"type":"MultiLineString","coordinates":[[[-0.7010654,51.5214552],[-0.7011748,51.5213158],[-0.7011499,51.5211136],[-0.7011428,51.521077],[-0.7009952,51.5210032]]]}},
{"type":"Feature","properties":{"highway":"path","name":null,"category":"Shared path"},"geometry":{"type":"MultiLineString","coordinates":[[[-0.6995424,51.5267959],[-0.6993431,51.526764]]]}},
{"type":"Feature","properties":{"highway":"path","name":null,"category":"Shared path"},"geometry":{"type":"MultiLineString","coordinates":[[[-0.6989251,51.5269344],[-0.6990756,51.5267114]]]}},
{"type":"Feature","properties":{"highway":"footway","name":null,"category":"Footpath (pedestrian only)"},"geometry":{"type":"MultiLineString","coordinates":[[[-0.7121455,51.5238346],[-0.7117832,51.5238017],[-0.7113218,51.5238167],[-0.7105849,51.5238467],[-0.7103756,51.5238525],[-0.7098969,51.5238659],[-0.7098311,51.5238772],[-0.7097695,51.5238876],[-0.7088797,51.5239072],[-0.7088495,51.5238558]]]}},
{"type":"Feature","properties":{"highway":"path","name":null,"category":"Shared path"},"geometry":{"type":"MultiLineString","coordinates":[[[-0.706215,51.5276458],[-0.705721,51.5277259]]]}},
{"type":"Feature","properties":{"highway":"path","name":null,"category":"Shared path"},"geometry":{"type":"MultiLineString","coordinates":[[[-0.7057917,51.5278928],[-0.7062921,51.527811]]]}},
{"type":"Feature","properties":{"highway":"path","name":null,"category":"Shared path"},"geometry":{"type":"MultiLineString","coordinates":[[[-0.7150323,51.5229796],[-0.7148507,51.5229939],[-0.7148361,51.5229351],[-0.7136757,51.5230231]]]}},
{"type":"Feature","properties":{"highway":"path","name":null,"category":"Shared path"},"geometry":{"type":"MultiLineString","coordinates":[[[-0.7151705,51.5229688],[-0.7150323,51.5229796]]]}},
{"type":"Feature","properties":{"highway":"path","name":null,"category":"Shared path"},"geometry":{"type":"MultiLineString","coordinates":[[[-0.7119874,51.5277077],[-0.712019,51.5277008],[-0.7120105,51.5276632],[-0.7118154,51.5276978],[-0.7117745,51.5276861]]]}},
{"type":"Feature","properties":{"highway":"path","name":null,"category":"Shared path"},"geometry":{"type":"MultiLineString","coordinates":[[[-0.7118244,51.5287059],[-0.7118019,51.5286429]]]}},
{"type":"Feature","properties":{"highway":"path","name":null,"category":"Shared path"},"geometry":{"type":"MultiLineString","coordinates":[[[-0.7117919,51.5286148],[-0.7117537,51.5286064]]]}},
{"type":"Feature","properties":{"highway":"path","name":null,"category":"Shared path"},"geometry":{"type":"MultiLineString","coordinates":[[[-0.7118019,51.5286429],[-0.7119786,51.5286137],[-0.7119649,51.5285837],[-0.7117919,51.5286148]]]}},
{"type":"Feature","properties":{"highway":"path","name":null,"category":"Shared path"},"geometry":{"type":"MultiLineString","coordinates":[[[-0.7116536,51.5277058],[-0.7116794,51.5277691],[-0.7117464,51.5279338]]]}},
{"type":"Feature","properties":{"highway":"path","name":null,"category":"Shared path"},"geometry":{"type":"MultiLineString","coordinates":[[[-0.7117745,51.5276861],[-0.7116536,51.5277058],[-0.711403,51.5277466],[-0.7114917,51.5279727],[-0.7116226,51.5283062],[-0.7116578,51.5283958],[-0.711688,51.5284162],[-0.7117094,51.5284525],[-0.7117449,51.5285363],[-0.7117537,51.5286064]]]}},
{"type":"Feature","properties":{"highway":"path","name":null,"category":"Shared path"},"geometry":{"type":"MultiLineString","coordinates":[[[-0.7120415,51.5278888],[-0.7119257,51.5279055],[-0.7117464,51.5279338],[-0.7114917,51.5279727]]]}},
{"type":"Feature","properties":{"highway":"path","name":null,"category":"Shared path"},"geometry":{"type":"MultiLineString","coordinates":[[[-0.7119783,51.5284171],[-0.7120143,51.5283897],[-0.7120378,51.5283616],[-0.7120505,51.528331],[-0.7120518,51.5282993],[-0.7120416,51.5282682],[-0.7120204,51.5282394],[-0.7119919,51.5282161],[-0.7119562,51.528197],[-0.7119148,51.5281829],[-0.7118544,51.5281735]]]}},
{"type":"Feature","properties":{"highway":"path","name":null,"category":"Shared path"},"geometry":{"type":"MultiLineString","coordinates":[[[-0.7120933,51.5285219],[-0.7120755,51.5285236],[-0.7120473,51.5285262],[-0.7120028,51.5285177],[-0.7119686,51.528498],[-0.7119516,51.5284711],[-0.711955,51.5284422],[-0.7119783,51.5284171],[-0.7120167,51.5284007],[-0.7120628,51.5283964],[-0.7121073,51.5284049],[-0.7121415,51.5284246],[-0.7121585,51.5284516],[-0.7121551,51.5284805],[-0.7121318,51.5285056],[-0.7120933,51.5285219]]]}},
{"type":"Feature","properties":{"highway":"path","name":null,"category":"Shared path"},"geometry":{"type":"MultiLineString","coordinates":[[[-0.7118772,51.5280404],[-0.7118571,51.5280342],[-0.7118102,51.5280487],[-0.711779,51.5280749],[-0.7117703,51.528107],[-0.7117858,51.528138],[-0.7118089,51.5281613],[-0.7118544,51.5281735]]]}},
{"type":"Feature","properties":{"highway":"path","name":null,"category":"Shared path"},"geometry":{"type":"MultiLineString","coordinates":[[[-0.7119874,51.5277077],[-0.7119257,51.5279055],[-0.7118772,51.5280404],[-0.7118544,51.5281735],[-0.7118352,51.5282696],[-0.7117537,51.5286064],[-0.7119857,51.5285672],[-0.7120326,51.5285797],[-0.7120911,51.5285714],[-0.7122727,51.5285455],[-0.7122204,51.528377],[-0.7121855,51.5283511],[-0.7121441,51.5282181],[-0.7120415,51.5278888],[-0.7119874,51.5277077]]]}},
{"type":"Feature","properties":{"highway":"path","name":null,"category":"Shared path"},"geometry":{"type":"MultiLineString","coordinates":[[[-0.7121646,51.5282145],[-0.7121441,51.5282181],[-0.7120204,51.5282394],[-0.7118352,51.5282696],[-0.7116226,51.5283062]]]}},
{"type":"Feature","properties":{"highway":"footway","name":null,"category":"Footpath (pedestrian only)"},"geometry":{"type":"MultiLineString","coordinates":[[[-0.7089524,51.525856],[-0.7092713,51.5257512],[-0.7099405,51.5255852],[-0.7100121,51.525593]]]}},
{"type":"Feature","properties":{"highway":"track","name":null,"category":"Track"},"geometry":{"type":"MultiLineString","coordinates":[[[-0.7125659,51.5266694],[-0.7125659,51.5265941],[-0.7125875,51.5264695],[-0.7126306,51.5263535],[-0.7127076,51.5262366],[-0.7127615,51.5261494]]]}},
{"type":"Feature","properties":{"highway":"path","name":null,"category":"Shared path"},"geometry":{"type":"MultiLineString","coordinates":[[[-0.7116855,51.5245676],[-0.7117501,51.5245881],[-0.711683,51.5247854],[-0.7119251,51.5256065],[-0.711961,51.5257281],[-0.7119235,51.5257837]]]}},
{"type":"Feature","properties":{"highway":"path","name":null,"category":"Shared path"},"geometry":{"type":"MultiLineString","coordinates":[[[-0.7105785,51.5252485],[-0.7108869,51.5252792]]]}},
{"type":"Feature","properties":{"highway":"path","name":null,"category":"Shared path"},"geometry":{"type":"MultiLineString","coordinates":[[[-0.7108869,51.5252792],[-0.7119251,51.5256065],[-0.7141831,51.526324],[-0.714338,51.5263732],[-0.7146017,51.526575]]]}},
{"type":"Feature","properties":{"highway":"footway","name":null,"category":"Footpath (pedestrian only)"},"geometry":{"type":"MultiLineString","coordinates":[[[-0.7066887,51.5193826],[-0.7068229,51.5191359]]]}},
{"type":"Feature","properties":{"highway":"footway","name":null,"category":"Footpath (pedestrian only)"},"geometry":{"type":"MultiLineString","coordinates":[[[-0.7025007,51.5253768],[-0.7024933,51.5254128]]]}},
{"type":"Feature","properties":{"highway":"footway","name":null,"category":"Footpath (pedestrian only)"},"geometry":{"type":"MultiLineString","coordinates":[[[-0.7024933,51.5254128],[-0.7024352,51.5257275],[-0.7024152,51.5263265]]]}},
{"type":"Feature","properties":{"highway":"footway","name":null,"category":"Footpath (pedestrian only)"},"geometry":{"type":"MultiLineString","coordinates":[[[-0.7028445,51.524157],[-0.7028172,51.5241108],[-0.7027939,51.5240614],[-0.7027879,51.5239742]]]}},
{"type":"Feature","properties":{"highway":"footway","name":null,"category":"Footpath (pedestrian only)"},"geometry":{"type":"MultiLineString","coordinates":[[[-0.7027042,51.5242925],[-0.7027255,51.5242909]]]}},
{"type":"Feature","properties":{"highway":"footway","name":null,"category":"Footpath (pedestrian only)"},"geometry":{"type":"MultiLineString","coordinates":[[[-0.7029764,51.5242736],[-0.7029081,51.5242247],[-0.7028445,51.524157],[-0.7026092,51.5240468]]]}},
{"type":"Feature","properties":{"highway":"footway","name":null,"category":"Footpath (pedestrian only)"},"geometry":{"type":"MultiLineString","coordinates":[[[-0.7030257,51.5240752],[-0.7030066,51.5240743]]]}},
{"type":"Feature","properties":{"highway":"footway","name":null,"category":"Footpath (pedestrian only)"},"geometry":{"type":"MultiLineString","coordinates":[[[-0.7027879,51.5239742],[-0.7027945,51.5239083]]]}},
{"type":"Feature","properties":{"highway":"footway","name":null,"category":"Footpath (pedestrian only)"},"geometry":{"type":"MultiLineString","coordinates":[[[-0.7030748,51.5242977],[-0.703071,51.5243137],[-0.7030563,51.524327],[-0.7030338,51.5243351],[-0.7030079,51.5243363],[-0.7029907,51.5243321],[-0.7029838,51.5243304],[-0.7029661,51.5243185],[-0.7029585,51.5243031],[-0.7029624,51.5242871],[-0.7029667,51.5242832],[-0.7029764,51.5242736],[-0.7029953,51.5242636],[-0.7030254,51.5242645],[-0.7030502,51.5242698],[-0.7030672,51.5242822],[-0.7030748,51.5242977]]]}},
{"type":"Feature","properties":{"highway":"footway","name":null,"category":"Footpath (pedestrian only)"},"geometry":{"type":"MultiLineString","coordinates":[[[-0.7105064,51.5237174],[-0.7109822,51.5236853],[-0.7115303,51.5236334]]]}},
{"type":"Feature","properties":{"highway":"path","name":null,"category":"Shared path"},"geometry":{"type":"MultiLineString","coordinates":[[[-0.7109822,51.5236853],[-0.710913,51.5234801]]]}},
{"type":"Feature","properties":{"highway":"footway","name":null,"category":"Footpath (pedestrian only)"},"geometry":{"type":"MultiLineString","coordinates":[[[-0.7007801,51.5240348],[-0.7008007,51.5240437],[-0.7008134,51.5240526],[-0.700828,51.5240662],[-0.7008347,51.5240767],[-0.7008344,51.5240887],[-0.7008319,51.5241008],[-0.7008091,51.5242328],[-0.7007865,51.5243876],[-0.7007781,51.5244342],[-0.7007243,51.5247818],[-0.7006641,51.5252994],[-0.7006426,51.5253391],[-0.7005856,51.5253754],[-0.7005266,51.5253891],[-0.7004596,51.5253749],[-0.7003865,51.5253224],[-0.7003375,51.5252982],[-0.7002678,51.5252729],[-0.7001893,51.5252527],[-0.7000544,51.5252184],[-0.6998259,51.5251592],[-0.6995912,51.5250971],[-0.6995183,51.5250746],[-0.6994501,51.5250501],[-0.6993974,51.5250166],[-0.6993615,51.5249871],[-0.699328,51.5249519],[-0.6993009,51.5249177],[-0.6992868,51.5248738],[-0.6992854,51.5247175],[-0.6992874,51.5246473],[-0.6992895,51.5245777],[-0.6992975,51.5243615]]]}},
{"type":"Feature","properties":{"highway":"path","name":null,"category":"Shared path"},"geometry":{"type":"MultiLineString","coordinates":[[[-0.7110703,51.5288207],[-0.7110073,51.5286615],[-0.7110885,51.5286486]]]}},
{"type":"Feature","properties":{"highway":"path","name":null,"category":"Shared path"},"geometry":{"type":"MultiLineString","coordinates":[[[-0.7067125,51.5263528],[-0.7067313,51.5263922]]]}},
{"type":"Feature","properties":{"highway":"path","name":null,"category":"Shared path"},"geometry":{"type":"MultiLineString","coordinates":[[[-0.7070587,51.5262848],[-0.7070772,51.5263243]]]}},
{"type":"Feature","properties":{"highway":"path","name":null,"category":"Shared path"},"geometry":{"type":"MultiLineString","coordinates":[[[-0.7069664,51.526303],[-0.7069853,51.5263423]]]}},
{"type":"Feature","properties":{"highway":"path","name":null,"category":"Shared path"},"geometry":{"type":"MultiLineString","coordinates":[[[-0.7067734,51.5263409],[-0.7067922,51.5263802]]]}},
{"type":"Feature","properties":{"highway":"path","name":null,"category":"Shared path"},"geometry":{"type":"MultiLineString","coordinates":[[[-0.7068652,51.5263228],[-0.7068838,51.5263618]]]}},
{"type":"Feature","properties":{"highway":"path","name":null,"category":"Shared path"},"geometry":{"type":"MultiLineString","coordinates":[[[-0.7068941,51.5263172],[-0.7068603,51.5262496]]]}},
{"type":"Feature","properties":{"highway":"path","name":null,"category":"Shared path"},"geometry":{"type":"MultiLineString","coordinates":[[[-0.7072048,51.526392],[-0.7070209,51.5264271]]]}},
{"type":"Feature","properties":{"highway":"path","name":null,"category":"Shared path"},"geometry":{"type":"MultiLineString","coordinates":[[[-0.7072318,51.5264449],[-0.7071564,51.5264596]]]}},
{"type":"Feature","properties":{"highway":"path","name":null,"category":"Shared path"},"geometry":{"type":"MultiLineString","coordinates":[[[-0.7072735,51.5265277],[-0.7072543,51.5264888],[-0.7072318,51.5264449],[-0.7072048,51.526392],[-0.7071416,51.5262686],[-0.7070587,51.5262848],[-0.7069664,51.526303],[-0.7068941,51.5263172],[-0.7068652,51.5263228],[-0.7067734,51.5263409],[-0.7067125,51.5263528]]]}},
{"type":"Feature","properties":{"highway":"path","name":null,"category":"Shared path"},"geometry":{"type":"MultiLineString","coordinates":[[[-0.7094253,51.5232834],[-0.7093625,51.5232881]]]}},
{"type":"Feature","properties":{"highway":"path","name":null,"category":"Shared path"},"geometry":{"type":"MultiLineString","coordinates":[[[-0.7093645,51.5228725],[-0.7094096,51.5228711]]]}},
{"type":"Feature","properties":{"highway":"path","name":null,"category":"Shared path"},"geometry":{"type":"MultiLineString","coordinates":[[[-0.7092075,51.522903],[-0.7093316,51.5228792]]]}},
{"type":"Feature","properties":{"highway":"path","name":null,"category":"Shared path"},"geometry":{"type":"MultiLineString","coordinates":[[[-0.7090512,51.5227578],[-0.709099,51.5228229],[-0.7091338,51.5228625],[-0.7092075,51.522903],[-0.7092203,51.5229101],[-0.7092419,51.5230032]]]}},
{"type":"Feature","properties":{"highway":"path","name":null,"category":"Shared path"},"geometry":{"type":"MultiLineString","coordinates":[[[-0.7101865,51.5252096],[-0.7105785,51.5252485]]]}},
{"type":"Feature","properties":{"highway":"footway","name":null,"category":"Footpath (pedestrian only)"},"geometry":{"type":"MultiLineString","coordinates":[[[-0.7025646,51.5250364],[-0.7025007,51.5253768]]]}},
{"type":"Feature","properties":{"highway":"footway","name":null,"category":"Footpath (pedestrian only)"},"geometry":{"type":"MultiLineString","coordinates":[[[-0.7174401,51.5230114],[-0.7173467,51.5229301],[-0.7172897,51.5229176]]]}},
{"type":"Feature","properties":{"highway":"footway","name":null,"category":"Footpath (pedestrian only)"},"geometry":{"type":"MultiLineString","coordinates":[[[-0.717134,51.523188],[-0.7171671,51.5234407]]]}},
{"type":"Feature","properties":{"highway":"footway","name":null,"category":"Footpath (pedestrian only)"},"geometry":{"type":"MultiLineString","coordinates":[[[-0.7171181,51.5230866],[-0.717134,51.523188]]]}},
{"type":"Feature","properties":{"highway":"path","name":null,"category":"Shared path"},"geometry":{"type":"MultiLineString","coordinates":[[[-0.7077752,51.5239863],[-0.707778,51.5240591]]]}},
{"type":"Feature","properties":{"highway":"path","name":null,"category":"Shared path"},"geometry":{"type":"MultiLineString","coordinates":[[[-0.7074205,51.5239969],[-0.7074246,51.5240624]]]}},
{"type":"Feature","properties":{"highway":"footway","name":null,"category":"Footpath (pedestrian only)"},"geometry":{"type":"MultiLineString","coordinates":[[[-0.7143132,51.5247124],[-0.7142497,51.5247164]]]}},
{"type":"Feature","properties":{"highway":"footway","name":null,"category":"Footpath (pedestrian only)"},"geometry":{"type":"MultiLineString","coordinates":[[[-0.7143132,51.5247124],[-0.7145526,51.5246952],[-0.7147162,51.5246835],[-0.7147839,51.5246783]]]}},
{"type":"Feature","properties":{"highway":"footway","name":null,"category":"Footpath (pedestrian only)"},"geometry":{"type":"MultiLineString","coordinates":[[[-0.7141931,51.5243369],[-0.7143065,51.5243298],[-0.7143373,51.5243532],[-0.7144734,51.5244746],[-0.7145199,51.5245404],[-0.7145526,51.5246952]]]}},
{"type":"Feature","properties":{"highway":"path","name":null,"category":"Shared path"},"geometry":{"type":"MultiLineString","coordinates":[[[-0.7130116,51.5240549],[-0.7130877,51.5239755]]]}},
{"type":"Feature","properties":{"highway":"footway","name":null,"category":"Footpath (pedestrian only)"},"geometry":{"type":"MultiLineString","coordinates":[[[-0.7121277,51.5274505],[-0.7121285,51.5274967],[-0.7121298,51.5275501],[-0.712081,51.5275746],[-0.7120346,51.5275914],[-0.712021,51.5275935],[-0.7113647,51.5276928],[-0.7113076,51.5277009],[-0.7112353,51.5277108],[-0.7111602,51.5276945],[-0.7109776,51.5276132]]]}},
{"type":"Feature","properties":{"highway":"path","name":null,"category":"Shared path"},"geometry":{"type":"MultiLineString","coordinates":[[[-0.7120105,51.5276632],[-0.7120058,51.5276453],[-0.7118107,51.5276715],[-0.711806,51.5276519],[-0.7120279,51.5276148],[-0.712021,51.5275935]]]}},
{"type":"Feature","properties":{"highway":"path","name":null,"category":"Shared path"},"geometry":{"type":"MultiLineString","coordinates":[[[-0.6998383,51.5256452],[-0.6997261,51.5255879],[-0.6997727,51.5255807],[-0.6998232,51.5255556],[-0.6998541,51.5255214],[-0.7000251,51.5252575]]]}},
{"type":"Feature","properties":{"highway":"footway","name":null,"category":"Footpath (pedestrian only)"},"geometry":{"type":"MultiLineString","coordinates":[[[-0.7106364,51.5274105],[-0.7104174,51.5276187],[-0.7101992,51.5276562]]]}},
{"type":"Feature","properties":{"highway":"track","name":null,"category":"Track"},"geometry":{"type":"MultiLineString","coordinates":[[[-0.6918576,51.5249488],[-0.6915749,51.5249343],[-0.69153,51.524932]]]}},
{"type":"Feature","properties":{"highway":"footway","name":null,"category":"Footpath (pedestrian only)"},"geometry":{"type":"MultiLineString","coordinates":[[[-0.7169216,51.5235226],[-0.716895,51.5235282],[-0.7168579,51.5235369],[-0.7168372,51.5236253],[-0.716788,51.5238356]]]}},
{"type":"Feature","properties":{"highway":"footway","name":null,"category":"Footpath (pedestrian only)"},"geometry":{"type":"MultiLineString","coordinates":[[[-0.7171432,51.5234813],[-0.7169216,51.5235226]]]}},
{"type":"Feature","properties":{"highway":"footway","name":null,"category":"Footpath (pedestrian only)"},"geometry":{"type":"MultiLineString","coordinates":[[[-0.7168118,51.5230733],[-0.7168445,51.523152]]]}},
{"type":"Feature","properties":{"highway":"footway","name":null,"category":"Footpath (pedestrian only)"},"geometry":{"type":"MultiLineString","coordinates":[[[-0.7168372,51.5236253],[-0.7168529,51.5236266]]]}},
{"type":"Feature","properties":{"highway":"footway","name":null,"category":"Footpath (pedestrian only)"},"geometry":{"type":"MultiLineString","coordinates":[[[-0.716895,51.5235282],[-0.7168851,51.5235744]]]}},
{"type":"Feature","properties":{"highway":"footway","name":null,"category":"Footpath (pedestrian only)"},"geometry":{"type":"MultiLineString","coordinates":[[[-0.7168734,51.523629],[-0.7168529,51.5236266]]]}},
{"type":"Feature","properties":{"highway":"footway","name":null,"category":"Footpath (pedestrian only)"},"geometry":{"type":"MultiLineString","coordinates":[[[-0.7168757,51.5236182],[-0.7168734,51.523629],[-0.7168254,51.5238526]]]}},
{"type":"Feature","properties":{"highway":"footway","name":null,"category":"Footpath (pedestrian only)"},"geometry":{"type":"MultiLineString","coordinates":[[[-0.7168254,51.5238526],[-0.7167615,51.5239845]]]}},
{"type":"Feature","properties":{"highway":"footway","name":null,"category":"Footpath (pedestrian only)"},"geometry":{"type":"MultiLineString","coordinates":[[[-0.716895,51.5235282],[-0.7169403,51.5233425],[-0.7168445,51.523152]]]}},
{"type":"Feature","properties":{"highway":"footway","name":null,"category":"Footpath (pedestrian only)"},"geometry":{"type":"MultiLineString","coordinates":[[[-0.7012005,51.5239936],[-0.7012832,51.5239892],[-0.701384,51.5239862],[-0.7025269,51.5239586],[-0.7025622,51.5239578],[-0.7026036,51.5239568],[-0.7027421,51.523956],[-0.7028293,51.5239635],[-0.7028912,51.5239734]]]}},
{"type":"Feature","properties":{"highway":"footway","name":null,"category":"Footpath (pedestrian only)"},"geometry":{"type":"MultiLineString","coordinates":[[[-0.7008134,51.5240526],[-0.7008455,51.5240507],[-0.7008582,51.5240497]]]}},
{"type":"Feature","properties":{"highway":"footway","name":null,"category":"Footpath (pedestrian only)"},"geometry":{"type":"MultiLineString","coordinates":[[[-0.7008582,51.5240497],[-0.7009262,51.5240458]]]}},
{"type":"Feature","properties":{"highway":"footway","name":null,"category":"Footpath (pedestrian only)"},"geometry":{"type":"MultiLineString","coordinates":[[[-0.7010885,51.5240123],[-0.7011174,51.5240052],[-0.7011542,51.5239986],[-0.7012005,51.5239936]]]}},
{"type":"Feature","properties":{"highway":"footway","name":null,"category":"Footpath (pedestrian only)"},"geometry":{"type":"MultiLineString","coordinates":[[[-0.7028912,51.5239734],[-0.7029533,51.5239856],[-0.7029881,51.5239932],[-0.7030346,51.5239988],[-0.7031171,51.5240054],[-0.7032029,51.5240104],[-0.70328,51.5240104],[-0.7033665,51.5240088],[-0.7034557,51.5240063],[-0.7034671,51.5240062],[-0.703504,51.5240059],[-0.7035261,51.5240092],[-0.7035429,51.5240192],[-0.7035576,51.5240371],[-0.703575,51.5240626],[-0.7035883,51.52408]]]}},
{"type":"Feature","properties":{"highway":"footway","name":null,"category":"Footpath (pedestrian only)"},"geometry":{"type":"MultiLineString","coordinates":[[[-0.6993713,51.5330893],[-0.6992604,51.5330785],[-0.6990479,51.5330578]]]}},
{"type":"Feature","properties":{"highway":"footway","name":null,"category":"Footpath (pedestrian only)"},"geometry":{"type":"MultiLineString","coordinates":[[[-0.6992604,51.5330785],[-0.6994077,51.5328044],[-0.699437,51.532691]]]}},
{"type":"Feature","properties":{"highway":"footway","name":null,"category":"Footpath (pedestrian only)"},"geometry":{"type":"MultiLineString","coordinates":[[[-0.7116855,51.5245676],[-0.7129137,51.52494],[-0.7130311,51.5251733],[-0.7129414,51.5256251],[-0.7132811,51.5258167],[-0.7141831,51.526324],[-0.7146304,51.5265755]]]}},
{"type":"Feature","properties":{"highway":"footway","name":null,"category":"Footpath (pedestrian only)"},"geometry":{"type":"MultiLineString","coordinates":[[[-0.6969073,51.5273955],[-0.6964187,51.5276364]]]}},
{"type":"Feature","properties":{"highway":"footway","name":null,"category":"Footpath (pedestrian only)"},"geometry":{"type":"MultiLineString","coordinates":[[[-0.7032624,51.5223426],[-0.7032542,51.5222992],[-0.7032374,51.5222101],[-0.7027914,51.5222395]]]}},
{"type":"Feature","properties":{"highway":"footway","name":null,"category":"Footpath (pedestrian only)"},"geometry":{"type":"MultiLineString","coordinates":[[[-0.7020596,51.5226753],[-0.7021224,51.5226755]]]}},
{"type":"Feature","properties":{"highway":"footway","name":null,"category":"Footpath (pedestrian only)"},"geometry":{"type":"MultiLineString","coordinates":[[[-0.7012464,51.5229069],[-0.7014116,51.522993],[-0.7015225,51.5229984]]]}},
{"type":"Feature","properties":{"highway":"footway","name":null,"category":"Footpath (pedestrian only)"},"geometry":{"type":"MultiLineString","coordinates":[[[-0.7034652,51.5232076],[-0.7033717,51.5232141],[-0.7028979,51.5232025],[-0.7028559,51.5229463],[-0.7033022,51.5229334],[-0.7033717,51.5232141]]]}},
{"type":"Feature","properties":{"highway":"footway","name":null,"category":"Footpath (pedestrian only)"},"geometry":{"type":"MultiLineString","coordinates":[[[-0.710872,51.5185759],[-0.7108359,51.5185412],[-0.7108219,51.5185274],[-0.710805,51.5185108],[-0.7108827,51.5184857],[-0.7108755,51.5184734],[-0.7108666,51.5184582],[-0.7108653,51.5184307]]]}},
{"type":"Feature","properties":{"highway":"footway","name":null,"category":"Footpath (pedestrian only)"},"geometry":{"type":"MultiLineString","coordinates":[[[-0.7103756,51.5238525],[-0.7103791,51.5238782],[-0.7103859,51.5239267],[-0.7104002,51.5240293]]]}},
{"type":"Feature","properties":{"highway":"footway","name":null,"category":"Footpath (pedestrian only)"},"geometry":{"type":"MultiLineString","coordinates":[[[-0.7104473,51.524056],[-0.710445,51.5240472],[-0.7104382,51.5240394],[-0.7104276,51.5240334],[-0.7104145,51.5240299],[-0.7104002,51.5240293],[-0.7103866,51.5240315],[-0.710375,51.5240364],[-0.7103665,51.5240433],[-0.710362,51.5240516],[-0.710362,51.5240603],[-0.7103666,51.5240685],[-0.7103751,51.5240754],[-0.7103868,51.5240803],[-0.7104004,51.5240825],[-0.7104143,51.5240819],[-0.7104273,51.5240785],[-0.7104379,51.5240726],[-0.7104449,51.5240648],[-0.7104473,51.524056]]]}},
{"type":"Feature","properties":{"highway":"footway","name":null,"category":"Footpath (pedestrian only)"},"geometry":{"type":"MultiLineString","coordinates":[[[-0.7104473,51.524056],[-0.7106389,51.5240478]]]}},
{"type":"Feature","properties":{"highway":"footway","name":null,"category":"Footpath (pedestrian only)"},"geometry":{"type":"MultiLineString","coordinates":[[[-0.7104143,51.5240819],[-0.7104217,51.5241631]]]}},
{"type":"Feature","properties":{"highway":"footway","name":null,"category":"Footpath (pedestrian only)"},"geometry":{"type":"MultiLineString","coordinates":[[[-0.710362,51.5240603],[-0.710169,51.5240717]]]}},
{"type":"Feature","properties":{"highway":"footway","name":null,"category":"Footpath (pedestrian only)"},"geometry":{"type":"MultiLineString","coordinates":[[[-0.7101538,51.5239377],[-0.7103859,51.5239267],[-0.7106203,51.5239157],[-0.7106389,51.5240478],[-0.7106574,51.5241795],[-0.7105016,51.5241909],[-0.7104758,51.5241679],[-0.7104217,51.5241631],[-0.7103857,51.5241653],[-0.7103556,51.5241903],[-0.7101837,51.5242013],[-0.710169,51.5240717],[-0.7101538,51.5239377]]]}},
{"type":"Feature","properties":{"highway":"track","name":null,"category":"Track"},"geometry":{"type":"MultiLineString","coordinates":[[[-0.7099391,51.5243378],[-0.7106393,51.5242941]]]}},
{"type":"Feature","properties":{"highway":"footway","name":null,"category":"Footpath (pedestrian only)"},"geometry":{"type":"MultiLineString","coordinates":[[[-0.7009306,51.5239124],[-0.70099,51.5239117]]]}},
{"type":"Feature","properties":{"highway":"footway","name":null,"category":"Footpath (pedestrian only)"},"geometry":{"type":"MultiLineString","coordinates":[[[-0.7013716,51.5239281],[-0.7014236,51.5239273],[-0.7016708,51.5239256],[-0.7027518,51.5238953],[-0.7028939,51.5238697]]]}},
{"type":"Feature","properties":{"highway":"footway","name":null,"category":"Footpath (pedestrian only)"},"geometry":{"type":"MultiLineString","coordinates":[[[-0.70099,51.5239117],[-0.7010878,51.523916]]]}},
{"type":"Feature","properties":{"highway":"footway","name":null,"category":"Footpath (pedestrian only)"},"geometry":{"type":"MultiLineString","coordinates":[[[-0.7011601,51.5239192],[-0.7013716,51.5239281]]]}},
{"type":"Feature","properties":{"highway":"footway","name":null,"category":"Footpath (pedestrian only)"},"geometry":{"type":"MultiLineString","coordinates":[[[-0.7010878,51.523916],[-0.7011601,51.5239192]]]}},
{"type":"Feature","properties":{"highway":"footway","name":null,"category":"Footpath (pedestrian only)"},"geometry":{"type":"MultiLineString","coordinates":[[[-0.7034671,51.5240062],[-0.7034848,51.5239621],[-0.7034894,51.523947],[-0.7034643,51.5239415],[-0.7034551,51.5238996],[-0.7034491,51.5238508]]]}},
{"type":"Feature","properties":{"highway":"footway","name":null,"category":"Footpath (pedestrian only)"},"geometry":{"type":"MultiLineString","coordinates":[[[-0.7037487,51.5241551],[-0.7036868,51.5241426],[-0.7036212,51.5241281]]]}},
{"type":"Feature","properties":{"highway":"footway","name":null,"category":"Footpath (pedestrian only)"},"geometry":{"type":"MultiLineString","coordinates":[[[-0.7009262,51.5240458],[-0.7009696,51.5240429],[-0.7010164,51.52404],[-0.7010377,51.5240372]]]}},
{"type":"Feature","properties":{"highway":"footway","name":null,"category":"Footpath (pedestrian only)"},"geometry":{"type":"MultiLineString","coordinates":[[[-0.7010377,51.5240372],[-0.7010523,51.524031],[-0.7010647,51.5240228],[-0.7010885,51.5240123]]]}},
{"type":"Feature","properties":{"highway":"footway","name":null,"category":"Footpath (pedestrian only)"},"geometry":{"type":"MultiLineString","coordinates":[[[-0.7106196,51.5187208],[-0.710559,51.5187193],[-0.710532,51.5187168],[-0.7104839,51.5187122],[-0.710435,51.5187076],[-0.7103041,51.5186997]]]}},
{"type":"Feature","properties":{"highway":"footway","name":null,"category":"Footpath (pedestrian only)"},"geometry":{"type":"MultiLineString","coordinates":[[[-0.7103041,51.5186997],[-0.7102916,51.5185495],[-0.7102859,51.5184931],[-0.7102755,51.5183909]]]}},
{"type":"Feature","properties":{"highway":"footway","name":null,"category":"Footpath (pedestrian only)"},"geometry":{"type":"MultiLineString","coordinates":[[[-0.7103041,51.5186997],[-0.7103019,51.5187316],[-0.7102997,51.5187752]]]}},
{"type":"Feature","properties":{"highway":"footway","name":null,"category":"Footpath (pedestrian only)"},"geometry":{"type":"MultiLineString","coordinates":[[[-0.7094762,51.5201437],[-0.7095067,51.5200861],[-0.7095316,51.5200491]]]}},
{"type":"Feature","properties":{"highway":"footway","name":null,"category":"Footpath (pedestrian only)"},"geometry":{"type":"MultiLineString","coordinates":[[[-0.7092167,51.5206537],[-0.709268,51.5206708],[-0.7093206,51.52069]]]}},
{"type":"Feature","properties":{"highway":"footway","name":null,"category":"Footpath (pedestrian only)"},"geometry":{"type":"MultiLineString","coordinates":[[[-0.7093206,51.52069],[-0.7095191,51.520512],[-0.7096067,51.5204119],[-0.709773,51.5201671],[-0.7098946,51.5199423],[-0.7100698,51.5195852],[-0.7103077,51.5191913],[-0.7105393,51.5188452]]]}},
{"type":"Feature","properties":{"highway":"footway","name":null,"category":"Footpath (pedestrian only)"},"geometry":{"type":"MultiLineString","coordinates":[[[-0.7102997,51.5187752],[-0.710244,51.5189174],[-0.7101843,51.5191568],[-0.7100731,51.5193523],[-0.7098857,51.5197198],[-0.709807,51.5198756],[-0.7097444,51.5199924],[-0.7096979,51.520028],[-0.7095316,51.5200491]]]}},
{"type":"Feature","properties":{"highway":"footway","name":null,"category":"Footpath (pedestrian only)"},"geometry":{"type":"MultiLineString","coordinates":[[[-0.7094762,51.5201437],[-0.7095084,51.5201749],[-0.7093814,51.5204664],[-0.7093029,51.5205715],[-0.7092167,51.5206537]]]}},
{"type":"Feature","properties":{"highway":"footway","name":null,"category":"Footpath (pedestrian only)"},"geometry":{"type":"MultiLineString","coordinates":[[[-0.7083353,51.5236101],[-0.7083228,51.5235544],[-0.708296,51.5235564]]]}},
{"type":"Feature","properties":{"highway":"footway","name":null,"category":"Footpath (pedestrian only)"},"geometry":{"type":"MultiLineString","coordinates":[[[-0.7083462,51.5240272],[-0.7083319,51.5240774]]]}},
{"type":"Feature","properties":{"highway":"footway","name":null,"category":"Footpath (pedestrian only)"},"geometry":{"type":"MultiLineString","coordinates":[[[-0.7081995,51.5240289],[-0.7082147,51.5239749],[-0.7082273,51.5239315]]]}},
{"type":"Feature","properties":{"highway":"footway","name":null,"category":"Footpath (pedestrian only)"},"geometry":{"type":"MultiLineString","coordinates":[[[-0.7082273,51.5239315],[-0.708258,51.5238892]]]}},
{"type":"Feature","properties":{"highway":"footway","name":null,"category":"Footpath (pedestrian only)"},"geometry":{"type":"MultiLineString","coordinates":[[[-0.7056937,51.5239151],[-0.7056559,51.523926],[-0.7053778,51.523931],[-0.7050935,51.5239444],[-0.7049343,51.5239505],[-0.7048905,51.5239577],[-0.7048557,51.5239755]]]}},
{"type":"Feature","properties":{"highway":"footway","name":null,"category":"Footpath (pedestrian only)"},"geometry":{"type":"MultiLineString","coordinates":[[[-0.7048557,51.5239755],[-0.7047652,51.5239756],[-0.7046733,51.5239806]]]}},
{"type":"Feature","properties":{"highway":"footway","name":null,"category":"Footpath (pedestrian only)"},"geometry":{"type":"MultiLineString","coordinates":[[[-0.7040152,51.5239883],[-0.7039053,51.5240123],[-0.7038355,51.5240529],[-0.7037801,51.5241091],[-0.7037487,51.5241551]]]}},
{"type":"Feature","properties":{"highway":"footway","name":null,"category":"Footpath (pedestrian only)"},"geometry":{"type":"MultiLineString","coordinates":[[[-0.7046733,51.5239806],[-0.7046277,51.5239577],[-0.7045052,51.5239633]]]}},
{"type":"Feature","properties":{"highway":"footway","name":null,"category":"Footpath (pedestrian only)"},"geometry":{"type":"MultiLineString","coordinates":[[[-0.7045052,51.5239633],[-0.704442,51.5239651],[-0.7043665,51.5239673]]]}},
{"type":"Feature","properties":{"highway":"footway","name":null,"category":"Footpath (pedestrian only)"},"geometry":{"type":"MultiLineString","coordinates":[[[-0.7043665,51.5239673],[-0.7042763,51.52397],[-0.7041699,51.5239733]]]}},
{"type":"Feature","properties":{"highway":"footway","name":null,"category":"Footpath (pedestrian only)"},"geometry":{"type":"MultiLineString","coordinates":[[[-0.7041699,51.5239733],[-0.7040753,51.5239794],[-0.7040152,51.5239883]]]}},
{"type":"Feature","properties":{"highway":"footway","name":null,"category":"Footpath (pedestrian only)"},"geometry":{"type":"MultiLineString","coordinates":[[[-0.7046794,51.5240179],[-0.7046733,51.5239806]]]}},
{"type":"Feature","properties":{"highway":"footway","name":null,"category":"Footpath (pedestrian only)"},"geometry":{"type":"MultiLineString","coordinates":[[[-0.7029255,51.5238375],[-0.7029291,51.5238664]]]}},
{"type":"Feature","properties":{"highway":"footway","name":null,"category":"Footpath (pedestrian only)"},"geometry":{"type":"MultiLineString","coordinates":[[[-0.7029917,51.5238631],[-0.7030298,51.5238617],[-0.7030641,51.5238609]]]}},
{"type":"Feature","properties":{"highway":"footway","name":null,"category":"Footpath (pedestrian only)"},"geometry":{"type":"MultiLineString","coordinates":[[[-0.7028939,51.5238697],[-0.7029291,51.5238664],[-0.7029917,51.5238631]]]}},
{"type":"Feature","properties":{"highway":"footway","name":null,"category":"Footpath (pedestrian only)"},"geometry":{"type":"MultiLineString","coordinates":[[[-0.7030641,51.5238609],[-0.7032802,51.5238558]]]}},
{"type":"Feature","properties":{"highway":"footway","name":null,"category":"Footpath (pedestrian only)"},"geometry":{"type":"MultiLineString","coordinates":[[[-0.7032802,51.5238558],[-0.7033211,51.5238548],[-0.7033733,51.5238532]]]}},
{"type":"Feature","properties":{"highway":"footway","name":null,"category":"Footpath (pedestrian only)"},"geometry":{"type":"MultiLineString","coordinates":[[[-0.7033733,51.5238532],[-0.7034491,51.5238508],[-0.7035367,51.523848],[-0.7035849,51.5238331]]]}},
{"type":"Feature","properties":{"highway":"footway","name":null,"category":"Footpath (pedestrian only)"},"geometry":{"type":"MultiLineString","coordinates":[[[-0.7035849,51.5238331],[-0.703637,51.5238169],[-0.7036838,51.5238079]]]}},
{"type":"Feature","properties":{"highway":"footway","name":null,"category":"Footpath (pedestrian only)"},"geometry":{"type":"MultiLineString","coordinates":[[[-0.7036838,51.5238079],[-0.7039138,51.5238091]]]}},
{"type":"Feature","properties":{"highway":"footway","name":null,"category":"Footpath (pedestrian only)"},"geometry":{"type":"MultiLineString","coordinates":[[[-0.7039138,51.5238091],[-0.7039407,51.5238092],[-0.7039976,51.5238093]]]}},
{"type":"Feature","properties":{"highway":"footway","name":null,"category":"Footpath (pedestrian only)"},"geometry":{"type":"MultiLineString","coordinates":[[[-0.7045307,51.523371],[-0.7045819,51.5233683],[-0.7046131,51.5233451],[-0.7046703,51.5233026],[-0.7050461,51.5232929],[-0.7052389,51.5233541]]]}},
{"type":"Feature","properties":{"highway":"footway","name":null,"category":"Footpath (pedestrian only)"},"geometry":{"type":"MultiLineString","coordinates":[[[-0.7153255,51.5235259],[-0.7153255,51.52346],[-0.7153443,51.5234224],[-0.7153993,51.5233899],[-0.7154556,51.5233757],[-0.7155347,51.5233707]]]}},
{"type":"Feature","properties":{"highway":"footway","name":null,"category":"Footpath (pedestrian only)"},"geometry":{"type":"MultiLineString","coordinates":[[[-0.7155146,51.5232847],[-0.7154503,51.5232906],[-0.7154087,51.5232889],[-0.7153751,51.5232747],[-0.7153564,51.5232113]]]}},
{"type":"Feature","properties":{"highway":"footway","name":null,"category":"Footpath (pedestrian only)"},"geometry":{"type":"MultiLineString","coordinates":[[[-0.7150636,51.5232343],[-0.7150717,51.5232777],[-0.7150328,51.5233228],[-0.71497,51.5233385]]]}},
{"type":"Feature","properties":{"highway":"footway","name":null,"category":"Footpath (pedestrian only)"},"geometry":{"type":"MultiLineString","coordinates":[[[-0.7149818,51.5234096],[-0.7150333,51.5234167],[-0.7150614,51.5234375],[-0.7150762,51.5234701]]]}}
]
}
