{
"type": "FeatureCollection",
"name": "BUCKI_1044_walking",
"crs": { "type": "name", "properties": { "name": "urn:ogc:def:crs:OGC:1.3:CRS84" } },
"features": [
{"type":"Feature","properties":{"highway":"footway","name":null,"category":"Footpath (pedestrian only)"},"geometry":{"type":"MultiLineString","coordinates":[[[-0.5232489,51.9057784],[-0.5232138,51.9057787],[-0.5231495,51.9057787],[-0.5230477,51.9057886],[-0.5229192,51.9058398],[-0.5223124,51.9060771]]]}},
{"type":"Feature","properties":{"highway":"footway","name":null,"category":"Footpath (pedestrian only)"},"geometry":{"type":"MultiLineString","coordinates":[[[-0.5210161,51.9095495],[-0.5206315,51.909613],[-0.5205883,51.9096172],[-0.5205485,51.9096273],[-0.5205128,51.9096459],[-0.5205019,51.9096747],[-0.5204525,51.9097077],[-0.5204127,51.9097255],[-0.5203648,51.9097407],[-0.5200787,51.9097934],[-0.5199772,51.9098121]]]}},
{"type":"Feature","properties":{"highway":"footway","name":null,"category":"Footpath (pedestrian only)"},"geometry":{"type":"MultiLineString","coordinates":[[[-0.5199949,51.909854],[-0.5190466,51.9101077]]]}},
{"type":"Feature","properties":{"highway":"footway","name":"Pedestrian Crossing","category":"Footpath (pedestrian only)"},"geometry":{"type":"MultiLineString","coordinates":[[[-0.5143991,51.90706],[-0.5143371,51.9070612],[-0.5142764,51.9070624]]]}},
{"type":"Feature","properties":{"highway":"footway","name":null,"category":"Footpath (pedestrian only)"},"geometry":{"type":"MultiLineString","coordinates":[[[-0.5142216,51.9075069],[-0.5142349,51.9074425],[-0.514241,51.9073855],[-0.514258,51.9072631],[-0.5142703,51.9071672],[-0.5142764,51.9070624]]]}},
{"type":"Feature","properties":{"highway":"footway","name":null,"category":"Footpath (pedestrian only)"},"geometry":{"type":"MultiLineString","coordinates":[[[-0.5143991,51.90706],[-0.5144057,51.9069955],[-0.5144072,51.9069736],[-0.5147579,51.9069907],[-0.5150272,51.9069926],[-0.5153118,51.9069841],[-0.5156656,51.9069736],[-0.5159478,51.9069668]]]}},
{"type":"Feature","properties":{"highway":"footway","name":null,"category":"Footpath (pedestrian only)"},"geometry":{"type":"MultiLineString","coordinates":[[[-0.5159478,51.9069668],[-0.5160405,51.9069443],[-0.516211,51.90692],[-0.5164646,51.9068898],[-0.5167906,51.9068385],[-0.5171166,51.9067839]]]}},
{"type":"Feature","properties":{"highway":"footway","name":null,"category":"Footpath (pedestrian only)"},"geometry":{"type":"MultiLineString","coordinates":[[[-0.5171166,51.9067839],[-0.5175705,51.9066945],[-0.5176898,51.9066768],[-0.5177738,51.9066624],[-0.5178091,51.9066525],[-0.5177862,51.9066079]]]}},
{"type":"Feature","properties":{"highway":"footway","name":null,"category":"Footpath (pedestrian only)"},"geometry":{"type":"MultiLineString","coordinates":[[[-0.5177862,51.9066079],[-0.51793,51.9065202],[-0.5180967,51.9064346],[-0.5183195,51.9062909],[-0.5186278,51.906173]]]}},
{"type":"Feature","properties":{"highway":"footway","name":null,"category":"Footpath (pedestrian only)"},"geometry":{"type":"MultiLineString","coordinates":[[[-0.5186278,51.906173],[-0.5192155,51.9059987],[-0.5193261,51.9059755],[-0.5194519,51.9059459],[-0.5194439,51.9059249],[-0.5194324,51.9058931],[-0.5194067,51.9058614],[-0.5193681,51.9058296],[-0.5193266,51.9057926],[-0.5193081,51.9057688]]]}},
{"type":"Feature","properties":{"highway":"footway","name":null,"category":"Footpath (pedestrian only)"},"geometry":{"type":"MultiLineString","coordinates":[[[-0.5193081,51.9057688],[-0.5192828,51.9057306],[-0.5192581,51.9056891],[-0.5192353,51.9056317],[-0.5192205,51.9055981],[-0.5191868,51.905562]]]}},
{"type":"Feature","properties":{"highway":"footway","name":null,"category":"Footpath (pedestrian only)"},"geometry":{"type":"MultiLineString","coordinates":[[[-0.5191868,51.905562],[-0.5190442,51.9056216]]]}},
{"type":"Feature","properties":{"highway":"footway","name":null,"category":"Footpath (pedestrian only)"},"geometry":{"type":"MultiLineString","coordinates":[[[-0.5106556,51.9078688],[-0.5108294,51.9078377],[-0.5110061,51.9077978],[-0.5112592,51.9077391],[-0.5113619,51.9077193],[-0.5115271,51.9076874],[-0.5117298,51.9076483],[-0.51203,51.9075903],[-0.5124704,51.9075351],[-0.5133286,51.9075145],[-0.5142216,51.9075069]]]}},
{"type":"Feature","properties":{"highway":"footway","name":null,"category":"Footpath (pedestrian only)"},"geometry":{"type":"MultiLineString","coordinates":[[[-0.5103525,51.912723],[-0.5108981,51.9124962],[-0.5112712,51.9123423],[-0.5114587,51.912249],[-0.5117964,51.9120909],[-0.5119163,51.9120334],[-0.5120581,51.9119654],[-0.5121219,51.9119348],[-0.512277,51.9118398],[-0.5124643,51.9117291],[-0.5125795,51.9116519],[-0.512673,51.9115928],[-0.5126814,51.9115834],[-0.5127544,51.9115019],[-0.5128105,51.9114347],[-0.5128512,51.9113459],[-0.5129101,51.9112343],[-0.5129546,51.9111498],[-0.5131119,51.91086],[-0.5131538,51.910792],[-0.5131898,51.9107335],[-0.5132516,51.9106375],[-0.5133869,51.9104651],[-0.5134741,51.9103708],[-0.5134804,51.910364],[-0.5136201,51.910248],[-0.5137543,51.9101387],[-0.5138687,51.9100349],[-0.5141535,51.9097716],[-0.5142954,51.9095973],[-0.5143143,51.9095649],[-0.5143296,51.9095102],[-0.5143365,51.9093563],[-0.5143347,51.9092413],[-0.514271,51.9087118],[-0.5142668,51.9086454],[-0.5142652,51.9086208],[-0.5142538,51.9085055],[-0.5142252,51.9083573],[-0.5142281,51.9082268],[-0.5142452,51.9080628],[-0.5142853,51.90786],[-0.514391,51.9072938],[-0.5143917,51.907274],[-0.5143991,51.90706]]]}},
{"type":"Feature","properties":{"highway":"footway","name":null,"category":"Footpath (pedestrian only)"},"geometry":{"type":"MultiLineString","coordinates":[[[-0.5106888,51.9079845],[-0.510754,51.9079749],[-0.5108651,51.9079557],[-0.5110385,51.9078518],[-0.5113619,51.9077193]]]}},
{"type":"Feature","properties":{"highway":"footway","name":null,"category":"Footpath (pedestrian only)"},"geometry":{"type":"MultiLineString","coordinates":[[[-0.5110385,51.9078518],[-0.5110061,51.9077978]]]}},
{"type":"Feature","properties":{"highway":"footway","name":null,"category":"Footpath (pedestrian only)"},"geometry":{"type":"MultiLineString","coordinates":[[[-0.5115271,51.9076874],[-0.5115778,51.9079477]]]}},
{"type":"Feature","properties":{"highway":"footway","name":null,"category":"Footpath (pedestrian only)"},"geometry":{"type":"MultiLineString","coordinates":[[[-0.5117298,51.9076483],[-0.5116863,51.9076217],[-0.5116505,51.9075914],[-0.511629,51.9075575],[-0.5116182,51.9075148],[-0.5116467,51.9074444]]]}},
{"type":"Feature","properties":{"highway":"footway","name":null,"category":"Footpath (pedestrian only)"},"geometry":{"type":"MultiLineString","coordinates":[[[-0.5200409,51.9047462],[-0.5202039,51.9047111],[-0.5202159,51.9047085]]]}},
{"type":"Feature","properties":{"highway":"footway","name":null,"category":"Footpath (pedestrian only)"},"geometry":{"type":"MultiLineString","coordinates":[[[-0.5194519,51.9059459],[-0.5194803,51.9059799]]]}},
{"type":"Feature","properties":{"highway":"footway","name":null,"category":"Footpath (pedestrian only)"},"geometry":{"type":"MultiLineString","coordinates":[[[-0.510053,51.9078236],[-0.5100978,51.9075191],[-0.5101127,51.9074178],[-0.5101432,51.9072294],[-0.5101887,51.9069486],[-0.5102027,51.9068619],[-0.5102477,51.9065843]]]}},
{"type":"Feature","properties":{"highway":"footway","name":null,"category":"Footpath (pedestrian only)"},"geometry":{"type":"MultiLineString","coordinates":[[[-0.5093866,51.9068216],[-0.5094642,51.9068173],[-0.5102027,51.9068619]]]}},
{"type":"Feature","properties":{"highway":"footway","name":null,"category":"Footpath (pedestrian only)"},"geometry":{"type":"MultiLineString","coordinates":[[[-0.5195702,51.9054127],[-0.5197055,51.9053704],[-0.5197422,51.9054071]]]}},
{"type":"Feature","properties":{"highway":"footway","name":null,"category":"Footpath (pedestrian only)"},"geometry":{"type":"MultiLineString","coordinates":[[[-0.5195173,51.9057425],[-0.5195445,51.9057334]]]}},
{"type":"Feature","properties":{"highway":"footway","name":null,"category":"Footpath (pedestrian only)"},"geometry":{"type":"MultiLineString","coordinates":[[[-0.5196529,51.9059956],[-0.5196817,51.9060056],[-0.5197565,51.9059972],[-0.5198473,51.9059819],[-0.5199299,51.9059628],[-0.5200094,51.9059393],[-0.5200723,51.9059176]]]}},
{"type":"Feature","properties":{"highway":"footway","name":null,"category":"Footpath (pedestrian only)"},"geometry":{"type":"MultiLineString","coordinates":[[[-0.520417,51.9058528],[-0.5209605,51.9065073]]]}},
{"type":"Feature","properties":{"highway":"footway","name":null,"category":"Footpath (pedestrian only)"},"geometry":{"type":"MultiLineString","coordinates":[[[-0.5144689,51.9066333],[-0.5144191,51.9065682],[-0.5144694,51.9064564],[-0.5146416,51.9062202],[-0.5148687,51.9060317],[-0.514943,51.90597],[-0.5153813,51.905581],[-0.5154982,51.9054773],[-0.5157272,51.9052741],[-0.5160193,51.9050149],[-0.5162641,51.9048259],[-0.5163205,51.9047823],[-0.5165406,51.904724],[-0.5166164,51.9047029],[-0.5168099,51.9047041],[-0.5170533,51.904703],[-0.5173772,51.9046939],[-0.5174967,51.9046906],[-0.5181261,51.9046551],[-0.5184929,51.9047498],[-0.5186595,51.9049243],[-0.5187079,51.905068],[-0.5187229,51.9050909],[-0.5187608,51.9051441],[-0.5188474,51.9052381],[-0.5189645,51.9053559],[-0.5191868,51.905562]]]}},
{"type":"Feature","properties":{"highway":"path","name":null,"category":"Shared path"},"geometry":{"type":"MultiLineString","coordinates":[[[-0.5093225,51.9015224],[-0.5093449,51.9015124],[-0.5094292,51.9015117],[-0.5094737,51.901511],[-0.5096865,51.9015357],[-0.5100344,51.9015501],[-0.5100955,51.9015503],[-0.5103741,51.9015512],[-0.5106206,51.9015442],[-0.5107867,51.9015314],[-0.5109703,51.9015257],[-0.511089,51.901507],[-0.5111722,51.901495],[-0.5112982,51.9014808],[-0.5114789,51.9014281],[-0.5116577,51.9013499],[-0.511759,51.9013003],[-0.5119089,51.9012556],[-0.511939,51.9012461],[-0.5120506,51.9012239],[-0.5121786,51.9012096],[-0.5123033,51.901227],[-0.51244,51.9012459],[-0.5126165,51.901286],[-0.512787,51.9013365],[-0.5128838,51.9013809],[-0.5129902,51.9014297],[-0.5130444,51.9014562],[-0.5131061,51.9014863],[-0.5131731,51.9015254],[-0.5132377,51.9015845],[-0.5132509,51.9015966],[-0.5133287,51.9016955],[-0.513804,51.9024933],[-0.5138531,51.9026584],[-0.5138827,51.9027806],[-0.5139317,51.9028551],[-0.5140559,51.902913],[-0.5140889,51.9029272],[-0.5142209,51.9029763],[-0.5142979,51.9030113],[-0.5144934,51.9030875],[-0.5145252,51.9031069],[-0.5146885,51.9031753],[-0.5152587,51.9034065]]]}},
{"type":"Feature","properties":{"highway":"path","name":null,"category":"Shared path"},"geometry":{"type":"MultiLineString","coordinates":[[[-0.5152861,51.9034179],[-0.5153376,51.9034376]]]}},
{"type":"Feature","properties":{"highway":"path","name":null,"category":"Shared path"},"geometry":{"type":"MultiLineString","coordinates":[[[-0.5152587,51.9034065],[-0.5152763,51.9034067],[-0.5152861,51.9034179]]]}},
{"type":"Feature","properties":{"highway":"path","name":null,"category":"Shared path"},"geometry":{"type":"MultiLineString","coordinates":[[[-0.5138531,51.9026584],[-0.5139028,51.9026094],[-0.5139545,51.902574],[-0.5140042,51.9025333],[-0.514047,51.9024974],[-0.514217,51.9024104],[-0.5144962,51.9022849],[-0.5147548,51.9021675],[-0.5148122,51.9021418],[-0.5148643,51.902122],[-0.5155492,51.9018584],[-0.5156298,51.9018349],[-0.5165491,51.9015667],[-0.5165833,51.9015595],[-0.5168382,51.9015441]]]}},
{"type":"Feature","properties":{"highway":"path","name":null,"category":"Shared path"},"geometry":{"type":"MultiLineString","coordinates":[[[-0.5144962,51.9022849],[-0.5146167,51.9023781],[-0.5150194,51.9026943],[-0.5145252,51.9031069]]]}},
{"type":"Feature","properties":{"highway":"path","name":null,"category":"Shared path"},"geometry":{"type":"MultiLineString","coordinates":[[[-0.5145252,51.9031069],[-0.5143596,51.9032479],[-0.5141858,51.90339],[-0.5141201,51.9034374],[-0.5140736,51.9034704]]]}},
{"type":"Feature","properties":{"highway":"path","name":null,"category":"Shared path"},"geometry":{"type":"MultiLineString","coordinates":[[[-0.5136567,51.9030945],[-0.5136593,51.9031102],[-0.5136702,51.9031245],[-0.5136881,51.9031358],[-0.5137111,51.9031428],[-0.5137365,51.9031448],[-0.5137616,51.9031414],[-0.5137834,51.9031331],[-0.5137965,51.9031239],[-0.5138053,51.9031129],[-0.5138092,51.9031009],[-0.513808,51.9030886],[-0.5138017,51.903077],[-0.5137907,51.9030668],[-0.5137709,51.9030567],[-0.5137468,51.9030513],[-0.5137212,51.9030511],[-0.5136969,51.9030561],[-0.5136766,51.9030658],[-0.5136627,51.9030791],[-0.5136567,51.9030945]]]}},
{"type":"Feature","properties":{"highway":"path","name":null,"category":"Shared path"},"geometry":{"type":"MultiLineString","coordinates":[[[-0.5137907,51.9030668],[-0.5140559,51.902913]]]}},
{"type":"Feature","properties":{"highway":"path","name":null,"category":"Shared path"},"geometry":{"type":"MultiLineString","coordinates":[[[-0.5141858,51.90339],[-0.5141628,51.9033783],[-0.5141373,51.9033713],[-0.5140991,51.9033704],[-0.5140632,51.903378],[-0.5137834,51.9031331]]]}},
{"type":"Feature","properties":{"highway":"path","name":null,"category":"Shared path"},"geometry":{"type":"MultiLineString","coordinates":[[[-0.5140454,51.9031055],[-0.5140308,51.9031271],[-0.5140285,51.9031506],[-0.5140387,51.9031732],[-0.5140604,51.9031925],[-0.5140911,51.9032064],[-0.5141274,51.9032133],[-0.5141655,51.9032126],[-0.514201,51.9032041],[-0.5142301,51.903189],[-0.5142493,51.9031694],[-0.5142573,51.9031471],[-0.5142534,51.9031244],[-0.514238,51.9031036],[-0.5142126,51.903087],[-0.514179,51.9030759],[-0.5141414,51.9030723],[-0.5141039,51.9030764],[-0.5140707,51.9030879],[-0.5140454,51.9031055]]]}},
{"type":"Feature","properties":{"highway":"path","name":null,"category":"Shared path"},"geometry":{"type":"MultiLineString","coordinates":[[[-0.5142126,51.903087],[-0.5142979,51.9030113],[-0.5143473,51.9029575]]]}},
{"type":"Feature","properties":{"highway":"path","name":null,"category":"Shared path"},"geometry":{"type":"MultiLineString","coordinates":[[[-0.5142301,51.903189],[-0.5143596,51.9032479]]]}},
{"type":"Feature","properties":{"highway":"path","name":null,"category":"Shared path"},"geometry":{"type":"MultiLineString","coordinates":[[[-0.514047,51.9024974],[-0.513966,51.9025005],[-0.5138963,51.9024977],[-0.5138744,51.9024975],[-0.5138464,51.9024935],[-0.513804,51.9024933]]]}},
{"type":"Feature","properties":{"highway":"path","name":null,"category":"Shared path"},"geometry":{"type":"MultiLineString","coordinates":[[[-0.5145729,51.8989033],[-0.5146327,51.8989066],[-0.5147226,51.8989153],[-0.5147939,51.8989237],[-0.5148523,51.8989315],[-0.5149238,51.8989465],[-0.515003,51.8989654],[-0.5150401,51.8990122],[-0.515423,51.8997701],[-0.5155867,51.900028],[-0.5161767,51.9006224],[-0.516211,51.9006638],[-0.5165397,51.9009966],[-0.5166717,51.9011917],[-0.5167009,51.9013426],[-0.5166699,51.9014935],[-0.5166553,51.9015172],[-0.5166304,51.9015361],[-0.5165833,51.9015595]]]}},
{"type":"Feature","properties":{"highway":"path","name":null,"category":"Shared path"},"geometry":{"type":"MultiLineString","coordinates":[[[-0.5169466,51.9004478],[-0.5164761,51.9006206],[-0.516211,51.9006638]]]}},
{"type":"Feature","properties":{"highway":"path","name":null,"category":"Shared path"},"geometry":{"type":"MultiLineString","coordinates":[[[-0.515003,51.8989654],[-0.5149621,51.8987051]]]}},
{"type":"Feature","properties":{"highway":"path","name":null,"category":"Shared path"},"geometry":{"type":"MultiLineString","coordinates":[[[-0.5119194,51.9036774],[-0.511855,51.9035694],[-0.5117699,51.9034726],[-0.5116224,51.9034829],[-0.5114581,51.9035255],[-0.5113917,51.9035139],[-0.5111812,51.9034511],[-0.511153,51.9034349],[-0.5111309,51.9034171],[-0.5111175,51.9033989],[-0.5111114,51.9033774],[-0.5111242,51.9032111],[-0.5110779,51.9031544],[-0.510986,51.9031131],[-0.5108935,51.9030125],[-0.5107949,51.9029563],[-0.5107004,51.9028719],[-0.5106421,51.9027933],[-0.5106038,51.9027581],[-0.5105147,51.9027291],[-0.5104215,51.9027151],[-0.510343,51.9026824],[-0.5103249,51.9026481],[-0.510337,51.9026042],[-0.510341,51.902567],[-0.5103229,51.9025624],[-0.5102458,51.9025591],[-0.5101928,51.9025426],[-0.5101774,51.9025268],[-0.510162,51.9023539],[-0.5101385,51.9023349],[-0.5100124,51.9022894],[-0.5099159,51.9022095],[-0.5098589,51.902145],[-0.5098394,51.9021173],[-0.509818,51.902068],[-0.5098146,51.9020407],[-0.5098757,51.9019377],[-0.5098649,51.9017259],[-0.5098016,51.9016564],[-0.5097477,51.9016027],[-0.5096865,51.9015357]]]}},
{"type":"Feature","properties":{"highway":"path","name":null,"category":"Shared path"},"geometry":{"type":"MultiLineString","coordinates":[[[-0.5117699,51.9034726],[-0.5118044,51.9034505],[-0.5118176,51.9034053],[-0.5118227,51.9032862],[-0.5118684,51.9032003],[-0.511843,51.9030692],[-0.511907,51.9029545],[-0.5118816,51.9029319],[-0.5116123,51.9028911],[-0.5115483,51.9028548],[-0.5115473,51.9027695],[-0.5115991,51.9026635],[-0.5116062,51.9025669],[-0.5116184,51.9025406],[-0.511716,51.9024641],[-0.511715,51.9024334],[-0.511656,51.9023255],[-0.5116408,51.9022641],[-0.5116235,51.9022509],[-0.5114619,51.9021901],[-0.5113572,51.9021349],[-0.5113318,51.9021004],[-0.5112688,51.902059],[-0.5112505,51.9019555],[-0.5111844,51.9019229],[-0.5109893,51.9018634],[-0.5109041,51.9017717],[-0.5109413,51.9016333],[-0.5109703,51.9015257]]]}},
{"type":"Feature","properties":{"highway":"path","name":null,"category":"Shared path"},"geometry":{"type":"MultiLineString","coordinates":[[[-0.5140736,51.9034704],[-0.5140377,51.9034873]]]}},
{"type":"Feature","properties":{"highway":"footway","name":null,"category":"Footpath (pedestrian only)"},"geometry":{"type":"MultiLineString","coordinates":[[[-0.5249274,51.9053823],[-0.5246726,51.9049349],[-0.5244623,51.9044995],[-0.5243537,51.9042482],[-0.5242124,51.9039003],[-0.5240643,51.9036638],[-0.5238604,51.9034175],[-0.5236901,51.9032117]]]}},
{"type":"Feature","properties":{"highway":"footway","name":null,"category":"Footpath (pedestrian only)"},"geometry":{"type":"MultiLineString","coordinates":[[[-0.5185176,51.9004187],[-0.5188483,51.9002915],[-0.5191499,51.9001703]]]}},
{"type":"Feature","properties":{"highway":"footway","name":null,"category":"Footpath (pedestrian only)"},"geometry":{"type":"MultiLineString","coordinates":[[[-0.5188009,51.9002469],[-0.5188483,51.9002915]]]}},
{"type":"Feature","properties":{"highway":"footway","name":null,"category":"Footpath (pedestrian only)"},"geometry":{"type":"MultiLineString","coordinates":[[[-0.5167607,51.9002151],[-0.5173125,51.9000083],[-0.5173948,51.8999476],[-0.5175443,51.899885],[-0.5182714,51.8995933]]]}},
{"type":"Feature","properties":{"highway":"footway","name":null,"category":"Footpath (pedestrian only)"},"geometry":{"type":"MultiLineString","coordinates":[[[-0.5189738,51.9022099],[-0.51878,51.9023693],[-0.5187603,51.9024246],[-0.518651,51.9024708],[-0.5188026,51.9026275],[-0.518905,51.9025929],[-0.5190478,51.9027685],[-0.5190862,51.9028215]]]}},
{"type":"Feature","properties":{"highway":"footway","name":null,"category":"Footpath (pedestrian only)"},"geometry":{"type":"MultiLineString","coordinates":[[[-0.5188026,51.9026275],[-0.5185722,51.9026962],[-0.5184816,51.9026834],[-0.518392,51.9026986],[-0.5183181,51.9026452]]]}},
{"type":"Feature","properties":{"highway":"footway","name":null,"category":"Footpath (pedestrian only)"},"geometry":{"type":"MultiLineString","coordinates":[[[-0.5175491,51.9016253],[-0.5170819,51.9017423],[-0.5170387,51.9017531]]]}},
{"type":"Feature","properties":{"highway":"footway","name":null,"category":"Footpath (pedestrian only)"},"geometry":{"type":"MultiLineString","coordinates":[[[-0.517739,51.9018641],[-0.5172403,51.9019834],[-0.5170819,51.9017423]]]}},
{"type":"Feature","properties":{"highway":"footway","name":null,"category":"Footpath (pedestrian only)"},"geometry":{"type":"MultiLineString","coordinates":[[[-0.5199621,51.9046671],[-0.5199314,51.9046116],[-0.5198917,51.9045399]]]}},
{"type":"Feature","properties":{"highway":"footway","name":null,"category":"Footpath (pedestrian only)"},"geometry":{"type":"MultiLineString","coordinates":[[[-0.5207366,51.9044673],[-0.5206894,51.9044088],[-0.5206384,51.9043455]]]}},
{"type":"Feature","properties":{"highway":"footway","name":null,"category":"Footpath (pedestrian only)"},"geometry":{"type":"MultiLineString","coordinates":[[[-0.5211393,51.9045252],[-0.5212193,51.9044786],[-0.5212842,51.9044408]]]}},
{"type":"Feature","properties":{"highway":"footway","name":null,"category":"Footpath (pedestrian only)"},"geometry":{"type":"MultiLineString","coordinates":[[[-0.5218338,51.9038122],[-0.5218875,51.9038621],[-0.5219355,51.9039066]]]}},
{"type":"Feature","properties":{"highway":"footway","name":null,"category":"Footpath (pedestrian only)"},"geometry":{"type":"MultiLineString","coordinates":[[[-0.5213393,51.903877],[-0.5213738,51.9038455],[-0.5214228,51.9038009]]]}},
{"type":"Feature","properties":{"highway":"footway","name":null,"category":"Footpath (pedestrian only)"},"geometry":{"type":"MultiLineString","coordinates":[[[-0.5234166,51.9030412],[-0.5233458,51.9030671],[-0.5232766,51.9030925]]]}},
{"type":"Feature","properties":{"highway":"footway","name":null,"category":"Footpath (pedestrian only)"},"geometry":{"type":"MultiLineString","coordinates":[[[-0.5236973,51.9030777],[-0.5237386,51.9031255],[-0.5237895,51.9031701]]]}},
{"type":"Feature","properties":{"highway":"footway","name":null,"category":"Footpath (pedestrian only)"},"geometry":{"type":"MultiLineString","coordinates":[[[-0.5238992,51.9037502],[-0.5239234,51.9037013],[-0.5240643,51.9036638]]]}},
{"type":"Feature","properties":{"highway":"footway","name":null,"category":"Footpath (pedestrian only)"},"geometry":{"type":"MultiLineString","coordinates":[[[-0.5244623,51.9044995],[-0.522661,51.9050988]]]}},
{"type":"Feature","properties":{"highway":"footway","name":null,"category":"Footpath (pedestrian only)"},"geometry":{"type":"MultiLineString","coordinates":[[[-0.5212423,51.9070627],[-0.5213635,51.9072491],[-0.5215395,51.9075199],[-0.5217335,51.9078184]]]}},
{"type":"Feature","properties":{"highway":"footway","name":null,"category":"Footpath (pedestrian only)"},"geometry":{"type":"MultiLineString","coordinates":[[[-0.5215395,51.9075199],[-0.521639,51.9075187],[-0.52181,51.9074651],[-0.5218648,51.9074934]]]}},
{"type":"Feature","properties":{"highway":"footway","name":null,"category":"Footpath (pedestrian only)"},"geometry":{"type":"MultiLineString","coordinates":[[[-0.5224411,51.9079083],[-0.5224488,51.9079653],[-0.5226439,51.9081539],[-0.5226871,51.9081957],[-0.5227664,51.9082724]]]}},
{"type":"Feature","properties":{"highway":"footway","name":null,"category":"Footpath (pedestrian only)"},"geometry":{"type":"MultiLineString","coordinates":[[[-0.5226439,51.9081539],[-0.5232795,51.9078917],[-0.5233613,51.9077927],[-0.5234096,51.9077826]]]}},
{"type":"Feature","properties":{"highway":"footway","name":null,"category":"Footpath (pedestrian only)"},"geometry":{"type":"MultiLineString","coordinates":[[[-0.5226871,51.9081957],[-0.5219375,51.9085227],[-0.521855,51.9086038],[-0.5217963,51.9087651],[-0.5218961,51.9088965]]]}},
{"type":"Feature","properties":{"highway":"footway","name":null,"category":"Footpath (pedestrian only)"},"geometry":{"type":"MultiLineString","coordinates":[[[-0.5191329,51.9072717],[-0.5192342,51.9072564],[-0.5193976,51.9072806],[-0.5195084,51.9072352],[-0.5195496,51.9072747]]]}},
{"type":"Feature","properties":{"highway":"footway","name":null,"category":"Footpath (pedestrian only)"},"geometry":{"type":"MultiLineString","coordinates":[[[-0.51832,51.9074738],[-0.5184333,51.9074672],[-0.5186773,51.9077554],[-0.5188763,51.9079091],[-0.5191433,51.9081921]]]}},
{"type":"Feature","properties":{"highway":"footway","name":null,"category":"Footpath (pedestrian only)"},"geometry":{"type":"MultiLineString","coordinates":[[[-0.5192746,51.9081513],[-0.5191433,51.9081921]]]}},
{"type":"Feature","properties":{"highway":"footway","name":null,"category":"Footpath (pedestrian only)"},"geometry":{"type":"MultiLineString","coordinates":[[[-0.5183996,51.9080512],[-0.5188763,51.9079091]]]}},
{"type":"Feature","properties":{"highway":"footway","name":null,"category":"Footpath (pedestrian only)"},"geometry":{"type":"MultiLineString","coordinates":[[[-0.5144694,51.9064564],[-0.514399,51.9064388]]]}},
{"type":"Feature","properties":{"highway":"footway","name":null,"category":"Footpath (pedestrian only)"},"geometry":{"type":"MultiLineString","coordinates":[[[-0.5142206,51.9063151],[-0.5141853,51.9062715],[-0.5139619,51.9062737],[-0.5137049,51.9062361]]]}},
{"type":"Feature","properties":{"highway":"footway","name":null,"category":"Footpath (pedestrian only)"},"geometry":{"type":"MultiLineString","coordinates":[[[-0.5135441,51.9062944],[-0.5135907,51.9063813],[-0.5135872,51.9064973]]]}},
{"type":"Feature","properties":{"highway":"footway","name":null,"category":"Footpath (pedestrian only)"},"geometry":{"type":"MultiLineString","coordinates":[[[-0.5142538,51.9085055],[-0.5141664,51.9085081],[-0.5140949,51.9085117]]]}},
{"type":"Feature","properties":{"highway":"footway","name":null,"category":"Footpath (pedestrian only)"},"geometry":{"type":"MultiLineString","coordinates":[[[-0.5140949,51.9085117],[-0.5140791,51.9085379],[-0.5139549,51.9085609],[-0.5136677,51.9085735],[-0.5124905,51.9086253]]]}},
{"type":"Feature","properties":{"highway":"footway","name":null,"category":"Footpath (pedestrian only)"},"geometry":{"type":"MultiLineString","coordinates":[[[-0.5188206,51.9102618],[-0.5187172,51.9103145],[-0.5182168,51.9104533],[-0.5181429,51.9105037],[-0.5181373,51.9105596],[-0.518228,51.9106963],[-0.5178351,51.9108192],[-0.5177949,51.9108778]]]}},
{"type":"Feature","properties":{"highway":"footway","name":null,"category":"Footpath (pedestrian only)"},"geometry":{"type":"MultiLineString","coordinates":[[[-0.5091029,51.9031364],[-0.5093284,51.9033255],[-0.5093631,51.9034504],[-0.509467,51.9035348],[-0.5094101,51.903603]]]}},
{"type":"Feature","properties":{"highway":"footway","name":null,"category":"Footpath (pedestrian only)"},"geometry":{"type":"MultiLineString","coordinates":[[[-0.5222851,51.9090354],[-0.5223817,51.9089785],[-0.5225319,51.9089429],[-0.5225949,51.9089487],[-0.52267,51.9089801],[-0.5226874,51.9090082],[-0.5226928,51.9090901],[-0.5227317,51.9091117],[-0.5227853,51.9091117],[-0.5228524,51.9090951],[-0.5229235,51.9091026],[-0.5229583,51.909129]]]}},
{"type":"Feature","properties":{"highway":"footway","name":null,"category":"Footpath (pedestrian only)"},"geometry":{"type":"MultiLineString","coordinates":[[[-0.5233211,51.8996871],[-0.5230787,51.8992978],[-0.5229351,51.8990151],[-0.5229816,51.8989648],[-0.5228108,51.8981384]]]}},
{"type":"Feature","properties":{"highway":"footway","name":null,"category":"Footpath (pedestrian only)"},"geometry":{"type":"MultiLineString","coordinates":[[[-0.5173688,51.8957804],[-0.5174259,51.895824],[-0.5175375,51.8959093],[-0.5175883,51.895948]]]}},
{"type":"Feature","properties":{"highway":"footway","name":null,"category":"Footpath (pedestrian only)"},"geometry":{"type":"MultiLineString","coordinates":[[[-0.5167503,51.895623],[-0.5166577,51.8956706],[-0.516606,51.8956946],[-0.5164857,51.8956978],[-0.5164109,51.8956912],[-0.5163618,51.8956869]]]}},
{"type":"Feature","properties":{"highway":"footway","name":null,"category":"Footpath (pedestrian only)"},"geometry":{"type":"MultiLineString","coordinates":[[[-0.5166719,51.8964888],[-0.5167568,51.8964803],[-0.5168291,51.8964731],[-0.5169072,51.8964653]]]}},
{"type":"Feature","properties":{"highway":"footway","name":null,"category":"Footpath (pedestrian only)"},"geometry":{"type":"MultiLineString","coordinates":[[[-0.5159506,51.8964133],[-0.5159976,51.8964472],[-0.5161048,51.8965244],[-0.5161612,51.8965651]]]}},
{"type":"Feature","properties":{"highway":"footway","name":null,"category":"Footpath (pedestrian only)"},"geometry":{"type":"MultiLineString","coordinates":[[[-0.5144517,51.8969896],[-0.5144142,51.8969453],[-0.5143901,51.8969113],[-0.5142267,51.8969282],[-0.5142221,51.8968851],[-0.514217,51.8968365]]]}},
{"type":"Feature","properties":{"highway":"footway","name":null,"category":"Footpath (pedestrian only)"},"geometry":{"type":"MultiLineString","coordinates":[[[-0.5106122,51.9068097],[-0.5106853,51.9068133],[-0.5107399,51.9068161]]]}},
{"type":"Feature","properties":{"highway":"footway","name":null,"category":"Footpath (pedestrian only)"},"geometry":{"type":"MultiLineString","coordinates":[[[-0.5196889,51.9047202],[-0.5195874,51.9047338],[-0.5195256,51.9047421]]]}},
{"type":"Feature","properties":{"highway":"footway","name":null,"category":"Footpath (pedestrian only)"},"geometry":{"type":"MultiLineString","coordinates":[[[-0.5190677,51.9048021],[-0.5191518,51.904789],[-0.5192224,51.9047779]]]}},
{"type":"Feature","properties":{"highway":"footway","name":null,"category":"Footpath (pedestrian only)"},"geometry":{"type":"MultiLineString","coordinates":[[[-0.5201189,51.9044321],[-0.5201754,51.9044177],[-0.5202124,51.9044083]]]}},
{"type":"Feature","properties":{"highway":"footway","name":null,"category":"Footpath (pedestrian only)"},"geometry":{"type":"MultiLineString","coordinates":[[[-0.5211969,51.9041096],[-0.5212503,51.9040813],[-0.5212873,51.9040616]]]}},
{"type":"Feature","properties":{"highway":"footway","name":null,"category":"Footpath (pedestrian only)"},"geometry":{"type":"MultiLineString","coordinates":[[[-0.5214573,51.9037608],[-0.5215235,51.903727],[-0.5215469,51.903715]]]}},
{"type":"Feature","properties":{"highway":"footway","name":null,"category":"Footpath (pedestrian only)"},"geometry":{"type":"MultiLineString","coordinates":[[[-0.5214228,51.9038009],[-0.5214573,51.9037608]]]}},
{"type":"Feature","properties":{"highway":"footway","name":null,"category":"Footpath (pedestrian only)"},"geometry":{"type":"MultiLineString","coordinates":[[[-0.5215469,51.903715],[-0.5219644,51.9035673]]]}},
{"type":"Feature","properties":{"highway":"footway","name":null,"category":"Footpath (pedestrian only)"},"geometry":{"type":"MultiLineString","coordinates":[[[-0.5219644,51.9035673],[-0.5220323,51.9035465],[-0.5220758,51.9035333]]]}},
{"type":"Feature","properties":{"highway":"footway","name":null,"category":"Footpath (pedestrian only)"},"geometry":{"type":"MultiLineString","coordinates":[[[-0.5217825,51.9030711],[-0.5217557,51.9030418],[-0.5217108,51.9029929]]]}},
{"type":"Feature","properties":{"highway":"path","name":null,"category":"Shared path"},"geometry":{"type":"MultiLineString","coordinates":[[[-0.5225319,51.9089429],[-0.522557,51.9088283],[-0.5230444,51.9086122],[-0.5234484,51.9083938],[-0.523545,51.9083179],[-0.5235943,51.9082791],[-0.5240849,51.9079897],[-0.5241553,51.9077061],[-0.5241198,51.9076581],[-0.5240465,51.9075591]]]}},
{"type":"Feature","properties":{"highway":"footway","name":null,"category":"Footpath (pedestrian only)"},"geometry":{"type":"MultiLineString","coordinates":[[[-0.5230144,51.9052912],[-0.5230388,51.9053228],[-0.5230656,51.9053576]]]}},
{"type":"Feature","properties":{"highway":"footway","name":null,"category":"Footpath (pedestrian only)"},"geometry":{"type":"MultiLineString","coordinates":[[[-0.5217929,51.9013225],[-0.5217679,51.9012929],[-0.5217505,51.9012723]]]}},
{"type":"Feature","properties":{"highway":"footway","name":null,"category":"Footpath (pedestrian only)"},"geometry":{"type":"MultiLineString","coordinates":[[[-0.5205679,51.9000702],[-0.5205912,51.9000946],[-0.5206175,51.9001221]]]}},
{"type":"Feature","properties":{"highway":"footway","name":null,"category":"Footpath (pedestrian only)"},"geometry":{"type":"MultiLineString","coordinates":[[[-0.5212884,51.9097912],[-0.5213076,51.9098414],[-0.5213282,51.9098949]]]}},
{"type":"Feature","properties":{"highway":"footway","name":null,"category":"Footpath (pedestrian only)"},"geometry":{"type":"MultiLineString","coordinates":[[[-0.5202357,51.9077816],[-0.5202121,51.9077049],[-0.5201949,51.907649]]]}},
{"type":"Feature","properties":{"highway":"footway","name":null,"category":"Footpath (pedestrian only)"},"geometry":{"type":"MultiLineString","coordinates":[[[-0.5201912,51.9072557],[-0.5202139,51.9073132],[-0.5202394,51.907378]]]}},
{"type":"Feature","properties":{"highway":"footway","name":null,"category":"Footpath (pedestrian only)"},"geometry":{"type":"MultiLineString","coordinates":[[[-0.5199558,51.907067],[-0.5199772,51.9071157],[-0.5199984,51.9071642]]]}},
{"type":"Feature","properties":{"highway":"footway","name":null,"category":"Footpath (pedestrian only)"},"geometry":{"type":"MultiLineString","coordinates":[[[-0.51965,51.906341],[-0.5196658,51.9063383],[-0.5197172,51.9063295],[-0.5197571,51.9063224],[-0.5197729,51.9063195]]]}},
{"type":"Feature","properties":{"highway":"footway","name":null,"category":"Footpath (pedestrian only)"},"geometry":{"type":"MultiLineString","coordinates":[[[-0.5197149,51.9065171],[-0.5197285,51.906558],[-0.5197464,51.906612]]]}},
{"type":"Feature","properties":{"highway":"footway","name":null,"category":"Footpath (pedestrian only)"},"geometry":{"type":"MultiLineString","coordinates":[[[-0.5169383,51.9084176],[-0.5168422,51.9084339],[-0.5167232,51.908454]]]}},
{"type":"Feature","properties":{"highway":"path","name":null,"category":"Shared path"},"geometry":{"type":"MultiLineString","coordinates":[[[-0.511939,51.9012461],[-0.512153,51.9010695],[-0.5124388,51.9008822],[-0.512475,51.9008585],[-0.5125668,51.9007247],[-0.5128157,51.900362],[-0.5128222,51.9003512],[-0.5130337,51.9000037],[-0.513194,51.8998772],[-0.5138756,51.899477],[-0.5141469,51.8992046],[-0.514458,51.8990048],[-0.5147226,51.8989153]]]}},
{"type":"Feature","properties":{"highway":"path","name":null,"category":"Shared path"},"geometry":{"type":"MultiLineString","coordinates":[[[-0.5117803,51.9010617],[-0.5112494,51.9008085],[-0.5107957,51.9006357]]]}},
{"type":"Feature","properties":{"highway":"path","name":null,"category":"Shared path"},"geometry":{"type":"MultiLineString","coordinates":[[[-0.5126467,51.9012173],[-0.5128146,51.9012922],[-0.513156,51.9014445],[-0.5132392,51.9014816],[-0.5136151,51.9016492],[-0.5137761,51.901697],[-0.5140952,51.9017916],[-0.5144573,51.9018859],[-0.5145565,51.901924],[-0.5147932,51.9021123],[-0.5148122,51.9021418]]]}},
{"type":"Feature","properties":{"highway":"path","name":null,"category":"Shared path"},"geometry":{"type":"MultiLineString","coordinates":[[[-0.5133287,51.9016955],[-0.5136151,51.9016492]]]}},
{"type":"Feature","properties":{"highway":"path","name":null,"category":"Shared path"},"geometry":{"type":"MultiLineString","coordinates":[[[-0.5147932,51.9021123],[-0.514806,51.9020315],[-0.5146745,51.9017916],[-0.5146155,51.9017287],[-0.5145997,51.9017143],[-0.5141393,51.9012958],[-0.5140923,51.9012677],[-0.5136225,51.9008956],[-0.5133361,51.9006688],[-0.5132083,51.9005969],[-0.512856,51.900399],[-0.5128222,51.9003512],[-0.512636,51.9000877],[-0.5124793,51.899816]]]}},
{"type":"Feature","properties":{"highway":"path","name":null,"category":"Shared path"},"geometry":{"type":"MultiLineString","coordinates":[[[-0.5125668,51.9007247],[-0.5127269,51.900638],[-0.5128974,51.9005705],[-0.5131087,51.9005773],[-0.5132083,51.9005969]]]}},
{"type":"Feature","properties":{"highway":"path","name":null,"category":"Shared path"},"geometry":{"type":"MultiLineString","coordinates":[[[-0.5145395,51.9011674],[-0.5146873,51.9016932],[-0.5145997,51.9017143]]]}},
{"type":"Feature","properties":{"highway":"path","name":null,"category":"Shared path"},"geometry":{"type":"MultiLineString","coordinates":[[[-0.5137761,51.901697],[-0.514411,51.9017759],[-0.5145997,51.9017143]]]}},
{"type":"Feature","properties":{"highway":"path","name":null,"category":"Shared path"},"geometry":{"type":"MultiLineString","coordinates":[[[-0.5156298,51.9018349],[-0.5155268,51.9018306],[-0.5150869,51.9018123],[-0.5146745,51.9017916],[-0.514411,51.9017759]]]}},
{"type":"Feature","properties":{"highway":"path","name":null,"category":"Shared path"},"geometry":{"type":"MultiLineString","coordinates":[[[-0.5148643,51.902122],[-0.5150869,51.9018123],[-0.5151969,51.9015492],[-0.5151862,51.9013887],[-0.5150976,51.9009915],[-0.5149984,51.90073],[-0.5144196,51.8997303],[-0.5144311,51.8997296]]]}},
{"type":"Feature","properties":{"highway":"path","name":null,"category":"Shared path"},"geometry":{"type":"MultiLineString","coordinates":[[[-0.5144311,51.8997296],[-0.5148241,51.8999455],[-0.5149608,51.9001391],[-0.5150279,51.9004519],[-0.5151701,51.9008257],[-0.5151835,51.9008607],[-0.515272,51.901195],[-0.5151862,51.9013887],[-0.5146873,51.9016932]]]}},
{"type":"Feature","properties":{"highway":"path","name":null,"category":"Shared path"},"geometry":{"type":"MultiLineString","coordinates":[[[-0.5151969,51.9015492],[-0.5152934,51.901665],[-0.5154276,51.9017892],[-0.5155268,51.9018306]]]}},
{"type":"Feature","properties":{"highway":"path","name":null,"category":"Shared path"},"geometry":{"type":"MultiLineString","coordinates":[[[-0.5146167,51.9023781],[-0.5147548,51.9021675]]]}},
{"type":"Feature","properties":{"highway":"path","name":null,"category":"Shared path"},"geometry":{"type":"MultiLineString","coordinates":[[[-0.5126467,51.9012173],[-0.512153,51.9010695],[-0.5118326,51.9010628],[-0.5117803,51.9010617],[-0.5113923,51.9010558],[-0.5112487,51.9010702],[-0.5111792,51.9010983],[-0.5111245,51.9011205],[-0.5111722,51.901495]]]}},
{"type":"Feature","properties":{"highway":"path","name":null,"category":"Shared path"},"geometry":{"type":"MultiLineString","coordinates":[[[-0.5118326,51.9010628],[-0.5115694,51.9011541],[-0.5111792,51.9010983]]]}},
{"type":"Feature","properties":{"highway":"path","name":null,"category":"Shared path"},"geometry":{"type":"MultiLineString","coordinates":[[[-0.5144196,51.8997303],[-0.5142169,51.8996914],[-0.5140345,51.8996715],[-0.5139607,51.899675],[-0.5138253,51.8996815],[-0.5136482,51.8996914],[-0.513482,51.8997559],[-0.5133183,51.8998255],[-0.513194,51.8998772],[-0.5130233,51.8999446],[-0.512849,51.9000406],[-0.512636,51.9000877],[-0.5121784,51.9002872],[-0.5118699,51.9003997],[-0.5115829,51.9004676],[-0.5107957,51.9006357],[-0.5105492,51.9006894],[-0.5102569,51.9006728],[-0.5099577,51.9009705],[-0.5098599,51.9010678],[-0.5095541,51.9012513],[-0.5094737,51.901511]]]}},
{"type":"Feature","properties":{"highway":"path","name":null,"category":"Shared path"},"geometry":{"type":"MultiLineString","coordinates":[[[-0.5151701,51.9008257],[-0.5150976,51.9009915],[-0.514999,51.9010527],[-0.5147952,51.9011305],[-0.5145395,51.9011674],[-0.5142373,51.9012828],[-0.5141393,51.9012958],[-0.5140012,51.9013142],[-0.5135962,51.901344],[-0.513438,51.9013755],[-0.5132392,51.9014816],[-0.5131731,51.9015254]]]}},
{"type":"Feature","properties":{"highway":"path","name":null,"category":"Shared path"},"geometry":{"type":"MultiLineString","coordinates":[[[-0.513438,51.9013755],[-0.5135587,51.9012199],[-0.5136225,51.9008956]]]}},
{"type":"Feature","properties":{"highway":"path","name":null,"category":"Shared path"},"geometry":{"type":"MultiLineString","coordinates":[[[-0.5138454,51.8994068],[-0.5138756,51.899477],[-0.5139607,51.899675]]]}},
{"type":"Feature","properties":{"highway":"path","name":null,"category":"Shared path"},"geometry":{"type":"MultiLineString","coordinates":[[[-0.5145395,51.9011674],[-0.5144492,51.900927],[-0.5144196,51.8997303]]]}},
{"type":"Feature","properties":{"highway":"path","name":null,"category":"Shared path"},"geometry":{"type":"MultiLineString","coordinates":[[[-0.5144311,51.8997296],[-0.5144551,51.8990961],[-0.514458,51.8990048],[-0.5144596,51.8989537]]]}},
{"type":"Feature","properties":{"highway":"path","name":null,"category":"Shared path"},"geometry":{"type":"MultiLineString","coordinates":[[[-0.5148241,51.8999455],[-0.514643,51.899654],[-0.5144551,51.8990961]]]}},
{"type":"Feature","properties":{"highway":"path","name":null,"category":"Shared path"},"geometry":{"type":"MultiLineString","coordinates":[[[-0.5215093,51.898405],[-0.5216559,51.8983191],[-0.5223357,51.8976292],[-0.5225876,51.8972703],[-0.5227835,51.8967306]]]}},
{"type":"Feature","properties":{"highway":"footway","name":null,"category":"Footpath (pedestrian only)"},"geometry":{"type":"MultiLineString","coordinates":[[[-0.5133361,51.8923628],[-0.5136817,51.8926803],[-0.5143337,51.8932996],[-0.5167503,51.895623],[-0.5169006,51.8957424],[-0.5171184,51.8957892],[-0.5173688,51.8957804]]]}},
{"type":"Feature","properties":{"highway":"footway","name":null,"category":"Footpath (pedestrian only)"},"geometry":{"type":"MultiLineString","coordinates":[[[-0.515869,51.8960901],[-0.515922,51.8960401],[-0.5159379,51.8960252],[-0.5159636,51.8959553]]]}},
{"type":"Feature","properties":{"highway":"footway","name":null,"category":"Footpath (pedestrian only)"},"geometry":{"type":"MultiLineString","coordinates":[[[-0.5173688,51.8957804],[-0.5176191,51.8957245],[-0.518671,51.8952634],[-0.5195123,51.8948717],[-0.5205418,51.8943993],[-0.521213,51.8940851]]]}},
{"type":"Feature","properties":{"highway":"footway","name":null,"category":"Footpath (pedestrian only)"},"geometry":{"type":"MultiLineString","coordinates":[[[-0.5130061,51.8932495],[-0.512522,51.8934945],[-0.5123351,51.893597],[-0.51208,51.8937369],[-0.5115031,51.8940408],[-0.5107114,51.8945083],[-0.510439,51.8946359],[-0.5101092,51.8947904],[-0.5095508,51.895039],[-0.5086254,51.8953789],[-0.5085756,51.8953799],[-0.5084465,51.8954304],[-0.5083538,51.8955032],[-0.5083217,51.8955834],[-0.508288,51.8956302],[-0.5082644,51.8956864],[-0.5082644,51.8957562],[-0.5083015,51.895778],[-0.5085617,51.8960402],[-0.5087439,51.8961651],[-0.5089598,51.8964108],[-0.5090305,51.896483],[-0.5093543,51.8968249],[-0.509449,51.896925],[-0.5096666,51.8971051],[-0.5096805,51.8971105],[-0.5097999,51.8971571],[-0.5103363,51.8972258],[-0.5105076,51.8972253],[-0.5106686,51.8972248],[-0.5110768,51.897204],[-0.5116925,51.8970957],[-0.5122998,51.8970114],[-0.5131111,51.8969354],[-0.5135808,51.8968902],[-0.5137926,51.8968698],[-0.514217,51.8968365],[-0.5145837,51.8967772],[-0.5151664,51.8966613],[-0.5154106,51.8965928],[-0.5159506,51.8964133],[-0.5160067,51.8963288],[-0.515983,51.89623],[-0.5159274,51.8961436],[-0.515869,51.8960901]]]}},
{"type":"Feature","properties":{"highway":"footway","name":null,"category":"Footpath (pedestrian only)"},"geometry":{"type":"MultiLineString","coordinates":[[[-0.5166719,51.8964888],[-0.516619,51.8964553],[-0.5165094,51.8964605],[-0.5161612,51.8965651]]]}},
{"type":"Feature","properties":{"highway":"footway","name":null,"category":"Footpath (pedestrian only)"},"geometry":{"type":"MultiLineString","coordinates":[[[-0.5169072,51.8964653],[-0.5170002,51.8964215],[-0.5172667,51.8963814],[-0.5173435,51.8963601],[-0.5175126,51.8962659],[-0.5175779,51.8961558],[-0.5175709,51.8960019],[-0.5175883,51.895948]]]}},
{"type":"Feature","properties":{"highway":"footway","name":null,"category":"Footpath (pedestrian only)"},"geometry":{"type":"MultiLineString","coordinates":[[[-0.5175883,51.895948],[-0.5176548,51.8958648],[-0.5181928,51.89559],[-0.5183085,51.8955354],[-0.5184661,51.8954609],[-0.5187242,51.8953849],[-0.5188034,51.8953745],[-0.5189139,51.895323],[-0.5190109,51.8952777],[-0.5190413,51.8951955],[-0.5192716,51.8950932]]]}},
{"type":"Feature","properties":{"highway":"footway","name":null,"category":"Footpath (pedestrian only)"},"geometry":{"type":"MultiLineString","coordinates":[[[-0.518657,51.9045448],[-0.5187928,51.9045505],[-0.5189333,51.9045564]]]}},
{"type":"Feature","properties":{"highway":"footway","name":null,"category":"Footpath (pedestrian only)"},"geometry":{"type":"MultiLineString","coordinates":[[[-0.518109,51.9043908],[-0.5183504,51.9045248],[-0.518657,51.9045448]]]}},
{"type":"Feature","properties":{"highway":"footway","name":null,"category":"Footpath (pedestrian only)"},"geometry":{"type":"MultiLineString","coordinates":[[[-0.5189333,51.9045564],[-0.5189806,51.9046327],[-0.5191009,51.9046447],[-0.5198917,51.9045399],[-0.5201189,51.9044321]]]}},
{"type":"Feature","properties":{"highway":"footway","name":null,"category":"Footpath (pedestrian only)"},"geometry":{"type":"MultiLineString","coordinates":[[[-0.519316,51.9055211],[-0.519075,51.9052725],[-0.5190227,51.9052543],[-0.5189046,51.9051326],[-0.5188336,51.9050391],[-0.5188263,51.9049213],[-0.5188644,51.9048521],[-0.5190677,51.9048021]]]}},
{"type":"Feature","properties":{"highway":"footway","name":null,"category":"Footpath (pedestrian only)"},"geometry":{"type":"MultiLineString","coordinates":[[[-0.5192224,51.9047779],[-0.5195256,51.9047421]]]}},
{"type":"Feature","properties":{"highway":"footway","name":null,"category":"Footpath (pedestrian only)"},"geometry":{"type":"MultiLineString","coordinates":[[[-0.5196889,51.9047202],[-0.5199621,51.9046671],[-0.5202685,51.9045956],[-0.5204698,51.9045404],[-0.5207366,51.9044673],[-0.5209163,51.9044219],[-0.5211393,51.9045252]]]}},
{"type":"Feature","properties":{"highway":"footway","name":null,"category":"Footpath (pedestrian only)"},"geometry":{"type":"MultiLineString","coordinates":[[[-0.5202124,51.9044083],[-0.5204268,51.9044012],[-0.5206384,51.9043455],[-0.520919,51.9042531],[-0.5211684,51.9041472],[-0.5211969,51.9041096]]]}},
{"type":"Feature","properties":{"highway":"footway","name":null,"category":"Footpath (pedestrian only)"},"geometry":{"type":"MultiLineString","coordinates":[[[-0.5212842,51.9044408],[-0.5211979,51.9043491],[-0.5211966,51.904287],[-0.5213119,51.9042092],[-0.521607,51.9040528],[-0.5216268,51.904044],[-0.5219355,51.9039066],[-0.5221209,51.9038352],[-0.5226068,51.9036482],[-0.5231205,51.903443],[-0.5233484,51.9033519],[-0.5234917,51.9032946],[-0.5236901,51.9032117],[-0.5237895,51.9031701]]]}},
{"type":"Feature","properties":{"highway":"footway","name":null,"category":"Footpath (pedestrian only)"},"geometry":{"type":"MultiLineString","coordinates":[[[-0.5234166,51.9030412],[-0.5235086,51.903087],[-0.5236641,51.9030845],[-0.5236973,51.9030777],[-0.5240529,51.9029565]]]}},
{"type":"Feature","properties":{"highway":"footway","name":null,"category":"Footpath (pedestrian only)"},"geometry":{"type":"MultiLineString","coordinates":[[[-0.5232766,51.9030925],[-0.52329,51.9031991],[-0.5230057,51.9033522],[-0.5218338,51.9038122],[-0.521677,51.903881],[-0.5215938,51.9038786],[-0.5214228,51.9038009]]]}},
{"type":"Feature","properties":{"highway":"footway","name":null,"category":"Footpath (pedestrian only)"},"geometry":{"type":"MultiLineString","coordinates":[[[-0.5213393,51.903877],[-0.5212873,51.9040616]]]}},
{"type":"Feature","properties":{"highway":"footway","name":null,"category":"Footpath (pedestrian only)"},"geometry":{"type":"MultiLineString","coordinates":[[[-0.5237895,51.9031701],[-0.5239173,51.9031232],[-0.5242875,51.9029871],[-0.5244243,51.9029369],[-0.5246144,51.9028652],[-0.5248688,51.9027693],[-0.5254006,51.9025597],[-0.5256011,51.9025453]]]}},
{"type":"Feature","properties":{"highway":"footway","name":null,"category":"Footpath (pedestrian only)"},"geometry":{"type":"MultiLineString","coordinates":[[[-0.5208957,51.9045462],[-0.5211393,51.9045252]]]}},
{"type":"Feature","properties":{"highway":"footway","name":null,"category":"Footpath (pedestrian only)"},"geometry":{"type":"MultiLineString","coordinates":[[[-0.5213158,51.8992286],[-0.5213867,51.8991891],[-0.5209447,51.8987417]]]}},
{"type":"Feature","properties":{"highway":"path","name":null,"category":"Shared path"},"geometry":{"type":"MultiLineString","coordinates":[[[-0.5119194,51.9036774],[-0.5119407,51.9037047],[-0.5119538,51.9037214]]]}},
{"type":"Feature","properties":{"highway":"path","name":null,"category":"Shared path"},"geometry":{"type":"MultiLineString","coordinates":[[[-0.5132377,51.9015845],[-0.5131247,51.9017474],[-0.5131214,51.901753],[-0.5126594,51.9025166],[-0.5119407,51.9037047]]]}},
{"type":"Feature","properties":{"highway":"path","name":null,"category":"Shared path"},"geometry":{"type":"MultiLineString","coordinates":[[[-0.5133287,51.9016955],[-0.5131214,51.901753]]]}},
{"type":"Feature","properties":{"highway":"path","name":null,"category":"Shared path"},"geometry":{"type":"MultiLineString","coordinates":[[[-0.513804,51.9024933],[-0.5126594,51.9025166]]]}},
{"type":"Feature","properties":{"highway":"footway","name":null,"category":"Footpath (pedestrian only)"},"geometry":{"type":"MultiLineString","coordinates":[[[-0.5159636,51.8959553],[-0.5160892,51.895904],[-0.5162852,51.8957704],[-0.5163556,51.8957088],[-0.5163618,51.8956869]]]}},
{"type":"Feature","properties":{"highway":"path","name":null,"category":"Shared path"},"geometry":{"type":"MultiLineString","coordinates":[[[-0.513156,51.9014445],[-0.5130444,51.9014562],[-0.5129562,51.9014648],[-0.5127526,51.9014471],[-0.5125955,51.901445],[-0.5123293,51.9014752],[-0.5121213,51.9015041],[-0.5119231,51.9015019],[-0.5118275,51.9015379],[-0.51167,51.90161],[-0.5113816,51.9015729],[-0.5109413,51.9016333]]]}},
{"type":"Feature","properties":{"highway":"path","name":null,"category":"Shared path"},"geometry":{"type":"MultiLineString","coordinates":[[[-0.515081,51.8986625],[-0.5149621,51.8987051],[-0.5147634,51.8987759],[-0.5145729,51.8989033],[-0.5144596,51.8989537],[-0.5143126,51.8990271],[-0.5141359,51.8991551],[-0.5139976,51.8992689],[-0.5138454,51.8994068],[-0.5136737,51.8995651],[-0.5134817,51.8996528],[-0.5132764,51.8997091],[-0.5130475,51.8997555],[-0.5128144,51.8997744],[-0.5126556,51.8997871],[-0.5124793,51.899816],[-0.5123688,51.8998535],[-0.5121306,51.8999816],[-0.5119103,51.9000703],[-0.5115825,51.9001161],[-0.511457,51.9001366],[-0.5111804,51.9003531],[-0.5109525,51.9004227],[-0.5106529,51.9004985],[-0.5104787,51.9005317],[-0.5103558,51.9005918],[-0.5102569,51.9006728]]]}},
{"type":"Feature","properties":{"highway":"path","name":null,"category":"Shared path"},"geometry":{"type":"MultiLineString","coordinates":[[[-0.5099577,51.9009705],[-0.5097624,51.9009492],[-0.5094873,51.9009288],[-0.5092758,51.9009477],[-0.5090153,51.900999],[-0.5088564,51.9010684],[-0.5084552,51.9012463]]]}},
{"type":"Feature","properties":{"highway":"path","name":null,"category":"Shared path"},"geometry":{"type":"MultiLineString","coordinates":[[[-0.5098649,51.9017259],[-0.5098888,51.9016842],[-0.5100172,51.9016088],[-0.5100955,51.9015503]]]}},
{"type":"Feature","properties":{"highway":"footway","name":null,"category":"Footpath (pedestrian only)"},"geometry":{"type":"MultiLineString","coordinates":[[[-0.5164565,51.9046454],[-0.5165406,51.904724]]]}},
{"type":"Feature","properties":{"highway":"footway","name":null,"category":"Footpath (pedestrian only)"},"geometry":{"type":"MultiLineString","coordinates":[[[-0.5230144,51.9052912],[-0.5229481,51.9053123],[-0.522661,51.9050988],[-0.5225126,51.9050253],[-0.5223495,51.9049635],[-0.5221957,51.9049235],[-0.5219028,51.9048229],[-0.521762,51.90476],[-0.5215544,51.9046594],[-0.5212842,51.9044408]]]}},
{"type":"Feature","properties":{"highway":"footway","name":null,"category":"Footpath (pedestrian only)"},"geometry":{"type":"MultiLineString","coordinates":[[[-0.5115091,51.9059315],[-0.5114818,51.9060111],[-0.511391,51.9061255],[-0.5112946,51.9061701],[-0.5112223,51.9061975],[-0.5111427,51.9062872]]]}},
{"type":"Feature","properties":{"highway":"footway","name":null,"category":"Footpath (pedestrian only)"},"geometry":{"type":"MultiLineString","coordinates":[[[-0.5110385,51.9078518],[-0.5110495,51.9079633],[-0.5110847,51.908096],[-0.511165,51.9082665]]]}},
{"type":"Feature","properties":{"highway":"footway","name":null,"category":"Footpath (pedestrian only)"},"geometry":{"type":"MultiLineString","coordinates":[[[-0.5122583,51.9087084],[-0.5121212,51.9084614],[-0.51203,51.9075903]]]}},
{"type":"Feature","properties":{"highway":"footway","name":null,"category":"Footpath (pedestrian only)"},"geometry":{"type":"MultiLineString","coordinates":[[[-0.525425,51.907842],[-0.5253524,51.9078439],[-0.525295,51.907821],[-0.524915,51.9074849],[-0.5241697,51.906745],[-0.5241422,51.9067177],[-0.5234917,51.9058967],[-0.5235162,51.9057649]]]}},
{"type":"Feature","properties":{"highway":"footway","name":null,"category":"Footpath (pedestrian only)"},"geometry":{"type":"MultiLineString","coordinates":[[[-0.5234489,51.9056992],[-0.5233379,51.9056669],[-0.5230432,51.9053993],[-0.5230656,51.9053576]]]}},
{"type":"Feature","properties":{"highway":"footway","name":null,"category":"Footpath (pedestrian only)"},"geometry":{"type":"MultiLineString","coordinates":[[[-0.5211393,51.9045252],[-0.5214939,51.9047316],[-0.5217033,51.9048425],[-0.5222672,51.9050333],[-0.5224743,51.9051146],[-0.5226448,51.9052141],[-0.522743,51.9052838],[-0.5232429,51.9057733],[-0.5232489,51.9057784],[-0.5240965,51.9067526],[-0.5243961,51.9070741],[-0.5249519,51.9076399]]]}},
{"type":"Feature","properties":{"highway":"footway","name":null,"category":"Footpath (pedestrian only)"},"geometry":{"type":"MultiLineString","coordinates":[[[-0.5102477,51.9065843],[-0.5103042,51.9065758],[-0.5105205,51.9065888],[-0.5105985,51.9066108],[-0.5106297,51.9066514],[-0.5106122,51.9068097],[-0.5105083,51.9074204],[-0.5104704,51.9075462],[-0.5104682,51.9077079],[-0.5104826,51.9078156]]]}},
{"type":"Feature","properties":{"highway":"footway","name":null,"category":"Footpath (pedestrian only)"},"geometry":{"type":"MultiLineString","coordinates":[[[-0.5106556,51.9078688],[-0.5106299,51.9074665],[-0.5106912,51.9070958],[-0.5107399,51.9068161],[-0.5107569,51.9067031],[-0.5108082,51.9066343],[-0.510903,51.9066109],[-0.5121359,51.9066969],[-0.5122655,51.9066967],[-0.5127145,51.9066962],[-0.5133621,51.9066669],[-0.51368,51.9066389],[-0.5136984,51.9066373],[-0.5139675,51.9066522],[-0.5141503,51.9067264],[-0.5142785,51.9068509],[-0.5142764,51.9070624]]]}},
{"type":"Feature","properties":{"highway":"footway","name":null,"category":"Footpath (pedestrian only)"},"geometry":{"type":"MultiLineString","coordinates":[[[-0.5102477,51.9065843],[-0.5102363,51.9065784],[-0.5095315,51.9065741],[-0.5093862,51.9065748],[-0.5091595,51.906576],[-0.50895,51.9065827],[-0.5087844,51.9066197],[-0.5087035,51.9066397],[-0.5086542,51.9066416],[-0.5085772,51.906624],[-0.5084539,51.9066078],[-0.5083397,51.9066172]]]}},
{"type":"Feature","properties":{"highway":"footway","name":null,"category":"Footpath (pedestrian only)"},"geometry":{"type":"MultiLineString","coordinates":[[[-0.5231699,51.9080711],[-0.5234201,51.9082189],[-0.5235461,51.9082075],[-0.523545,51.9083179]]]}},
{"type":"Feature","properties":{"highway":"footway","name":null,"category":"Footpath (pedestrian only)"},"geometry":{"type":"MultiLineString","coordinates":[[[-0.5234489,51.9056992],[-0.5234912,51.9057365],[-0.5235162,51.9057649]]]}},
{"type":"Feature","properties":{"highway":"footway","name":null,"category":"Footpath (pedestrian only)"},"geometry":{"type":"MultiLineString","coordinates":[[[-0.5168994,51.9027066],[-0.5173801,51.902589],[-0.5173567,51.902545],[-0.5173968,51.9025353],[-0.5173076,51.9023971],[-0.5172274,51.9024115],[-0.5171772,51.9023483],[-0.5171806,51.9023296],[-0.5171998,51.9022734]]]}},
{"type":"Feature","properties":{"highway":"footway","name":null,"category":"Footpath (pedestrian only)"},"geometry":{"type":"MultiLineString","coordinates":[[[-0.5173801,51.902589],[-0.5174258,51.9026509],[-0.5169477,51.9027722]]]}},
{"type":"Feature","properties":{"highway":"footway","name":null,"category":"Footpath (pedestrian only)"},"geometry":{"type":"MultiLineString","coordinates":[[[-0.5174258,51.9026509],[-0.5174581,51.9027004],[-0.517496,51.9026915],[-0.5176512,51.9029353]]]}},
{"type":"Feature","properties":{"highway":"footway","name":null,"category":"Footpath (pedestrian only)"},"geometry":{"type":"MultiLineString","coordinates":[[[-0.5181053,51.9035905],[-0.517962,51.9033326],[-0.517933,51.9033386],[-0.5178979,51.9032884],[-0.5178576,51.9032307],[-0.5176512,51.9029353]]]}},
{"type":"Feature","properties":{"highway":"footway","name":null,"category":"Footpath (pedestrian only)"},"geometry":{"type":"MultiLineString","coordinates":[[[-0.5174518,51.9033949],[-0.5178979,51.9032884]]]}},
{"type":"Feature","properties":{"highway":"footway","name":null,"category":"Footpath (pedestrian only)"},"geometry":{"type":"MultiLineString","coordinates":[[[-0.5178576,51.9032307],[-0.5174155,51.9033407]]]}},
{"type":"Feature","properties":{"highway":"footway","name":null,"category":"Footpath (pedestrian only)"},"geometry":{"type":"MultiLineString","coordinates":[[[-0.5175813,51.9037142],[-0.5174636,51.9034124],[-0.5174518,51.9033949],[-0.5174155,51.9033407],[-0.5173511,51.9032447],[-0.5170121,51.9028651],[-0.5169477,51.9027722],[-0.5168994,51.9027066],[-0.5168284,51.9025979],[-0.5168549,51.9024992],[-0.5168574,51.9024899],[-0.5169377,51.9023908],[-0.5171806,51.9023296]]]}},
{"type":"Feature","properties":{"highway":"footway","name":null,"category":"Footpath (pedestrian only)"},"geometry":{"type":"MultiLineString","coordinates":[[[-0.5168549,51.9024992],[-0.5168297,51.9024539]]]}},
{"type":"Feature","properties":{"highway":"footway","name":null,"category":"Footpath (pedestrian only)"},"geometry":{"type":"MultiLineString","coordinates":[[[-0.517265,51.9022619],[-0.5171569,51.9020215],[-0.5172403,51.9019834]]]}},
{"type":"Feature","properties":{"highway":"footway","name":null,"category":"Footpath (pedestrian only)"},"geometry":{"type":"MultiLineString","coordinates":[[[-0.5170387,51.9017531],[-0.5169781,51.9017644],[-0.5171569,51.9020215]]]}},
{"type":"Feature","properties":{"highway":"path","name":null,"category":"Shared path"},"geometry":{"type":"MultiLineString","coordinates":[[[-0.5092327,51.901601],[-0.5093225,51.9015224]]]}},
{"type":"Feature","properties":{"highway":"path","name":null,"category":"Shared path"},"geometry":{"type":"MultiLineString","coordinates":[[[-0.5085497,51.9012587],[-0.5093225,51.9015224]]]}},
{"type":"Feature","properties":{"highway":"path","name":null,"category":"Shared path"},"geometry":{"type":"MultiLineString","coordinates":[[[-0.5124388,51.9008822],[-0.5128146,51.9012922],[-0.5128838,51.9013809],[-0.5129562,51.9014648]]]}},
{"type":"Feature","properties":{"highway":"path","name":null,"category":"Shared path"},"geometry":{"type":"MultiLineString","coordinates":[[[-0.5140377,51.9034873],[-0.5139112,51.9034492]]]}},
{"type":"Feature","properties":{"highway":"path","name":null,"category":"Shared path"},"geometry":{"type":"MultiLineString","coordinates":[[[-0.5154356,51.9035299],[-0.5154572,51.9035128],[-0.515309,51.903455]]]}},
{"type":"Feature","properties":{"highway":"footway","name":null,"category":"Footpath (pedestrian only)"},"geometry":{"type":"MultiLineString","coordinates":[[[-0.5164565,51.9046454],[-0.5164334,51.9046132],[-0.5163923,51.9045559]]]}},
{"type":"Feature","properties":{"highway":"footway","name":null,"category":"Footpath (pedestrian only)"},"geometry":{"type":"MultiLineString","coordinates":[[[-0.5163205,51.9047823],[-0.5164565,51.9046454]]]}},
{"type":"Feature","properties":{"highway":"footway","name":null,"category":"Footpath (pedestrian only)"},"geometry":{"type":"MultiLineString","coordinates":[[[-0.5153545,51.9044492],[-0.5157258,51.9046419],[-0.5160986,51.9047412],[-0.5161683,51.9046825],[-0.5162555,51.9046146],[-0.5163923,51.9045559],[-0.5165345,51.9045145],[-0.5169052,51.9044697],[-0.5173831,51.9044519],[-0.5175492,51.9044543],[-0.5178313,51.9044904]]]}},
{"type":"Feature","properties":{"highway":"footway","name":null,"category":"Footpath (pedestrian only)"},"geometry":{"type":"MultiLineString","coordinates":[[[-0.5195404,51.9061042],[-0.51965,51.906341],[-0.5197149,51.9065171]]]}},
{"type":"Feature","properties":{"highway":"footway","name":null,"category":"Footpath (pedestrian only)"},"geometry":{"type":"MultiLineString","coordinates":[[[-0.5197464,51.906612],[-0.5199558,51.907067]]]}},
{"type":"Feature","properties":{"highway":"footway","name":null,"category":"Footpath (pedestrian only)"},"geometry":{"type":"MultiLineString","coordinates":[[[-0.5201949,51.907649],[-0.5199984,51.9071642]]]}},
{"type":"Feature","properties":{"highway":"footway","name":null,"category":"Footpath (pedestrian only)"},"geometry":{"type":"MultiLineString","coordinates":[[[-0.5198159,51.9080562],[-0.5198312,51.9080265],[-0.5203266,51.9079456],[-0.520266,51.9077952],[-0.5202357,51.9077816]]]}},
{"type":"Feature","properties":{"highway":"footway","name":null,"category":"Footpath (pedestrian only)"},"geometry":{"type":"MultiLineString","coordinates":[[[-0.5203266,51.9079456],[-0.5207288,51.9088813],[-0.5209677,51.909437],[-0.5210161,51.9095495],[-0.5212547,51.9101114],[-0.5212763,51.9102463],[-0.5212486,51.9103746],[-0.5211038,51.9105694],[-0.5209671,51.9106677],[-0.520694,51.9107709],[-0.5203177,51.9108723],[-0.5198806,51.9109847],[-0.5197697,51.9109619],[-0.5197408,51.9109344]]]}},
{"type":"Feature","properties":{"highway":"footway","name":null,"category":"Footpath (pedestrian only)"},"geometry":{"type":"MultiLineString","coordinates":[[[-0.5200787,51.9097934],[-0.5200327,51.9096791],[-0.5205349,51.9095993],[-0.5205485,51.9096273]]]}},
{"type":"Feature","properties":{"highway":"footway","name":null,"category":"Footpath (pedestrian only)"},"geometry":{"type":"MultiLineString","coordinates":[[[-0.5210161,51.9095495],[-0.5210331,51.9095466],[-0.5210864,51.9095376],[-0.5211225,51.9095315],[-0.5211384,51.9095288]]]}},
{"type":"Feature","properties":{"highway":"footway","name":null,"category":"Footpath (pedestrian only)"},"geometry":{"type":"MultiLineString","coordinates":[[[-0.5194803,51.9059799],[-0.5195404,51.9061042]]]}},
{"type":"Feature","properties":{"highway":"footway","name":null,"category":"Footpath (pedestrian only)"},"geometry":{"type":"MultiLineString","coordinates":[[[-0.5196841,51.906083],[-0.5197595,51.9062837],[-0.5197729,51.9063195],[-0.5201554,51.9072286],[-0.5201912,51.9072557]]]}},
{"type":"Feature","properties":{"highway":"footway","name":null,"category":"Footpath (pedestrian only)"},"geometry":{"type":"MultiLineString","coordinates":[[[-0.5195084,51.9072352],[-0.5199558,51.907067]]]}},
{"type":"Feature","properties":{"highway":"footway","name":null,"category":"Footpath (pedestrian only)"},"geometry":{"type":"MultiLineString","coordinates":[[[-0.5201949,51.907649],[-0.5201582,51.9076913],[-0.5199518,51.9077369],[-0.5196961,51.9074471],[-0.5195882,51.9074851],[-0.5193976,51.9072806]]]}},
{"type":"Feature","properties":{"highway":"footway","name":null,"category":"Footpath (pedestrian only)"},"geometry":{"type":"MultiLineString","coordinates":[[[-0.519672,51.9074126],[-0.5196961,51.9074471]]]}},
{"type":"Feature","properties":{"highway":"footway","name":null,"category":"Footpath (pedestrian only)"},"geometry":{"type":"MultiLineString","coordinates":[[[-0.5205883,51.9096172],[-0.5205933,51.9095777],[-0.5206348,51.9095199],[-0.5207285,51.9094811],[-0.5209677,51.909437]]]}},
{"type":"Feature","properties":{"highway":"footway","name":null,"category":"Footpath (pedestrian only)"},"geometry":{"type":"MultiLineString","coordinates":[[[-0.51983,51.9060577],[-0.5197595,51.9062837]]]}},
{"type":"Feature","properties":{"highway":"footway","name":null,"category":"Footpath (pedestrian only)"},"geometry":{"type":"MultiLineString","coordinates":[[[-0.5135872,51.9064973],[-0.5136262,51.9065364],[-0.5136645,51.9065748],[-0.5136717,51.9066046],[-0.51368,51.9066389]]]}},
{"type":"Feature","properties":{"highway":"footway","name":null,"category":"Footpath (pedestrian only)"},"geometry":{"type":"MultiLineString","coordinates":[[[-0.5135441,51.9062944],[-0.513585,51.9062796],[-0.513665,51.9062506],[-0.5137049,51.9062361]]]}},
{"type":"Feature","properties":{"highway":"footway","name":null,"category":"Footpath (pedestrian only)"},"geometry":{"type":"MultiLineString","coordinates":[[[-0.5142206,51.9063151],[-0.5142463,51.9063463],[-0.5142815,51.9063889],[-0.5143287,51.906409],[-0.514399,51.9064388]]]}},
{"type":"Feature","properties":{"highway":"footway","name":null,"category":"Footpath (pedestrian only)"},"geometry":{"type":"MultiLineString","coordinates":[[[-0.5144689,51.9066333],[-0.5144711,51.9066728],[-0.5144727,51.9067005]]]}},
{"type":"Feature","properties":{"highway":"footway","name":null,"category":"Footpath (pedestrian only)"},"geometry":{"type":"MultiLineString","coordinates":[[[-0.5188263,51.9049213],[-0.5187661,51.9049224],[-0.5186595,51.9049243]]]}},
{"type":"Feature","properties":{"highway":"footway","name":null,"category":"Footpath (pedestrian only)"},"geometry":{"type":"MultiLineString","coordinates":[[[-0.5191868,51.905562],[-0.5192433,51.9055441],[-0.519316,51.9055211]]]}},
{"type":"Feature","properties":{"highway":"footway","name":null,"category":"Footpath (pedestrian only)"},"geometry":{"type":"MultiLineString","coordinates":[[[-0.519316,51.9055211],[-0.5195173,51.9057425],[-0.5196529,51.9059956]]]}},
{"type":"Feature","properties":{"highway":"footway","name":null,"category":"Footpath (pedestrian only)"},"geometry":{"type":"MultiLineString","coordinates":[[[-0.5196841,51.906083],[-0.5196709,51.9060461],[-0.5196529,51.9059956]]]}},
{"type":"Feature","properties":{"highway":"footway","name":null,"category":"Footpath (pedestrian only)"},"geometry":{"type":"MultiLineString","coordinates":[[[-0.5196841,51.906083],[-0.51983,51.9060577],[-0.5199553,51.9060273],[-0.5203301,51.9059066],[-0.520417,51.9058528]]]}},
{"type":"Feature","properties":{"highway":"footway","name":null,"category":"Footpath (pedestrian only)"},"geometry":{"type":"MultiLineString","coordinates":[[[-0.5203033,51.9054475],[-0.5204159,51.905363],[-0.520346,51.9051824],[-0.520321,51.9051081],[-0.5202187,51.9047743],[-0.5202039,51.9047111]]]}},
{"type":"Feature","properties":{"highway":"footway","name":null,"category":"Footpath (pedestrian only)"},"geometry":{"type":"MultiLineString","coordinates":[[[-0.5212884,51.9097912],[-0.5211384,51.9095288],[-0.5206207,51.9083013],[-0.5207182,51.9082011]]]}},
{"type":"Feature","properties":{"highway":"footway","name":null,"category":"Footpath (pedestrian only)"},"geometry":{"type":"MultiLineString","coordinates":[[[-0.5206952,51.9081448],[-0.520545,51.9081007],[-0.5202394,51.907378]]]}},
{"type":"Feature","properties":{"highway":"footway","name":null,"category":"Footpath (pedestrian only)"},"geometry":{"type":"MultiLineString","coordinates":[[[-0.5206952,51.9081448],[-0.5207044,51.9081673],[-0.5207182,51.9082011]]]}},
{"type":"Feature","properties":{"highway":"footway","name":null,"category":"Footpath (pedestrian only)"},"geometry":{"type":"MultiLineString","coordinates":[[[-0.5213635,51.9072491],[-0.5209408,51.907175],[-0.5206168,51.907273],[-0.5203978,51.907322],[-0.5202967,51.9073449],[-0.5202394,51.907378]]]}},
{"type":"Feature","properties":{"highway":"footway","name":null,"category":"Footpath (pedestrian only)"},"geometry":{"type":"MultiLineString","coordinates":[[[-0.5209408,51.907175],[-0.5212423,51.9070627]]]}},
{"type":"Feature","properties":{"highway":"footway","name":null,"category":"Footpath (pedestrian only)"},"geometry":{"type":"MultiLineString","coordinates":[[[-0.515684,51.9120772],[-0.5154035,51.9117349],[-0.5154304,51.9116582],[-0.5159013,51.9114937],[-0.5163489,51.9113556],[-0.517727,51.9109217],[-0.5179012,51.9109469],[-0.5181972,51.9113836]]]}},
{"type":"Feature","properties":{"highway":"footway","name":null,"category":"Footpath (pedestrian only)"},"geometry":{"type":"MultiLineString","coordinates":[[[-0.518283,51.9113617],[-0.5180993,51.9110912],[-0.5179577,51.9108827],[-0.5182548,51.9108084],[-0.5182701,51.9107871],[-0.518228,51.9106963]]]}},
{"type":"Feature","properties":{"highway":"footway","name":null,"category":"Footpath (pedestrian only)"},"geometry":{"type":"MultiLineString","coordinates":[[[-0.5160986,51.9047412],[-0.5158727,51.9049685],[-0.5155687,51.9052475],[-0.5153291,51.9054667],[-0.5151581,51.9056232],[-0.5150982,51.9056832],[-0.5150246,51.9057569],[-0.5147985,51.9059707],[-0.5145743,51.9061434],[-0.5144483,51.9062086],[-0.5143662,51.9062311],[-0.5143109,51.9062463],[-0.5142396,51.9062631],[-0.5141853,51.9062715]]]}},
{"type":"Feature","properties":{"highway":"footway","name":null,"category":"Footpath (pedestrian only)"},"geometry":{"type":"MultiLineString","coordinates":[[[-0.5101887,51.9069486],[-0.5104954,51.9069662],[-0.5105005,51.9069665],[-0.5105148,51.9069444],[-0.5105317,51.9068354],[-0.5105558,51.906837],[-0.5106122,51.9068097]]]}},
{"type":"Feature","properties":{"highway":"footway","name":null,"category":"Footpath (pedestrian only)"},"geometry":{"type":"MultiLineString","coordinates":[[[-0.5101432,51.9072294],[-0.5104328,51.9072476],[-0.5104954,51.9069662]]]}},
{"type":"Feature","properties":{"highway":"footway","name":null,"category":"Footpath (pedestrian only)"},"geometry":{"type":"MultiLineString","coordinates":[[[-0.5100978,51.9075191],[-0.5103687,51.9075288],[-0.5103879,51.9075075],[-0.5104032,51.9073779],[-0.5104237,51.90731],[-0.5104328,51.9072476]]]}},
{"type":"Feature","properties":{"highway":"footway","name":null,"category":"Footpath (pedestrian only)"},"geometry":{"type":"MultiLineString","coordinates":[[[-0.511067,51.9110427],[-0.5113656,51.9109314],[-0.5114365,51.9108042],[-0.5116325,51.9106697],[-0.5119164,51.9105467],[-0.5121073,51.9104581],[-0.5121327,51.9102266],[-0.5120887,51.9101224],[-0.5120523,51.9099004],[-0.5120193,51.9096994],[-0.5119934,51.909542],[-0.5122477,51.9093187],[-0.5122502,51.9091648],[-0.512145,51.9090653],[-0.512101,51.908848],[-0.5120399,51.9087952],[-0.5120267,51.9087366]]]}},
{"type":"Feature","properties":{"highway":"footway","name":null,"category":"Footpath (pedestrian only)"},"geometry":{"type":"MultiLineString","coordinates":[[[-0.5136677,51.9085735],[-0.5136832,51.9087081],[-0.5136356,51.9088367]]]}},
{"type":"Feature","properties":{"highway":"path","name":null,"category":"Shared path"},"geometry":{"type":"MultiLineString","coordinates":[[[-0.5217108,51.9029929],[-0.5215862,51.9030353],[-0.5214908,51.9029333]]]}},
{"type":"Feature","properties":{"highway":"path","name":null,"category":"Shared path"},"geometry":{"type":"MultiLineString","coordinates":[[[-0.5206171,51.9033898],[-0.5207467,51.9033506],[-0.5208519,51.9033644]]]}},
{"type":"Feature","properties":{"highway":"footway","name":null,"category":"Footpath (pedestrian only)"},"geometry":{"type":"MultiLineString","coordinates":[[[-0.5090623,51.9042955],[-0.5096119,51.9040264]]]}},
{"type":"Feature","properties":{"highway":"pedestrian","name":"Bedford Square","category":"Pedestrian area/street"},"geometry":{"type":"MultiLineString","coordinates":[[[-0.519316,51.9055211],[-0.5194865,51.9054575],[-0.5195702,51.9054127],[-0.5195655,51.9053961],[-0.519364,51.9051692],[-0.5193348,51.9051365],[-0.5194181,51.9051078],[-0.5196375,51.905035],[-0.5199767,51.9049225],[-0.5200308,51.904883],[-0.5200392,51.9048396],[-0.5200409,51.9047462],[-0.5199621,51.9046671]]]}},
{"type":"Feature","properties":{"highway":"pedestrian","name":"Bedford Square","category":"Pedestrian area/street"},"geometry":{"type":"MultiLineString","coordinates":[[[-0.5197055,51.9053704],[-0.5197097,51.905296]]]}},
{"type":"Feature","properties":{"highway":"pedestrian","name":"Bedford Square","category":"Pedestrian area/street"},"geometry":{"type":"MultiLineString","coordinates":[[[-0.5197097,51.905296],[-0.5196375,51.905035]]]}}
]
}
