{
"type": "FeatureCollection",
"name": "78abf6a9d774_visibility",
"crs": { "type": "name", "properties": { "name": "urn:ogc:def:crs:OGC:1.3:CRS84" } },
"features": [
{ "type": "Feature", "properties": { "visible_points": 0, "total_points": 70, "visibility_pct": 0.0 }, "geometry": { "type": "Point", "coordinates": [ -1.147674193290069, 50.722118569728465 ] } },
{ "type": "Feature", "properties": { "visible_points": 3, "total_points": 52, "visibility_pct": 5.7692307692307692 }, "geometry": { "type": "Point", "coordinates": [ -1.148555481479872, 50.722232919186439 ] } },
{ "type": "Feature", "properties": { "visible_points": 0, "total_points": 60, "visibility_pct": 0.0 }, "geometry": { "type": "Point", "coordinates": [ -1.148359203358628, 50.722231486968255 ] } },
{ "type": "Feature", "properties": { "visible_points": 0, "total_points": 68, "visibility_pct": 0.0 }, "geometry": { "type": "Point", "coordinates": [ -1.148162925252979, 50.72223005442023 ] } },
{ "type": "Feature", "properties": { "visible_points": 0, "total_points": 75, "visibility_pct": 0.0 }, "geometry": { "type": "Point", "coordinates": [ -1.147966647162936, 50.722228621542342 ] } },
{ "type": "Feature", "properties": { "visible_points": 0, "total_points": 80, "visibility_pct": 0.0 }, "geometry": { "type": "Point", "coordinates": [ -1.147770369088491, 50.722227188334614 ] } },
{ "type": "Feature", "properties": { "visible_points": 0, "total_points": 82, "visibility_pct": 0.0 }, "geometry": { "type": "Point", "coordinates": [ -1.147574091029661, 50.722225754797059 ] } },
{ "type": "Feature", "properties": { "visible_points": 0, "total_points": 79, "visibility_pct": 0.0 }, "geometry": { "type": "Point", "coordinates": [ -1.146788978950489, 50.722220017348384 ] } },
{ "type": "Feature", "properties": { "visible_points": 1, "total_points": 74, "visibility_pct": 1.3513513513513513 }, "geometry": { "type": "Point", "coordinates": [ -1.146592700969752, 50.722218582161616 ] } },
{ "type": "Feature", "properties": { "visible_points": 0, "total_points": 67, "visibility_pct": 0.0 }, "geometry": { "type": "Point", "coordinates": [ -1.146396423004652, 50.722217146645001 ] } },
{ "type": "Feature", "properties": { "visible_points": 2, "total_points": 60, "visibility_pct": 3.3333333333333335 }, "geometry": { "type": "Point", "coordinates": [ -1.146200145055178, 50.72221571079853 ] } },
{ "type": "Feature", "properties": { "visible_points": 3, "total_points": 52, "visibility_pct": 5.7692307692307692 }, "geometry": { "type": "Point", "coordinates": [ -1.146003867121343, 50.722214274622232 ] } },
{ "type": "Feature", "properties": { "visible_points": 0, "total_points": 63, "visibility_pct": 0.0 }, "geometry": { "type": "Point", "coordinates": [ -1.148455380910388, 50.722340105099434 ] } },
{ "type": "Feature", "properties": { "visible_points": 0, "total_points": 72, "visibility_pct": 0.0 }, "geometry": { "type": "Point", "coordinates": [ -1.14825910236251, 50.722338672690135 ] } },
{ "type": "Feature", "properties": { "visible_points": 0, "total_points": 80, "visibility_pct": 0.0 }, "geometry": { "type": "Point", "coordinates": [ -1.148062823830227, 50.72233723995101 ] } },
{ "type": "Feature", "properties": { "visible_points": 1, "total_points": 88, "visibility_pct": 1.1363636363636365 }, "geometry": { "type": "Point", "coordinates": [ -1.147866545313548, 50.722335806882036 ] } },
{ "type": "Feature", "properties": { "visible_points": 1, "total_points": 93, "visibility_pct": 1.0752688172043012 }, "geometry": { "type": "Point", "coordinates": [ -1.14767026681248, 50.722334373483221 ] } },
{ "type": "Feature", "properties": { "visible_points": 0, "total_points": 93, "visibility_pct": 0.0 }, "geometry": { "type": "Point", "coordinates": [ -1.147473988327018, 50.722332939754551 ] } },
{ "type": "Feature", "properties": { "visible_points": 1, "total_points": 92, "visibility_pct": 1.0869565217391304 }, "geometry": { "type": "Point", "coordinates": [ -1.147277709857176, 50.722331505696047 ] } },
{ "type": "Feature", "properties": { "visible_points": 0, "total_points": 91, "visibility_pct": 0.0 }, "geometry": { "type": "Point", "coordinates": [ -1.147081431402946, 50.722330071307674 ] } },
{ "type": "Feature", "properties": { "visible_points": 0, "total_points": 90, "visibility_pct": 0.0 }, "geometry": { "type": "Point", "coordinates": [ -1.146885152964342, 50.722328636589495 ] } },
{ "type": "Feature", "properties": { "visible_points": 0, "total_points": 87, "visibility_pct": 0.0 }, "geometry": { "type": "Point", "coordinates": [ -1.14668887454136, 50.722327201541454 ] } },
{ "type": "Feature", "properties": { "visible_points": 0, "total_points": 80, "visibility_pct": 0.0 }, "geometry": { "type": "Point", "coordinates": [ -1.146492596134005, 50.722325766163571 ] } },
{ "type": "Feature", "properties": { "visible_points": 0, "total_points": 72, "visibility_pct": 0.0 }, "geometry": { "type": "Point", "coordinates": [ -1.146296317742285, 50.722324330455841 ] } },
{ "type": "Feature", "properties": { "visible_points": 0, "total_points": 64, "visibility_pct": 0.0 }, "geometry": { "type": "Point", "coordinates": [ -1.146100039366201, 50.722322894418276 ] } },
{ "type": "Feature", "properties": { "visible_points": 6, "total_points": 55, "visibility_pct": 10.909090909090908 }, "geometry": { "type": "Point", "coordinates": [ -1.145903761005751, 50.722321458050857 ] } },
{ "type": "Feature", "properties": { "visible_points": 1, "total_points": 74, "visibility_pct": 1.3513513513513513 }, "geometry": { "type": "Point", "coordinates": [ -1.148355279898674, 50.722447290901314 ] } },
{ "type": "Feature", "properties": { "visible_points": 0, "total_points": 84, "visibility_pct": 0.0 }, "geometry": { "type": "Point", "coordinates": [ -1.148159000924159, 50.722445858300929 ] } },
{ "type": "Feature", "properties": { "visible_points": 1, "total_points": 93, "visibility_pct": 1.0752688172043012 }, "geometry": { "type": "Point", "coordinates": [ -1.147962721965241, 50.722444425370696 ] } },
{ "type": "Feature", "properties": { "visible_points": 1, "total_points": 101, "visibility_pct": 0.99009900990099009 }, "geometry": { "type": "Point", "coordinates": [ -1.147766443021932, 50.722442992110615 ] } },
{ "type": "Feature", "properties": { "visible_points": 0, "total_points": 103, "visibility_pct": 0.0 }, "geometry": { "type": "Point", "coordinates": [ -1.147570164094229, 50.722441558520707 ] } },
{ "type": "Feature", "properties": { "visible_points": 0, "total_points": 102, "visibility_pct": 0.0 }, "geometry": { "type": "Point", "coordinates": [ -1.147373885182143, 50.722440124600915 ] } },
{ "type": "Feature", "properties": { "visible_points": 0, "total_points": 101, "visibility_pct": 0.0 }, "geometry": { "type": "Point", "coordinates": [ -1.147177606285668, 50.722438690351318 ] } },
{ "type": "Feature", "properties": { "visible_points": 0, "total_points": 100, "visibility_pct": 0.0 }, "geometry": { "type": "Point", "coordinates": [ -1.146981327404818, 50.722437255771858 ] } },
{ "type": "Feature", "properties": { "visible_points": 0, "total_points": 99, "visibility_pct": 0.0 }, "geometry": { "type": "Point", "coordinates": [ -1.146785048539589, 50.722435820862536 ] } },
{ "type": "Feature", "properties": { "visible_points": 0, "total_points": 93, "visibility_pct": 0.0 }, "geometry": { "type": "Point", "coordinates": [ -1.146588769689984, 50.722434385623401 ] } },
{ "type": "Feature", "properties": { "visible_points": 0, "total_points": 85, "visibility_pct": 0.0 }, "geometry": { "type": "Point", "coordinates": [ -1.146392490856013, 50.722432950054404 ] } },
{ "type": "Feature", "properties": { "visible_points": 0, "total_points": 76, "visibility_pct": 0.0 }, "geometry": { "type": "Point", "coordinates": [ -1.146196212037674, 50.722431514155573 ] } },
{ "type": "Feature", "properties": { "visible_points": 0, "total_points": 66, "visibility_pct": 0.0 }, "geometry": { "type": "Point", "coordinates": [ -1.145999933234973, 50.722430077926902 ] } },
{ "type": "Feature", "properties": { "visible_points": 5, "total_points": 73, "visibility_pct": 6.8493150684931505 }, "geometry": { "type": "Point", "coordinates": [ -1.148451457861489, 50.722555909053732 ] } },
{ "type": "Feature", "properties": { "visible_points": 1, "total_points": 85, "visibility_pct": 1.1764705882352942 }, "geometry": { "type": "Point", "coordinates": [ -1.14825517844473, 50.722554476592101 ] } },
{ "type": "Feature", "properties": { "visible_points": 0, "total_points": 96, "visibility_pct": 0.0 }, "geometry": { "type": "Point", "coordinates": [ -1.148058899043575, 50.722553043800616 ] } },
{ "type": "Feature", "properties": { "visible_points": 2, "total_points": 106, "visibility_pct": 1.8867924528301887 }, "geometry": { "type": "Point", "coordinates": [ -1.147862619658025, 50.72255161067929 ] } },
{ "type": "Feature", "properties": { "visible_points": 0, "total_points": 112, "visibility_pct": 0.0 }, "geometry": { "type": "Point", "coordinates": [ -1.147666340288077, 50.722550177228094 ] } },
{ "type": "Feature", "properties": { "visible_points": 0, "total_points": 111, "visibility_pct": 0.0 }, "geometry": { "type": "Point", "coordinates": [ -1.147470060933744, 50.722548743447049 ] } },
{ "type": "Feature", "properties": { "visible_points": 0, "total_points": 110, "visibility_pct": 0.0 }, "geometry": { "type": "Point", "coordinates": [ -1.147273781595025, 50.722547309336193 ] } },
{ "type": "Feature", "properties": { "visible_points": 0, "total_points": 109, "visibility_pct": 0.0 }, "geometry": { "type": "Point", "coordinates": [ -1.147077502271929, 50.722545874895474 ] } },
{ "type": "Feature", "properties": { "visible_points": 0, "total_points": 108, "visibility_pct": 0.0 }, "geometry": { "type": "Point", "coordinates": [ -1.146881222964445, 50.722544440124899 ] } },
{ "type": "Feature", "properties": { "visible_points": 0, "total_points": 105, "visibility_pct": 0.0 }, "geometry": { "type": "Point", "coordinates": [ -1.146684943672591, 50.722543005024477 ] } },
{ "type": "Feature", "properties": { "visible_points": 0, "total_points": 98, "visibility_pct": 0.0 }, "geometry": { "type": "Point", "coordinates": [ -1.146488664396364, 50.722541569594242 ] } },
{ "type": "Feature", "properties": { "visible_points": 0, "total_points": 88, "visibility_pct": 0.0 }, "geometry": { "type": "Point", "coordinates": [ -1.146292385135772, 50.722540133834123 ] } },
{ "type": "Feature", "properties": { "visible_points": 0, "total_points": 78, "visibility_pct": 0.0 }, "geometry": { "type": "Point", "coordinates": [ -1.146096105890816, 50.72253869774417 ] } },
{ "type": "Feature", "properties": { "visible_points": 12, "total_points": 67, "visibility_pct": 17.910447761194028 }, "geometry": { "type": "Point", "coordinates": [ -1.145899826661493, 50.722537261324376 ] } },
{ "type": "Feature", "properties": { "visible_points": 4, "total_points": 83, "visibility_pct": 4.8192771084337354 }, "geometry": { "type": "Point", "coordinates": [ -1.148351356391951, 50.722663094824519 ] } },
{ "type": "Feature", "properties": { "visible_points": 0, "total_points": 96, "visibility_pct": 0.0 }, "geometry": { "type": "Point", "coordinates": [ -1.148155076548554, 50.722661662171767 ] } },
{ "type": "Feature", "properties": { "visible_points": 2, "total_points": 108, "visibility_pct": 1.8518518518518516 }, "geometry": { "type": "Point", "coordinates": [ -1.147958796720754, 50.722660229189174 ] } },
{ "type": "Feature", "properties": { "visible_points": 0, "total_points": 116, "visibility_pct": 0.0 }, "geometry": { "type": "Point", "coordinates": [ -1.147762516908565, 50.722658795876733 ] } },
{ "type": "Feature", "properties": { "visible_points": 0, "total_points": 118, "visibility_pct": 0.0 }, "geometry": { "type": "Point", "coordinates": [ -1.147566237111986, 50.722657362234443 ] } },
{ "type": "Feature", "properties": { "visible_points": 0, "total_points": 117, "visibility_pct": 0.0 }, "geometry": { "type": "Point", "coordinates": [ -1.14736995733102, 50.72265592826232 ] } },
{ "type": "Feature", "properties": { "visible_points": 0, "total_points": 116, "visibility_pct": 0.0 }, "geometry": { "type": "Point", "coordinates": [ -1.147173677565663, 50.722654493960334 ] } },
{ "type": "Feature", "properties": { "visible_points": 0, "total_points": 115, "visibility_pct": 0.0 }, "geometry": { "type": "Point", "coordinates": [ -1.146977397815936, 50.722653059328515 ] } },
{ "type": "Feature", "properties": { "visible_points": 0, "total_points": 115, "visibility_pct": 0.0 }, "geometry": { "type": "Point", "coordinates": [ -1.146781118081827, 50.722651624366833 ] } },
{ "type": "Feature", "properties": { "visible_points": 0, "total_points": 110, "visibility_pct": 0.0 }, "geometry": { "type": "Point", "coordinates": [ -1.146584838363345, 50.722650189075317 ] } },
{ "type": "Feature", "properties": { "visible_points": 1, "total_points": 101, "visibility_pct": 0.99009900990099009 }, "geometry": { "type": "Point", "coordinates": [ -1.146388558660496, 50.722648753453946 ] } },
{ "type": "Feature", "properties": { "visible_points": 0, "total_points": 90, "visibility_pct": 0.0 }, "geometry": { "type": "Point", "coordinates": [ -1.146192278973279, 50.722647317502719 ] } },
{ "type": "Feature", "properties": { "visible_points": 4, "total_points": 78, "visibility_pct": 5.1282051282051277 }, "geometry": { "type": "Point", "coordinates": [ -1.145995999301701, 50.722645881221659 ] } },
{ "type": "Feature", "properties": { "visible_points": 5, "total_points": 76, "visibility_pct": 6.5789473684210522 }, "geometry": { "type": "Point", "coordinates": [ -1.148447534765821, 50.722771712998167 ] } },
{ "type": "Feature", "properties": { "visible_points": 2, "total_points": 89, "visibility_pct": 2.2471910112359552 }, "geometry": { "type": "Point", "coordinates": [ -1.148251254480176, 50.722770280484177 ] } },
{ "type": "Feature", "properties": { "visible_points": 0, "total_points": 101, "visibility_pct": 0.0 }, "geometry": { "type": "Point", "coordinates": [ -1.148054974210135, 50.722768847640324 ] } },
{ "type": "Feature", "properties": { "visible_points": 1, "total_points": 112, "visibility_pct": 0.89285714285714279 }, "geometry": { "type": "Point", "coordinates": [ -1.147858693955698, 50.722767414466631 ] } },
{ "type": "Feature", "properties": { "visible_points": 0, "total_points": 119, "visibility_pct": 0.0 }, "geometry": { "type": "Point", "coordinates": [ -1.147662413716869, 50.722765980963096 ] } },
{ "type": "Feature", "properties": { "visible_points": 0, "total_points": 120, "visibility_pct": 0.0 }, "geometry": { "type": "Point", "coordinates": [ -1.147466133493649, 50.722764547129707 ] } },
{ "type": "Feature", "properties": { "visible_points": 0, "total_points": 120, "visibility_pct": 0.0 }, "geometry": { "type": "Point", "coordinates": [ -1.147269853286046, 50.722763112966469 ] } },
{ "type": "Feature", "properties": { "visible_points": 0, "total_points": 120, "visibility_pct": 0.0 }, "geometry": { "type": "Point", "coordinates": [ -1.14707357309406, 50.722761678473375 ] } },
{ "type": "Feature", "properties": { "visible_points": 0, "total_points": 120, "visibility_pct": 0.0 }, "geometry": { "type": "Point", "coordinates": [ -1.146877292917696, 50.722760243650427 ] } },
{ "type": "Feature", "properties": { "visible_points": 0, "total_points": 118, "visibility_pct": 0.0 }, "geometry": { "type": "Point", "coordinates": [ -1.146681012756957, 50.722758808497645 ] } },
{ "type": "Feature", "properties": { "visible_points": 0, "total_points": 111, "visibility_pct": 0.0 }, "geometry": { "type": "Point", "coordinates": [ -1.14648473261185, 50.722757373015021 ] } },
{ "type": "Feature", "properties": { "visible_points": 1, "total_points": 100, "visibility_pct": 1.0 }, "geometry": { "type": "Point", "coordinates": [ -1.146288452482371, 50.722755937202528 ] } },
{ "type": "Feature", "properties": { "visible_points": 0, "total_points": 88, "visibility_pct": 0.0 }, "geometry": { "type": "Point", "coordinates": [ -1.146092172368531, 50.722754501060201 ] } },
{ "type": "Feature", "properties": { "visible_points": 12, "total_points": 75, "visibility_pct": 16.0 }, "geometry": { "type": "Point", "coordinates": [ -1.145895892270334, 50.722753064588026 ] } },
{ "type": "Feature", "properties": { "visible_points": 0, "total_points": 78, "visibility_pct": 0.0 }, "geometry": { "type": "Point", "coordinates": [ -1.148347432838451, 50.722878898737811 ] } },
{ "type": "Feature", "properties": { "visible_points": 0, "total_points": 90, "visibility_pct": 0.0 }, "geometry": { "type": "Point", "coordinates": [ -1.148151152126162, 50.722877466032728 ] } },
{ "type": "Feature", "properties": { "visible_points": 0, "total_points": 102, "visibility_pct": 0.0 }, "geometry": { "type": "Point", "coordinates": [ -1.147954871429476, 50.722876032997782 ] } },
{ "type": "Feature", "properties": { "visible_points": 1, "total_points": 112, "visibility_pct": 0.89285714285714279 }, "geometry": { "type": "Point", "coordinates": [ -1.147758590748393, 50.722874599632966 ] } },
{ "type": "Feature", "properties": { "visible_points": 0, "total_points": 119, "visibility_pct": 0.0 }, "geometry": { "type": "Point", "coordinates": [ -1.147562310082926, 50.722873165938324 ] } },
{ "type": "Feature", "properties": { "visible_points": 0, "total_points": 120, "visibility_pct": 0.0 }, "geometry": { "type": "Point", "coordinates": [ -1.147366029433064, 50.722871731913834 ] } },
{ "type": "Feature", "properties": { "visible_points": 0, "total_points": 120, "visibility_pct": 0.0 }, "geometry": { "type": "Point", "coordinates": [ -1.147169748798826, 50.722870297559474 ] } },
{ "type": "Feature", "properties": { "visible_points": 0, "total_points": 120, "visibility_pct": 0.0 }, "geometry": { "type": "Point", "coordinates": [ -1.146973468180205, 50.722868862875295 ] } },
{ "type": "Feature", "properties": { "visible_points": 0, "total_points": 120, "visibility_pct": 0.0 }, "geometry": { "type": "Point", "coordinates": [ -1.146777187577205, 50.722867427861246 ] } },
{ "type": "Feature", "properties": { "visible_points": 1, "total_points": 115, "visibility_pct": 0.86956521739130432 }, "geometry": { "type": "Point", "coordinates": [ -1.146580906989835, 50.722865992517349 ] } },
{ "type": "Feature", "properties": { "visible_points": 0, "total_points": 104, "visibility_pct": 0.0 }, "geometry": { "type": "Point", "coordinates": [ -1.146384626418096, 50.722864556843604 ] } },
{ "type": "Feature", "properties": { "visible_points": 2, "total_points": 92, "visibility_pct": 2.1739130434782608 }, "geometry": { "type": "Point", "coordinates": [ -1.146188345861992, 50.722863120839996 ] } },
{ "type": "Feature", "properties": { "visible_points": 8, "total_points": 79, "visibility_pct": 10.126582278481013 }, "geometry": { "type": "Point", "coordinates": [ -1.145992065321525, 50.722861684506562 ] } },
{ "type": "Feature", "properties": { "visible_points": 0, "total_points": 79, "visibility_pct": 0.0 }, "geometry": { "type": "Point", "coordinates": [ -1.148247330468845, 50.722986084366369 ] } },
{ "type": "Feature", "properties": { "visible_points": 0, "total_points": 91, "visibility_pct": 0.0 }, "geometry": { "type": "Point", "coordinates": [ -1.148051049329903, 50.722984651470171 ] } },
{ "type": "Feature", "properties": { "visible_points": 0, "total_points": 102, "visibility_pct": 0.0 }, "geometry": { "type": "Point", "coordinates": [ -1.147854768206572, 50.722983218244117 ] } },
{ "type": "Feature", "properties": { "visible_points": 0, "total_points": 111, "visibility_pct": 0.0 }, "geometry": { "type": "Point", "coordinates": [ -1.147658487098846, 50.722981784688216 ] } },
{ "type": "Feature", "properties": { "visible_points": 0, "total_points": 117, "visibility_pct": 0.0 }, "geometry": { "type": "Point", "coordinates": [ -1.147462206006732, 50.722980350802452 ] } },
{ "type": "Feature", "properties": { "visible_points": 0, "total_points": 119, "visibility_pct": 0.0 }, "geometry": { "type": "Point", "coordinates": [ -1.147265924930232, 50.722978916586847 ] } },
{ "type": "Feature", "properties": { "visible_points": 0, "total_points": 120, "visibility_pct": 0.0 }, "geometry": { "type": "Point", "coordinates": [ -1.147069643869352, 50.722977482041401 ] } },
{ "type": "Feature", "properties": { "visible_points": 0, "total_points": 120, "visibility_pct": 0.0 }, "geometry": { "type": "Point", "coordinates": [ -1.146873362824092, 50.722976047166092 ] } },
{ "type": "Feature", "properties": { "visible_points": 0, "total_points": 116, "visibility_pct": 0.0 }, "geometry": { "type": "Point", "coordinates": [ -1.146677081794461, 50.722974611960915 ] } },
{ "type": "Feature", "properties": { "visible_points": 0, "total_points": 106, "visibility_pct": 0.0 }, "geometry": { "type": "Point", "coordinates": [ -1.146480800780456, 50.722973176425924 ] } },
{ "type": "Feature", "properties": { "visible_points": 0, "total_points": 94, "visibility_pct": 0.0 }, "geometry": { "type": "Point", "coordinates": [ -1.146284519782085, 50.72297174056105 ] } },
{ "type": "Feature", "properties": { "visible_points": 6, "total_points": 82, "visibility_pct": 7.3170731707317067 }, "geometry": { "type": "Point", "coordinates": [ -1.146088238799351, 50.722970304366342 ] } },
{ "type": "Feature", "properties": { "visible_points": 5, "total_points": 68, "visibility_pct": 7.3529411764705888 }, "geometry": { "type": "Point", "coordinates": [ -1.148343509238179, 50.723094702641255 ] } },
{ "type": "Feature", "properties": { "visible_points": 1, "total_points": 79, "visibility_pct": 1.2658227848101267 }, "geometry": { "type": "Point", "coordinates": [ -1.14814722765699, 50.723093269883812 ] } },
{ "type": "Feature", "properties": { "visible_points": 0, "total_points": 90, "visibility_pct": 0.0 }, "geometry": { "type": "Point", "coordinates": [ -1.147950946091399, 50.723091836796513 ] } },
{ "type": "Feature", "properties": { "visible_points": 0, "total_points": 99, "visibility_pct": 0.0 }, "geometry": { "type": "Point", "coordinates": [ -1.147754664541415, 50.723090403379345 ] } },
{ "type": "Feature", "properties": { "visible_points": 0, "total_points": 107, "visibility_pct": 0.0 }, "geometry": { "type": "Point", "coordinates": [ -1.147558383007045, 50.723088969632329 ] } },
{ "type": "Feature", "properties": { "visible_points": 0, "total_points": 111, "visibility_pct": 0.0 }, "geometry": { "type": "Point", "coordinates": [ -1.147362101488286, 50.723087535555457 ] } },
{ "type": "Feature", "properties": { "visible_points": 0, "total_points": 113, "visibility_pct": 0.0 }, "geometry": { "type": "Point", "coordinates": [ -1.147165819985144, 50.723086101148752 ] } },
{ "type": "Feature", "properties": { "visible_points": 0, "total_points": 114, "visibility_pct": 0.0 }, "geometry": { "type": "Point", "coordinates": [ -1.146969538497622, 50.723084666412191 ] } },
{ "type": "Feature", "properties": { "visible_points": 0, "total_points": 112, "visibility_pct": 0.0 }, "geometry": { "type": "Point", "coordinates": [ -1.146773257025725, 50.723083231345768 ] } },
{ "type": "Feature", "properties": { "visible_points": 1, "total_points": 104, "visibility_pct": 0.96153846153846156 }, "geometry": { "type": "Point", "coordinates": [ -1.146576975569457, 50.72308179594949 ] } },
{ "type": "Feature", "properties": { "visible_points": 0, "total_points": 94, "visibility_pct": 0.0 }, "geometry": { "type": "Point", "coordinates": [ -1.146380694128815, 50.723080360223385 ] } },
{ "type": "Feature", "properties": { "visible_points": 1, "total_points": 83, "visibility_pct": 1.2048192771084338 }, "geometry": { "type": "Point", "coordinates": [ -1.146184412703811, 50.723078924167396 ] } },
{ "type": "Feature", "properties": { "visible_points": 6, "total_points": 71, "visibility_pct": 8.4507042253521121 }, "geometry": { "type": "Point", "coordinates": [ -1.145988131294446, 50.723077487781559 ] } },
{ "type": "Feature", "properties": { "visible_points": 5, "total_points": 67, "visibility_pct": 7.4626865671641784 }, "geometry": { "type": "Point", "coordinates": [ -1.148243406410729, 50.723201888238691 ] } },
{ "type": "Feature", "properties": { "visible_points": 1, "total_points": 77, "visibility_pct": 1.2987012987012987 }, "geometry": { "type": "Point", "coordinates": [ -1.148047124402885, 50.723200455290133 ] } },
{ "type": "Feature", "properties": { "visible_points": 1, "total_points": 86, "visibility_pct": 1.1627906976744187 }, "geometry": { "type": "Point", "coordinates": [ -1.147850842410644, 50.72319902201172 ] } },
{ "type": "Feature", "properties": { "visible_points": 0, "total_points": 94, "visibility_pct": 0.0 }, "geometry": { "type": "Point", "coordinates": [ -1.147654560434009, 50.723197588403451 ] } },
{ "type": "Feature", "properties": { "visible_points": 0, "total_points": 100, "visibility_pct": 0.0 }, "geometry": { "type": "Point", "coordinates": [ -1.147458278472991, 50.723196154465334 ] } },
{ "type": "Feature", "properties": { "visible_points": 0, "total_points": 103, "visibility_pct": 0.0 }, "geometry": { "type": "Point", "coordinates": [ -1.147261996527586, 50.72319472019737 ] } },
{ "type": "Feature", "properties": { "visible_points": 0, "total_points": 104, "visibility_pct": 0.0 }, "geometry": { "type": "Point", "coordinates": [ -1.1470657145978, 50.723193285599542 ] } },
{ "type": "Feature", "properties": { "visible_points": 0, "total_points": 104, "visibility_pct": 0.0 }, "geometry": { "type": "Point", "coordinates": [ -1.146869432683636, 50.723191850671874 ] } },
{ "type": "Feature", "properties": { "visible_points": 0, "total_points": 99, "visibility_pct": 0.0 }, "geometry": { "type": "Point", "coordinates": [ -1.146673150785094, 50.723190415414336 ] } },
{ "type": "Feature", "properties": { "visible_points": 0, "total_points": 91, "visibility_pct": 0.0 }, "geometry": { "type": "Point", "coordinates": [ -1.146476868902189, 50.723188979826951 ] } },
{ "type": "Feature", "properties": { "visible_points": 0, "total_points": 81, "visibility_pct": 0.0 }, "geometry": { "type": "Point", "coordinates": [ -1.146280587034913, 50.723187543909702 ] } },
{ "type": "Feature", "properties": { "visible_points": 0, "total_points": 71, "visibility_pct": 0.0 }, "geometry": { "type": "Point", "coordinates": [ -1.14608430518327, 50.723186107662606 ] } },
{ "type": "Feature", "properties": { "visible_points": 0, "total_points": 87, "visibility_pct": 0.0 }, "geometry": { "type": "Point", "coordinates": [ -1.147554455884345, 50.723304773316464 ] } },
{ "type": "Feature", "properties": { "visible_points": 0, "total_points": 91, "visibility_pct": 0.0 }, "geometry": { "type": "Point", "coordinates": [ -1.14735817349668, 50.723303339187233 ] } },
{ "type": "Feature", "properties": { "visible_points": 0, "total_points": 93, "visibility_pct": 0.0 }, "geometry": { "type": "Point", "coordinates": [ -1.147161891124625, 50.723301904728139 ] } },
{ "type": "Feature", "properties": { "visible_points": 0, "total_points": 93, "visibility_pct": 0.0 }, "geometry": { "type": "Point", "coordinates": [ -1.146965608768191, 50.723300469939197 ] } },
{ "type": "Feature", "properties": { "visible_points": 0, "total_points": 92, "visibility_pct": 0.0 }, "geometry": { "type": "Point", "coordinates": [ -1.146769326427383, 50.723299034820414 ] } },
{ "type": "Feature", "properties": { "visible_points": 0, "total_points": 86, "visibility_pct": 0.0 }, "geometry": { "type": "Point", "coordinates": [ -1.146573044102203, 50.723297599371776 ] } },
{ "type": "Feature", "properties": { "visible_points": 0, "total_points": 78, "visibility_pct": 0.0 }, "geometry": { "type": "Point", "coordinates": [ -1.146376761792653, 50.723296163593261 ] } },
{ "type": "Feature", "properties": { "visible_points": 0, "total_points": 69, "visibility_pct": 0.0 }, "geometry": { "type": "Point", "coordinates": [ -1.14618047949874, 50.723294727484898 ] } },
{ "type": "Feature", "properties": { "visible_points": 0, "total_points": 79, "visibility_pct": 0.0 }, "geometry": { "type": "Point", "coordinates": [ -1.147454350892426, 50.723411958118334 ] } },
{ "type": "Feature", "properties": { "visible_points": 0, "total_points": 81, "visibility_pct": 0.0 }, "geometry": { "type": "Point", "coordinates": [ -1.147258068078103, 50.723410523797995 ] } },
{ "type": "Feature", "properties": { "visible_points": 0, "total_points": 81, "visibility_pct": 0.0 }, "geometry": { "type": "Point", "coordinates": [ -1.147061785279401, 50.7234090891478 ] } },
{ "type": "Feature", "properties": { "visible_points": 0, "total_points": 81, "visibility_pct": 0.0 }, "geometry": { "type": "Point", "coordinates": [ -1.146865502496319, 50.723407654167751 ] } },
{ "type": "Feature", "properties": { "visible_points": 0, "total_points": 79, "visibility_pct": 0.0 }, "geometry": { "type": "Point", "coordinates": [ -1.146669219728866, 50.723406218857846 ] } },
{ "type": "Feature", "properties": { "visible_points": 0, "total_points": 73, "visibility_pct": 0.0 }, "geometry": { "type": "Point", "coordinates": [ -1.146472936977041, 50.723404783218086 ] } },
{ "type": "Feature", "properties": { "visible_points": 0, "total_points": 68, "visibility_pct": 0.0 }, "geometry": { "type": "Point", "coordinates": [ -1.147354245458237, 50.72351914280911 ] } }
]
}
