{
"type": "FeatureCollection",
"name": "9b48a97d4aef_visibility",
"crs": { "type": "name", "properties": { "name": "urn:ogc:def:crs:OGC:1.3:CRS84" } },
"features": [
{ "type": "Feature", "properties": { "visible_points": 21, "total_points": 65, "visibility_pct": 32.307692307692307 }, "geometry": { "type": "Point", "coordinates": [ -1.283212272654335, 50.75441510515288 ] } },
{ "type": "Feature", "properties": { "visible_points": 20, "total_points": 63, "visibility_pct": 31.746031746031743 }, "geometry": { "type": "Point", "coordinates": [ -1.283015857299124, 50.754413900004494 ] } },
{ "type": "Feature", "properties": { "visible_points": 0, "total_points": 59, "visibility_pct": 0.0 }, "geometry": { "type": "Point", "coordinates": [ -1.282819441958216, 50.754412694525342 ] } },
{ "type": "Feature", "properties": { "visible_points": 18, "total_points": 78, "visibility_pct": 23.076923076923077 }, "geometry": { "type": "Point", "coordinates": [ -1.283505250842534, 50.754524816323801 ] } },
{ "type": "Feature", "properties": { "visible_points": 23, "total_points": 77, "visibility_pct": 29.870129870129869 }, "geometry": { "type": "Point", "coordinates": [ -1.283308834978078, 50.754523611664851 ] } },
{ "type": "Feature", "properties": { "visible_points": 23, "total_points": 75, "visibility_pct": 30.666666666666664 }, "geometry": { "type": "Point", "coordinates": [ -1.283112419127918, 50.754522406675143 ] } },
{ "type": "Feature", "properties": { "visible_points": 19, "total_points": 71, "visibility_pct": 26.760563380281688 }, "geometry": { "type": "Point", "coordinates": [ -1.282916003292072, 50.754521201354692 ] } },
{ "type": "Feature", "properties": { "visible_points": 17, "total_points": 84, "visibility_pct": 20.238095238095237 }, "geometry": { "type": "Point", "coordinates": [ -1.283798230515534, 50.754634526768506 ] } },
{ "type": "Feature", "properties": { "visible_points": 19, "total_points": 89, "visibility_pct": 21.348314606741571 }, "geometry": { "type": "Point", "coordinates": [ -1.283601814141833, 50.754633322598998 ] } },
{ "type": "Feature", "properties": { "visible_points": 21, "total_points": 89, "visibility_pct": 23.595505617977526 }, "geometry": { "type": "Point", "coordinates": [ -1.283405397782432, 50.754632118098741 ] } },
{ "type": "Feature", "properties": { "visible_points": 20, "total_points": 87, "visibility_pct": 22.988505747126435 }, "geometry": { "type": "Point", "coordinates": [ -1.283208981437331, 50.754630913267725 ] } },
{ "type": "Feature", "properties": { "visible_points": 20, "total_points": 84, "visibility_pct": 23.809523809523807 }, "geometry": { "type": "Point", "coordinates": [ -1.283012565106541, 50.754629708105966 ] } },
{ "type": "Feature", "properties": { "visible_points": 16, "total_points": 79, "visibility_pct": 20.253164556962027 }, "geometry": { "type": "Point", "coordinates": [ -1.282816148790068, 50.75462850261345 ] } },
{ "type": "Feature", "properties": { "visible_points": 11, "total_points": 80, "visibility_pct": 13.75 }, "geometry": { "type": "Point", "coordinates": [ -1.28428762857056, 50.75474543983627 ] } },
{ "type": "Feature", "properties": { "visible_points": 13, "total_points": 85, "visibility_pct": 15.294117647058824 }, "geometry": { "type": "Point", "coordinates": [ -1.284091211673333, 50.754744236486957 ] } },
{ "type": "Feature", "properties": { "visible_points": 19, "total_points": 91, "visibility_pct": 20.87912087912088 }, "geometry": { "type": "Point", "coordinates": [ -1.283894794790395, 50.754743032806928 ] } },
{ "type": "Feature", "properties": { "visible_points": 22, "total_points": 96, "visibility_pct": 22.916666666666664 }, "geometry": { "type": "Point", "coordinates": [ -1.283698377921753, 50.754741828796114 ] } },
{ "type": "Feature", "properties": { "visible_points": 25, "total_points": 101, "visibility_pct": 24.752475247524753 }, "geometry": { "type": "Point", "coordinates": [ -1.28350196106741, 50.754740624454556 ] } },
{ "type": "Feature", "properties": { "visible_points": 23, "total_points": 100, "visibility_pct": 23.0 }, "geometry": { "type": "Point", "coordinates": [ -1.283305544227369, 50.754739419782233 ] } },
{ "type": "Feature", "properties": { "visible_points": 20, "total_points": 97, "visibility_pct": 20.618556701030926 }, "geometry": { "type": "Point", "coordinates": [ -1.283109127401635, 50.754738214779167 ] } },
{ "type": "Feature", "properties": { "visible_points": 21, "total_points": 92, "visibility_pct": 22.826086956521738 }, "geometry": { "type": "Point", "coordinates": [ -1.282912710590211, 50.754737009445336 ] } },
{ "type": "Feature", "properties": { "visible_points": 17, "total_points": 84, "visibility_pct": 20.238095238095237 }, "geometry": { "type": "Point", "coordinates": [ -1.282716293793102, 50.754735803780747 ] } },
{ "type": "Feature", "properties": { "visible_points": 13, "total_points": 83, "visibility_pct": 15.66265060240964 }, "geometry": { "type": "Point", "coordinates": [ -1.284580611722376, 50.75485514833904 ] } },
{ "type": "Feature", "properties": { "visible_points": 23, "total_points": 87, "visibility_pct": 26.436781609195403 }, "geometry": { "type": "Point", "coordinates": [ -1.28438419431593, 50.754853945479212 ] } },
{ "type": "Feature", "properties": { "visible_points": 22, "total_points": 92, "visibility_pct": 23.913043478260871 }, "geometry": { "type": "Point", "coordinates": [ -1.284187776923764, 50.754852742288605 ] } },
{ "type": "Feature", "properties": { "visible_points": 22, "total_points": 97, "visibility_pct": 22.680412371134022 }, "geometry": { "type": "Point", "coordinates": [ -1.283991359545888, 50.754851538767255 ] } },
{ "type": "Feature", "properties": { "visible_points": 28, "total_points": 102, "visibility_pct": 27.450980392156865 }, "geometry": { "type": "Point", "coordinates": [ -1.283794942182303, 50.754850334915155 ] } },
{ "type": "Feature", "properties": { "visible_points": 26, "total_points": 107, "visibility_pct": 24.299065420560748 }, "geometry": { "type": "Point", "coordinates": [ -1.283598524833017, 50.754849130732296 ] } },
{ "type": "Feature", "properties": { "visible_points": 27, "total_points": 111, "visibility_pct": 24.324324324324326 }, "geometry": { "type": "Point", "coordinates": [ -1.28340210749803, 50.754847926218666 ] } },
{ "type": "Feature", "properties": { "visible_points": 23, "total_points": 110, "visibility_pct": 20.909090909090907 }, "geometry": { "type": "Point", "coordinates": [ -1.283205690177351, 50.754846721374292 ] } },
{ "type": "Feature", "properties": { "visible_points": 22, "total_points": 105, "visibility_pct": 20.952380952380953 }, "geometry": { "type": "Point", "coordinates": [ -1.283009272870975, 50.754845516199154 ] } },
{ "type": "Feature", "properties": { "visible_points": 21, "total_points": 97, "visibility_pct": 21.649484536082475 }, "geometry": { "type": "Point", "coordinates": [ -1.282812855578914, 50.754844310693251 ] } },
{ "type": "Feature", "properties": { "visible_points": 14, "total_points": 84, "visibility_pct": 16.666666666666664 }, "geometry": { "type": "Point", "coordinates": [ -1.282616438301172, 50.754843104856604 ] } },
{ "type": "Feature", "properties": { "visible_points": 22, "total_points": 73, "visibility_pct": 30.136986301369863 }, "geometry": { "type": "Point", "coordinates": [ -1.285070009908818, 50.754966058054528 ] } },
{ "type": "Feature", "properties": { "visible_points": 19, "total_points": 83, "visibility_pct": 22.891566265060241 }, "geometry": { "type": "Point", "coordinates": [ -1.284873594850717, 50.754964856080065 ] } },
{ "type": "Feature", "properties": { "visible_points": 25, "total_points": 90, "visibility_pct": 27.777777777777779 }, "geometry": { "type": "Point", "coordinates": [ -1.284677178410298, 50.754963653745655 ] } },
{ "type": "Feature", "properties": { "visible_points": 31, "total_points": 95, "visibility_pct": 32.631578947368425 }, "geometry": { "type": "Point", "coordinates": [ -1.284480760541937, 50.754962451044058 ] } },
{ "type": "Feature", "properties": { "visible_points": 33, "total_points": 99, "visibility_pct": 33.333333333333329 }, "geometry": { "type": "Point", "coordinates": [ -1.284284342654835, 50.754961248012172 ] } },
{ "type": "Feature", "properties": { "visible_points": 27, "total_points": 103, "visibility_pct": 26.21359223300971 }, "geometry": { "type": "Point", "coordinates": [ -1.284087924782018, 50.754960044649522 ] } },
{ "type": "Feature", "properties": { "visible_points": 29, "total_points": 108, "visibility_pct": 26.851851851851855 }, "geometry": { "type": "Point", "coordinates": [ -1.283891506923488, 50.754958840956114 ] } },
{ "type": "Feature", "properties": { "visible_points": 29, "total_points": 112, "visibility_pct": 25.892857142857146 }, "geometry": { "type": "Point", "coordinates": [ -1.283695089079256, 50.754957636931948 ] } },
{ "type": "Feature", "properties": { "visible_points": 32, "total_points": 115, "visibility_pct": 27.826086956521738 }, "geometry": { "type": "Point", "coordinates": [ -1.283498671249321, 50.754956432577011 ] } },
{ "type": "Feature", "properties": { "visible_points": 26, "total_points": 118, "visibility_pct": 22.033898305084744 }, "geometry": { "type": "Point", "coordinates": [ -1.283302253433693, 50.754955227891323 ] } },
{ "type": "Feature", "properties": { "visible_points": 26, "total_points": 114, "visibility_pct": 22.807017543859647 }, "geometry": { "type": "Point", "coordinates": [ -1.283105835632367, 50.754954022874877 ] } },
{ "type": "Feature", "properties": { "visible_points": 23, "total_points": 103, "visibility_pct": 22.330097087378643 }, "geometry": { "type": "Point", "coordinates": [ -1.282909417845351, 50.754952817527695 ] } },
{ "type": "Feature", "properties": { "visible_points": 16, "total_points": 90, "visibility_pct": 17.777777777777779 }, "geometry": { "type": "Point", "coordinates": [ -1.282713000072654, 50.754951611849719 ] } },
{ "type": "Feature", "properties": { "visible_points": 14, "total_points": 77, "visibility_pct": 18.181818181818183 }, "geometry": { "type": "Point", "coordinates": [ -1.282516582314272, 50.754950405840994 ] } },
{ "type": "Feature", "properties": { "visible_points": 1, "total_points": 54, "visibility_pct": 1.8518518518518516 }, "geometry": { "type": "Point", "coordinates": [ -1.285559407729033, 50.755076965750732 ] } },
{ "type": "Feature", "properties": { "visible_points": 14, "total_points": 65, "visibility_pct": 21.53846153846154 }, "geometry": { "type": "Point", "coordinates": [ -1.285362992175249, 50.755075764576389 ] } },
{ "type": "Feature", "properties": { "visible_points": 20, "total_points": 76, "visibility_pct": 26.315789473684209 }, "geometry": { "type": "Point", "coordinates": [ -1.285166576635142, 50.755074563071709 ] } },
{ "type": "Feature", "properties": { "visible_points": 25, "total_points": 86, "visibility_pct": 29.069767441860467 }, "geometry": { "type": "Point", "coordinates": [ -1.284970161108717, 50.755073361236711 ] } },
{ "type": "Feature", "properties": { "visible_points": 30, "total_points": 96, "visibility_pct": 31.25 }, "geometry": { "type": "Point", "coordinates": [ -1.284773744973716, 50.755072159065975 ] } },
{ "type": "Feature", "properties": { "visible_points": 35, "total_points": 102, "visibility_pct": 34.313725490196077 }, "geometry": { "type": "Point", "coordinates": [ -1.284577327248593, 50.755070956530837 ] } },
{ "type": "Feature", "properties": { "visible_points": 32, "total_points": 105, "visibility_pct": 30.476190476190478 }, "geometry": { "type": "Point", "coordinates": [ -1.284380908866545, 50.755069753657644 ] } },
{ "type": "Feature", "properties": { "visible_points": 33, "total_points": 109, "visibility_pct": 30.275229357798167 }, "geometry": { "type": "Point", "coordinates": [ -1.284184490498784, 50.755068550453686 ] } },
{ "type": "Feature", "properties": { "visible_points": 29, "total_points": 113, "visibility_pct": 25.663716814159294 }, "geometry": { "type": "Point", "coordinates": [ -1.283988072145312, 50.755067346918977 ] } },
{ "type": "Feature", "properties": { "visible_points": 28, "total_points": 116, "visibility_pct": 24.137931034482758 }, "geometry": { "type": "Point", "coordinates": [ -1.283791653806131, 50.755066143053519 ] } },
{ "type": "Feature", "properties": { "visible_points": 26, "total_points": 118, "visibility_pct": 22.033898305084744 }, "geometry": { "type": "Point", "coordinates": [ -1.283595235481246, 50.755064938857281 ] } },
{ "type": "Feature", "properties": { "visible_points": 21, "total_points": 118, "visibility_pct": 17.796610169491526 }, "geometry": { "type": "Point", "coordinates": [ -1.283398817170664, 50.755063734330299 ] } },
{ "type": "Feature", "properties": { "visible_points": 19, "total_points": 116, "visibility_pct": 16.379310344827587 }, "geometry": { "type": "Point", "coordinates": [ -1.283202398874387, 50.755062529472553 ] } },
{ "type": "Feature", "properties": { "visible_points": 20, "total_points": 107, "visibility_pct": 18.691588785046729 }, "geometry": { "type": "Point", "coordinates": [ -1.283005980592415, 50.755061324284036 ] } },
{ "type": "Feature", "properties": { "visible_points": 0, "total_points": 94, "visibility_pct": 0.0 }, "geometry": { "type": "Point", "coordinates": [ -1.28280956232476, 50.755060118764767 ] } },
{ "type": "Feature", "properties": { "visible_points": 0, "total_points": 81, "visibility_pct": 0.0 }, "geometry": { "type": "Point", "coordinates": [ -1.28261314407142, 50.755058912914734 ] } },
{ "type": "Feature", "properties": { "visible_points": 13, "total_points": 69, "visibility_pct": 18.840579710144929 }, "geometry": { "type": "Point", "coordinates": [ -1.2824167258324, 50.755057706733957 ] } },
{ "type": "Feature", "properties": { "visible_points": 0, "total_points": 64, "visibility_pct": 0.0 }, "geometry": { "type": "Point", "coordinates": [ -1.285459559824537, 50.755184269394846 ] } },
{ "type": "Feature", "properties": { "visible_points": 21, "total_points": 76, "visibility_pct": 27.631578947368425 }, "geometry": { "type": "Point", "coordinates": [ -1.285263143816101, 50.755183068029652 ] } },
{ "type": "Feature", "properties": { "visible_points": 24, "total_points": 88, "visibility_pct": 27.27272727272727 }, "geometry": { "type": "Point", "coordinates": [ -1.285066727821345, 50.755181866334112 ] } },
{ "type": "Feature", "properties": { "visible_points": 24, "total_points": 99, "visibility_pct": 24.242424242424242 }, "geometry": { "type": "Point", "coordinates": [ -1.284870311840269, 50.75518066430822 ] } },
{ "type": "Feature", "properties": { "visible_points": 30, "total_points": 108, "visibility_pct": 27.777777777777779 }, "geometry": { "type": "Point", "coordinates": [ -1.284673894424003, 50.755179461940408 ] } },
{ "type": "Feature", "properties": { "visible_points": 32, "total_points": 111, "visibility_pct": 28.828828828828829 }, "geometry": { "type": "Point", "coordinates": [ -1.2844774755589, 50.755178259225033 ] } },
{ "type": "Feature", "properties": { "visible_points": 36, "total_points": 114, "visibility_pct": 31.578947368421051 }, "geometry": { "type": "Point", "coordinates": [ -1.284281056696196, 50.755177056179782 ] } },
{ "type": "Feature", "properties": { "visible_points": 29, "total_points": 117, "visibility_pct": 24.786324786324787 }, "geometry": { "type": "Point", "coordinates": [ -1.284084637847773, 50.755175852803774 ] } },
{ "type": "Feature", "properties": { "visible_points": 25, "total_points": 118, "visibility_pct": 21.1864406779661 }, "geometry": { "type": "Point", "coordinates": [ -1.283888219013644, 50.755174649097007 ] } },
{ "type": "Feature", "properties": { "visible_points": 23, "total_points": 117, "visibility_pct": 19.658119658119659 }, "geometry": { "type": "Point", "coordinates": [ -1.283691800193809, 50.755173445059469 ] } },
{ "type": "Feature", "properties": { "visible_points": 26, "total_points": 114, "visibility_pct": 22.807017543859647 }, "geometry": { "type": "Point", "coordinates": [ -1.283495381388273, 50.755172240691188 ] } },
{ "type": "Feature", "properties": { "visible_points": 17, "total_points": 111, "visibility_pct": 15.315315315315313 }, "geometry": { "type": "Point", "coordinates": [ -1.283298962597036, 50.755171035992134 ] } },
{ "type": "Feature", "properties": { "visible_points": 0, "total_points": 107, "visibility_pct": 0.0 }, "geometry": { "type": "Point", "coordinates": [ -1.283102543820115, 50.755169830962323 ] } },
{ "type": "Feature", "properties": { "visible_points": 0, "total_points": 96, "visibility_pct": 0.0 }, "geometry": { "type": "Point", "coordinates": [ -1.282906125057493, 50.755168625601733 ] } },
{ "type": "Feature", "properties": { "visible_points": 0, "total_points": 84, "visibility_pct": 0.0 }, "geometry": { "type": "Point", "coordinates": [ -1.282709706309198, 50.7551674199104 ] } },
{ "type": "Feature", "properties": { "visible_points": 6, "total_points": 72, "visibility_pct": 8.3333333333333321 }, "geometry": { "type": "Point", "coordinates": [ -1.282513287575213, 50.755166213888302 ] } },
{ "type": "Feature", "properties": { "visible_points": 11, "total_points": 60, "visibility_pct": 18.333333333333332 }, "geometry": { "type": "Point", "coordinates": [ -1.282316868855556, 50.755165007535439 ] } },
{ "type": "Feature", "properties": { "visible_points": 19, "total_points": 74, "visibility_pct": 25.675675675675674 }, "geometry": { "type": "Point", "coordinates": [ -1.285359711451692, 50.755291572928286 ] } },
{ "type": "Feature", "properties": { "visible_points": 25, "total_points": 86, "visibility_pct": 29.069767441860467 }, "geometry": { "type": "Point", "coordinates": [ -1.285163294988609, 50.75529037137219 ] } },
{ "type": "Feature", "properties": { "visible_points": 29, "total_points": 99, "visibility_pct": 29.292929292929294 }, "geometry": { "type": "Point", "coordinates": [ -1.284966878539196, 50.755289169485785 ] } },
{ "type": "Feature", "properties": { "visible_points": 31, "total_points": 111, "visibility_pct": 27.927927927927925 }, "geometry": { "type": "Point", "coordinates": [ -1.284770461447142, 50.755287967267641 ] } },
{ "type": "Feature", "properties": { "visible_points": 31, "total_points": 116, "visibility_pct": 26.72413793103448 }, "geometry": { "type": "Point", "coordinates": [ -1.284574042731909, 50.755286764714334 ] } },
{ "type": "Feature", "properties": { "visible_points": 32, "total_points": 118, "visibility_pct": 27.118644067796609 }, "geometry": { "type": "Point", "coordinates": [ -1.284377623374253, 50.75528556182779 ] } },
{ "type": "Feature", "properties": { "visible_points": 33, "total_points": 118, "visibility_pct": 27.966101694915253 }, "geometry": { "type": "Point", "coordinates": [ -1.284181204030884, 50.755284358610481 ] } },
{ "type": "Feature", "properties": { "visible_points": 21, "total_points": 116, "visibility_pct": 18.103448275862068 }, "geometry": { "type": "Point", "coordinates": [ -1.283984784701799, 50.755283155062415 ] } },
{ "type": "Feature", "properties": { "visible_points": 20, "total_points": 113, "visibility_pct": 17.699115044247787 }, "geometry": { "type": "Point", "coordinates": [ -1.28378836538701, 50.755281951183591 ] } },
{ "type": "Feature", "properties": { "visible_points": 16, "total_points": 109, "visibility_pct": 14.678899082568808 }, "geometry": { "type": "Point", "coordinates": [ -1.28359194608652, 50.75528074697398 ] } },
{ "type": "Feature", "properties": { "visible_points": 0, "total_points": 105, "visibility_pct": 0.0 }, "geometry": { "type": "Point", "coordinates": [ -1.283395526800328, 50.755279542433641 ] } },
{ "type": "Feature", "properties": { "visible_points": 0, "total_points": 101, "visibility_pct": 0.0 }, "geometry": { "type": "Point", "coordinates": [ -1.283199107528443, 50.755278337562515 ] } },
{ "type": "Feature", "properties": { "visible_points": 0, "total_points": 95, "visibility_pct": 0.0 }, "geometry": { "type": "Point", "coordinates": [ -1.283002688270866, 50.755277132360632 ] } },
{ "type": "Feature", "properties": { "visible_points": 0, "total_points": 84, "visibility_pct": 0.0 }, "geometry": { "type": "Point", "coordinates": [ -1.2828062690276, 50.755275926827984 ] } },
{ "type": "Feature", "properties": { "visible_points": 5, "total_points": 73, "visibility_pct": 6.8493150684931505 }, "geometry": { "type": "Point", "coordinates": [ -1.282609849798651, 50.755274720964572 ] } },
{ "type": "Feature", "properties": { "visible_points": 6, "total_points": 62, "visibility_pct": 9.67741935483871 }, "geometry": { "type": "Point", "coordinates": [ -1.282413430584031, 50.755273514770408 ] } },
{ "type": "Feature", "properties": { "visible_points": 0, "total_points": 68, "visibility_pct": 0.0 }, "geometry": { "type": "Point", "coordinates": [ -1.28545627954193, 50.755400077767661 ] } },
{ "type": "Feature", "properties": { "visible_points": 17, "total_points": 81, "visibility_pct": 20.987654320987652 }, "geometry": { "type": "Point", "coordinates": [ -1.285259862610509, 50.755398876351059 ] } },
{ "type": "Feature", "properties": { "visible_points": 27, "total_points": 94, "visibility_pct": 28.723404255319153 }, "geometry": { "type": "Point", "coordinates": [ -1.285063445692765, 50.755397674604076 ] } },
{ "type": "Feature", "properties": { "visible_points": 25, "total_points": 107, "visibility_pct": 23.364485981308412 }, "geometry": { "type": "Point", "coordinates": [ -1.284867028778572, 50.755396472527821 ] } },
{ "type": "Feature", "properties": { "visible_points": 31, "total_points": 117, "visibility_pct": 26.495726495726498 }, "geometry": { "type": "Point", "coordinates": [ -1.284670610385571, 50.755395270125547 ] } },
{ "type": "Feature", "properties": { "visible_points": 26, "total_points": 118, "visibility_pct": 22.033898305084744 }, "geometry": { "type": "Point", "coordinates": [ -1.284474190532963, 50.755394067397717 ] } },
{ "type": "Feature", "properties": { "visible_points": 28, "total_points": 115, "visibility_pct": 24.347826086956523 }, "geometry": { "type": "Point", "coordinates": [ -1.284277770694642, 50.755392864339093 ] } },
{ "type": "Feature", "properties": { "visible_points": 24, "total_points": 112, "visibility_pct": 21.428571428571427 }, "geometry": { "type": "Point", "coordinates": [ -1.284081350870603, 50.755391660949726 ] } },
{ "type": "Feature", "properties": { "visible_points": 8, "total_points": 108, "visibility_pct": 7.4074074074074066 }, "geometry": { "type": "Point", "coordinates": [ -1.28388493106086, 50.755390457229588 ] } },
{ "type": "Feature", "properties": { "visible_points": 0, "total_points": 103, "visibility_pct": 0.0 }, "geometry": { "type": "Point", "coordinates": [ -1.283688511265411, 50.755389253178706 ] } },
{ "type": "Feature", "properties": { "visible_points": 6, "total_points": 99, "visibility_pct": 6.0606060606060606 }, "geometry": { "type": "Point", "coordinates": [ -1.283492091484258, 50.755388048797052 ] } },
{ "type": "Feature", "properties": { "visible_points": 0, "total_points": 94, "visibility_pct": 0.0 }, "geometry": { "type": "Point", "coordinates": [ -1.283295671717411, 50.755386844084633 ] } },
{ "type": "Feature", "properties": { "visible_points": 0, "total_points": 89, "visibility_pct": 0.0 }, "geometry": { "type": "Point", "coordinates": [ -1.283099251964872, 50.75538563904145 ] } },
{ "type": "Feature", "properties": { "visible_points": 0, "total_points": 82, "visibility_pct": 0.0 }, "geometry": { "type": "Point", "coordinates": [ -1.282902832226643, 50.755384433667494 ] } },
{ "type": "Feature", "properties": { "visible_points": 4, "total_points": 72, "visibility_pct": 5.5555555555555554 }, "geometry": { "type": "Point", "coordinates": [ -1.282706412502725, 50.755383227962788 ] } },
{ "type": "Feature", "properties": { "visible_points": 0, "total_points": 74, "visibility_pct": 0.0 }, "geometry": { "type": "Point", "coordinates": [ -1.285356430687053, 50.755507381270604 ] } },
{ "type": "Feature", "properties": { "visible_points": 20, "total_points": 86, "visibility_pct": 23.255813953488371 }, "geometry": { "type": "Point", "coordinates": [ -1.28516001330097, 50.755506179663108 ] } },
{ "type": "Feature", "properties": { "visible_points": 26, "total_points": 97, "visibility_pct": 26.804123711340207 }, "geometry": { "type": "Point", "coordinates": [ -1.284963595928575, 50.755504977725288 ] } },
{ "type": "Feature", "properties": { "visible_points": 30, "total_points": 105, "visibility_pct": 28.571428571428569 }, "geometry": { "type": "Point", "coordinates": [ -1.284767177874891, 50.755503775460397 ] } },
{ "type": "Feature", "properties": { "visible_points": 29, "total_points": 110, "visibility_pct": 26.36363636363636 }, "geometry": { "type": "Point", "coordinates": [ -1.284570758172329, 50.755502572889526 ] } },
{ "type": "Feature", "properties": { "visible_points": 24, "total_points": 108, "visibility_pct": 22.222222222222221 }, "geometry": { "type": "Point", "coordinates": [ -1.284374337839052, 50.755501369989638 ] } },
{ "type": "Feature", "properties": { "visible_points": 13, "total_points": 106, "visibility_pct": 12.264150943396226 }, "geometry": { "type": "Point", "coordinates": [ -1.284177917520058, 50.755500166758964 ] } },
{ "type": "Feature", "properties": { "visible_points": 11, "total_points": 102, "visibility_pct": 10.784313725490197 }, "geometry": { "type": "Point", "coordinates": [ -1.283981497215356, 50.755498963197539 ] } },
{ "type": "Feature", "properties": { "visible_points": 0, "total_points": 97, "visibility_pct": 0.0 }, "geometry": { "type": "Point", "coordinates": [ -1.283785076924949, 50.755497759305356 ] } },
{ "type": "Feature", "properties": { "visible_points": 0, "total_points": 92, "visibility_pct": 0.0 }, "geometry": { "type": "Point", "coordinates": [ -1.283588656648833, 50.755496555082388 ] } },
{ "type": "Feature", "properties": { "visible_points": 1, "total_points": 87, "visibility_pct": 1.1494252873563218 }, "geometry": { "type": "Point", "coordinates": [ -1.283392236387024, 50.755495350528669 ] } },
{ "type": "Feature", "properties": { "visible_points": 2, "total_points": 82, "visibility_pct": 2.4390243902439024 }, "geometry": { "type": "Point", "coordinates": [ -1.283195816139517, 50.755494145644178 ] } },
{ "type": "Feature", "properties": { "visible_points": 14, "total_points": 74, "visibility_pct": 18.918918918918919 }, "geometry": { "type": "Point", "coordinates": [ -1.285256581363823, 50.755614684662881 ] } },
{ "type": "Feature", "properties": { "visible_points": 24, "total_points": 84, "visibility_pct": 28.571428571428569 }, "geometry": { "type": "Point", "coordinates": [ -1.285060163523086, 50.755613482864504 ] } },
{ "type": "Feature", "properties": { "visible_points": 20, "total_points": 92, "visibility_pct": 21.739130434782609 }, "geometry": { "type": "Point", "coordinates": [ -1.284863745663063, 50.75561228073704 ] } },
{ "type": "Feature", "properties": { "visible_points": 27, "total_points": 97, "visibility_pct": 27.835051546391753 }, "geometry": { "type": "Point", "coordinates": [ -1.284667326292351, 50.755611078303275 ] } },
{ "type": "Feature", "properties": { "visible_points": 21, "total_points": 99, "visibility_pct": 21.212121212121211 }, "geometry": { "type": "Point", "coordinates": [ -1.28447090546412, 50.755609875562087 ] } },
{ "type": "Feature", "properties": { "visible_points": 9, "total_points": 97, "visibility_pct": 9.2783505154639183 }, "geometry": { "type": "Point", "coordinates": [ -1.284274484650167, 50.755608672490119 ] } },
{ "type": "Feature", "properties": { "visible_points": 0, "total_points": 94, "visibility_pct": 0.0 }, "geometry": { "type": "Point", "coordinates": [ -1.284078063850505, 50.755607469087408 ] } },
{ "type": "Feature", "properties": { "visible_points": 0, "total_points": 90, "visibility_pct": 0.0 }, "geometry": { "type": "Point", "coordinates": [ -1.283881643065136, 50.755606265353897 ] } },
{ "type": "Feature", "properties": { "visible_points": 0, "total_points": 85, "visibility_pct": 0.0 }, "geometry": { "type": "Point", "coordinates": [ -1.283685222294059, 50.755605061289643 ] } },
{ "type": "Feature", "properties": { "visible_points": 1, "total_points": 80, "visibility_pct": 1.25 }, "geometry": { "type": "Point", "coordinates": [ -1.283488801537284, 50.755603856894624 ] } },
{ "type": "Feature", "properties": { "visible_points": 15, "total_points": 71, "visibility_pct": 21.12676056338028 }, "geometry": { "type": "Point", "coordinates": [ -1.285156731572237, 50.755721987944447 ] } },
{ "type": "Feature", "properties": { "visible_points": 17, "total_points": 79, "visibility_pct": 21.518987341772153 }, "geometry": { "type": "Point", "coordinates": [ -1.284960313276839, 50.755720785955226 ] } },
{ "type": "Feature", "properties": { "visible_points": 13, "total_points": 84, "visibility_pct": 15.476190476190476 }, "geometry": { "type": "Point", "coordinates": [ -1.284763894259502, 50.75571958364457 ] } },
{ "type": "Feature", "properties": { "visible_points": 0, "total_points": 87, "visibility_pct": 0.0 }, "geometry": { "type": "Point", "coordinates": [ -1.284567473569847, 50.755718381056425 ] } },
{ "type": "Feature", "properties": { "visible_points": 0, "total_points": 87, "visibility_pct": 0.0 }, "geometry": { "type": "Point", "coordinates": [ -1.284371052260937, 50.755717178143179 ] } },
{ "type": "Feature", "properties": { "visible_points": 0, "total_points": 85, "visibility_pct": 0.0 }, "geometry": { "type": "Point", "coordinates": [ -1.284174630966312, 50.755715974899168 ] } },
{ "type": "Feature", "properties": { "visible_points": 2, "total_points": 82, "visibility_pct": 2.4390243902439024 }, "geometry": { "type": "Point", "coordinates": [ -1.283978209685975, 50.755714771324378 ] } },
{ "type": "Feature", "properties": { "visible_points": 7, "total_points": 59, "visibility_pct": 11.864406779661017 }, "geometry": { "type": "Point", "coordinates": [ -1.285253300076044, 50.755830492965131 ] } },
{ "type": "Feature", "properties": { "visible_points": 6, "total_points": 75, "visibility_pct": 8.0 }, "geometry": { "type": "Point", "coordinates": [ -1.28466404215624, 50.755826886472704 ] } },
{ "type": "Feature", "properties": { "visible_points": 0, "total_points": 76, "visibility_pct": 0.0 }, "geometry": { "type": "Point", "coordinates": [ -1.28446762035237, 50.755825683718157 ] } },
{ "type": "Feature", "properties": { "visible_points": 2, "total_points": 75, "visibility_pct": 2.666666666666667 }, "geometry": { "type": "Point", "coordinates": [ -1.28427119856278, 50.755824480632846 ] } },
{ "type": "Feature", "properties": { "visible_points": 3, "total_points": 64, "visibility_pct": 4.6875 }, "geometry": { "type": "Point", "coordinates": [ -1.284564188924466, 50.755934189215047 ] } }
]
}
