{
"type": "FeatureCollection",
"name": "d4743d33a4cf_visibility",
"crs": { "type": "name", "properties": { "name": "urn:ogc:def:crs:OGC:1.3:CRS84" } },
"features": [
{ "type": "Feature", "properties": { "visible_points": 0, "total_points": 79, "visibility_pct": 0.0 }, "geometry": { "type": "Point", "coordinates": [ -1.285850990655277, 50.750226103340658 ] } },
{ "type": "Feature", "properties": { "visible_points": 0, "total_points": 80, "visibility_pct": 0.0 }, "geometry": { "type": "Point", "coordinates": [ -1.285654595880317, 50.750224903630389 ] } },
{ "type": "Feature", "properties": { "visible_points": 0, "total_points": 81, "visibility_pct": 0.0 }, "geometry": { "type": "Point", "coordinates": [ -1.285458201119278, 50.750223703589469 ] } },
{ "type": "Feature", "properties": { "visible_points": 0, "total_points": 82, "visibility_pct": 0.0 }, "geometry": { "type": "Point", "coordinates": [ -1.285261806372163, 50.750222503217955 ] } },
{ "type": "Feature", "properties": { "visible_points": 0, "total_points": 83, "visibility_pct": 0.0 }, "geometry": { "type": "Point", "coordinates": [ -1.285065411638966, 50.750221302515826 ] } },
{ "type": "Feature", "properties": { "visible_points": 0, "total_points": 84, "visibility_pct": 0.0 }, "geometry": { "type": "Point", "coordinates": [ -1.284869016919704, 50.750220101483073 ] } },
{ "type": "Feature", "properties": { "visible_points": 3, "total_points": 85, "visibility_pct": 3.5294117647058822 }, "geometry": { "type": "Point", "coordinates": [ -1.284672621322356, 50.750218899693884 ] } },
{ "type": "Feature", "properties": { "visible_points": 0, "total_points": 86, "visibility_pct": 0.0 }, "geometry": { "type": "Point", "coordinates": [ -1.284476224841152, 50.750217697141572 ] } },
{ "type": "Feature", "properties": { "visible_points": 0, "total_points": 87, "visibility_pct": 0.0 }, "geometry": { "type": "Point", "coordinates": [ -1.28427982837141, 50.750216494258353 ] } },
{ "type": "Feature", "properties": { "visible_points": 11, "total_points": 88, "visibility_pct": 12.5 }, "geometry": { "type": "Point", "coordinates": [ -1.284083431915668, 50.750215291044391 ] } },
{ "type": "Feature", "properties": { "visible_points": 5, "total_points": 88, "visibility_pct": 5.6818181818181817 }, "geometry": { "type": "Point", "coordinates": [ -1.283887035473919, 50.7502140874997 ] } },
{ "type": "Feature", "properties": { "visible_points": 0, "total_points": 88, "visibility_pct": 0.0 }, "geometry": { "type": "Point", "coordinates": [ -1.283690639046169, 50.750212883624258 ] } },
{ "type": "Feature", "properties": { "visible_points": 6, "total_points": 88, "visibility_pct": 6.8181818181818175 }, "geometry": { "type": "Point", "coordinates": [ -1.283494242632427, 50.750211679418079 ] } },
{ "type": "Feature", "properties": { "visible_points": 0, "total_points": 88, "visibility_pct": 0.0 }, "geometry": { "type": "Point", "coordinates": [ -1.283297846232689, 50.750210474881165 ] } },
{ "type": "Feature", "properties": { "visible_points": 0, "total_points": 88, "visibility_pct": 0.0 }, "geometry": { "type": "Point", "coordinates": [ -1.283101449846966, 50.750209270013514 ] } },
{ "type": "Feature", "properties": { "visible_points": 8, "total_points": 88, "visibility_pct": 9.0909090909090917 }, "geometry": { "type": "Point", "coordinates": [ -1.282905053475257, 50.750208064815112 ] } },
{ "type": "Feature", "properties": { "visible_points": 0, "total_points": 87, "visibility_pct": 0.0 }, "geometry": { "type": "Point", "coordinates": [ -1.282708657117567, 50.750206859285981 ] } },
{ "type": "Feature", "properties": { "visible_points": 0, "total_points": 80, "visibility_pct": 0.0 }, "geometry": { "type": "Point", "coordinates": [ -1.282512260773899, 50.7502056534261 ] } },
{ "type": "Feature", "properties": { "visible_points": 0, "total_points": 72, "visibility_pct": 0.0 }, "geometry": { "type": "Point", "coordinates": [ -1.282315864444263, 50.75020444723549 ] } },
{ "type": "Feature", "properties": { "visible_points": 0, "total_points": 63, "visibility_pct": 0.0 }, "geometry": { "type": "Point", "coordinates": [ -1.282119468128659, 50.750203240714136 ] } },
{ "type": "Feature", "properties": { "visible_points": 6, "total_points": 54, "visibility_pct": 11.111111111111111 }, "geometry": { "type": "Point", "coordinates": [ -1.281923071827087, 50.75020203386206 ] } },
{ "type": "Feature", "properties": { "visible_points": 2, "total_points": 62, "visibility_pct": 3.225806451612903 }, "geometry": { "type": "Point", "coordinates": [ -1.287518711032521, 50.750344192839535 ] } },
{ "type": "Feature", "properties": { "visible_points": 0, "total_points": 70, "visibility_pct": 0.0 }, "geometry": { "type": "Point", "coordinates": [ -1.287322315667031, 50.750342995928897 ] } },
{ "type": "Feature", "properties": { "visible_points": 12, "total_points": 77, "visibility_pct": 15.584415584415584 }, "geometry": { "type": "Point", "coordinates": [ -1.287125920315422, 50.75034179868765 ] } },
{ "type": "Feature", "properties": { "visible_points": 0, "total_points": 83, "visibility_pct": 0.0 }, "geometry": { "type": "Point", "coordinates": [ -1.286929524977705, 50.750340601115788 ] } },
{ "type": "Feature", "properties": { "visible_points": 0, "total_points": 87, "visibility_pct": 0.0 }, "geometry": { "type": "Point", "coordinates": [ -1.286733129653876, 50.750339403213296 ] } },
{ "type": "Feature", "properties": { "visible_points": 21, "total_points": 88, "visibility_pct": 23.863636363636363 }, "geometry": { "type": "Point", "coordinates": [ -1.286536734343946, 50.750338204980196 ] } },
{ "type": "Feature", "properties": { "visible_points": 31, "total_points": 88, "visibility_pct": 35.227272727272727 }, "geometry": { "type": "Point", "coordinates": [ -1.28634033904791, 50.750337006416466 ] } },
{ "type": "Feature", "properties": { "visible_points": 31, "total_points": 88, "visibility_pct": 35.227272727272727 }, "geometry": { "type": "Point", "coordinates": [ -1.286143943765781, 50.750335807522099 ] } },
{ "type": "Feature", "properties": { "visible_points": 0, "total_points": 89, "visibility_pct": 0.0 }, "geometry": { "type": "Point", "coordinates": [ -1.285947548497558, 50.750334608297131 ] } },
{ "type": "Feature", "properties": { "visible_points": 17, "total_points": 90, "visibility_pct": 18.888888888888889 }, "geometry": { "type": "Point", "coordinates": [ -1.285751153243246, 50.750333408741547 ] } },
{ "type": "Feature", "properties": { "visible_points": 43, "total_points": 91, "visibility_pct": 47.252747252747248 }, "geometry": { "type": "Point", "coordinates": [ -1.285554758002849, 50.750332208855333 ] } },
{ "type": "Feature", "properties": { "visible_points": 37, "total_points": 92, "visibility_pct": 40.217391304347828 }, "geometry": { "type": "Point", "coordinates": [ -1.285358362776372, 50.750331008638497 ] } },
{ "type": "Feature", "properties": { "visible_points": 0, "total_points": 93, "visibility_pct": 0.0 }, "geometry": { "type": "Point", "coordinates": [ -1.285161967563815, 50.750329808091045 ] } },
{ "type": "Feature", "properties": { "visible_points": 27, "total_points": 94, "visibility_pct": 28.723404255319153 }, "geometry": { "type": "Point", "coordinates": [ -1.284965572365184, 50.750328607212985 ] } },
{ "type": "Feature", "properties": { "visible_points": 0, "total_points": 95, "visibility_pct": 0.0 }, "geometry": { "type": "Point", "coordinates": [ -1.284769176776254, 50.7503274059058 ] } },
{ "type": "Feature", "properties": { "visible_points": 29, "total_points": 96, "visibility_pct": 30.208333333333332 }, "geometry": { "type": "Point", "coordinates": [ -1.284572780206846, 50.750326203608381 ] } },
{ "type": "Feature", "properties": { "visible_points": 0, "total_points": 97, "visibility_pct": 0.0 }, "geometry": { "type": "Point", "coordinates": [ -1.284376383255545, 50.750325000885333 ] } },
{ "type": "Feature", "properties": { "visible_points": 21, "total_points": 98, "visibility_pct": 21.428571428571427 }, "geometry": { "type": "Point", "coordinates": [ -1.284179986318238, 50.750323797831548 ] } },
{ "type": "Feature", "properties": { "visible_points": 19, "total_points": 98, "visibility_pct": 19.387755102040817 }, "geometry": { "type": "Point", "coordinates": [ -1.283983589394924, 50.750322594447027 ] } },
{ "type": "Feature", "properties": { "visible_points": 8, "total_points": 98, "visibility_pct": 8.1632653061224492 }, "geometry": { "type": "Point", "coordinates": [ -1.283787192485613, 50.75032139073177 ] } },
{ "type": "Feature", "properties": { "visible_points": 14, "total_points": 98, "visibility_pct": 14.285714285714285 }, "geometry": { "type": "Point", "coordinates": [ -1.283590795590297, 50.750320186685762 ] } },
{ "type": "Feature", "properties": { "visible_points": 19, "total_points": 98, "visibility_pct": 19.387755102040817 }, "geometry": { "type": "Point", "coordinates": [ -1.283394398708991, 50.750318982309025 ] } },
{ "type": "Feature", "properties": { "visible_points": 21, "total_points": 98, "visibility_pct": 21.428571428571427 }, "geometry": { "type": "Point", "coordinates": [ -1.283198001841694, 50.750317777601552 ] } },
{ "type": "Feature", "properties": { "visible_points": 19, "total_points": 98, "visibility_pct": 19.387755102040817 }, "geometry": { "type": "Point", "coordinates": [ -1.283001604988414, 50.750316572563328 ] } },
{ "type": "Feature", "properties": { "visible_points": 22, "total_points": 98, "visibility_pct": 22.448979591836736 }, "geometry": { "type": "Point", "coordinates": [ -1.282805208149147, 50.750315367194361 ] } },
{ "type": "Feature", "properties": { "visible_points": 21, "total_points": 93, "visibility_pct": 22.58064516129032 }, "geometry": { "type": "Point", "coordinates": [ -1.282608811323904, 50.75031416149465 ] } },
{ "type": "Feature", "properties": { "visible_points": 20, "total_points": 84, "visibility_pct": 23.809523809523807 }, "geometry": { "type": "Point", "coordinates": [ -1.282412414512688, 50.750312955464217 ] } },
{ "type": "Feature", "properties": { "visible_points": 18, "total_points": 74, "visibility_pct": 24.324324324324326 }, "geometry": { "type": "Point", "coordinates": [ -1.282216017715502, 50.750311749103012 ] } },
{ "type": "Feature", "properties": { "visible_points": 16, "total_points": 64, "visibility_pct": 25.0 }, "geometry": { "type": "Point", "coordinates": [ -1.282019620932345, 50.750310542411079 ] } },
{ "type": "Feature", "properties": { "visible_points": 6, "total_points": 54, "visibility_pct": 11.111111111111111 }, "geometry": { "type": "Point", "coordinates": [ -1.281823224163229, 50.750309335388415 ] } },
{ "type": "Feature", "properties": { "visible_points": 0, "total_points": 65, "visibility_pct": 0.0 }, "geometry": { "type": "Point", "coordinates": [ -1.287615273175041, 50.750452696484217 ] } },
{ "type": "Feature", "properties": { "visible_points": 27, "total_points": 74, "visibility_pct": 36.486486486486484 }, "geometry": { "type": "Point", "coordinates": [ -1.287418877330206, 50.7504514997283 ] } },
{ "type": "Feature", "properties": { "visible_points": 33, "total_points": 83, "visibility_pct": 39.75903614457831 }, "geometry": { "type": "Point", "coordinates": [ -1.287222481499252, 50.750450302641745 ] } },
{ "type": "Feature", "properties": { "visible_points": 33, "total_points": 90, "visibility_pct": 36.666666666666664 }, "geometry": { "type": "Point", "coordinates": [ -1.287026085682189, 50.750449105224597 ] } },
{ "type": "Feature", "properties": { "visible_points": 34, "total_points": 96, "visibility_pct": 35.416666666666671 }, "geometry": { "type": "Point", "coordinates": [ -1.28682968987901, 50.750447907476797 ] } },
{ "type": "Feature", "properties": { "visible_points": 41, "total_points": 98, "visibility_pct": 41.836734693877553 }, "geometry": { "type": "Point", "coordinates": [ -1.286633294089727, 50.750446709398396 ] } },
{ "type": "Feature", "properties": { "visible_points": 44, "total_points": 98, "visibility_pct": 44.897959183673471 }, "geometry": { "type": "Point", "coordinates": [ -1.286436898314341, 50.750445510989366 ] } },
{ "type": "Feature", "properties": { "visible_points": 45, "total_points": 98, "visibility_pct": 45.91836734693878 }, "geometry": { "type": "Point", "coordinates": [ -1.286240502552855, 50.750444312249712 ] } },
{ "type": "Feature", "properties": { "visible_points": 43, "total_points": 98, "visibility_pct": 43.877551020408163 }, "geometry": { "type": "Point", "coordinates": [ -1.286044106805275, 50.750443113179429 ] } },
{ "type": "Feature", "properties": { "visible_points": 42, "total_points": 99, "visibility_pct": 42.424242424242422 }, "geometry": { "type": "Point", "coordinates": [ -1.285847711071604, 50.750441913778516 ] } },
{ "type": "Feature", "properties": { "visible_points": 46, "total_points": 100, "visibility_pct": 46.0 }, "geometry": { "type": "Point", "coordinates": [ -1.285651315351847, 50.750440714047016 ] } },
{ "type": "Feature", "properties": { "visible_points": 47, "total_points": 101, "visibility_pct": 46.534653465346537 }, "geometry": { "type": "Point", "coordinates": [ -1.285454919646007, 50.750439513984858 ] } },
{ "type": "Feature", "properties": { "visible_points": 42, "total_points": 102, "visibility_pct": 41.17647058823529 }, "geometry": { "type": "Point", "coordinates": [ -1.285258523954085, 50.750438313592099 ] } },
{ "type": "Feature", "properties": { "visible_points": 38, "total_points": 103, "visibility_pct": 36.893203883495147 }, "geometry": { "type": "Point", "coordinates": [ -1.285062128276089, 50.750437112868717 ] } },
{ "type": "Feature", "properties": { "visible_points": 36, "total_points": 104, "visibility_pct": 34.615384615384613 }, "geometry": { "type": "Point", "coordinates": [ -1.284865732602505, 50.750435911812914 ] } },
{ "type": "Feature", "properties": { "visible_points": 38, "total_points": 105, "visibility_pct": 36.19047619047619 }, "geometry": { "type": "Point", "coordinates": [ -1.284669336040101, 50.750434709995623 ] } },
{ "type": "Feature", "properties": { "visible_points": 33, "total_points": 106, "visibility_pct": 31.132075471698112 }, "geometry": { "type": "Point", "coordinates": [ -1.284472938607237, 50.75043350743276 ] } },
{ "type": "Feature", "properties": { "visible_points": 27, "total_points": 107, "visibility_pct": 25.233644859813083 }, "geometry": { "type": "Point", "coordinates": [ -1.284276541188369, 50.750432304539189 ] } },
{ "type": "Feature", "properties": { "visible_points": 13, "total_points": 107, "visibility_pct": 12.149532710280374 }, "geometry": { "type": "Point", "coordinates": [ -1.284080143783486, 50.750431101314824 ] } },
{ "type": "Feature", "properties": { "visible_points": 0, "total_points": 107, "visibility_pct": 0.0 }, "geometry": { "type": "Point", "coordinates": [ -1.283883746392604, 50.750429897759737 ] } },
{ "type": "Feature", "properties": { "visible_points": 19, "total_points": 107, "visibility_pct": 17.75700934579439 }, "geometry": { "type": "Point", "coordinates": [ -1.283687349015721, 50.750428693873914 ] } },
{ "type": "Feature", "properties": { "visible_points": 22, "total_points": 107, "visibility_pct": 20.5607476635514 }, "geometry": { "type": "Point", "coordinates": [ -1.283490951652843, 50.750427489657348 ] } },
{ "type": "Feature", "properties": { "visible_points": 26, "total_points": 107, "visibility_pct": 24.299065420560748 }, "geometry": { "type": "Point", "coordinates": [ -1.283294554303973, 50.750426285110031 ] } },
{ "type": "Feature", "properties": { "visible_points": 23, "total_points": 107, "visibility_pct": 21.495327102803738 }, "geometry": { "type": "Point", "coordinates": [ -1.283098156969112, 50.750425080231977 ] } },
{ "type": "Feature", "properties": { "visible_points": 29, "total_points": 107, "visibility_pct": 27.102803738317753 }, "geometry": { "type": "Point", "coordinates": [ -1.282901759648273, 50.750423875023188 ] } },
{ "type": "Feature", "properties": { "visible_points": 27, "total_points": 105, "visibility_pct": 25.714285714285712 }, "geometry": { "type": "Point", "coordinates": [ -1.28270536234145, 50.750422669483655 ] } },
{ "type": "Feature", "properties": { "visible_points": 23, "total_points": 96, "visibility_pct": 23.958333333333336 }, "geometry": { "type": "Point", "coordinates": [ -1.28250896504865, 50.750421463613385 ] } },
{ "type": "Feature", "properties": { "visible_points": 29, "total_points": 85, "visibility_pct": 34.117647058823529 }, "geometry": { "type": "Point", "coordinates": [ -1.28231256776988, 50.750420257412358 ] } },
{ "type": "Feature", "properties": { "visible_points": 11, "total_points": 74, "visibility_pct": 14.864864864864865 }, "geometry": { "type": "Point", "coordinates": [ -1.282116170505141, 50.750419050880609 ] } },
{ "type": "Feature", "properties": { "visible_points": 6, "total_points": 63, "visibility_pct": 9.5238095238095237 }, "geometry": { "type": "Point", "coordinates": [ -1.281919773254436, 50.750417844018095 ] } },
{ "type": "Feature", "properties": { "visible_points": 16, "total_points": 77, "visibility_pct": 20.779220779220779 }, "geometry": { "type": "Point", "coordinates": [ -1.287515439569466, 50.750560003289763 ] } },
{ "type": "Feature", "properties": { "visible_points": 32, "total_points": 87, "visibility_pct": 36.781609195402297 }, "geometry": { "type": "Point", "coordinates": [ -1.287319043256349, 50.750558806358953 ] } },
{ "type": "Feature", "properties": { "visible_points": 36, "total_points": 96, "visibility_pct": 37.5 }, "geometry": { "type": "Point", "coordinates": [ -1.287122646956996, 50.750557609097662 ] } },
{ "type": "Feature", "properties": { "visible_points": 40, "total_points": 103, "visibility_pct": 38.834951456310677 }, "geometry": { "type": "Point", "coordinates": [ -1.286926250671406, 50.750556411505933 ] } },
{ "type": "Feature", "properties": { "visible_points": 44, "total_points": 107, "visibility_pct": 41.121495327102799 }, "geometry": { "type": "Point", "coordinates": [ -1.28672985439958, 50.750555213583752 ] } },
{ "type": "Feature", "properties": { "visible_points": 48, "total_points": 107, "visibility_pct": 44.859813084112147 }, "geometry": { "type": "Point", "coordinates": [ -1.286533458141526, 50.750554015331105 ] } },
{ "type": "Feature", "properties": { "visible_points": 51, "total_points": 107, "visibility_pct": 47.663551401869157 }, "geometry": { "type": "Point", "coordinates": [ -1.286337061897249, 50.750552816748012 ] } },
{ "type": "Feature", "properties": { "visible_points": 53, "total_points": 107, "visibility_pct": 49.532710280373834 }, "geometry": { "type": "Point", "coordinates": [ -1.286140665666749, 50.750551617834468 ] } },
{ "type": "Feature", "properties": { "visible_points": 51, "total_points": 107, "visibility_pct": 47.663551401869157 }, "geometry": { "type": "Point", "coordinates": [ -1.285944269450035, 50.750550418590464 ] } },
{ "type": "Feature", "properties": { "visible_points": 51, "total_points": 108, "visibility_pct": 47.222222222222221 }, "geometry": { "type": "Point", "coordinates": [ -1.285747873247101, 50.750549219016008 ] } },
{ "type": "Feature", "properties": { "visible_points": 51, "total_points": 109, "visibility_pct": 46.788990825688074 }, "geometry": { "type": "Point", "coordinates": [ -1.285551477057963, 50.7505480191111 ] } },
{ "type": "Feature", "properties": { "visible_points": 48, "total_points": 110, "visibility_pct": 43.636363636363633 }, "geometry": { "type": "Point", "coordinates": [ -1.285355080882619, 50.750546818875726 ] } },
{ "type": "Feature", "properties": { "visible_points": 47, "total_points": 111, "visibility_pct": 42.342342342342342 }, "geometry": { "type": "Point", "coordinates": [ -1.285158684721069, 50.750545618309914 ] } },
{ "type": "Feature", "properties": { "visible_points": 40, "total_points": 112, "visibility_pct": 35.714285714285715 }, "geometry": { "type": "Point", "coordinates": [ -1.284962288573325, 50.750544417413657 ] } },
{ "type": "Feature", "properties": { "visible_points": 42, "total_points": 113, "visibility_pct": 37.168141592920357 }, "geometry": { "type": "Point", "coordinates": [ -1.284765892017222, 50.750543216079208 ] } },
{ "type": "Feature", "properties": { "visible_points": 36, "total_points": 114, "visibility_pct": 31.578947368421051 }, "geometry": { "type": "Point", "coordinates": [ -1.284569494480239, 50.750542013771927 ] } },
{ "type": "Feature", "properties": { "visible_points": 34, "total_points": 115, "visibility_pct": 29.565217391304348 }, "geometry": { "type": "Point", "coordinates": [ -1.284373096573983, 50.750540811043713 ] } },
{ "type": "Feature", "properties": { "visible_points": 23, "total_points": 115, "visibility_pct": 20.0 }, "geometry": { "type": "Point", "coordinates": [ -1.284176698681867, 50.750539607984756 ] } },
{ "type": "Feature", "properties": { "visible_points": 27, "total_points": 115, "visibility_pct": 23.478260869565219 }, "geometry": { "type": "Point", "coordinates": [ -1.283980300803887, 50.750538404595105 ] } },
{ "type": "Feature", "properties": { "visible_points": 31, "total_points": 115, "visibility_pct": 26.956521739130434 }, "geometry": { "type": "Point", "coordinates": [ -1.283783902940058, 50.750537200874703 ] } },
{ "type": "Feature", "properties": { "visible_points": 27, "total_points": 115, "visibility_pct": 23.478260869565219 }, "geometry": { "type": "Point", "coordinates": [ -1.283587505090371, 50.750535996823594 ] } },
{ "type": "Feature", "properties": { "visible_points": 31, "total_points": 115, "visibility_pct": 26.956521739130434 }, "geometry": { "type": "Point", "coordinates": [ -1.283391107254836, 50.750534792441748 ] } },
{ "type": "Feature", "properties": { "visible_points": 30, "total_points": 115, "visibility_pct": 26.086956521739129 }, "geometry": { "type": "Point", "coordinates": [ -1.283194709434143, 50.75053358772886 ] } },
{ "type": "Feature", "properties": { "visible_points": 30, "total_points": 115, "visibility_pct": 26.086956521739129 }, "geometry": { "type": "Point", "coordinates": [ -1.282998311630641, 50.750532382683701 ] } },
{ "type": "Feature", "properties": { "visible_points": 30, "total_points": 114, "visibility_pct": 26.315789473684209 }, "geometry": { "type": "Point", "coordinates": [ -1.282801913841469, 50.75053117730728 ] } },
{ "type": "Feature", "properties": { "visible_points": 27, "total_points": 107, "visibility_pct": 25.233644859813083 }, "geometry": { "type": "Point", "coordinates": [ -1.282605516066333, 50.750529971600109 ] } },
{ "type": "Feature", "properties": { "visible_points": 34, "total_points": 96, "visibility_pct": 35.416666666666671 }, "geometry": { "type": "Point", "coordinates": [ -1.282409118305247, 50.750528765562208 ] } },
{ "type": "Feature", "properties": { "visible_points": 10, "total_points": 84, "visibility_pct": 11.904761904761903 }, "geometry": { "type": "Point", "coordinates": [ -1.282212720558196, 50.750527559193571 ] } },
{ "type": "Feature", "properties": { "visible_points": 7, "total_points": 72, "visibility_pct": 9.7222222222222232 }, "geometry": { "type": "Point", "coordinates": [ -1.282016322825202, 50.750526352494212 ] } },
{ "type": "Feature", "properties": { "visible_points": 0, "total_points": 78, "visibility_pct": 0.0 }, "geometry": { "type": "Point", "coordinates": [ -1.28761200276053, 50.750668506416424 ] } },
{ "type": "Feature", "properties": { "visible_points": 31, "total_points": 89, "visibility_pct": 34.831460674157306 }, "geometry": { "type": "Point", "coordinates": [ -1.287415605972394, 50.750667309633876 ] } },
{ "type": "Feature", "properties": { "visible_points": 37, "total_points": 100, "visibility_pct": 37.0 }, "geometry": { "type": "Point", "coordinates": [ -1.287219209197892, 50.750666112521046 ] } },
{ "type": "Feature", "properties": { "visible_points": 43, "total_points": 109, "visibility_pct": 39.449541284403672 }, "geometry": { "type": "Point", "coordinates": [ -1.287022812437025, 50.750664915077905 ] } },
{ "type": "Feature", "properties": { "visible_points": 51, "total_points": 115, "visibility_pct": 44.347826086956523 }, "geometry": { "type": "Point", "coordinates": [ -1.286826415689802, 50.750663717304505 ] } },
{ "type": "Feature", "properties": { "visible_points": 48, "total_points": 115, "visibility_pct": 41.739130434782609 }, "geometry": { "type": "Point", "coordinates": [ -1.286630018956224, 50.750662519200809 ] } },
{ "type": "Feature", "properties": { "visible_points": 48, "total_points": 115, "visibility_pct": 41.739130434782609 }, "geometry": { "type": "Point", "coordinates": [ -1.286433622236292, 50.750661320766824 ] } },
{ "type": "Feature", "properties": { "visible_points": 51, "total_points": 115, "visibility_pct": 44.347826086956523 }, "geometry": { "type": "Point", "coordinates": [ -1.286237225530018, 50.75066012200255 ] } },
{ "type": "Feature", "properties": { "visible_points": 48, "total_points": 115, "visibility_pct": 41.739130434782609 }, "geometry": { "type": "Point", "coordinates": [ -1.286040828837394, 50.750658922908009 ] } },
{ "type": "Feature", "properties": { "visible_points": 57, "total_points": 115, "visibility_pct": 49.565217391304351 }, "geometry": { "type": "Point", "coordinates": [ -1.285844432158435, 50.750657723483165 ] } },
{ "type": "Feature", "properties": { "visible_points": 56, "total_points": 115, "visibility_pct": 48.695652173913047 }, "geometry": { "type": "Point", "coordinates": [ -1.285648035493139, 50.75065652372804 ] } },
{ "type": "Feature", "properties": { "visible_points": 53, "total_points": 116, "visibility_pct": 45.689655172413794 }, "geometry": { "type": "Point", "coordinates": [ -1.285451638841507, 50.750655323642633 ] } },
{ "type": "Feature", "properties": { "visible_points": 51, "total_points": 117, "visibility_pct": 43.589743589743591 }, "geometry": { "type": "Point", "coordinates": [ -1.285255242203549, 50.750654123226937 ] } },
{ "type": "Feature", "properties": { "visible_points": 46, "total_points": 118, "visibility_pct": 38.983050847457626 }, "geometry": { "type": "Point", "coordinates": [ -1.28505884557927, 50.750652922480981 ] } },
{ "type": "Feature", "properties": { "visible_points": 45, "total_points": 119, "visibility_pct": 37.815126050420169 }, "geometry": { "type": "Point", "coordinates": [ -1.284862448945328, 50.750651721399898 ] } },
{ "type": "Feature", "properties": { "visible_points": 38, "total_points": 120, "visibility_pct": 31.666666666666664 }, "geometry": { "type": "Point", "coordinates": [ -1.284666051406502, 50.750650519561667 ] } },
{ "type": "Feature", "properties": { "visible_points": 31, "total_points": 120, "visibility_pct": 25.833333333333336 }, "geometry": { "type": "Point", "coordinates": [ -1.284469653004472, 50.750649316998128 ] } },
{ "type": "Feature", "properties": { "visible_points": 28, "total_points": 120, "visibility_pct": 23.333333333333332 }, "geometry": { "type": "Point", "coordinates": [ -1.284273254616725, 50.750648114103868 ] } },
{ "type": "Feature", "properties": { "visible_points": 26, "total_points": 120, "visibility_pct": 21.666666666666668 }, "geometry": { "type": "Point", "coordinates": [ -1.28407685624326, 50.750646910878899 ] } },
{ "type": "Feature", "properties": { "visible_points": 8, "total_points": 120, "visibility_pct": 6.666666666666667 }, "geometry": { "type": "Point", "coordinates": [ -1.283880457884087, 50.750645707323258 ] } },
{ "type": "Feature", "properties": { "visible_points": 29, "total_points": 120, "visibility_pct": 24.166666666666668 }, "geometry": { "type": "Point", "coordinates": [ -1.283684059539199, 50.750644503436867 ] } },
{ "type": "Feature", "properties": { "visible_points": 25, "total_points": 120, "visibility_pct": 20.833333333333336 }, "geometry": { "type": "Point", "coordinates": [ -1.283487661208611, 50.750643299219796 ] } },
{ "type": "Feature", "properties": { "visible_points": 30, "total_points": 119, "visibility_pct": 25.210084033613445 }, "geometry": { "type": "Point", "coordinates": [ -1.283291262892322, 50.750642094671996 ] } },
{ "type": "Feature", "properties": { "visible_points": 31, "total_points": 118, "visibility_pct": 26.271186440677969 }, "geometry": { "type": "Point", "coordinates": [ -1.283094864590436, 50.75064088979294 ] } },
{ "type": "Feature", "properties": { "visible_points": 33, "total_points": 117, "visibility_pct": 28.205128205128204 }, "geometry": { "type": "Point", "coordinates": [ -1.282898466303291, 50.750639684580662 ] } },
{ "type": "Feature", "properties": { "visible_points": 31, "total_points": 109, "visibility_pct": 28.440366972477065 }, "geometry": { "type": "Point", "coordinates": [ -1.282702068030446, 50.750638479037676 ] } },
{ "type": "Feature", "properties": { "visible_points": 28, "total_points": 100, "visibility_pct": 28.000000000000004 }, "geometry": { "type": "Point", "coordinates": [ -1.282505669771895, 50.750637273163974 ] } },
{ "type": "Feature", "properties": { "visible_points": 21, "total_points": 90, "visibility_pct": 23.333333333333332 }, "geometry": { "type": "Point", "coordinates": [ -1.282309271527651, 50.750636066959544 ] } },
{ "type": "Feature", "properties": { "visible_points": 7, "total_points": 78, "visibility_pct": 8.9743589743589745 }, "geometry": { "type": "Point", "coordinates": [ -1.282112873297714, 50.75063486042442 ] } },
{ "type": "Feature", "properties": { "visible_points": 0, "total_points": 72, "visibility_pct": 0.0 }, "geometry": { "type": "Point", "coordinates": [ -1.287708566580001, 50.750777009257284 ] } },
{ "type": "Feature", "properties": { "visible_points": 27, "total_points": 84, "visibility_pct": 32.142857142857146 }, "geometry": { "type": "Point", "coordinates": [ -1.287512169323674, 50.750775812614172 ] } },
{ "type": "Feature", "properties": { "visible_points": 34, "total_points": 96, "visibility_pct": 35.416666666666671 }, "geometry": { "type": "Point", "coordinates": [ -1.287315772080981, 50.7507746156408 ] } },
{ "type": "Feature", "properties": { "visible_points": 42, "total_points": 107, "visibility_pct": 39.252336448598129 }, "geometry": { "type": "Point", "coordinates": [ -1.287119374851919, 50.750773418337126 ] } },
{ "type": "Feature", "properties": { "visible_points": 49, "total_points": 114, "visibility_pct": 42.982456140350877 }, "geometry": { "type": "Point", "coordinates": [ -1.286922977636504, 50.750772220703183 ] } },
{ "type": "Feature", "properties": { "visible_points": 55, "total_points": 115, "visibility_pct": 47.826086956521742 }, "geometry": { "type": "Point", "coordinates": [ -1.286726580434724, 50.750771022738931 ] } },
{ "type": "Feature", "properties": { "visible_points": 51, "total_points": 115, "visibility_pct": 44.347826086956523 }, "geometry": { "type": "Point", "coordinates": [ -1.286530183246597, 50.75076982444439 ] } },
{ "type": "Feature", "properties": { "visible_points": 50, "total_points": 115, "visibility_pct": 43.478260869565219 }, "geometry": { "type": "Point", "coordinates": [ -1.286333786072119, 50.750768625819582 ] } },
{ "type": "Feature", "properties": { "visible_points": 49, "total_points": 115, "visibility_pct": 42.608695652173914 }, "geometry": { "type": "Point", "coordinates": [ -1.286137388911295, 50.750767426864492 ] } },
{ "type": "Feature", "properties": { "visible_points": 50, "total_points": 115, "visibility_pct": 43.478260869565219 }, "geometry": { "type": "Point", "coordinates": [ -1.28594099176413, 50.750766227579099 ] } },
{ "type": "Feature", "properties": { "visible_points": 53, "total_points": 115, "visibility_pct": 46.086956521739133 }, "geometry": { "type": "Point", "coordinates": [ -1.285744594630625, 50.750765027963425 ] } },
{ "type": "Feature", "properties": { "visible_points": 51, "total_points": 115, "visibility_pct": 44.347826086956523 }, "geometry": { "type": "Point", "coordinates": [ -1.285548197510792, 50.750763828017455 ] } },
{ "type": "Feature", "properties": { "visible_points": 52, "total_points": 115, "visibility_pct": 45.217391304347828 }, "geometry": { "type": "Point", "coordinates": [ -1.28535180040462, 50.750762627741224 ] } },
{ "type": "Feature", "properties": { "visible_points": 47, "total_points": 115, "visibility_pct": 40.869565217391305 }, "geometry": { "type": "Point", "coordinates": [ -1.28515540331213, 50.750761427134691 ] } },
{ "type": "Feature", "properties": { "visible_points": 39, "total_points": 115, "visibility_pct": 33.913043478260867 }, "geometry": { "type": "Point", "coordinates": [ -1.284959006233313, 50.750760226197869 ] } },
{ "type": "Feature", "properties": { "visible_points": 36, "total_points": 115, "visibility_pct": 31.304347826086961 }, "geometry": { "type": "Point", "coordinates": [ -1.284762608717533, 50.750759024817334 ] } },
{ "type": "Feature", "properties": { "visible_points": 34, "total_points": 115, "visibility_pct": 29.565217391304348 }, "geometry": { "type": "Point", "coordinates": [ -1.284566210199442, 50.750757822496382 ] } },
{ "type": "Feature", "properties": { "visible_points": 27, "total_points": 115, "visibility_pct": 23.478260869565219 }, "geometry": { "type": "Point", "coordinates": [ -1.284369811316871, 50.7507566197608 ] } },
{ "type": "Feature", "properties": { "visible_points": 17, "total_points": 115, "visibility_pct": 14.782608695652174 }, "geometry": { "type": "Point", "coordinates": [ -1.28417341244858, 50.750755416694517 ] } },
{ "type": "Feature", "properties": { "visible_points": 20, "total_points": 115, "visibility_pct": 17.391304347826086 }, "geometry": { "type": "Point", "coordinates": [ -1.283977013594578, 50.750754213297526 ] } },
{ "type": "Feature", "properties": { "visible_points": 19, "total_points": 115, "visibility_pct": 16.521739130434781 }, "geometry": { "type": "Point", "coordinates": [ -1.283780614754865, 50.75075300956982 ] } },
{ "type": "Feature", "properties": { "visible_points": 29, "total_points": 114, "visibility_pct": 25.438596491228072 }, "geometry": { "type": "Point", "coordinates": [ -1.283584215929445, 50.750751805511435 ] } },
{ "type": "Feature", "properties": { "visible_points": 23, "total_points": 113, "visibility_pct": 20.353982300884958 }, "geometry": { "type": "Point", "coordinates": [ -1.283387817118322, 50.750750601122306 ] } },
{ "type": "Feature", "properties": { "visible_points": 32, "total_points": 112, "visibility_pct": 28.571428571428569 }, "geometry": { "type": "Point", "coordinates": [ -1.283191418321499, 50.750749396402476 ] } },
{ "type": "Feature", "properties": { "visible_points": 32, "total_points": 111, "visibility_pct": 28.828828828828829 }, "geometry": { "type": "Point", "coordinates": [ -1.282995019538987, 50.750748191351938 ] } },
{ "type": "Feature", "properties": { "visible_points": 27, "total_points": 105, "visibility_pct": 25.714285714285712 }, "geometry": { "type": "Point", "coordinates": [ -1.282798620770781, 50.750746985970693 ] } },
{ "type": "Feature", "properties": { "visible_points": 22, "total_points": 97, "visibility_pct": 22.680412371134022 }, "geometry": { "type": "Point", "coordinates": [ -1.282602222016891, 50.750745780258711 ] } },
{ "type": "Feature", "properties": { "visible_points": 23, "total_points": 88, "visibility_pct": 26.136363636363637 }, "geometry": { "type": "Point", "coordinates": [ -1.282405823277315, 50.750744574216057 ] } },
{ "type": "Feature", "properties": { "visible_points": 5, "total_points": 77, "visibility_pct": 6.4935064935064926 }, "geometry": { "type": "Point", "coordinates": [ -1.282209424552065, 50.750743367842681 ] } },
{ "type": "Feature", "properties": { "visible_points": 26, "total_points": 74, "visibility_pct": 35.135135135135137 }, "geometry": { "type": "Point", "coordinates": [ -1.2876087331295, 50.750884315535195 ] } },
{ "type": "Feature", "properties": { "visible_points": 29, "total_points": 85, "visibility_pct": 34.117647058823529 }, "geometry": { "type": "Point", "coordinates": [ -1.28741233541861, 50.750883118701275 ] } },
{ "type": "Feature", "properties": { "visible_points": 36, "total_points": 95, "visibility_pct": 37.894736842105267 }, "geometry": { "type": "Point", "coordinates": [ -1.287215937721356, 50.750881921537065 ] } },
{ "type": "Feature", "properties": { "visible_points": 39, "total_points": 104, "visibility_pct": 37.5 }, "geometry": { "type": "Point", "coordinates": [ -1.287019540037742, 50.750880724042567 ] } },
{ "type": "Feature", "properties": { "visible_points": 48, "total_points": 107, "visibility_pct": 44.859813084112147 }, "geometry": { "type": "Point", "coordinates": [ -1.286823142367763, 50.750879526217773 ] } },
{ "type": "Feature", "properties": { "visible_points": 50, "total_points": 107, "visibility_pct": 46.728971962616825 }, "geometry": { "type": "Point", "coordinates": [ -1.286626744711438, 50.750878328062704 ] } },
{ "type": "Feature", "properties": { "visible_points": 47, "total_points": 107, "visibility_pct": 43.925233644859816 }, "geometry": { "type": "Point", "coordinates": [ -1.286430347068753, 50.75087712957734 ] } },
{ "type": "Feature", "properties": { "visible_points": 49, "total_points": 107, "visibility_pct": 45.794392523364486 }, "geometry": { "type": "Point", "coordinates": [ -1.286233949439727, 50.750875930761694 ] } },
{ "type": "Feature", "properties": { "visible_points": 45, "total_points": 107, "visibility_pct": 42.056074766355138 }, "geometry": { "type": "Point", "coordinates": [ -1.286037551824356, 50.750874731615745 ] } },
{ "type": "Feature", "properties": { "visible_points": 49, "total_points": 107, "visibility_pct": 45.794392523364486 }, "geometry": { "type": "Point", "coordinates": [ -1.285841154222643, 50.750873532139522 ] } },
{ "type": "Feature", "properties": { "visible_points": 52, "total_points": 107, "visibility_pct": 48.598130841121495 }, "geometry": { "type": "Point", "coordinates": [ -1.285644756634595, 50.750872332333017 ] } },
{ "type": "Feature", "properties": { "visible_points": 49, "total_points": 107, "visibility_pct": 45.794392523364486 }, "geometry": { "type": "Point", "coordinates": [ -1.285448359060219, 50.75087113219621 ] } },
{ "type": "Feature", "properties": { "visible_points": 42, "total_points": 107, "visibility_pct": 39.252336448598129 }, "geometry": { "type": "Point", "coordinates": [ -1.285251961499511, 50.750869931729127 ] } },
{ "type": "Feature", "properties": { "visible_points": 39, "total_points": 107, "visibility_pct": 36.44859813084112 }, "geometry": { "type": "Point", "coordinates": [ -1.285055563952477, 50.750868730931742 ] } },
{ "type": "Feature", "properties": { "visible_points": 36, "total_points": 107, "visibility_pct": 33.644859813084111 }, "geometry": { "type": "Point", "coordinates": [ -1.284859166381035, 50.750867529796544 ] } },
{ "type": "Feature", "properties": { "visible_points": 34, "total_points": 107, "visibility_pct": 31.775700934579437 }, "geometry": { "type": "Point", "coordinates": [ -1.284662767874939, 50.750866327916555 ] } },
{ "type": "Feature", "properties": { "visible_points": 27, "total_points": 107, "visibility_pct": 25.233644859813083 }, "geometry": { "type": "Point", "coordinates": [ -1.284466368497544, 50.750865125339658 ] } },
{ "type": "Feature", "properties": { "visible_points": 10, "total_points": 107, "visibility_pct": 9.3457943925233646 }, "geometry": { "type": "Point", "coordinates": [ -1.284269969134427, 50.750863922432067 ] } },
{ "type": "Feature", "properties": { "visible_points": 5, "total_points": 107, "visibility_pct": 4.6728971962616823 }, "geometry": { "type": "Point", "coordinates": [ -1.284073569785596, 50.750862719193748 ] } },
{ "type": "Feature", "properties": { "visible_points": 0, "total_points": 107, "visibility_pct": 0.0 }, "geometry": { "type": "Point", "coordinates": [ -1.283877170451052, 50.750861515624706 ] } },
{ "type": "Feature", "properties": { "visible_points": 27, "total_points": 106, "visibility_pct": 25.471698113207548 }, "geometry": { "type": "Point", "coordinates": [ -1.283680771130799, 50.750860311724985 ] } },
{ "type": "Feature", "properties": { "visible_points": 24, "total_points": 105, "visibility_pct": 22.857142857142858 }, "geometry": { "type": "Point", "coordinates": [ -1.283484371824843, 50.750859107494534 ] } },
{ "type": "Feature", "properties": { "visible_points": 23, "total_points": 104, "visibility_pct": 22.115384615384613 }, "geometry": { "type": "Point", "coordinates": [ -1.283287972533183, 50.750857902933369 ] } },
{ "type": "Feature", "properties": { "visible_points": 27, "total_points": 103, "visibility_pct": 26.21359223300971 }, "geometry": { "type": "Point", "coordinates": [ -1.28309157325583, 50.750856698041503 ] } },
{ "type": "Feature", "properties": { "visible_points": 24, "total_points": 99, "visibility_pct": 24.242424242424242 }, "geometry": { "type": "Point", "coordinates": [ -1.282895173992788, 50.750855492818921 ] } },
{ "type": "Feature", "properties": { "visible_points": 21, "total_points": 92, "visibility_pct": 22.826086956521738 }, "geometry": { "type": "Point", "coordinates": [ -1.282698774744048, 50.750854287265639 ] } },
{ "type": "Feature", "properties": { "visible_points": 21, "total_points": 84, "visibility_pct": 25.0 }, "geometry": { "type": "Point", "coordinates": [ -1.282502375509635, 50.750853081381635 ] } },
{ "type": "Feature", "properties": { "visible_points": 12, "total_points": 75, "visibility_pct": 16.0 }, "geometry": { "type": "Point", "coordinates": [ -1.282305976289537, 50.75085187516693 ] } },
{ "type": "Feature", "properties": { "visible_points": 1, "total_points": 63, "visibility_pct": 1.5873015873015872 }, "geometry": { "type": "Point", "coordinates": [ -1.287705297389875, 50.750992818396945 ] } },
{ "type": "Feature", "properties": { "visible_points": 22, "total_points": 73, "visibility_pct": 30.136986301369863 }, "geometry": { "type": "Point", "coordinates": [ -1.28750889921079, 50.750991621702482 ] } },
{ "type": "Feature", "properties": { "visible_points": 28, "total_points": 83, "visibility_pct": 33.734939759036145 }, "geometry": { "type": "Point", "coordinates": [ -1.287312501045339, 50.750990424677731 ] } },
{ "type": "Feature", "properties": { "visible_points": 33, "total_points": 92, "visibility_pct": 35.869565217391305 }, "geometry": { "type": "Point", "coordinates": [ -1.287116102893523, 50.750989227322684 ] } },
{ "type": "Feature", "properties": { "visible_points": 40, "total_points": 98, "visibility_pct": 40.816326530612244 }, "geometry": { "type": "Point", "coordinates": [ -1.28691970475535, 50.750988029637369 ] } },
{ "type": "Feature", "properties": { "visible_points": 44, "total_points": 98, "visibility_pct": 44.897959183673471 }, "geometry": { "type": "Point", "coordinates": [ -1.286723306630811, 50.750986831621738 ] } },
{ "type": "Feature", "properties": { "visible_points": 45, "total_points": 98, "visibility_pct": 45.91836734693878 }, "geometry": { "type": "Point", "coordinates": [ -1.286526908519927, 50.750985633275832 ] } },
{ "type": "Feature", "properties": { "visible_points": 45, "total_points": 98, "visibility_pct": 45.91836734693878 }, "geometry": { "type": "Point", "coordinates": [ -1.286330510422694, 50.750984434599637 ] } },
{ "type": "Feature", "properties": { "visible_points": 44, "total_points": 98, "visibility_pct": 44.897959183673471 }, "geometry": { "type": "Point", "coordinates": [ -1.286134112339113, 50.750983235593147 ] } },
{ "type": "Feature", "properties": { "visible_points": 44, "total_points": 98, "visibility_pct": 44.897959183673471 }, "geometry": { "type": "Point", "coordinates": [ -1.285937714269194, 50.750982036256353 ] } },
{ "type": "Feature", "properties": { "visible_points": 47, "total_points": 98, "visibility_pct": 47.959183673469383 }, "geometry": { "type": "Point", "coordinates": [ -1.285741316212931, 50.750980836589292 ] } },
{ "type": "Feature", "properties": { "visible_points": 38, "total_points": 98, "visibility_pct": 38.775510204081634 }, "geometry": { "type": "Point", "coordinates": [ -1.285544918170343, 50.750979636591957 ] } },
{ "type": "Feature", "properties": { "visible_points": 41, "total_points": 98, "visibility_pct": 41.836734693877553 }, "geometry": { "type": "Point", "coordinates": [ -1.285348520141417, 50.750978436264297 ] } },
{ "type": "Feature", "properties": { "visible_points": 40, "total_points": 98, "visibility_pct": 40.816326530612244 }, "geometry": { "type": "Point", "coordinates": [ -1.285152122126169, 50.750977235606364 ] } },
{ "type": "Feature", "properties": { "visible_points": 29, "total_points": 98, "visibility_pct": 29.591836734693878 }, "geometry": { "type": "Point", "coordinates": [ -1.284955724124594, 50.750976034618148 ] } },
{ "type": "Feature", "properties": { "visible_points": 28, "total_points": 98, "visibility_pct": 28.571428571428569 }, "geometry": { "type": "Point", "coordinates": [ -1.284759325655608, 50.75097483318158 ] } },
{ "type": "Feature", "properties": { "visible_points": 22, "total_points": 98, "visibility_pct": 22.448979591836736 }, "geometry": { "type": "Point", "coordinates": [ -1.284562926158753, 50.750973630840456 ] } },
{ "type": "Feature", "properties": { "visible_points": 25, "total_points": 98, "visibility_pct": 25.510204081632654 }, "geometry": { "type": "Point", "coordinates": [ -1.284366526300804, 50.750972428091522 ] } },
{ "type": "Feature", "properties": { "visible_points": 8, "total_points": 98, "visibility_pct": 8.1632653061224492 }, "geometry": { "type": "Point", "coordinates": [ -1.284170126457142, 50.750971225011902 ] } },
{ "type": "Feature", "properties": { "visible_points": 5, "total_points": 98, "visibility_pct": 5.1020408163265305 }, "geometry": { "type": "Point", "coordinates": [ -1.283973726627769, 50.750970021601539 ] } },
{ "type": "Feature", "properties": { "visible_points": 10, "total_points": 97, "visibility_pct": 10.309278350515463 }, "geometry": { "type": "Point", "coordinates": [ -1.283777326812678, 50.750968817860468 ] } },
{ "type": "Feature", "properties": { "visible_points": 12, "total_points": 96, "visibility_pct": 12.5 }, "geometry": { "type": "Point", "coordinates": [ -1.283580927011887, 50.75096761378871 ] } },
{ "type": "Feature", "properties": { "visible_points": 0, "total_points": 95, "visibility_pct": 0.0 }, "geometry": { "type": "Point", "coordinates": [ -1.283384527225387, 50.750966409386216 ] } },
{ "type": "Feature", "properties": { "visible_points": 15, "total_points": 94, "visibility_pct": 15.957446808510639 }, "geometry": { "type": "Point", "coordinates": [ -1.283188127453195, 50.750965204653021 ] } },
{ "type": "Feature", "properties": { "visible_points": 0, "total_points": 91, "visibility_pct": 0.0 }, "geometry": { "type": "Point", "coordinates": [ -1.282991727695307, 50.750963999589111 ] } },
{ "type": "Feature", "properties": { "visible_points": 0, "total_points": 86, "visibility_pct": 0.0 }, "geometry": { "type": "Point", "coordinates": [ -1.282795327951732, 50.750962794194486 ] } },
{ "type": "Feature", "properties": { "visible_points": 0, "total_points": 79, "visibility_pct": 0.0 }, "geometry": { "type": "Point", "coordinates": [ -1.282598928222464, 50.750961588469153 ] } },
{ "type": "Feature", "properties": { "visible_points": 0, "total_points": 71, "visibility_pct": 0.0 }, "geometry": { "type": "Point", "coordinates": [ -1.28240252850752, 50.750960382413126 ] } },
{ "type": "Feature", "properties": { "visible_points": 20, "total_points": 62, "visibility_pct": 32.258064516129032 }, "geometry": { "type": "Point", "coordinates": [ -1.287605463457521, 50.751100124644402 ] } },
{ "type": "Feature", "properties": { "visible_points": 23, "total_points": 71, "visibility_pct": 32.394366197183103 }, "geometry": { "type": "Point", "coordinates": [ -1.287409064823869, 50.751098927759124 ] } },
{ "type": "Feature", "properties": { "visible_points": 25, "total_points": 79, "visibility_pct": 31.645569620253166 }, "geometry": { "type": "Point", "coordinates": [ -1.287212666203853, 50.751097730543535 ] } },
{ "type": "Feature", "properties": { "visible_points": 32, "total_points": 86, "visibility_pct": 37.209302325581397 }, "geometry": { "type": "Point", "coordinates": [ -1.287016267597472, 50.751096532997657 ] } },
{ "type": "Feature", "properties": { "visible_points": 32, "total_points": 88, "visibility_pct": 36.363636363636367 }, "geometry": { "type": "Point", "coordinates": [ -1.286819869004736, 50.751095335121498 ] } },
{ "type": "Feature", "properties": { "visible_points": 35, "total_points": 88, "visibility_pct": 39.772727272727273 }, "geometry": { "type": "Point", "coordinates": [ -1.286623470425642, 50.751094136915029 ] } },
{ "type": "Feature", "properties": { "visible_points": 38, "total_points": 88, "visibility_pct": 43.18181818181818 }, "geometry": { "type": "Point", "coordinates": [ -1.286427071860201, 50.751092938378299 ] } },
{ "type": "Feature", "properties": { "visible_points": 35, "total_points": 88, "visibility_pct": 39.772727272727273 }, "geometry": { "type": "Point", "coordinates": [ -1.286230673308409, 50.75109173951126 ] } },
{ "type": "Feature", "properties": { "visible_points": 0, "total_points": 88, "visibility_pct": 0.0 }, "geometry": { "type": "Point", "coordinates": [ -1.286034274770274, 50.751090540313932 ] } },
{ "type": "Feature", "properties": { "visible_points": 29, "total_points": 88, "visibility_pct": 32.954545454545453 }, "geometry": { "type": "Point", "coordinates": [ -1.285837876245804, 50.751089340786308 ] } },
{ "type": "Feature", "properties": { "visible_points": 4, "total_points": 88, "visibility_pct": 4.5454545454545459 }, "geometry": { "type": "Point", "coordinates": [ -1.285641477734999, 50.751088140928402 ] } },
{ "type": "Feature", "properties": { "visible_points": 0, "total_points": 88, "visibility_pct": 0.0 }, "geometry": { "type": "Point", "coordinates": [ -1.285445079237852, 50.751086940740208 ] } },
{ "type": "Feature", "properties": { "visible_points": 0, "total_points": 88, "visibility_pct": 0.0 }, "geometry": { "type": "Point", "coordinates": [ -1.285248680754386, 50.75108574022174 ] } },
{ "type": "Feature", "properties": { "visible_points": 22, "total_points": 88, "visibility_pct": 25.0 }, "geometry": { "type": "Point", "coordinates": [ -1.285052282284592, 50.751084539372954 ] } },
{ "type": "Feature", "properties": { "visible_points": 0, "total_points": 88, "visibility_pct": 0.0 }, "geometry": { "type": "Point", "coordinates": [ -1.284855883774852, 50.751083338183939 ] } },
{ "type": "Feature", "properties": { "visible_points": 0, "total_points": 88, "visibility_pct": 0.0 }, "geometry": { "type": "Point", "coordinates": [ -1.284659484300498, 50.75108213626315 ] } },
{ "type": "Feature", "properties": { "visible_points": 0, "total_points": 88, "visibility_pct": 0.0 }, "geometry": { "type": "Point", "coordinates": [ -1.284463083947718, 50.751080933672903 ] } },
{ "type": "Feature", "properties": { "visible_points": 8, "total_points": 88, "visibility_pct": 9.0909090909090917 }, "geometry": { "type": "Point", "coordinates": [ -1.284266683609226, 50.751079730751961 ] } },
{ "type": "Feature", "properties": { "visible_points": 0, "total_points": 88, "visibility_pct": 0.0 }, "geometry": { "type": "Point", "coordinates": [ -1.284070283285011, 50.75107852750029 ] } },
{ "type": "Feature", "properties": { "visible_points": 0, "total_points": 87, "visibility_pct": 0.0 }, "geometry": { "type": "Point", "coordinates": [ -1.283873882975085, 50.75107732391789 ] } },
{ "type": "Feature", "properties": { "visible_points": 0, "total_points": 86, "visibility_pct": 0.0 }, "geometry": { "type": "Point", "coordinates": [ -1.283677482679456, 50.751076120004804 ] } },
{ "type": "Feature", "properties": { "visible_points": 0, "total_points": 85, "visibility_pct": 0.0 }, "geometry": { "type": "Point", "coordinates": [ -1.283481082398119, 50.751074915760988 ] } },
{ "type": "Feature", "properties": { "visible_points": 0, "total_points": 84, "visibility_pct": 0.0 }, "geometry": { "type": "Point", "coordinates": [ -1.283284682131082, 50.751073711186464 ] } },
{ "type": "Feature", "properties": { "visible_points": 0, "total_points": 82, "visibility_pct": 0.0 }, "geometry": { "type": "Point", "coordinates": [ -1.283088281878349, 50.751072506281218 ] } },
{ "type": "Feature", "properties": { "visible_points": 0, "total_points": 78, "visibility_pct": 0.0 }, "geometry": { "type": "Point", "coordinates": [ -1.282891881639926, 50.751071301045286 ] } },
{ "type": "Feature", "properties": { "visible_points": 0, "total_points": 73, "visibility_pct": 0.0 }, "geometry": { "type": "Point", "coordinates": [ -1.282695481415813, 50.751070095478617 ] } },
{ "type": "Feature", "properties": { "visible_points": 0, "total_points": 66, "visibility_pct": 0.0 }, "geometry": { "type": "Point", "coordinates": [ -1.282499081206019, 50.751068889581227 ] } },
{ "type": "Feature", "properties": { "visible_points": 5, "total_points": 51, "visibility_pct": 9.8039215686274517 }, "geometry": { "type": "Point", "coordinates": [ -1.287702028158804, 50.751208627527049 ] } },
{ "type": "Feature", "properties": { "visible_points": 17, "total_points": 59, "visibility_pct": 28.8135593220339 }, "geometry": { "type": "Point", "coordinates": [ -1.287505629056958, 50.751207430781236 ] } },
{ "type": "Feature", "properties": { "visible_points": 21, "total_points": 66, "visibility_pct": 31.818181818181817 }, "geometry": { "type": "Point", "coordinates": [ -1.287309229968731, 50.751206233705098 ] } },
{ "type": "Feature", "properties": { "visible_points": 25, "total_points": 73, "visibility_pct": 34.246575342465754 }, "geometry": { "type": "Point", "coordinates": [ -1.287112830894149, 50.751205036298686 ] } },
{ "type": "Feature", "properties": { "visible_points": 24, "total_points": 77, "visibility_pct": 31.168831168831169 }, "geometry": { "type": "Point", "coordinates": [ -1.286916431833202, 50.751203838561977 ] } },
{ "type": "Feature", "properties": { "visible_points": 27, "total_points": 77, "visibility_pct": 35.064935064935064 }, "geometry": { "type": "Point", "coordinates": [ -1.286720032785905, 50.751202640494988 ] } },
{ "type": "Feature", "properties": { "visible_points": 0, "total_points": 77, "visibility_pct": 0.0 }, "geometry": { "type": "Point", "coordinates": [ -1.286523633752248, 50.751201442097688 ] } },
{ "type": "Feature", "properties": { "visible_points": 28, "total_points": 77, "visibility_pct": 36.363636363636367 }, "geometry": { "type": "Point", "coordinates": [ -1.286327234732246, 50.7512002433701 ] } },
{ "type": "Feature", "properties": { "visible_points": 12, "total_points": 77, "visibility_pct": 15.584415584415584 }, "geometry": { "type": "Point", "coordinates": [ -1.2861308357259, 50.751199044312237 ] } },
{ "type": "Feature", "properties": { "visible_points": 0, "total_points": 77, "visibility_pct": 0.0 }, "geometry": { "type": "Point", "coordinates": [ -1.28593443673321, 50.751197844924064 ] } },
{ "type": "Feature", "properties": { "visible_points": 4, "total_points": 77, "visibility_pct": 5.1948051948051948 }, "geometry": { "type": "Point", "coordinates": [ -1.285738037754186, 50.751196645205603 ] } },
{ "type": "Feature", "properties": { "visible_points": 0, "total_points": 77, "visibility_pct": 0.0 }, "geometry": { "type": "Point", "coordinates": [ -1.285541638788823, 50.751195445156846 ] } },
{ "type": "Feature", "properties": { "visible_points": 0, "total_points": 77, "visibility_pct": 0.0 }, "geometry": { "type": "Point", "coordinates": [ -1.285345239837139, 50.751194244777814 ] } },
{ "type": "Feature", "properties": { "visible_points": 12, "total_points": 77, "visibility_pct": 15.584415584415584 }, "geometry": { "type": "Point", "coordinates": [ -1.285148840899121, 50.751193044068479 ] } },
{ "type": "Feature", "properties": { "visible_points": 2, "total_points": 77, "visibility_pct": 2.5974025974025974 }, "geometry": { "type": "Point", "coordinates": [ -1.28495244197478, 50.751191843028856 ] } },
{ "type": "Feature", "properties": { "visible_points": 0, "total_points": 77, "visibility_pct": 0.0 }, "geometry": { "type": "Point", "coordinates": [ -1.284756042551582, 50.751190641537256 ] } }
]
}
