{
"type": "FeatureCollection",
"name": "bc4445903204_foliage",
"crs": { "type": "name", "properties": { "name": "urn:ogc:def:crs:OGC:1.3:CRS84" } },
"features": [
{ "type": "Feature", "properties": { "max_height": 13.937995910644531, "mean_height": 5.8906526565551758, "std_height": 3.8126976490020752, "count_pixels": 42, "percent_cover": 0.53475935828876997, "percent_above_0.1m": 95.238095238095227, "low_level_<0.5": 0.0, "mid_level_0.5-2": 14.285714285714285, "tall_2+": 80.952380952380949 }, "geometry": { "type": "Point", "coordinates": [ -0.2150530567769, 51.195285220349149 ] } },
{ "type": "Feature", "properties": { "max_height": 6.5964508056640625, "mean_height": 1.5110371112823486, "std_height": 1.6023632287979126, "count_pixels": 41, "percent_cover": 0.52202699261522789, "percent_above_0.1m": 75.609756097560975, "low_level_<0.5": 14.634146341463413, "mid_level_0.5-2": 26.829268292682929, "tall_2+": 34.146341463414636 }, "geometry": { "type": "Point", "coordinates": [ -0.215147994203457, 51.195394585971648 ] } },
{ "type": "Feature", "properties": { "max_height": 8.3370018005371094, "mean_height": 3.157245397567749, "std_height": 2.8374462127685547, "count_pixels": 42, "percent_cover": 0.53475935828876997, "percent_above_0.1m": 76.19047619047619, "low_level_<0.5": 7.1428571428571423, "mid_level_0.5-2": 9.5238095238095237, "tall_2+": 57.142857142857139 }, "geometry": { "type": "Point", "coordinates": [ -0.214949789797984, 51.195391563792313 ] } },
{ "type": "Feature", "properties": { "max_height": 4.4523468017578125, "mean_height": 1.657868504524231, "std_height": 1.3541394472122192, "count_pixels": 43, "percent_cover": 0.54749172396231216, "percent_above_0.1m": 74.418604651162795, "low_level_<0.5": 4.6511627906976747, "mid_level_0.5-2": 23.255813953488371, "tall_2+": 46.511627906976742 }, "geometry": { "type": "Point", "coordinates": [ -0.215242932077605, 51.195503951521211 ] } },
{ "type": "Feature", "properties": { "max_height": 6.8975677490234375, "mean_height": 1.6553785800933838, "std_height": 2.2335951328277588, "count_pixels": 42, "percent_cover": 0.53475935828876997, "percent_above_0.1m": 61.904761904761905, "low_level_<0.5": 7.1428571428571423, "mid_level_0.5-2": 28.571428571428569, "tall_2+": 26.190476190476193 }, "geometry": { "type": "Point", "coordinates": [ -0.215044727190006, 51.19550092949639 ] } },
{ "type": "Feature", "properties": { "max_height": 3.7619209289550781, "mean_height": 0.38564792275428772, "std_height": 0.94573992490768433, "count_pixels": 41, "percent_cover": 0.52202699261522789, "percent_above_0.1m": 26.829268292682929, "low_level_<0.5": 4.8780487804878048, "mid_level_0.5-2": 7.3170731707317067, "tall_2+": 9.7560975609756095 }, "geometry": { "type": "Point", "coordinates": [ -0.21484652233692, 51.195497907136001 ] } },
{ "type": "Feature", "properties": { "max_height": 7.9706459045410156, "mean_height": 1.9340474605560303, "std_height": 2.2978198528289795, "count_pixels": 41, "percent_cover": 0.52202699261522789, "percent_above_0.1m": 63.414634146341463, "low_level_<0.5": 4.8780487804878048, "mid_level_0.5-2": 19.512195121951219, "tall_2+": 36.585365853658537 }, "geometry": { "type": "Point", "coordinates": [ -0.215337870399346, 51.195613316997814 ] } },
{ "type": "Feature", "properties": { "max_height": 5.4547576904296875, "mean_height": 1.5697817802429199, "std_height": 1.769471287727356, "count_pixels": 41, "percent_cover": 0.52202699261522789, "percent_above_0.1m": 68.292682926829272, "low_level_<0.5": 12.195121951219512, "mid_level_0.5-2": 24.390243902439025, "tall_2+": 31.707317073170731 }, "geometry": { "type": "Point", "coordinates": [ -0.215139665029619, 51.195610295127523 ] } },
{ "type": "Feature", "properties": { "max_height": 5.0680160522460938, "mean_height": 0.47947439551353455, "std_height": 1.0891839265823364, "count_pixels": 42, "percent_cover": 0.53475935828876997, "percent_above_0.1m": 50.0, "low_level_<0.5": 19.047619047619047, "mid_level_0.5-2": 11.904761904761903, "tall_2+": 7.1428571428571423 }, "geometry": { "type": "Point", "coordinates": [ -0.214941459694409, 51.195607272921663 ] } },
{ "type": "Feature", "properties": { "max_height": 2.4256515502929688, "mean_height": 0.1309419721364975, "std_height": 0.39378565549850464, "count_pixels": 43, "percent_cover": 0.54749172396231216, "percent_above_0.1m": 20.930232558139537, "low_level_<0.5": 11.627906976744185, "mid_level_0.5-2": 2.3255813953488373, "tall_2+": 2.3255813953488373 }, "geometry": { "type": "Point", "coordinates": [ -0.214743254393719, 51.195604250380264 ] } },
{ "type": "Feature", "properties": { "max_height": 5.9725761413574219, "mean_height": 0.93368625640869141, "std_height": 1.5401135683059692, "count_pixels": 43, "percent_cover": 0.54749172396231216, "percent_above_0.1m": 41.860465116279073, "low_level_<0.5": 4.6511627906976747, "mid_level_0.5-2": 18.604651162790699, "tall_2+": 16.279069767441861 }, "geometry": { "type": "Point", "coordinates": [ -0.214545049127551, 51.195601227503317 ] } },
{ "type": "Feature", "properties": { "max_height": 17.310176849365234, "mean_height": 6.7411398887634277, "std_height": 5.7503452301025391, "count_pixels": 43, "percent_cover": 0.54749172396231216, "percent_above_0.1m": 86.04651162790698, "low_level_<0.5": 6.9767441860465116, "mid_level_0.5-2": 6.9767441860465116, "tall_2+": 72.093023255813947 }, "geometry": { "type": "Point", "coordinates": [ -0.215432809168678, 51.195722682401488 ] } },
{ "type": "Feature", "properties": { "max_height": 15.789207458496094, "mean_height": 7.3953757286071777, "std_height": 3.5685780048370361, "count_pixels": 43, "percent_cover": 0.54749172396231216, "percent_above_0.1m": 100.0, "low_level_<0.5": 0.0, "mid_level_0.5-2": 9.3023255813953494, "tall_2+": 90.697674418604649 }, "geometry": { "type": "Point", "coordinates": [ -0.215234603316826, 51.195719660685704 ] } },
{ "type": "Feature", "properties": { "max_height": 12.493568420410156, "mean_height": 5.4955868721008301, "std_height": 3.847926139831543, "count_pixels": 42, "percent_cover": 0.53475935828876997, "percent_above_0.1m": 88.095238095238088, "low_level_<0.5": 2.3809523809523809, "mid_level_0.5-2": 11.904761904761903, "tall_2+": 73.80952380952381 }, "geometry": { "type": "Point", "coordinates": [ -0.215036397499484, 51.19571663863438 ] } },
{ "type": "Feature", "properties": { "max_height": 0.1260833740234375, "mean_height": 0.0042624124325811863, "std_height": 0.020774470642209053, "count_pixels": 41, "percent_cover": 0.52202699261522789, "percent_above_0.1m": 2.4390243902439024, "low_level_<0.5": 0.0, "mid_level_0.5-2": 0.0, "tall_2+": 0.0 }, "geometry": { "type": "Point", "coordinates": [ -0.214838191716663, 51.195713616247502 ] } },
{ "type": "Feature", "properties": { "max_height": 2.4948768615722656, "mean_height": 0.090549744665622711, "std_height": 0.40446895360946655, "count_pixels": 41, "percent_cover": 0.52202699261522789, "percent_above_0.1m": 7.3170731707317067, "low_level_<0.5": 2.4390243902439024, "mid_level_0.5-2": 2.4390243902439024, "tall_2+": 2.4390243902439024 }, "geometry": { "type": "Point", "coordinates": [ -0.214639985968369, 51.195710593525078 ] } },
{ "type": "Feature", "properties": { "max_height": 4.9423332214355469, "mean_height": 0.66777610778808594, "std_height": 1.316189169883728, "count_pixels": 40, "percent_cover": 0.50929462694168581, "percent_above_0.1m": 32.5, "low_level_<0.5": 5.0, "mid_level_0.5-2": 12.5, "tall_2+": 15.0 }, "geometry": { "type": "Point", "coordinates": [ -0.214441780254598, 51.195707570467093 ] } },
{ "type": "Feature", "properties": { "max_height": 14.412223815917969, "mean_height": 4.3574562072753906, "std_height": 4.5835914611816406, "count_pixels": 40, "percent_cover": 0.50929462694168581, "percent_above_0.1m": 67.5, "low_level_<0.5": 2.5, "mid_level_0.5-2": 7.5, "tall_2+": 57.5 }, "geometry": { "type": "Point", "coordinates": [ -0.215527748385611, 51.19583204773221 ] } },
{ "type": "Feature", "properties": { "max_height": 15.993270874023438, "mean_height": 9.6098709106445312, "std_height": 3.0651082992553711, "count_pixels": 41, "percent_cover": 0.52202699261522789, "percent_above_0.1m": 100.0, "low_level_<0.5": 0.0, "mid_level_0.5-2": 0.0, "tall_2+": 100.0 }, "geometry": { "type": "Point", "coordinates": [ -0.215329542051626, 51.195829026170948 ] } },
{ "type": "Feature", "properties": { "max_height": 13.127952575683594, "mean_height": 7.8352651596069336, "std_height": 2.4449300765991211, "count_pixels": 41, "percent_cover": 0.52202699261522789, "percent_above_0.1m": 100.0, "low_level_<0.5": 0.0, "mid_level_0.5-2": 2.4390243902439024, "tall_2+": 97.560975609756099 }, "geometry": { "type": "Point", "coordinates": [ -0.215131335752156, 51.19582600427416 ] } },
{ "type": "Feature", "properties": { "max_height": 6.4461479187011719, "mean_height": 0.4613349437713623, "std_height": 1.3540307283401489, "count_pixels": 42, "percent_cover": 0.53475935828876997, "percent_above_0.1m": 21.428571428571427, "low_level_<0.5": 0.0, "mid_level_0.5-2": 4.7619047619047619, "tall_2+": 9.5238095238095237 }, "geometry": { "type": "Point", "coordinates": [ -0.214933129487205, 51.195822982041797 ] } },
{ "type": "Feature", "properties": { "max_height": 0.1501312255859375, "mean_height": 0.0054033854976296425, "std_height": 0.023589048534631729, "count_pixels": 43, "percent_cover": 0.54749172396231216, "percent_above_0.1m": 2.3255813953488373, "low_level_<0.5": 2.3255813953488373, "mid_level_0.5-2": 0.0, "tall_2+": 0.0 }, "geometry": { "type": "Point", "coordinates": [ -0.214734923256773, 51.195819959473894 ] } },
{ "type": "Feature", "properties": { "max_height": 0.01486968994140625, "mean_height": 0.0014124138979241252, "std_height": 0.0058876937255263329, "count_pixels": 43, "percent_cover": 0.54749172396231216, "percent_above_0.1m": 0.0, "low_level_<0.5": 0.0, "mid_level_0.5-2": 0.0, "tall_2+": 0.0 }, "geometry": { "type": "Point", "coordinates": [ -0.214536717060866, 51.195816936570438 ] } },
{ "type": "Feature", "properties": { "max_height": 4.0635337829589844, "mean_height": 0.66488093137741089, "std_height": 1.0850496292114258, "count_pixels": 44, "percent_cover": 0.56022408963585435, "percent_above_0.1m": 40.909090909090914, "low_level_<0.5": 11.363636363636363, "mid_level_0.5-2": 13.636363636363635, "tall_2+": 15.909090909090908 }, "geometry": { "type": "Point", "coordinates": [ -0.21433851089949, 51.195813913331428 ] } },
{ "type": "Feature", "properties": { "max_height": 15.935344696044922, "mean_height": 3.6829819679260254, "std_height": 4.623995304107666, "count_pixels": 44, "percent_cover": 0.56022408963585435, "percent_above_0.1m": 61.363636363636367, "low_level_<0.5": 4.5454545454545459, "mid_level_0.5-2": 11.363636363636363, "tall_2+": 45.454545454545453 }, "geometry": { "type": "Point", "coordinates": [ -0.215622688050143, 51.195941412989967 ] } },
{ "type": "Feature", "properties": { "max_height": 19.481601715087891, "mean_height": 12.207701683044434, "std_height": 3.1607365608215332, "count_pixels": 43, "percent_cover": 0.54749172396231216, "percent_above_0.1m": 100.0, "low_level_<0.5": 0.0, "mid_level_0.5-2": 0.0, "tall_2+": 100.0 }, "geometry": { "type": "Point", "coordinates": [ -0.215424481234028, 51.195938391583262 ] } },
{ "type": "Feature", "properties": { "max_height": 18.200756072998047, "mean_height": 5.8548173904418945, "std_height": 5.2134642601013184, "count_pixels": 43, "percent_cover": 0.54749172396231216, "percent_above_0.1m": 86.04651162790698, "low_level_<0.5": 4.6511627906976747, "mid_level_0.5-2": 16.279069767441861, "tall_2+": 65.116279069767444 }, "geometry": { "type": "Point", "coordinates": [ -0.21522627445243, 51.195935369840967 ] } },
{ "type": "Feature", "properties": { "max_height": 13.256008148193359, "mean_height": 2.4007980823516846, "std_height": 3.5431654453277588, "count_pixels": 42, "percent_cover": 0.53475935828876997, "percent_above_0.1m": 59.523809523809526, "low_level_<0.5": 9.5238095238095237, "mid_level_0.5-2": 16.666666666666664, "tall_2+": 33.333333333333329 }, "geometry": { "type": "Point", "coordinates": [ -0.215028067705338, 51.195932347763147 ] } },
{ "type": "Feature", "properties": { "max_height": 0.015346527099609375, "mean_height": 0.0063573326915502548, "std_height": 0.0046175289899110794, "count_pixels": 41, "percent_cover": 0.52202699261522789, "percent_above_0.1m": 0.0, "low_level_<0.5": 0.0, "mid_level_0.5-2": 0.0, "tall_2+": 0.0 }, "geometry": { "type": "Point", "coordinates": [ -0.214829860992773, 51.195929325349773 ] } },
{ "type": "Feature", "properties": { "max_height": 0.55084609985351562, "mean_height": 0.020846948027610779, "std_height": 0.086390472948551178, "count_pixels": 41, "percent_cover": 0.52202699261522789, "percent_above_0.1m": 4.8780487804878048, "low_level_<0.5": 0.0, "mid_level_0.5-2": 2.4390243902439024, "tall_2+": 0.0 }, "geometry": { "type": "Point", "coordinates": [ -0.214631654314727, 51.195926302600832 ] } },
{ "type": "Feature", "properties": { "max_height": 0.028224945068359375, "mean_height": 0.0049885748885571957, "std_height": 0.0080706262961030006, "count_pixels": 40, "percent_cover": 0.50929462694168581, "percent_above_0.1m": 0.0, "low_level_<0.5": 0.0, "mid_level_0.5-2": 0.0, "tall_2+": 0.0 }, "geometry": { "type": "Point", "coordinates": [ -0.21443344767121, 51.19592327951635 ] } },
{ "type": "Feature", "properties": { "max_height": 16.381584167480469, "mean_height": 7.9395914077758789, "std_height": 4.4332747459411621, "count_pixels": 40, "percent_cover": 0.50929462694168581, "percent_above_0.1m": 95.0, "low_level_<0.5": 2.5, "mid_level_0.5-2": 10.0, "tall_2+": 82.5 }, "geometry": { "type": "Point", "coordinates": [ -0.215519420864035, 51.196047756922617 ] } },
{ "type": "Feature", "properties": { "max_height": 19.734001159667969, "mean_height": 12.743579864501953, "std_height": 4.6935405731201172, "count_pixels": 41, "percent_cover": 0.52202699261522789, "percent_above_0.1m": 97.560975609756099, "low_level_<0.5": 0.0, "mid_level_0.5-2": 2.4390243902439024, "tall_2+": 95.121951219512198 }, "geometry": { "type": "Point", "coordinates": [ -0.215321213600298, 51.196044735334866 ] } },
{ "type": "Feature", "properties": { "max_height": 19.273597717285156, "mean_height": 3.4289710521697998, "std_height": 5.0762057304382324, "count_pixels": 41, "percent_cover": 0.52202699261522789, "percent_above_0.1m": 56.09756097560976, "low_level_<0.5": 7.3170731707317067, "mid_level_0.5-2": 4.8780487804878048, "tall_2+": 43.902439024390247 }, "geometry": { "type": "Point", "coordinates": [ -0.215123006371074, 51.196041713411567 ] } },
{ "type": "Feature", "properties": { "max_height": 0.011859893798828125, "mean_height": 0.0047613778151571751, "std_height": 0.0034655476920306683, "count_pixels": 42, "percent_cover": 0.53475935828876997, "percent_above_0.1m": 0.0, "low_level_<0.5": 0.0, "mid_level_0.5-2": 0.0, "tall_2+": 0.0 }, "geometry": { "type": "Point", "coordinates": [ -0.214924799176367, 51.196038691152708 ] } },
{ "type": "Feature", "properties": { "max_height": 0.89834976196289062, "mean_height": 0.053555332124233246, "std_height": 0.16217854619026184, "count_pixels": 43, "percent_cover": 0.54749172396231216, "percent_above_0.1m": 11.627906976744185, "low_level_<0.5": 4.6511627906976747, "mid_level_0.5-2": 4.6511627906976747, "tall_2+": 0.0 }, "geometry": { "type": "Point", "coordinates": [ -0.214726592016187, 51.196035668558295 ] } },
{ "type": "Feature", "properties": { "max_height": 0.27389144897460938, "mean_height": 0.031453333795070648, "std_height": 0.059823155403137207, "count_pixels": 43, "percent_cover": 0.54749172396231216, "percent_above_0.1m": 11.627906976744185, "low_level_<0.5": 9.3023255813953494, "mid_level_0.5-2": 0.0, "tall_2+": 0.0 }, "geometry": { "type": "Point", "coordinates": [ -0.214528384890524, 51.196032645628343 ] } },
{ "type": "Feature", "properties": { "max_height": 19.052467346191406, "mean_height": 7.1432108879089355, "std_height": 6.0116572380065918, "count_pixels": 44, "percent_cover": 0.56022408963585435, "percent_above_0.1m": 77.272727272727266, "low_level_<0.5": 4.5454545454545459, "mid_level_0.5-2": 6.8181818181818175, "tall_2+": 65.909090909090907 }, "geometry": { "type": "Point", "coordinates": [ -0.215614360941649, 51.196157122189028 ] } },
{ "type": "Feature", "properties": { "max_height": 17.791721343994141, "mean_height": 3.4401137828826904, "std_height": 5.2101826667785645, "count_pixels": 43, "percent_cover": 0.54749172396231216, "percent_above_0.1m": 51.162790697674424, "low_level_<0.5": 6.9767441860465116, "mid_level_0.5-2": 9.3023255813953494, "tall_2+": 34.883720930232556 }, "geometry": { "type": "Point", "coordinates": [ -0.215416153195775, 51.196154100755813 ] } },
{ "type": "Feature", "properties": { "max_height": 10.177925109863281, "mean_height": 1.2279292345046997, "std_height": 2.4233913421630859, "count_pixels": 43, "percent_cover": 0.54749172396231216, "percent_above_0.1m": 48.837209302325576, "low_level_<0.5": 13.953488372093023, "mid_level_0.5-2": 18.604651162790699, "tall_2+": 13.953488372093023 }, "geometry": { "type": "Point", "coordinates": [ -0.215217945484411, 51.196151078987029 ] } },
{ "type": "Feature", "properties": { "max_height": 0.48308181762695312, "mean_height": 0.020290102809667587, "std_height": 0.073610380291938782, "count_pixels": 42, "percent_cover": 0.53475935828876997, "percent_above_0.1m": 2.3809523809523809, "low_level_<0.5": 2.3809523809523809, "mid_level_0.5-2": 0.0, "tall_2+": 0.0 }, "geometry": { "type": "Point", "coordinates": [ -0.215019737807568, 51.19614805688272 ] } },
{ "type": "Feature", "properties": { "max_height": 1.1415557861328125, "mean_height": 0.12734119594097137, "std_height": 0.26601508259773254, "count_pixels": 41, "percent_cover": 0.52202699261522789, "percent_above_0.1m": 24.390243902439025, "low_level_<0.5": 12.195121951219512, "mid_level_0.5-2": 7.3170731707317067, "tall_2+": 0.0 }, "geometry": { "type": "Point", "coordinates": [ -0.214821530165238, 51.196145034442814 ] } },
{ "type": "Feature", "properties": { "max_height": 0.022983551025390625, "mean_height": 0.0090642785653471947, "std_height": 0.0067005283199250698, "count_pixels": 41, "percent_cover": 0.52202699261522789, "percent_above_0.1m": 0.0, "low_level_<0.5": 0.0, "mid_level_0.5-2": 0.0, "tall_2+": 0.0 }, "geometry": { "type": "Point", "coordinates": [ -0.21462332255744, 51.196142011667376 ] } },
{ "type": "Feature", "properties": { "max_height": 6.6815948486328125, "mean_height": 1.3505778312683105, "std_height": 1.7739658355712891, "count_pixels": 36, "percent_cover": 0.45836516424751722, "percent_above_0.1m": 55.555555555555557, "low_level_<0.5": 2.7777777777777777, "mid_level_0.5-2": 22.222222222222221, "tall_2+": 27.777777777777779 }, "geometry": { "type": "Point", "coordinates": [ -0.215709301466873, 51.196266487382488 ] } },
{ "type": "Feature", "properties": { "max_height": 13.934417724609375, "mean_height": 2.6643040180206299, "std_height": 4.1412243843078613, "count_pixels": 40, "percent_cover": 0.50929462694168581, "percent_above_0.1m": 62.5, "low_level_<0.5": 12.5, "mid_level_0.5-2": 17.5, "tall_2+": 30.0 }, "geometry": { "type": "Point", "coordinates": [ -0.215511093238862, 51.196263466103787 ] } },
{ "type": "Feature", "properties": { "max_height": 0.064403533935546875, "mean_height": 0.0075435172766447067, "std_height": 0.0099462056532502174, "count_pixels": 41, "percent_cover": 0.52202699261522789, "percent_above_0.1m": 0.0, "low_level_<0.5": 0.0, "mid_level_0.5-2": 0.0, "tall_2+": 0.0 }, "geometry": { "type": "Point", "coordinates": [ -0.215312885045358, 51.196260444489532 ] } },
{ "type": "Feature", "properties": { "max_height": 0.2658233642578125, "mean_height": 0.014035201631486416, "std_height": 0.039978668093681335, "count_pixels": 41, "percent_cover": 0.52202699261522789, "percent_above_0.1m": 2.4390243902439024, "low_level_<0.5": 2.4390243902439024, "mid_level_0.5-2": 0.0, "tall_2+": 0.0 }, "geometry": { "type": "Point", "coordinates": [ -0.215114676886368, 51.196257422539745 ] } },
{ "type": "Feature", "properties": { "max_height": 1.3571739196777344, "mean_height": 0.11243611574172974, "std_height": 0.26098543405532837, "count_pixels": 42, "percent_cover": 0.53475935828876997, "percent_above_0.1m": 19.047619047619047, "low_level_<0.5": 11.904761904761903, "mid_level_0.5-2": 7.1428571428571423, "tall_2+": 0.0 }, "geometry": { "type": "Point", "coordinates": [ -0.214916468761897, 51.196254400254396 ] } },
{ "type": "Feature", "properties": { "max_height": 11.329875946044922, "mean_height": 1.8441286087036133, "std_height": 3.0453944206237793, "count_pixels": 43, "percent_cover": 0.54749172396231216, "percent_above_0.1m": 41.860465116279073, "low_level_<0.5": 4.6511627906976747, "mid_level_0.5-2": 9.3023255813953494, "tall_2+": 27.906976744186046 }, "geometry": { "type": "Point", "coordinates": [ -0.21580424243972, 51.196375852503003 ] } },
{ "type": "Feature", "properties": { "max_height": 12.723983764648438, "mean_height": 3.0962121486663818, "std_height": 4.3106451034545898, "count_pixels": 44, "percent_cover": 0.56022408963585435, "percent_above_0.1m": 50.0, "low_level_<0.5": 4.5454545454545459, "mid_level_0.5-2": 2.2727272727272729, "tall_2+": 38.636363636363633 }, "geometry": { "type": "Point", "coordinates": [ -0.215606033729561, 51.196372831378845 ] } },
{ "type": "Feature", "properties": { "max_height": 6.0927276611328125, "mean_height": 0.17978836596012115, "std_height": 0.92016881704330444, "count_pixels": 43, "percent_cover": 0.54749172396231216, "percent_above_0.1m": 9.3023255813953494, "low_level_<0.5": 6.9767441860465116, "mid_level_0.5-2": 0.0, "tall_2+": 2.3255813953488373 }, "geometry": { "type": "Point", "coordinates": [ -0.215407825053913, 51.196369809919126 ] } },
{ "type": "Feature", "properties": { "max_height": 2.3831558227539062, "mean_height": 0.13976411521434784, "std_height": 0.45008516311645508, "count_pixels": 43, "percent_cover": 0.54749172396231216, "percent_above_0.1m": 13.953488372093023, "low_level_<0.5": 4.6511627906976747, "mid_level_0.5-2": 6.9767441860465116, "tall_2+": 2.3255813953488373 }, "geometry": { "type": "Point", "coordinates": [ -0.215209616412781, 51.196366788123839 ] } },
{ "type": "Feature", "properties": { "max_height": 1.663726806640625, "mean_height": 0.1788962185382843, "std_height": 0.36222720146179199, "count_pixels": 42, "percent_cover": 0.53475935828876997, "percent_above_0.1m": 23.809523809523807, "low_level_<0.5": 7.1428571428571423, "mid_level_0.5-2": 14.285714285714285, "tall_2+": 0.0 }, "geometry": { "type": "Point", "coordinates": [ -0.215011407806162, 51.196363765993027 ] } },
{ "type": "Feature", "properties": { "max_height": 3.9918212890625, "mean_height": 0.52378398180007935, "std_height": 0.9326825737953186, "count_pixels": 41, "percent_cover": 0.52202699261522789, "percent_above_0.1m": 39.024390243902438, "low_level_<0.5": 7.3170731707317067, "mid_level_0.5-2": 24.390243902439025, "tall_2+": 4.8780487804878048 }, "geometry": { "type": "Point", "coordinates": [ -0.215899183860178, 51.196485217550567 ] } },
{ "type": "Feature", "properties": { "max_height": 10.593334197998047, "mean_height": 4.0442228317260742, "std_height": 3.9031109809875488, "count_pixels": 36, "percent_cover": 0.45836516424751722, "percent_above_0.1m": 77.777777777777786, "low_level_<0.5": 11.111111111111111, "mid_level_0.5-2": 11.111111111111111, "tall_2+": 52.777777777777779 }, "geometry": { "type": "Point", "coordinates": [ -0.215700974667877, 51.196482196580931 ] } },
{ "type": "Feature", "properties": { "max_height": 17.175468444824219, "mean_height": 8.792210578918457, "std_height": 6.4683060646057129, "count_pixels": 40, "percent_cover": 0.50929462694168581, "percent_above_0.1m": 85.0, "low_level_<0.5": 5.0, "mid_level_0.5-2": 5.0, "tall_2+": 72.5 }, "geometry": { "type": "Point", "coordinates": [ -0.215502765510088, 51.196479175275734 ] } },
{ "type": "Feature", "properties": { "max_height": 13.628101348876953, "mean_height": 1.7991042137145996, "std_height": 3.5733590126037598, "count_pixels": 41, "percent_cover": 0.52202699261522789, "percent_above_0.1m": 39.024390243902438, "low_level_<0.5": 4.8780487804878048, "mid_level_0.5-2": 9.7560975609756095, "tall_2+": 21.951219512195124 }, "geometry": { "type": "Point", "coordinates": [ -0.215304556386803, 51.196476153635004 ] } },
{ "type": "Feature", "properties": { "max_height": 0.27494430541992188, "mean_height": 0.027388131245970726, "std_height": 0.063254907727241516, "count_pixels": 41, "percent_cover": 0.52202699261522789, "percent_above_0.1m": 7.3170731707317067, "low_level_<0.5": 7.3170731707317067, "mid_level_0.5-2": 0.0, "tall_2+": 0.0 }, "geometry": { "type": "Point", "coordinates": [ -0.215106347298039, 51.196473131658692 ] } },
{ "type": "Feature", "properties": { "max_height": 2.065643310546875, "mean_height": 0.4685661792755127, "std_height": 0.66288930177688599, "count_pixels": 43, "percent_cover": 0.54749172396231216, "percent_above_0.1m": 41.860465116279073, "low_level_<0.5": 6.9767441860465116, "mid_level_0.5-2": 30.232558139534881, "tall_2+": 2.3255813953488373 }, "geometry": { "type": "Point", "coordinates": [ -0.215795916053815, 51.196591561710079 ] } },
{ "type": "Feature", "properties": { "max_height": 13.681545257568359, "mean_height": 1.9733508825302124, "std_height": 3.5213985443115234, "count_pixels": 44, "percent_cover": 0.56022408963585435, "percent_above_0.1m": 50.0, "low_level_<0.5": 9.0909090909090917, "mid_level_0.5-2": 11.363636363636363, "tall_2+": 25.0 }, "geometry": { "type": "Point", "coordinates": [ -0.215597706413876, 51.196588540559418 ] } },
{ "type": "Feature", "properties": { "max_height": 16.628776550292969, "mean_height": 4.6748719215393066, "std_height": 5.841038703918457, "count_pixels": 43, "percent_cover": 0.54749172396231216, "percent_above_0.1m": 62.790697674418603, "low_level_<0.5": 4.6511627906976747, "mid_level_0.5-2": 11.627906976744185, "tall_2+": 46.511627906976742 }, "geometry": { "type": "Point", "coordinates": [ -0.215399496808444, 51.196585519073224 ] } },
{ "type": "Feature", "properties": { "max_height": 2.1819648742675781, "mean_height": 0.57224899530410767, "std_height": 0.72730666399002075, "count_pixels": 41, "percent_cover": 0.52202699261522789, "percent_above_0.1m": 58.536585365853654, "low_level_<0.5": 19.512195121951219, "mid_level_0.5-2": 26.829268292682929, "tall_2+": 9.7560975609756095 }, "geometry": { "type": "Point", "coordinates": [ -0.215890857887381, 51.196700926766262 ] } },
{ "type": "Feature", "properties": { "max_height": 1.035064697265625, "mean_height": 0.068783551454544067, "std_height": 0.2069585770368576, "count_pixels": 36, "percent_cover": 0.45836516424751722, "percent_above_0.1m": 11.111111111111111, "low_level_<0.5": 5.5555555555555554, "mid_level_0.5-2": 5.5555555555555554, "tall_2+": 0.0 }, "geometry": { "type": "Point", "coordinates": [ -0.215692647765288, 51.196697905770151 ] } },
{ "type": "Feature", "properties": { "max_height": 0.69781494140625, "mean_height": 0.076510623097419739, "std_height": 0.14961336553096771, "count_pixels": 40, "percent_cover": 0.50929462694168581, "percent_above_0.1m": 25.0, "low_level_<0.5": 15.0, "mid_level_0.5-2": 2.5, "tall_2+": 0.0 }, "geometry": { "type": "Point", "coordinates": [ -0.215494437677707, 51.196694884438465 ] } }
]
}
