{
"type": "FeatureCollection",
"name": "d696221b8995_foliage",
"crs": { "type": "name", "properties": { "name": "urn:ogc:def:crs:OGC:1.3:CRS84" } },
"features": [
{ "type": "Feature", "properties": { "max_height": 10.587249755859375, "mean_height": 2.3523356914520264, "std_height": 2.9170913696289062, "count_pixels": 42, "percent_cover": 0.68226120857699801, "percent_above_0.1m": 69.047619047619051, "low_level_<0.5": 9.5238095238095237, "mid_level_0.5-2": 14.285714285714285, "tall_2+": 42.857142857142854 }, "geometry": { "type": "Point", "coordinates": [ -0.178824844435557, 51.188120642615907 ] } },
{ "type": "Feature", "properties": { "max_height": 7.7497520446777344, "mean_height": 2.1441891193389893, "std_height": 2.3700113296508789, "count_pixels": 43, "percent_cover": 0.69850552306692659, "percent_above_0.1m": 67.441860465116278, "low_level_<0.5": 9.3023255813953494, "mid_level_0.5-2": 11.627906976744185, "tall_2+": 44.186046511627907 }, "geometry": { "type": "Point", "coordinates": [ -0.178626675628874, 51.188117558828502 ] } },
{ "type": "Feature", "properties": { "max_height": 14.772251129150391, "mean_height": 2.5374681949615479, "std_height": 4.186983585357666, "count_pixels": 43, "percent_cover": 0.69850552306692659, "percent_above_0.1m": 46.511627906976742, "low_level_<0.5": 2.3255813953488373, "mid_level_0.5-2": 9.3023255813953494, "tall_2+": 32.558139534883722 }, "geometry": { "type": "Point", "coordinates": [ -0.178428506857381, 51.188114474706069 ] } },
{ "type": "Feature", "properties": { "max_height": 8.5012550354003906, "mean_height": 2.8140799999237061, "std_height": 2.4932785034179688, "count_pixels": 42, "percent_cover": 0.68226120857699801, "percent_above_0.1m": 71.428571428571431, "low_level_<0.5": 4.7619047619047619, "mid_level_0.5-2": 7.1428571428571423, "tall_2+": 59.523809523809526 }, "geometry": { "type": "Point", "coordinates": [ -0.178230338121081, 51.188111390248579 ] } },
{ "type": "Feature", "properties": { "max_height": 10.814506530761719, "mean_height": 1.6346389055252075, "std_height": 2.4394032955169678, "count_pixels": 43, "percent_cover": 0.69850552306692659, "percent_above_0.1m": 67.441860465116278, "low_level_<0.5": 9.3023255813953494, "mid_level_0.5-2": 32.558139534883722, "tall_2+": 20.930232558139537 }, "geometry": { "type": "Point", "coordinates": [ -0.179117849802117, 51.188233119990883 ] } },
{ "type": "Feature", "properties": { "max_height": 6.6967544555664062, "mean_height": 3.3704652786254883, "std_height": 2.6595971584320068, "count_pixels": 42, "percent_cover": 0.68226120857699801, "percent_above_0.1m": 71.428571428571431, "low_level_<0.5": 4.7619047619047619, "mid_level_0.5-2": 0.0, "tall_2+": 64.285714285714292 }, "geometry": { "type": "Point", "coordinates": [ -0.178919680478322, 51.188230036685638 ] } },
{ "type": "Feature", "properties": { "max_height": 2.4897537231445312, "mean_height": 0.17934985458850861, "std_height": 0.50596159696578979, "count_pixels": 41, "percent_cover": 0.66601689408706943, "percent_above_0.1m": 14.634146341463413, "low_level_<0.5": 4.8780487804878048, "mid_level_0.5-2": 7.3170731707317067, "tall_2+": 2.4390243902439024 }, "geometry": { "type": "Point", "coordinates": [ -0.178721511189718, 51.188226953045358 ] } },
{ "type": "Feature", "properties": { "max_height": 8.0140037536621094, "mean_height": 0.66452121734619141, "std_height": 1.3943029642105103, "count_pixels": 41, "percent_cover": 0.66601689408706943, "percent_above_0.1m": 41.463414634146339, "low_level_<0.5": 2.4390243902439024, "mid_level_0.5-2": 29.268292682926827, "tall_2+": 7.3170731707317067 }, "geometry": { "type": "Point", "coordinates": [ -0.178523341936298, 51.188223869070036 ] } },
{ "type": "Feature", "properties": { "max_height": 1.4427528381347656, "mean_height": 0.10598400980234146, "std_height": 0.28380924463272095, "count_pixels": 41, "percent_cover": 0.66601689408706943, "percent_above_0.1m": 19.512195121951219, "low_level_<0.5": 9.7560975609756095, "mid_level_0.5-2": 7.3170731707317067, "tall_2+": 0.0 }, "geometry": { "type": "Point", "coordinates": [ -0.178325172718071, 51.188220784759665 ] } },
{ "type": "Feature", "properties": { "max_height": 5.6367530822753906, "mean_height": 2.5310766696929932, "std_height": 1.9478187561035156, "count_pixels": 37, "percent_cover": 0.60103963612735534, "percent_above_0.1m": 91.891891891891902, "low_level_<0.5": 5.4054054054054053, "mid_level_0.5-2": 27.027027027027028, "tall_2+": 54.054054054054056 }, "geometry": { "type": "Point", "coordinates": [ -0.178127003535044, 51.188217700114272 ] } },
{ "type": "Feature", "properties": { "max_height": 11.210250854492188, "mean_height": 4.3350691795349121, "std_height": 3.4280378818511963, "count_pixels": 41, "percent_cover": 0.66601689408706943, "percent_above_0.1m": 95.121951219512198, "low_level_<0.5": 9.7560975609756095, "mid_level_0.5-2": 21.951219512195124, "tall_2+": 63.414634146341463 }, "geometry": { "type": "Point", "coordinates": [ -0.179014516967809, 51.188339430689403 ] } },
{ "type": "Feature", "properties": { "max_height": 1.9905014038085938, "mean_height": 0.14561016857624054, "std_height": 0.39899212121963501, "count_pixels": 42, "percent_cover": 0.68226120857699801, "percent_above_0.1m": 21.428571428571427, "low_level_<0.5": 14.285714285714285, "mid_level_0.5-2": 7.1428571428571423, "tall_2+": 0.0 }, "geometry": { "type": "Point", "coordinates": [ -0.178816347197276, 51.188336347196248 ] } },
{ "type": "Feature", "properties": { "max_height": 6.2092514038085938, "mean_height": 0.92036896944046021, "std_height": 1.6750550270080566, "count_pixels": 43, "percent_cover": 0.69850552306692659, "percent_above_0.1m": 30.232558139534881, "low_level_<0.5": 0.0, "mid_level_0.5-2": 11.627906976744185, "tall_2+": 18.604651162790699 }, "geometry": { "type": "Point", "coordinates": [ -0.178618177461932, 51.18833326336803 ] } },
{ "type": "Feature", "properties": { "max_height": 7.1490020751953125, "mean_height": 2.7874612808227539, "std_height": 2.2987322807312012, "count_pixels": 43, "percent_cover": 0.69850552306692659, "percent_above_0.1m": 76.744186046511629, "low_level_<0.5": 2.3255813953488373, "mid_level_0.5-2": 18.604651162790699, "tall_2+": 55.813953488372093 }, "geometry": { "type": "Point", "coordinates": [ -0.178420007761778, 51.188330179204804 ] } },
{ "type": "Feature", "properties": { "max_height": 6.683502197265625, "mean_height": 2.1153063774108887, "std_height": 2.4023122787475586, "count_pixels": 42, "percent_cover": 0.68226120857699801, "percent_above_0.1m": 66.666666666666657, "low_level_<0.5": 7.1428571428571423, "mid_level_0.5-2": 21.428571428571427, "tall_2+": 38.095238095238095 }, "geometry": { "type": "Point", "coordinates": [ -0.178221838096823, 51.188327094706494 ] } },
{ "type": "Feature", "properties": { "max_height": 6.5015029907226562, "mean_height": 2.8582115173339844, "std_height": 2.0081996917724609, "count_pixels": 43, "percent_cover": 0.69850552306692659, "percent_above_0.1m": 93.023255813953483, "low_level_<0.5": 6.9767441860465116, "mid_level_0.5-2": 23.255813953488371, "tall_2+": 60.465116279069761 }, "geometry": { "type": "Point", "coordinates": [ -0.178023668467061, 51.188324009873178 ] } },
{ "type": "Feature", "properties": { "max_height": 13.734500885009766, "mean_height": 5.1807761192321777, "std_height": 5.0460691452026367, "count_pixels": 42, "percent_cover": 0.68226120857699801, "percent_above_0.1m": 83.333333333333343, "low_level_<0.5": 0.0, "mid_level_0.5-2": 28.571428571428569, "tall_2+": 52.380952380952387 }, "geometry": { "type": "Point", "coordinates": [ -0.178911183651557, 51.188445741281143 ] } },
{ "type": "Feature", "properties": { "max_height": 3.524505615234375, "mean_height": 0.49467319250106812, "std_height": 0.92378538846969604, "count_pixels": 41, "percent_cover": 0.66601689408706943, "percent_above_0.1m": 29.268292682926827, "low_level_<0.5": 2.4390243902439024, "mid_level_0.5-2": 17.073170731707318, "tall_2+": 9.7560975609756095 }, "geometry": { "type": "Point", "coordinates": [ -0.178713013434283, 51.188442657600085 ] } },
{ "type": "Feature", "properties": { "max_height": 4.1792526245117188, "mean_height": 0.36590501666069031, "std_height": 0.80415838956832886, "count_pixels": 41, "percent_cover": 0.66601689408706943, "percent_above_0.1m": 29.268292682926827, "low_level_<0.5": 4.8780487804878048, "mid_level_0.5-2": 19.512195121951219, "tall_2+": 2.4390243902439024 }, "geometry": { "type": "Point", "coordinates": [ -0.178514843252203, 51.188439573583956 ] } },
{ "type": "Feature", "properties": { "max_height": 4.8390045166015625, "mean_height": 1.9525084495544434, "std_height": 1.5480189323425293, "count_pixels": 41, "percent_cover": 0.66601689408706943, "percent_above_0.1m": 80.487804878048792, "low_level_<0.5": 7.3170731707317067, "mid_level_0.5-2": 21.951219512195124, "tall_2+": 51.219512195121951 }, "geometry": { "type": "Point", "coordinates": [ -0.17831667310531, 51.188436489232771 ] } },
{ "type": "Feature", "properties": { "max_height": 9.1805038452148438, "mean_height": 3.8166177272796631, "std_height": 2.3024370670318604, "count_pixels": 37, "percent_cover": 0.60103963612735534, "percent_above_0.1m": 83.78378378378379, "low_level_<0.5": 0.0, "mid_level_0.5-2": 8.1081081081081088, "tall_2+": 75.675675675675677 }, "geometry": { "type": "Point", "coordinates": [ -0.178118502993623, 51.188433404546551 ] } },
{ "type": "Feature", "properties": { "max_height": 10.588504791259766, "mean_height": 4.4328322410583496, "std_height": 2.940662145614624, "count_pixels": 41, "percent_cover": 0.66601689408706943, "percent_above_0.1m": 85.365853658536579, "low_level_<0.5": 0.0, "mid_level_0.5-2": 9.7560975609756095, "tall_2+": 75.609756097560975 }, "geometry": { "type": "Point", "coordinates": [ -0.177920332917132, 51.188430319525281 ] } },
{ "type": "Feature", "properties": { "max_height": 13.374755859375, "mean_height": 2.652186393737793, "std_height": 4.2864689826965332, "count_pixels": 41, "percent_cover": 0.66601689408706943, "percent_above_0.1m": 39.024390243902438, "low_level_<0.5": 0.0, "mid_level_0.5-2": 4.8780487804878048, "tall_2+": 31.707317073170731 }, "geometry": { "type": "Point", "coordinates": [ -0.179006020552562, 51.188555135300085 ] } },
{ "type": "Feature", "properties": { "max_height": 14.110507965087891, "mean_height": 2.7701876163482666, "std_height": 4.1731276512145996, "count_pixels": 42, "percent_cover": 0.68226120857699801, "percent_above_0.1m": 66.666666666666657, "low_level_<0.5": 9.5238095238095237, "mid_level_0.5-2": 23.809523809523807, "tall_2+": 30.952380952380953 }, "geometry": { "type": "Point", "coordinates": [ -0.178807849853363, 51.188552051766123 ] } },
{ "type": "Feature", "properties": { "max_height": 2.1082534790039062, "mean_height": 0.46575883030891418, "std_height": 0.65401440858840942, "count_pixels": 43, "percent_cover": 0.69850552306692659, "percent_above_0.1m": 51.162790697674424, "low_level_<0.5": 18.604651162790699, "mid_level_0.5-2": 23.255813953488371, "tall_2+": 4.6511627906976747 }, "geometry": { "type": "Point", "coordinates": [ -0.178609679189346, 51.188548967897113 ] } },
{ "type": "Feature", "properties": { "max_height": 6.3602523803710938, "mean_height": 2.4009966850280762, "std_height": 1.5820508003234863, "count_pixels": 43, "percent_cover": 0.69850552306692659, "percent_above_0.1m": 90.697674418604649, "low_level_<0.5": 2.3255813953488373, "mid_level_0.5-2": 25.581395348837212, "tall_2+": 62.790697674418603 }, "geometry": { "type": "Point", "coordinates": [ -0.178411508560526, 51.188545883693067 ] } },
{ "type": "Feature", "properties": { "max_height": 13.004753112792969, "mean_height": 5.1225981712341309, "std_height": 4.3716168403625488, "count_pixels": 42, "percent_cover": 0.68226120857699801, "percent_above_0.1m": 85.714285714285708, "low_level_<0.5": 2.3809523809523809, "mid_level_0.5-2": 21.428571428571427, "tall_2+": 61.904761904761905 }, "geometry": { "type": "Point", "coordinates": [ -0.178213337966897, 51.188542799153964 ] } },
{ "type": "Feature", "properties": { "max_height": 12.435256958007812, "mean_height": 5.3104510307312012, "std_height": 3.7598257064819336, "count_pixels": 43, "percent_cover": 0.69850552306692659, "percent_above_0.1m": 86.04651162790698, "low_level_<0.5": 4.6511627906976747, "mid_level_0.5-2": 6.9767441860465116, "tall_2+": 74.418604651162795 }, "geometry": { "type": "Point", "coordinates": [ -0.178015167408469, 51.18853971427982 ] } },
{ "type": "Feature", "properties": { "max_height": 9.0005035400390625, "mean_height": 2.1030497550964355, "std_height": 2.6378540992736816, "count_pixels": 42, "percent_cover": 0.68226120857699801, "percent_above_0.1m": 57.142857142857139, "low_level_<0.5": 2.3809523809523809, "mid_level_0.5-2": 11.904761904761903, "tall_2+": 42.857142857142854 }, "geometry": { "type": "Point", "coordinates": [ -0.178902686719164, 51.188661445866231 ] } },
{ "type": "Feature", "properties": { "max_height": 3.22900390625, "mean_height": 0.57563668489456177, "std_height": 0.76630288362503052, "count_pixels": 41, "percent_cover": 0.66601689408706943, "percent_above_0.1m": 56.09756097560976, "low_level_<0.5": 12.195121951219512, "mid_level_0.5-2": 34.146341463414636, "tall_2+": 4.8780487804878048 }, "geometry": { "type": "Point", "coordinates": [ -0.178704515573217, 51.188658362144317 ] } },
{ "type": "Feature", "properties": { "max_height": 5.0390052795410156, "mean_height": 0.33214288949966431, "std_height": 0.99326884746551514, "count_pixels": 41, "percent_cover": 0.66601689408706943, "percent_above_0.1m": 17.073170731707318, "low_level_<0.5": 2.4390243902439024, "mid_level_0.5-2": 7.3170731707317067, "tall_2+": 4.8780487804878048 }, "geometry": { "type": "Point", "coordinates": [ -0.178506344462457, 51.188655278087396 ] } },
{ "type": "Feature", "properties": { "max_height": 6.5812530517578125, "mean_height": 3.3093008995056152, "std_height": 2.1453931331634521, "count_pixels": 41, "percent_cover": 0.66601689408706943, "percent_above_0.1m": 85.365853658536579, "low_level_<0.5": 2.4390243902439024, "mid_level_0.5-2": 9.7560975609756095, "tall_2+": 70.731707317073173 }, "geometry": { "type": "Point", "coordinates": [ -0.178308173386896, 51.188652193695418 ] } },
{ "type": "Feature", "properties": { "max_height": 8.7392578125, "mean_height": 0.42536783218383789, "std_height": 1.5763684511184692, "count_pixels": 37, "percent_cover": 0.60103963612735534, "percent_above_0.1m": 24.324324324324326, "low_level_<0.5": 8.1081081081081088, "mid_level_0.5-2": 5.4054054054054053, "tall_2+": 5.4054054054054053 }, "geometry": { "type": "Point", "coordinates": [ -0.178110002346529, 51.188649108968377 ] } },
{ "type": "Feature", "properties": { "max_height": 2.3717536926269531, "mean_height": 0.38275256752967834, "std_height": 0.67757552862167358, "count_pixels": 41, "percent_cover": 0.66601689408706943, "percent_above_0.1m": 34.146341463414636, "low_level_<0.5": 9.7560975609756095, "mid_level_0.5-2": 17.073170731707318, "tall_2+": 4.8780487804878048 }, "geometry": { "type": "Point", "coordinates": [ -0.177911831341365, 51.188646023906287 ] } },
{ "type": "Feature", "properties": { "max_height": 1.0205001831054688, "mean_height": 0.23243159055709839, "std_height": 0.31829449534416199, "count_pixels": 42, "percent_cover": 0.68226120857699801, "percent_above_0.1m": 40.476190476190474, "low_level_<0.5": 14.285714285714285, "mid_level_0.5-2": 26.190476190476193, "tall_2+": 0.0 }, "geometry": { "type": "Point", "coordinates": [ -0.178799352403815, 51.188767756325554 ] } },
{ "type": "Feature", "properties": { "max_height": 3.2567520141601562, "mean_height": 0.18957804143428802, "std_height": 0.52549725770950317, "count_pixels": 43, "percent_cover": 0.69850552306692659, "percent_above_0.1m": 27.906976744186046, "low_level_<0.5": 13.953488372093023, "mid_level_0.5-2": 11.627906976744185, "tall_2+": 2.3255813953488373 }, "geometry": { "type": "Point", "coordinates": [ -0.178601180811118, 51.188764672415743 ] } },
{ "type": "Feature", "properties": { "max_height": 3.9010009765625, "mean_height": 0.87320005893707275, "std_height": 1.2819420099258423, "count_pixels": 43, "percent_cover": 0.69850552306692659, "percent_above_0.1m": 46.511627906976742, "low_level_<0.5": 9.3023255813953494, "mid_level_0.5-2": 16.279069767441861, "tall_2+": 20.930232558139537 }, "geometry": { "type": "Point", "coordinates": [ -0.178403009253616, 51.188761588170877 ] } },
{ "type": "Feature", "properties": { "max_height": 4.1607551574707031, "mean_height": 0.38630023598670959, "std_height": 0.94391679763793945, "count_pixels": 42, "percent_cover": 0.68226120857699801, "percent_above_0.1m": 26.190476190476193, "low_level_<0.5": 0.0, "mid_level_0.5-2": 14.285714285714285, "tall_2+": 7.1428571428571423 }, "geometry": { "type": "Point", "coordinates": [ -0.178204837731308, 51.188758503590968 ] } },
{ "type": "Feature", "properties": { "max_height": 4.3927536010742188, "mean_height": 1.2870259284973145, "std_height": 1.5482409000396729, "count_pixels": 43, "percent_cover": 0.69850552306692659, "percent_above_0.1m": 48.837209302325576, "low_level_<0.5": 2.3255813953488373, "mid_level_0.5-2": 11.627906976744185, "tall_2+": 34.883720930232556 }, "geometry": { "type": "Point", "coordinates": [ -0.178006666244203, 51.188755418675989 ] } },
{ "type": "Feature", "properties": { "max_height": 6.8887519836425781, "mean_height": 1.662530779838562, "std_height": 1.6974681615829468, "count_pixels": 43, "percent_cover": 0.69850552306692659, "percent_above_0.1m": 65.116279069767444, "low_level_<0.5": 2.3255813953488373, "mid_level_0.5-2": 18.604651162790699, "tall_2+": 44.186046511627907 }, "geometry": { "type": "Point", "coordinates": [ -0.1778084947923, 51.188752333425981 ] } },
{ "type": "Feature", "properties": { "max_height": 1.8897552490234375, "mean_height": 0.2685089111328125, "std_height": 0.42678973078727722, "count_pixels": 41, "percent_cover": 0.66601689408706943, "percent_above_0.1m": 39.024390243902438, "low_level_<0.5": 7.3170731707317067, "mid_level_0.5-2": 26.829268292682929, "tall_2+": 0.0 }, "geometry": { "type": "Point", "coordinates": [ -0.178696017606508, 51.188874066678117 ] } },
{ "type": "Feature", "properties": { "max_height": 1.5772552490234375, "mean_height": 0.27701520919799805, "std_height": 0.4851277768611908, "count_pixels": 41, "percent_cover": 0.66601689408706943, "percent_above_0.1m": 31.707317073170731, "low_level_<0.5": 7.3170731707317067, "mid_level_0.5-2": 21.951219512195124, "tall_2+": 0.0 }, "geometry": { "type": "Point", "coordinates": [ -0.178497845567065, 51.188870982580369 ] } },
{ "type": "Feature", "properties": { "max_height": 2.287750244140625, "mean_height": 0.33955717086791992, "std_height": 0.67325228452682495, "count_pixels": 41, "percent_cover": 0.66601689408706943, "percent_above_0.1m": 29.268292682926827, "low_level_<0.5": 9.7560975609756095, "mid_level_0.5-2": 9.7560975609756095, "tall_2+": 7.3170731707317067 }, "geometry": { "type": "Point", "coordinates": [ -0.178299673562814, 51.188867898147578 ] } },
{ "type": "Feature", "properties": { "max_height": 12.878005981445312, "mean_height": 3.7845022678375244, "std_height": 4.0950818061828613, "count_pixels": 37, "percent_cover": 0.60103963612735534, "percent_above_0.1m": 64.86486486486487, "low_level_<0.5": 5.4054054054054053, "mid_level_0.5-2": 5.4054054054054053, "tall_2+": 54.054054054054056 }, "geometry": { "type": "Point", "coordinates": [ -0.178101501593763, 51.188864813379737 ] } },
{ "type": "Feature", "properties": { "max_height": 3.6462516784667969, "mean_height": 0.57867294549942017, "std_height": 1.0843610763549805, "count_pixels": 41, "percent_cover": 0.66601689408706943, "percent_above_0.1m": 34.146341463414636, "low_level_<0.5": 9.7560975609756095, "mid_level_0.5-2": 9.7560975609756095, "tall_2+": 14.634146341463413 }, "geometry": { "type": "Point", "coordinates": [ -0.177903329659913, 51.188861728276834 ] } },
{ "type": "Feature", "properties": { "max_height": 4.5580024719238281, "mean_height": 0.93516111373901367, "std_height": 1.2082844972610474, "count_pixels": 41, "percent_cover": 0.66601689408706943, "percent_above_0.1m": 51.219512195121951, "low_level_<0.5": 2.4390243902439024, "mid_level_0.5-2": 34.146341463414636, "tall_2+": 14.634146341463413 }, "geometry": { "type": "Point", "coordinates": [ -0.177705157761272, 51.188858642838895 ] } },
{ "type": "Feature", "properties": { "max_height": 6.9460067749023438, "mean_height": 1.5966881513595581, "std_height": 1.8933931589126587, "count_pixels": 43, "percent_cover": 0.69850552306692659, "percent_above_0.1m": 76.744186046511629, "low_level_<0.5": 16.279069767441861, "mid_level_0.5-2": 23.255813953488371, "tall_2+": 32.558139534883722 }, "geometry": { "type": "Point", "coordinates": [ -0.178592682327245, 51.188980376923894 ] } },
{ "type": "Feature", "properties": { "max_height": 7.4687538146972656, "mean_height": 1.0243861675262451, "std_height": 1.300128698348999, "count_pixels": 43, "percent_cover": 0.69850552306692659, "percent_above_0.1m": 72.093023255813947, "low_level_<0.5": 11.627906976744185, "mid_level_0.5-2": 44.186046511627907, "tall_2+": 16.279069767441861 }, "geometry": { "type": "Point", "coordinates": [ -0.17839450984105, 51.188977292638228 ] } },
{ "type": "Feature", "properties": { "max_height": 0.000255584716796875, "mean_height": 8.7193084254977293e-06, "std_height": 6.6476539359427989e-05, "count_pixels": 42, "percent_cover": 0.68226120857699801, "percent_above_0.1m": 0.0, "low_level_<0.5": 0.0, "mid_level_0.5-2": 0.0, "tall_2+": 0.0 }, "geometry": { "type": "Point", "coordinates": [ -0.178196337390051, 51.188974208017505 ] } },
{ "type": "Feature", "properties": { "max_height": 0.0005035400390625, "mean_height": 3.2824138997966656e-06, "std_height": 0.00010799807932926342, "count_pixels": 43, "percent_cover": 0.69850552306692659, "percent_above_0.1m": 0.0, "low_level_<0.5": 0.0, "mid_level_0.5-2": 0.0, "tall_2+": 0.0 }, "geometry": { "type": "Point", "coordinates": [ -0.177998164974254, 51.188971123061719 ] } },
{ "type": "Feature", "properties": { "max_height": 5.3847503662109375, "mean_height": 0.85797935724258423, "std_height": 1.2660398483276367, "count_pixels": 43, "percent_cover": 0.69850552306692659, "percent_above_0.1m": 60.465116279069761, "low_level_<0.5": 16.279069767441861, "mid_level_0.5-2": 30.232558139534881, "tall_2+": 13.953488372093023 }, "geometry": { "type": "Point", "coordinates": [ -0.17779999259366, 51.188968037770891 ] } },
{ "type": "Feature", "properties": { "max_height": 8.1112518310546875, "mean_height": 2.8557243347167969, "std_height": 2.5125436782836914, "count_pixels": 43, "percent_cover": 0.69850552306692659, "percent_above_0.1m": 81.395348837209298, "low_level_<0.5": 4.6511627906976747, "mid_level_0.5-2": 18.604651162790699, "tall_2+": 58.139534883720934 }, "geometry": { "type": "Point", "coordinates": [ -0.177601820248275, 51.188964952145021 ] } },
{ "type": "Feature", "properties": { "max_height": 4.9340019226074219, "mean_height": 0.38213673233985901, "std_height": 1.0396770238876343, "count_pixels": 41, "percent_cover": 0.66601689408706943, "percent_above_0.1m": 19.512195121951219, "low_level_<0.5": 4.8780487804878048, "mid_level_0.5-2": 7.3170731707317067, "tall_2+": 7.3170731707317067 }, "geometry": { "type": "Point", "coordinates": [ -0.178687519534163, 51.189089771201438 ] } },
{ "type": "Feature", "properties": { "max_height": 6.944000244140625, "mean_height": 3.1418259143829346, "std_height": 1.4363930225372314, "count_pixels": 41, "percent_cover": 0.66601689408706943, "percent_above_0.1m": 100.0, "low_level_<0.5": 0.0, "mid_level_0.5-2": 14.634146341463413, "tall_2+": 85.365853658536579 }, "geometry": { "type": "Point", "coordinates": [ -0.178489346566021, 51.189086687062904 ] } },
{ "type": "Feature", "properties": { "max_height": 5.3267555236816406, "mean_height": 1.4396975040435791, "std_height": 1.6606699228286743, "count_pixels": 41, "percent_cover": 0.66601689408706943, "percent_above_0.1m": 70.731707317073173, "low_level_<0.5": 9.7560975609756095, "mid_level_0.5-2": 26.829268292682929, "tall_2+": 31.707317073170731 }, "geometry": { "type": "Point", "coordinates": [ -0.178291173633071, 51.189083602589292 ] } },
{ "type": "Feature", "properties": { "max_height": 1.1882553100585938, "mean_height": 0.21509717404842377, "std_height": 0.36911946535110474, "count_pixels": 37, "percent_cover": 0.60103963612735534, "percent_above_0.1m": 29.72972972972973, "low_level_<0.5": 8.1081081081081088, "mid_level_0.5-2": 21.621621621621621, "tall_2+": 0.0 }, "geometry": { "type": "Point", "coordinates": [ -0.178093000735321, 51.189080517780624 ] } },
{ "type": "Feature", "properties": { "max_height": 1.0442543029785156, "mean_height": 0.14802654087543488, "std_height": 0.30173265933990479, "count_pixels": 41, "percent_cover": 0.66601689408706943, "percent_above_0.1m": 21.951219512195124, "low_level_<0.5": 7.3170731707317067, "mid_level_0.5-2": 14.634146341463413, "tall_2+": 0.0 }, "geometry": { "type": "Point", "coordinates": [ -0.177894827872776, 51.189077432636921 ] } },
{ "type": "Feature", "properties": { "max_height": 1.4905014038085938, "mean_height": 0.24232251942157745, "std_height": 0.43987888097763062, "count_pixels": 43, "percent_cover": 0.69850552306692659, "percent_above_0.1m": 27.906976744186046, "low_level_<0.5": 2.3255813953488373, "mid_level_0.5-2": 23.255813953488371, "tall_2+": 0.0 }, "geometry": { "type": "Point", "coordinates": [ -0.178584183737724, 51.189196081421599 ] } },
{ "type": "Feature", "properties": { "max_height": 4.2937545776367188, "mean_height": 0.34482219815254211, "std_height": 0.85647666454315186, "count_pixels": 43, "percent_cover": 0.69850552306692659, "percent_above_0.1m": 23.255813953488371, "low_level_<0.5": 4.6511627906976747, "mid_level_0.5-2": 11.627906976744185, "tall_2+": 6.9767441860465116 }, "geometry": { "type": "Point", "coordinates": [ -0.178386010322827, 51.18919299709512 ] } }
]
}
