{
"type": "FeatureCollection",
"name": "MEDWA_90_toilets",
"crs": { "type": "name", "properties": { "name": "urn:ogc:def:crs:OGC:1.3:CRS84" } },
"features": [
{ "type": "Feature", "properties": { "name": "Gillingham Kent Station Toilets", "payment_info": "Free", "accessible": "False", "radar": "False", "women": "True", "men": "True", "baby_change": "True", "Mon": "Unknown", "Tue": "Unknown", "Wed": "Unknown", "Thu": "Unknown", "Fri": "Unknown", "Sat": "Unknown", "Sun": "Unknown", "index_right": 150, "park_offical_id": "MEDWA_90" }, "geometry": { "type": "Point", "coordinates": [ 0.551791191, 51.38702767 ] } },
{ "type": "Feature", "properties": { "name": "Pier Road", "payment_info": "Free", "accessible": "False", "radar": "Unknown", "women": "True", "men": "True", "baby_change": "Unknown", "Mon": "Unknown", "Tue": "Unknown", "Wed": "Unknown", "Thu": "Unknown", "Fri": "Unknown", "Sat": "Unknown", "Sun": "Unknown", "index_right": 150, "park_offical_id": "MEDWA_90" }, "geometry": { "type": "Point", "coordinates": [ 0.5528278, 51.3953846 ] } },
{ "type": "Feature", "properties": { "name": "Unknown", "payment_info": "Free", "accessible": "False", "radar": "Unknown", "women": "Unknown", "men": "Unknown", "baby_change": "Unknown", "Mon": "Unknown", "Tue": "Unknown", "Wed": "Unknown", "Thu": "Unknown", "Fri": "Unknown", "Sat": "Unknown", "Sun": "Unknown", "index_right": 150, "park_offical_id": "MEDWA_90" }, "geometry": { "type": "Point", "coordinates": [ 0.5633457, 51.3944454 ] } },
{ "type": "Feature", "properties": { "name": "Unknown", "payment_info": "Free", "accessible": "True", "radar": "True", "women": "True", "men": "True", "baby_change": "Unknown", "Mon": "09:00-17:00", "Tue": "09:00-17:00", "Wed": "09:00-17:00", "Thu": "09:00-17:00", "Fri": "09:00-17:00", "Sat": "09:00-17:00", "Sun": "09:00-17:00", "index_right": 150, "park_offical_id": "MEDWA_90" }, "geometry": { "type": "Point", "coordinates": [ 0.54753936, 51.38741044 ] } },
{ "type": "Feature", "properties": { "name": "Asda Superstore  Gillingham", "payment_info": "Free", "accessible": "True", "radar": "False", "women": "True", "men": "True", "baby_change": "True", "Mon": "09:00-17:00", "Tue": "09:00-17:00", "Wed": "09:00-17:00", "Thu": "09:00-17:00", "Fri": "09:00-17:00", "Sat": "09:00-17:00", "Sun": "09:00-17:00", "index_right": 150, "park_offical_id": "MEDWA_90" }, "geometry": { "type": "Point", "coordinates": [ 0.552724446, 51.397619116 ] } },
{ "type": "Feature", "properties": { "name": "Unknown", "payment_info": "Free", "accessible": "False", "radar": "Unknown", "women": "Unknown", "men": "Unknown", "baby_change": "Unknown", "Mon": "Unknown", "Tue": "Unknown", "Wed": "Unknown", "Thu": "Unknown", "Fri": "Unknown", "Sat": "Unknown", "Sun": "Unknown", "index_right": 150, "park_offical_id": "MEDWA_90" }, "geometry": { "type": "Point", "coordinates": [ 0.5599937, 51.3962598 ] } }
]
}
