{
"type": "FeatureCollection",
"name": "DOVER_22_walking",
"crs": { "type": "name", "properties": { "name": "urn:ogc:def:crs:OGC:1.3:CRS84" } },
"features": [
{"type":"Feature","properties":{"highway":"track","name":"Northwall Road","category":"Track"},"geometry":{"type":"MultiLineString","coordinates":[[[1.3931767,51.2311974],[1.3909965,51.2320288],[1.3904357,51.2322831],[1.3898842,51.2326692],[1.3884593,51.2336498],[1.3877197,51.2341673],[1.3870718,51.2346206],[1.3856341,51.2350908],[1.3854505,51.235164]]]}},
{"type":"Feature","properties":{"highway":"path","name":null,"category":"Shared path"},"geometry":{"type":"MultiLineString","coordinates":[[[1.3708186,51.2366225],[1.3706917,51.2366567],[1.3704068,51.2367937],[1.3702857,51.2368309],[1.3701646,51.2368483],[1.3698824,51.236824]]]}},
{"type":"Feature","properties":{"highway":"footway","name":null,"category":"Footpath (pedestrian only)"},"geometry":{"type":"MultiLineString","coordinates":[[[1.3445352,51.2286448],[1.3446354,51.2286048],[1.3454314,51.2278369],[1.3456351,51.2279045],[1.3456667,51.2278379],[1.3457322,51.2277757],[1.3457531,51.2277569],[1.3460362,51.2275532],[1.3461453,51.2275322],[1.3461637,51.2275287],[1.3462785,51.2275309],[1.3463855,51.2275231],[1.3464709,51.2274834],[1.3465696,51.2273831],[1.3466509,51.2273258],[1.3467358,51.2273101],[1.3468615,51.2273643],[1.3470566,51.2274708],[1.3473778,51.2276385],[1.3475296,51.2277184],[1.3477069,51.2278712],[1.3479572,51.2280342],[1.3481823,51.2281351],[1.348445,51.2282473],[1.348633,51.2283297],[1.3487091,51.2283894],[1.3488851,51.2285916],[1.3490502,51.2287601],[1.3492408,51.2289058],[1.3495469,51.2290942],[1.3499176,51.2292563],[1.3501276,51.2293775],[1.3502998,51.2294853],[1.3505105,51.2295738],[1.3506262,51.2296349],[1.3507169,51.2297011],[1.3507617,51.2297749],[1.3507881,51.2299149],[1.3507984,51.2300099],[1.3508303,51.2300542],[1.3509088,51.2300662],[1.3510723,51.2300977],[1.3511798,51.2301185]]]}},
{"type":"Feature","properties":{"highway":"footway","name":null,"category":"Footpath (pedestrian only)"},"geometry":{"type":"MultiLineString","coordinates":[[[1.3512929,51.229515],[1.3511729,51.2293691],[1.3510123,51.2292486],[1.3509873,51.2291746],[1.3510431,51.2291128],[1.35151,51.2286123],[1.3514813,51.2285131],[1.3513957,51.2284087],[1.349829,51.2275948],[1.3494407,51.227387],[1.3483276,51.2267913],[1.3469877,51.2258306],[1.3453371,51.2248456],[1.3453177,51.2246145],[1.3451817,51.2244078],[1.344774,51.224347],[1.3443662,51.2239091],[1.3441775,51.2236787],[1.3430651,51.2231065],[1.3421471,51.2227142]]]}},
{"type":"Feature","properties":{"highway":"track","name":null,"category":"Track"},"geometry":{"type":"MultiLineString","coordinates":[[[1.3549104,51.2373796],[1.3550118,51.237405],[1.3551513,51.237405],[1.3552934,51.2373933],[1.3555214,51.237395],[1.3558004,51.2374168],[1.3563207,51.2374756],[1.3566372,51.2375041],[1.3571978,51.2375814],[1.3576645,51.2376536],[1.3582894,51.2377493],[1.3587535,51.2378484],[1.3590807,51.237924],[1.3593221,51.2379861],[1.3594428,51.238018],[1.3595179,51.2380583],[1.3595554,51.2380969],[1.3595635,51.2381507],[1.3595528,51.2382229],[1.3594428,51.2384076],[1.3591773,51.2389953],[1.3591558,51.2390743],[1.3591531,51.2391565],[1.3591719,51.2392808],[1.3592068,51.2394521],[1.3592175,51.2395394],[1.3592121,51.2396334],[1.3592014,51.2397208],[1.3592094,51.2397829],[1.3592363,51.2398299],[1.3592819,51.2398753],[1.3593436,51.2399122],[1.3594508,51.2399475],[1.359601,51.2400029],[1.3601321,51.2402061],[1.3606927,51.2403975],[1.3613525,51.2406393],[1.3615483,51.2407081],[1.3617629,51.2407686],[1.3619533,51.2408274],[1.3621357,51.2408861],[1.3623154,51.2409567],[1.3624683,51.2410272],[1.3626802,51.2411431],[1.3628546,51.2412455],[1.3629967,51.241316],[1.3631308,51.2413748],[1.3632193,51.2414252],[1.363281,51.2414722],[1.3633132,51.2415309],[1.3633105,51.241583],[1.3632569,51.2416267],[1.363104,51.241667],[1.3629297,51.2417073],[1.3626293,51.2418298],[1.36242,51.2419239],[1.362294,51.2419994],[1.3622001,51.2420918],[1.3621277,51.2421724],[1.3620177,51.2422496],[1.3618648,51.2423151],[1.3616583,51.2423705],[1.3614357,51.2424175],[1.3612774,51.2424562],[1.3611782,51.2424981],[1.3611165,51.2425687],[1.3610548,51.2426912],[1.3610065,51.2428037],[1.3609797,51.2429179],[1.3609797,51.2429985],[1.3609797,51.2430724],[1.3610253,51.2431631],[1.3610655,51.2432269],[1.3611514,51.243294],[1.3612828,51.2433746],[1.3614464,51.2434519],[1.3616905,51.2435644],[1.361838,51.2436231],[1.3619775,51.2436937],[1.3621009,51.2437675],[1.3621753,51.2438124],[1.3622457,51.2438549],[1.362412,51.2439454],[1.3625944,51.2440361],[1.3627392,51.2440982],[1.3629109,51.2441536],[1.3630504,51.244204],[1.3631469,51.2442477],[1.3632435,51.2443081],[1.3633347,51.244382],[1.3634339,51.2444811],[1.3635841,51.2446775],[1.3637102,51.2448622],[1.3638067,51.2450251],[1.3639087,51.2452215],[1.3639999,51.2453642],[1.3641259,51.2455019],[1.3642118,51.2455792],[1.3642735,51.2456396],[1.3643217,51.2457101],[1.3643419,51.2457327],[1.3643995,51.2457974]]]}},
{"type":"Feature","properties":{"highway":"track","name":null,"category":"Track"},"geometry":{"type":"MultiLineString","coordinates":[[[1.3562587,51.2356093],[1.3567346,51.2358434],[1.3574447,51.2361722],[1.3579591,51.2364373],[1.3586585,51.2367661],[1.3589023,51.2368752],[1.3590604,51.2369607],[1.3592748,51.2371268],[1.3596553,51.2373952],[1.3601185,51.2376699],[1.3601626,51.2379493]]]}},
{"type":"Feature","properties":{"highway":"track","name":null,"category":"Track"},"geometry":{"type":"MultiLineString","coordinates":[[[1.3639126,51.228522],[1.3637754,51.2284222],[1.36362,51.2283359],[1.360183,51.2269742],[1.3592078,51.2265808]]]}},
{"type":"Feature","properties":{"highway":"track","name":null,"category":"Track"},"geometry":{"type":"MultiLineString","coordinates":[[[1.3481252,51.2292353],[1.3482093,51.2291885],[1.3482275,51.2291783]]]}},
{"type":"Feature","properties":{"highway":"footway","name":null,"category":"Footpath (pedestrian only)"},"geometry":{"type":"MultiLineString","coordinates":[[[1.3947406,51.2306417],[1.3951299,51.2310025],[1.3949383,51.2310708]]]}},
{"type":"Feature","properties":{"highway":"track","name":null,"category":"Track"},"geometry":{"type":"MultiLineString","coordinates":[[[1.3687712,51.230471],[1.3685261,51.2303118],[1.3684501,51.2302254],[1.3679777,51.2299403],[1.3677175,51.2297921],[1.3668711,51.2292802],[1.3666339,51.2291277],[1.366587,51.2291092],[1.3665344,51.2291003],[1.3664442,51.2291117],[1.3663219,51.2291913],[1.3656851,51.2296407],[1.3653782,51.2298685],[1.3651531,51.2300494],[1.3650417,51.2301452],[1.3648542,51.2303398],[1.3646615,51.2306199],[1.3645476,51.2306071]]]}},
{"type":"Feature","properties":{"highway":"footway","name":null,"category":"Footpath (pedestrian only)"},"geometry":{"type":"MultiLineString","coordinates":[[[1.3593036,51.2333642],[1.3594309,51.2335221]]]}},
{"type":"Feature","properties":{"highway":"footway","name":null,"category":"Footpath (pedestrian only)"},"geometry":{"type":"MultiLineString","coordinates":[[[1.3600268,51.2334362],[1.3594309,51.2335221],[1.3593755,51.2335374]]]}},
{"type":"Feature","properties":{"highway":"footway","name":null,"category":"Footpath (pedestrian only)"},"geometry":{"type":"MultiLineString","coordinates":[[[1.3524131,51.2371955],[1.3526547,51.2373429],[1.353367,51.2373986],[1.3540022,51.2373726],[1.3542622,51.2373806],[1.3543564,51.2374101]]]}},
{"type":"Feature","properties":{"highway":"path","name":null,"category":"Shared path"},"geometry":{"type":"MultiLineString","coordinates":[[[1.35361,51.2272293],[1.3512929,51.229515]]]}},
{"type":"Feature","properties":{"highway":"track","name":null,"category":"Track"},"geometry":{"type":"MultiLineString","coordinates":[[[1.3589023,51.2368752],[1.3586986,51.2370356],[1.3585477,51.2371533],[1.3585261,51.2371842],[1.3585292,51.2372131],[1.3585815,51.2372633],[1.3586247,51.2372941]]]}},
{"type":"Feature","properties":{"highway":"footway","name":null,"category":"Footpath (pedestrian only)"},"geometry":{"type":"MultiLineString","coordinates":[[[1.3860914,51.232771],[1.3861171,51.2328192],[1.3869125,51.2335663],[1.3874642,51.233972],[1.3877197,51.2341673]]]}},
{"type":"Feature","properties":{"highway":"footway","name":null,"category":"Footpath (pedestrian only)"},"geometry":{"type":"MultiLineString","coordinates":[[[1.3847191,51.231545],[1.3849496,51.2316342],[1.3850618,51.2317447],[1.3859182,51.2326746],[1.3860145,51.2326907]]]}},
{"type":"Feature","properties":{"highway":"footway","name":null,"category":"Footpath (pedestrian only)"},"geometry":{"type":"MultiLineString","coordinates":[[[1.3860145,51.2326907],[1.3860914,51.232771]]]}},
{"type":"Feature","properties":{"highway":"footway","name":null,"category":"Footpath (pedestrian only)"},"geometry":{"type":"MultiLineString","coordinates":[[[1.3626006,51.2294751],[1.3625133,51.2294571],[1.3623912,51.2296411],[1.3620191,51.2297832],[1.360868,51.2301707],[1.3605597,51.2302848],[1.3600834,51.2304237],[1.3593105,51.2306693],[1.3591062,51.2307493],[1.3589057,51.2307216],[1.3586983,51.2306503],[1.3583446,51.2305612],[1.3581007,51.2304848],[1.3579991,51.2304695],[1.3577877,51.2304543],[1.3576006,51.2304008],[1.3574665,51.2302913],[1.3573811,51.2302226],[1.3572266,51.2301768],[1.3569583,51.2301488],[1.3568038,51.2301615],[1.3561086,51.2302557],[1.3557671,51.230271],[1.3556695,51.2302684],[1.3554785,51.2301972],[1.3551016,51.2302164],[1.3545272,51.2302281],[1.3537567,51.2302866],[1.3532794,51.2303178]]]}},
{"type":"Feature","properties":{"highway":"footway","name":null,"category":"Footpath (pedestrian only)"},"geometry":{"type":"MultiLineString","coordinates":[[[1.3513101,51.2305277],[1.3512658,51.2305748],[1.3512121,51.2306387],[1.3510376,51.2307449],[1.3501178,51.2308637],[1.3481007,51.2310183],[1.3472158,51.2311181],[1.3460939,51.2312003]]]}},
{"type":"Feature","properties":{"highway":"footway","name":null,"category":"Footpath (pedestrian only)"},"geometry":{"type":"MultiLineString","coordinates":[[[1.3511798,51.2301185],[1.351409,51.230163],[1.3514936,51.2301442],[1.3516083,51.2300916],[1.3517491,51.2300505],[1.3518684,51.2300526],[1.3519968,51.2300813],[1.3524737,51.2302873],[1.3529424,51.2304629]]]}},
{"type":"Feature","properties":{"highway":"footway","name":null,"category":"Footpath (pedestrian only)"},"geometry":{"type":"MultiLineString","coordinates":[[[1.3529424,51.2304629],[1.3531494,51.2305578],[1.3533479,51.230663],[1.3534209,51.2307212],[1.3534461,51.2308099],[1.3534341,51.2309755],[1.3533483,51.2310694],[1.3533158,51.2311151]]]}},
{"type":"Feature","properties":{"highway":"footway","name":null,"category":"Footpath (pedestrian only)"},"geometry":{"type":"MultiLineString","coordinates":[[[1.3529424,51.2304629],[1.3530269,51.2303908],[1.3532794,51.2303178]]]}},
{"type":"Feature","properties":{"highway":"footway","name":null,"category":"Footpath (pedestrian only)"},"geometry":{"type":"MultiLineString","coordinates":[[[1.3532794,51.2303178],[1.3530355,51.2302208],[1.3515569,51.2297166],[1.3513512,51.2296045],[1.3512929,51.229515]]]}},
{"type":"Feature","properties":{"highway":"path","name":null,"category":"Shared path"},"geometry":{"type":"MultiLineString","coordinates":[[[1.3689941,51.2366337],[1.3688897,51.2366745],[1.3688038,51.2367086],[1.3683364,51.2369103],[1.3682685,51.2369393]]]}},
{"type":"Feature","properties":{"highway":"track","name":null,"category":"Track"},"geometry":{"type":"MultiLineString","coordinates":[[[1.3595179,51.2380583],[1.3601626,51.2379493],[1.3608339,51.2379127],[1.3632566,51.2372658],[1.3639163,51.2370757],[1.3645468,51.2367687]]]}},
{"type":"Feature","properties":{"highway":"path","name":null,"category":"Shared path"},"geometry":{"type":"MultiLineString","coordinates":[[[1.3680419,51.2361186],[1.3682429,51.2360645],[1.368474,51.2359756]]]}},
{"type":"Feature","properties":{"highway":"path","name":null,"category":"Shared path"},"geometry":{"type":"MultiLineString","coordinates":[[[1.368522,51.2362967],[1.3680419,51.2361186],[1.3665748,51.2355745],[1.3656923,51.2351849],[1.3654938,51.2351429],[1.3653597,51.2351564],[1.3652471,51.2352068],[1.3651904,51.2352596]]]}},
{"type":"Feature","properties":{"highway":"footway","name":null,"category":"Footpath (pedestrian only)"},"geometry":{"type":"MultiLineString","coordinates":[[[1.3461136,51.229284],[1.3461632,51.2292483],[1.3462155,51.2292369],[1.3462932,51.2292319],[1.3470376,51.2294024],[1.3471998,51.2294444],[1.3481359,51.2297984],[1.3480894,51.2298473]]]}}
]
}
