{
"type": "FeatureCollection",
"name": "WINMA_50_cycling",
"crs": { "type": "name", "properties": { "name": "urn:ogc:def:crs:OGC:1.3:CRS84" } },
"features": [
{"type":"Feature","properties":{"highway":"bridleway","name":null,"category":"Bridleway"},"geometry":{"type":"MultiLineString","coordinates":[[[-0.6533143,51.4708139],[-0.6531769,51.4703802],[-0.6529991,51.4698563],[-0.6529092,51.46975]]]}},
{"type":"Feature","properties":{"highway":"bridleway","name":null,"category":"Bridleway"},"geometry":{"type":"MultiLineString","coordinates":[[[-0.6532708,51.4708206],[-0.6532311,51.4709701],[-0.6541558,51.4709403],[-0.6542418,51.470945],[-0.6542687,51.4711054],[-0.6543089,51.4713377],[-0.6543569,51.4716113],[-0.6543652,51.4716584],[-0.6544028,51.4718857],[-0.654443,51.4722432],[-0.6545261,51.472716],[-0.6545798,51.4730652],[-0.6546522,51.4733693],[-0.654274,51.4733826],[-0.6534399,51.4734261],[-0.6533647,51.4734528],[-0.6533755,51.4735447],[-0.6533567,51.4738939],[-0.6531153,51.4738688],[-0.6528976,51.4738617]]]}},
{"type":"Feature","properties":{"highway":"track","name":null,"category":"Track"},"geometry":{"type":"MultiLineString","coordinates":[[[-0.6567383,51.4700319],[-0.6567568,51.4698283],[-0.6567523,51.4694095],[-0.6567936,51.4692427],[-0.6568542,51.4690848],[-0.6569314,51.4689494],[-0.6569664,51.4688514],[-0.6569579,51.4687637],[-0.656876,51.4685757],[-0.6566454,51.4679854],[-0.6565385,51.4676086],[-0.6564743,51.467361],[-0.656455,51.467227],[-0.6564275,51.467028],[-0.6564171,51.466868],[-0.6564171,51.4667813]]]}},
{"type":"Feature","properties":{"highway":"track","name":null,"category":"Track"},"geometry":{"type":"MultiLineString","coordinates":[[[-0.6589203,51.4667171],[-0.6588047,51.4666891],[-0.6587425,51.4666894],[-0.6587089,51.4667047],[-0.6586771,51.466728],[-0.6585995,51.4670738],[-0.6585777,51.4671092],[-0.6585437,51.4671329],[-0.6584856,51.4671493],[-0.6584154,51.4671458],[-0.6564275,51.467028],[-0.6549026,51.4668143]]]}},
{"type":"Feature","properties":{"highway":"path","name":null,"category":"Shared path"},"geometry":{"type":"MultiLineString","coordinates":[[[-0.6470398,51.4745695],[-0.6464931,51.4744805]]]}}
]
}
