{
"type": "FeatureCollection",
"name": "CANTE_26_cycling",
"crs": { "type": "name", "properties": { "name": "urn:ogc:def:crs:OGC:1.3:CRS84" } },
"features": [
{"type":"Feature","properties":{"highway":"cycleway","name":null,"category":"Dedicated cycleway"},"geometry":{"type":"MultiLineString","coordinates":[[[1.0884668,51.2824678],[1.0885619,51.2824558]]]}},
{"type":"Feature","properties":{"highway":"cycleway","name":null,"category":"Dedicated cycleway"},"geometry":{"type":"MultiLineString","coordinates":[[[1.0881168,51.2826599],[1.0881414,51.2826492],[1.0883616,51.2825531]]]}},
{"type":"Feature","properties":{"highway":"cycleway","name":null,"category":"Dedicated cycleway"},"geometry":{"type":"MultiLineString","coordinates":[[[1.0919639,51.2835846],[1.0919215,51.2835511],[1.091876,51.2835151]]]}},
{"type":"Feature","properties":{"highway":"cycleway","name":null,"category":"Dedicated cycleway"},"geometry":{"type":"MultiLineString","coordinates":[[[1.0928894,51.2839394],[1.092896,51.2838755]]]}},
{"type":"Feature","properties":{"highway":"cycleway","name":null,"category":"Dedicated cycleway"},"geometry":{"type":"MultiLineString","coordinates":[[[1.0776153,51.2899114],[1.0775712,51.2896544],[1.077598,51.2870886]]]}},
{"type":"Feature","properties":{"highway":"cycleway","name":"High Street St. Gregory","category":"Dedicated cycleway"},"geometry":{"type":"MultiLineString","coordinates":[[[1.0843666,51.2828994],[1.084408,51.2828761]]]}},
{"type":"Feature","properties":{"highway":"cycleway","name":null,"category":"Dedicated cycleway"},"geometry":{"type":"MultiLineString","coordinates":[[[1.0866662,51.2818645],[1.0867427,51.2818159],[1.0867716,51.2817968]]]}},
{"type":"Feature","properties":{"highway":"cycleway","name":"Mill Lane","category":"Dedicated cycleway"},"geometry":{"type":"MultiLineString","coordinates":[[[1.0804584,51.2815805],[1.0804537,51.2815888],[1.0804486,51.2815978]]]}},
{"type":"Feature","properties":{"highway":"cycleway","name":null,"category":"Dedicated cycleway"},"geometry":{"type":"MultiLineString","coordinates":[[[1.0779792,51.2862744],[1.0778981,51.2860675],[1.0779373,51.2859341],[1.077967,51.2858295],[1.0779821,51.2857762],[1.0779948,51.2857312]]]}},
{"type":"Feature","properties":{"highway":"cycleway","name":null,"category":"Dedicated cycleway"},"geometry":{"type":"MultiLineString","coordinates":[[[1.077598,51.2870886],[1.0760691,51.2873022],[1.0760263,51.2872972],[1.0758752,51.2873271],[1.0757144,51.2873595]]]}},
{"type":"Feature","properties":{"highway":"cycleway","name":null,"category":"Dedicated cycleway"},"geometry":{"type":"MultiLineString","coordinates":[[[1.0779948,51.2857312],[1.0780281,51.2856222],[1.0781997,51.2851181],[1.0782125,51.2850806],[1.0781309,51.2850149]]]}},
{"type":"Feature","properties":{"highway":"cycleway","name":null,"category":"Dedicated cycleway"},"geometry":{"type":"MultiLineString","coordinates":[[[1.0804068,51.2825861],[1.0804878,51.2827543],[1.0804842,51.2827867],[1.080477,51.2828101],[1.0804896,51.2828299],[1.0805557,51.2829],[1.0806433,51.2829899],[1.0807347,51.283081],[1.0807821,51.2831162],[1.0808285,51.2831603],[1.0808842,51.2832086],[1.0809651,51.2832815],[1.0810563,51.2833666],[1.0811467,51.2834407],[1.0811806,51.2834548],[1.0813539,51.2835271],[1.0815727,51.2835958],[1.0817874,51.2836486],[1.0819184,51.2836934],[1.0821357,51.283738]]]}},
{"type":"Feature","properties":{"highway":"track","name":"St. Martin's Avenue","category":"Track"},"geometry":{"type":"MultiLineString","coordinates":[[[1.0937673,51.2793169],[1.0939584,51.279508],[1.0942943,51.2797976],[1.0946521,51.280147],[1.0946869,51.2801853],[1.094755,51.2802601],[1.0947677,51.2802741]]]}},
{"type":"Feature","properties":{"highway":"cycleway","name":null,"category":"Dedicated cycleway"},"geometry":{"type":"MultiLineString","coordinates":[[[1.0874682,51.2897505],[1.0878749,51.2895398]]]}},
{"type":"Feature","properties":{"highway":"cycleway","name":null,"category":"Dedicated cycleway"},"geometry":{"type":"MultiLineString","coordinates":[[[1.0849311,51.285441],[1.0848571,51.2854808],[1.0848488,51.2855023],[1.0847513,51.2855186],[1.0847094,51.2855256],[1.0847033,51.2854974],[1.0846277,51.2854583],[1.0845513,51.2854412],[1.0845463,51.285499],[1.0844703,51.2854891],[1.0844025,51.2854676],[1.0843803,51.2854948]]]}},
{"type":"Feature","properties":{"highway":"cycleway","name":null,"category":"Dedicated cycleway"},"geometry":{"type":"MultiLineString","coordinates":[[[1.09551,51.2859487],[1.0954704,51.2859065],[1.0952637,51.2857963],[1.094884,51.2856383],[1.0948666,51.2855334]]]}},
{"type":"Feature","properties":{"highway":"cycleway","name":null,"category":"Dedicated cycleway"},"geometry":{"type":"MultiLineString","coordinates":[[[1.09551,51.2859487],[1.0955847,51.2858477],[1.0956883,51.2857577]]]}},
{"type":"Feature","properties":{"highway":"cycleway","name":"Mary Green Walk","category":"Dedicated cycleway"},"geometry":{"type":"MultiLineString","coordinates":[[[1.0929334,51.2861106],[1.0929196,51.2861302],[1.0927344,51.2862987],[1.092318,51.2866461],[1.0922564,51.2867064],[1.0921899,51.2867772]]]}},
{"type":"Feature","properties":{"highway":"cycleway","name":null,"category":"Dedicated cycleway"},"geometry":{"type":"MultiLineString","coordinates":[[[1.0900511,51.2877625],[1.0902028,51.2876372]]]}},
{"type":"Feature","properties":{"highway":"cycleway","name":null,"category":"Dedicated cycleway"},"geometry":{"type":"MultiLineString","coordinates":[[[1.0930048,51.2889059],[1.0927483,51.2891548]]]}},
{"type":"Feature","properties":{"highway":"cycleway","name":null,"category":"Dedicated cycleway"},"geometry":{"type":"MultiLineString","coordinates":[[[1.0837662,51.28491],[1.0836646,51.284989],[1.0835969,51.2850444]]]}},
{"type":"Feature","properties":{"highway":"cycleway","name":null,"category":"Dedicated cycleway"},"geometry":{"type":"MultiLineString","coordinates":[[[1.0920938,51.2868629],[1.0921899,51.2867772]]]}},
{"type":"Feature","properties":{"highway":"cycleway","name":null,"category":"Dedicated cycleway"},"geometry":{"type":"MultiLineString","coordinates":[[[1.091738,51.2866913],[1.0918412,51.2865997]]]}},
{"type":"Feature","properties":{"highway":"cycleway","name":null,"category":"Dedicated cycleway"},"geometry":{"type":"MultiLineString","coordinates":[[[1.0853231,51.2811329],[1.085384,51.2810773],[1.0855088,51.2810303]]]}},
{"type":"Feature","properties":{"highway":"cycleway","name":null,"category":"Dedicated cycleway"},"geometry":{"type":"MultiLineString","coordinates":[[[1.0786856,51.2837154],[1.0786638,51.283775],[1.0786834,51.2838072],[1.0787224,51.2838253],[1.0787543,51.2838432]]]}},
{"type":"Feature","properties":{"highway":"path","name":null,"category":"Shared path"},"geometry":{"type":"MultiLineString","coordinates":[[[1.0960374,51.2812685],[1.0961079,51.2813604],[1.0961134,51.2813682]]]}},
{"type":"Feature","properties":{"highway":"cycleway","name":null,"category":"Dedicated cycleway"},"geometry":{"type":"MultiLineString","coordinates":[[[1.0787543,51.2838432],[1.0786372,51.2838806]]]}},
{"type":"Feature","properties":{"highway":"cycleway","name":null,"category":"Dedicated cycleway"},"geometry":{"type":"MultiLineString","coordinates":[[[1.0785603,51.2839229],[1.0786005,51.2839534],[1.0785583,51.2841145],[1.0784943,51.2843405],[1.0784239,51.284493],[1.0783553,51.2846762],[1.0782494,51.2848272],[1.0781181,51.2849504],[1.0781309,51.2850149]]]}},
{"type":"Feature","properties":{"highway":"track","name":"Stour View","category":"Track"},"geometry":{"type":"MultiLineString","coordinates":[[[1.0833642,51.2874413],[1.083364,51.2874802],[1.083364,51.287491],[1.0834256,51.2875309],[1.0837653,51.2876778],[1.0840686,51.2878118]]]}},
{"type":"Feature","properties":{"highway":"cycleway","name":null,"category":"Dedicated cycleway"},"geometry":{"type":"MultiLineString","coordinates":[[[1.0902028,51.2876372],[1.0903963,51.2877263]]]}},
{"type":"Feature","properties":{"highway":"track","name":null,"category":"Track"},"geometry":{"type":"MultiLineString","coordinates":[[[1.1052226,51.2874774],[1.1057835,51.2872754],[1.1060463,51.2871781],[1.1066793,51.2867587],[1.1067866,51.2866547],[1.1069797,51.2864333],[1.1073231,51.2861615],[1.1077182,51.2857506],[1.1077522,51.2857153],[1.107881,51.2855106],[1.1080902,51.2853194],[1.1081975,51.2851181],[1.1083852,51.2848597],[1.1084866,51.2846929],[1.1088197,51.2841451],[1.108809,51.2840243],[1.1087681,51.2839923],[1.1087017,51.2839404],[1.1084307,51.2838602],[1.1083048,51.283823],[1.1079507,51.2837559],[1.1075484,51.283625],[1.1072641,51.2834841],[1.1068422,51.2832322],[1.1064379,51.2829909],[1.1063554,51.2829518],[1.1061053,51.2828332],[1.1058961,51.2827627],[1.1056065,51.2827392],[1.1050325,51.2827359],[1.1043297,51.2827593],[1.1039489,51.2827224],[1.1037347,51.2827138],[1.1036163,51.282709],[1.1034916,51.2827075],[1.1033387,51.282714],[1.1031362,51.2827276],[1.1029832,51.2827258],[1.1028546,51.2827041],[1.1027445,51.2826662],[1.1026185,51.282579],[1.1025246,51.2825028],[1.1021793,51.2822263],[1.101942,51.2819574],[1.1017148,51.2817257],[1.1015818,51.2815626],[1.1014947,51.2814811],[1.1014222,51.2813569],[1.1013954,51.2812378],[1.1013444,51.2811305],[1.1013141,51.2810954],[1.1012468,51.2810473]]]}},
{"type":"Feature","properties":{"highway":"cycleway","name":null,"category":"Dedicated cycleway"},"geometry":{"type":"MultiLineString","coordinates":[[[1.0845158,51.2858275],[1.0846846,51.2859105],[1.0847667,51.2859429],[1.0849616,51.2860053],[1.0852425,51.2860946],[1.0854711,51.2861483],[1.0855817,51.2861676],[1.0856804,51.2861848],[1.0860967,51.2862157],[1.0866639,51.2862817],[1.0871503,51.286357]]]}},
{"type":"Feature","properties":{"highway":"cycleway","name":null,"category":"Dedicated cycleway"},"geometry":{"type":"MultiLineString","coordinates":[[[1.0855817,51.2861676],[1.0856127,51.2862217],[1.0856557,51.2863091],[1.0857423,51.2863782]]]}},
{"type":"Feature","properties":{"highway":"cycleway","name":null,"category":"Dedicated cycleway"},"geometry":{"type":"MultiLineString","coordinates":[[[1.0871503,51.286357],[1.0874423,51.2864301],[1.0877062,51.2865257],[1.0879766,51.2866346],[1.0880319,51.2866633],[1.0882503,51.2867533],[1.0885439,51.2868622],[1.0888143,51.2869677],[1.0890023,51.2870666],[1.0891804,51.2872019],[1.0893849,51.2873866],[1.0894604,51.287442],[1.0896323,51.287568],[1.089906,51.2877098],[1.0899632,51.2877315],[1.0900511,51.2877625]]]}},
{"type":"Feature","properties":{"highway":"cycleway","name":null,"category":"Dedicated cycleway"},"geometry":{"type":"MultiLineString","coordinates":[[[1.0856804,51.2861848],[1.0856127,51.2862217],[1.0854169,51.2862607],[1.0852453,51.2862557]]]}},
{"type":"Feature","properties":{"highway":"cycleway","name":null,"category":"Dedicated cycleway"},"geometry":{"type":"MultiLineString","coordinates":[[[1.0871503,51.286357],[1.0872408,51.286209]]]}},
{"type":"Feature","properties":{"highway":"cycleway","name":null,"category":"Dedicated cycleway"},"geometry":{"type":"MultiLineString","coordinates":[[[1.0923545,51.2836237],[1.0924159,51.2836397],[1.0927324,51.2837942],[1.092896,51.2838755],[1.0930329,51.2839419],[1.0930128,51.2840185],[1.092994,51.2840713],[1.092965,51.2841228],[1.0929122,51.2841788],[1.0928545,51.2842307],[1.0927808,51.2842817],[1.0926868,51.2843371],[1.0926676,51.2844163],[1.0926649,51.2844756]]]}},
{"type":"Feature","properties":{"highway":"cycleway","name":"Falala Way","category":"Dedicated cycleway"},"geometry":{"type":"MultiLineString","coordinates":[[[1.091814,51.2834896],[1.0914013,51.2832894],[1.0910736,51.2830992],[1.0906148,51.2828107],[1.0904219,51.2826796],[1.090339,51.2826304],[1.0902991,51.2826151],[1.0902712,51.2826006],[1.0902199,51.2825664],[1.0901853,51.2825491],[1.0899842,51.2824486],[1.0897614,51.2823451],[1.0894923,51.2823195],[1.0892217,51.2822973],[1.0889189,51.2822735],[1.0887218,51.2822765],[1.0886234,51.2822844]]]}},
{"type":"Feature","properties":{"highway":"cycleway","name":"Havelock Street","category":"Dedicated cycleway"},"geometry":{"type":"MultiLineString","coordinates":[[[1.0859511,51.2802161],[1.0860466,51.2802262]]]}},
{"type":"Feature","properties":{"highway":"cycleway","name":"North Holmes Road","category":"Dedicated cycleway"},"geometry":{"type":"MultiLineString","coordinates":[[[1.0878383,51.2814508],[1.0879295,51.2814101]]]}},
{"type":"Feature","properties":{"highway":"cycleway","name":null,"category":"Dedicated cycleway"},"geometry":{"type":"MultiLineString","coordinates":[[[1.0926676,51.2844163],[1.0924738,51.2843316],[1.092076,51.2841489]]]}},
{"type":"Feature","properties":{"highway":"cycleway","name":null,"category":"Dedicated cycleway"},"geometry":{"type":"MultiLineString","coordinates":[[[1.0930329,51.2839419],[1.0934314,51.2841446],[1.0937301,51.283913]]]}},
{"type":"Feature","properties":{"highway":"path","name":null,"category":"Shared path"},"geometry":{"type":"MultiLineString","coordinates":[[[1.0827858,51.282482],[1.0828903,51.2824391],[1.0829416,51.2824113]]]}},
{"type":"Feature","properties":{"highway":"path","name":null,"category":"Shared path"},"geometry":{"type":"MultiLineString","coordinates":[[[1.0829791,51.2824504],[1.0828903,51.2824391]]]}},
{"type":"Feature","properties":{"highway":"cycleway","name":null,"category":"Dedicated cycleway"},"geometry":{"type":"MultiLineString","coordinates":[[[1.0956883,51.2857577],[1.0957025,51.2857453],[1.0958187,51.2857604],[1.0959617,51.2856569],[1.0962354,51.2856048],[1.0963396,51.2855914],[1.0966145,51.2855559],[1.0970974,51.2856904],[1.0974581,51.2858677],[1.0977821,51.2859166],[1.0982773,51.2858555],[1.0985647,51.2858127],[1.098797,51.2858127],[1.098917,51.2858333]]]}},
{"type":"Feature","properties":{"highway":"cycleway","name":"St. Thomas Place","category":"Dedicated cycleway"},"geometry":{"type":"MultiLineString","coordinates":[[[1.0872018,51.2818662],[1.0878383,51.2814508]]]}},
{"type":"Feature","properties":{"highway":"cycleway","name":null,"category":"Dedicated cycleway"},"geometry":{"type":"MultiLineString","coordinates":[[[1.0871236,51.2818831],[1.0871049,51.2819017],[1.086818,51.2817658],[1.0867716,51.2817968]]]}},
{"type":"Feature","properties":{"highway":"track","name":null,"category":"Track"},"geometry":{"type":"MultiLineString","coordinates":[[[1.0850241,51.2880287],[1.0850656,51.2879907],[1.0850958,51.287967],[1.085148,51.2879598],[1.0852911,51.2879924],[1.0853904,51.2880112],[1.0859484,51.288117],[1.0860548,51.288117],[1.0867546,51.2880892],[1.0869325,51.2880964],[1.087091,51.2881182],[1.0872998,51.2881581],[1.087557,51.2882209],[1.0876188,51.2882451],[1.0876304,51.2882741],[1.0876053,51.2883056],[1.0867404,51.2889026],[1.0866883,51.2889392]]]}},
{"type":"Feature","properties":{"highway":"track","name":null,"category":"Track"},"geometry":{"type":"MultiLineString","coordinates":[[[1.0867546,51.2880892],[1.0860934,51.2885559],[1.0860393,51.2885341],[1.0853665,51.2881266],[1.0853201,51.288094],[1.0853904,51.2880112]]]}},
{"type":"Feature","properties":{"highway":"cycleway","name":null,"category":"Dedicated cycleway"},"geometry":{"type":"MultiLineString","coordinates":[[[1.0786372,51.2838806],[1.0785603,51.2839229]]]}},
{"type":"Feature","properties":{"highway":"cycleway","name":null,"category":"Dedicated cycleway"},"geometry":{"type":"MultiLineString","coordinates":[[[1.094238,51.2904679],[1.0942085,51.2904599],[1.0941943,51.2904491],[1.0941806,51.2904387],[1.0940921,51.2903716],[1.0939697,51.2902857],[1.0938722,51.2901737],[1.0937261,51.2900052],[1.0936078,51.289809],[1.0934775,51.2896539],[1.0933734,51.2895165],[1.0932494,51.2894035],[1.0931546,51.2893309],[1.0930924,51.2892997],[1.093001,51.2892587],[1.0928704,51.2892049],[1.0927872,51.289166],[1.0927483,51.2891548],[1.092636,51.2891033],[1.0925782,51.2890792],[1.0920879,51.2888321],[1.0920356,51.2887941],[1.0920058,51.2887725],[1.0918852,51.2886684],[1.0917619,51.28854],[1.0915022,51.2883423],[1.0913413,51.2882087],[1.0912515,51.2881462],[1.0912165,51.2881008],[1.0912441,51.2880494],[1.0912544,51.2880181],[1.0912612,51.2879797],[1.0912572,51.2879586],[1.0912559,51.2879514]]]}},
{"type":"Feature","properties":{"highway":"cycleway","name":null,"category":"Dedicated cycleway"},"geometry":{"type":"MultiLineString","coordinates":[[[1.075962,51.2814234],[1.0759171,51.2813846],[1.0758387,51.2813825]]]}},
{"type":"Feature","properties":{"highway":"cycleway","name":null,"category":"Dedicated cycleway"},"geometry":{"type":"MultiLineString","coordinates":[[[1.0754296,51.2815682],[1.0755242,51.2815747]]]}},
{"type":"Feature","properties":{"highway":"cycleway","name":null,"category":"Dedicated cycleway"},"geometry":{"type":"MultiLineString","coordinates":[[[1.0755242,51.2815747],[1.0756006,51.2816061]]]}},
{"type":"Feature","properties":{"highway":"cycleway","name":null,"category":"Dedicated cycleway"},"geometry":{"type":"MultiLineString","coordinates":[[[1.0922855,51.288418],[1.0922794,51.2884144],[1.0920929,51.2882859],[1.091759,51.2880711],[1.0916406,51.2880046],[1.0915273,51.2879735],[1.0914313,51.2879799],[1.0913455,51.2879745],[1.0912654,51.2879539],[1.0912559,51.2879514]]]}},
{"type":"Feature","properties":{"highway":"path","name":null,"category":"Shared path"},"geometry":{"type":"MultiLineString","coordinates":[[[1.100124,51.2828653],[1.1004586,51.283071]]]}},
{"type":"Feature","properties":{"highway":"path","name":null,"category":"Shared path"},"geometry":{"type":"MultiLineString","coordinates":[[[1.0971621,51.2828225],[1.0973096,51.282816],[1.0974169,51.2827154],[1.0976583,51.2827221],[1.0977871,51.2826382],[1.0979909,51.2825979],[1.098168,51.2826147],[1.0983557,51.2825812],[1.098522,51.2825308],[1.0988439,51.2825409],[1.0990048,51.2825073],[1.0991336,51.2824268],[1.0994393,51.2824402],[1.0996217,51.2824906],[1.099965,51.2824805],[1.1001223,51.2824691],[1.1003835,51.2824503],[1.100639,51.2824761]]]}},
{"type":"Feature","properties":{"highway":"path","name":null,"category":"Shared path"},"geometry":{"type":"MultiLineString","coordinates":[[[1.0967123,51.2821502],[1.0966284,51.2821919],[1.0967893,51.2826365],[1.0968832,51.282665],[1.0971621,51.2828225]]]}},
{"type":"Feature","properties":{"highway":"path","name":null,"category":"Shared path"},"geometry":{"type":"MultiLineString","coordinates":[[[1.0967813,51.2826466],[1.0967839,51.2827221],[1.0968698,51.282811],[1.0969341,51.2828144]]]}},
{"type":"Feature","properties":{"highway":"path","name":null,"category":"Shared path"},"geometry":{"type":"MultiLineString","coordinates":[[[1.0967893,51.2826365],[1.0967813,51.2826466],[1.0966753,51.2827103],[1.0964393,51.2827665],[1.0965104,51.2834175]]]}},
{"type":"Feature","properties":{"highway":"path","name":null,"category":"Shared path"},"geometry":{"type":"MultiLineString","coordinates":[[[1.0969341,51.2828144],[1.0968832,51.283035]]]}},
{"type":"Feature","properties":{"highway":"path","name":null,"category":"Shared path"},"geometry":{"type":"MultiLineString","coordinates":[[[1.0968832,51.283035],[1.0969556,51.2830752],[1.0969797,51.2831927],[1.0970763,51.2833067],[1.0971085,51.283498],[1.097197,51.2836305],[1.0973043,51.2838033],[1.0974974,51.284008],[1.0978675,51.284164],[1.098234,51.2841888]]]}},
{"type":"Feature","properties":{"highway":"path","name":null,"category":"Shared path"},"geometry":{"type":"MultiLineString","coordinates":[[[1.0965104,51.2834175],[1.0967196,51.2838318],[1.0972265,51.2843133],[1.0974572,51.2843804],[1.0977844,51.284372],[1.0980124,51.2843133],[1.0982611,51.2842526]]]}},
{"type":"Feature","properties":{"highway":"path","name":null,"category":"Shared path"},"geometry":{"type":"MultiLineString","coordinates":[[[1.0965104,51.2834175],[1.0962448,51.2836507],[1.0961,51.2844022],[1.0961751,51.2851571],[1.0963199,51.2852578],[1.0963038,51.2854155],[1.0963396,51.2855914]]]}},
{"type":"Feature","properties":{"highway":"path","name":null,"category":"Shared path"},"geometry":{"type":"MultiLineString","coordinates":[[[1.0963199,51.2852578],[1.0964272,51.2852779],[1.0967598,51.2851269],[1.0968778,51.2851504],[1.0973016,51.2850095],[1.097779,51.28508],[1.0979533,51.2851513],[1.0984764,51.2853652],[1.0988734,51.2856202],[1.098917,51.2858333]]]}},
{"type":"Feature","properties":{"highway":"path","name":null,"category":"Shared path"},"geometry":{"type":"MultiLineString","coordinates":[[[1.0972265,51.2843133],[1.0975215,51.2846539],[1.0975752,51.2849189],[1.097779,51.28508]]]}},
{"type":"Feature","properties":{"highway":"path","name":null,"category":"Shared path"},"geometry":{"type":"MultiLineString","coordinates":[[[1.099175,51.2855321],[1.0988734,51.2856202]]]}},
{"type":"Feature","properties":{"highway":"path","name":null,"category":"Shared path"},"geometry":{"type":"MultiLineString","coordinates":[[[1.0979533,51.2851513],[1.0979793,51.2849934],[1.0979149,51.2849129],[1.0980866,51.284631],[1.0983768,51.2845027]]]}},
{"type":"Feature","properties":{"highway":"path","name":null,"category":"Shared path"},"geometry":{"type":"MultiLineString","coordinates":[[[1.0980124,51.2843133],[1.0979471,51.2845035],[1.0983768,51.2845027]]]}},
{"type":"Feature","properties":{"highway":"cycleway","name":null,"category":"Dedicated cycleway"},"geometry":{"type":"MultiLineString","coordinates":[[[1.0929334,51.2861106],[1.0930137,51.2859147],[1.0930283,51.2858794]]]}},
{"type":"Feature","properties":{"highway":"path","name":null,"category":"Shared path"},"geometry":{"type":"MultiLineString","coordinates":[[[1.100124,51.2828653],[1.1000584,51.2827517],[1.1001223,51.2824691]]]}},
{"type":"Feature","properties":{"highway":"cycleway","name":null,"category":"Dedicated cycleway"},"geometry":{"type":"MultiLineString","coordinates":[[[1.0937261,51.2900052],[1.0941546,51.2897357]]]}},
{"type":"Feature","properties":{"highway":"cycleway","name":null,"category":"Dedicated cycleway"},"geometry":{"type":"MultiLineString","coordinates":[[[1.0975254,51.2865525],[1.0974663,51.2865258],[1.0972213,51.2864255],[1.0971587,51.2863904]]]}},
{"type":"Feature","properties":{"highway":"cycleway","name":null,"category":"Dedicated cycleway"},"geometry":{"type":"MultiLineString","coordinates":[[[1.0826409,51.2840301],[1.0827285,51.2840969],[1.0827834,51.2841449],[1.0828329,51.2841672],[1.0828746,51.2842138],[1.0829236,51.2842461],[1.0829503,51.2842754],[1.082982,51.2843239],[1.0830125,51.2843888],[1.0830864,51.2845005],[1.0831157,51.2845408],[1.0831441,51.2845798],[1.0831675,51.2846357],[1.0832306,51.2847222],[1.0832486,51.2847546],[1.0832684,51.2848105],[1.0833387,51.2848843],[1.0834667,51.2849672],[1.083555,51.2850249]]]}},
{"type":"Feature","properties":{"highway":"cycleway","name":null,"category":"Dedicated cycleway"},"geometry":{"type":"MultiLineString","coordinates":[[[1.0821357,51.283738],[1.082263,51.2838105],[1.0823213,51.2838524],[1.0824294,51.2839199],[1.0825566,51.2839915],[1.0826409,51.2840301]]]}},
{"type":"Feature","properties":{"highway":"path","name":null,"category":"Shared path"},"geometry":{"type":"MultiLineString","coordinates":[[[1.0800605,51.2863879],[1.0798587,51.2861269]]]}},
{"type":"Feature","properties":{"highway":"path","name":null,"category":"Shared path"},"geometry":{"type":"MultiLineString","coordinates":[[[1.100665,51.2958572],[1.1005181,51.2958072],[1.1002759,51.2958072],[1.0998975,51.2959515],[1.0995947,51.2961385],[1.0994661,51.2962047],[1.0992844,51.2962686],[1.0990687,51.2962307],[1.0987735,51.2961597],[1.0985502,51.2961527],[1.0983648,51.2960604],[1.0984102,51.2959491],[1.098361,51.295703],[1.098395,51.2954049],[1.0985426,51.2952203],[1.0988416,51.2949718],[1.0992125,51.2948038],[1.0992806,51.2947067],[1.0993222,51.2945766],[1.0992201,51.2942666],[1.0988719,51.2937436],[1.0987432,51.2934288],[1.0984745,51.2932087],[1.0983118,51.2930478],[1.0982512,51.2929531],[1.0978993,51.2928632],[1.0976533,51.2927188],[1.0974451,51.2926502],[1.0973278,51.2926218],[1.0971991,51.2925389],[1.09707,51.2925148],[1.096931,51.2924694],[1.0968728,51.2924396],[1.096755,51.2923871],[1.0966302,51.2923161],[1.0965209,51.2922594],[1.0964315,51.2921657],[1.0963308,51.2920664],[1.0962556,51.2919798],[1.0961775,51.2919103],[1.0960952,51.2918436],[1.0960413,51.2917883],[1.095986,51.291706],[1.0959548,51.2916549],[1.0959023,51.2916067],[1.0958654,51.2915173],[1.09582,51.2914407],[1.0957788,51.2913711],[1.0957434,51.2913271],[1.0956199,51.2912463],[1.0955376,51.2911966],[1.0954596,51.2911299],[1.0952552,51.291015],[1.0950637,51.2909284],[1.094936,51.2908717],[1.0948494,51.2907993],[1.0948083,51.2907582],[1.0947274,51.2907213],[1.0946451,51.2907128],[1.09456,51.2907128],[1.094438,51.2906787],[1.0943372,51.2906574],[1.0942152,51.2906319],[1.0940648,51.2905907],[1.0939257,51.2905524],[1.0938094,51.2904928],[1.093737,51.2904347],[1.0936874,51.2903907],[1.0936476,51.2903509],[1.0936377,51.290314],[1.0936093,51.2902814],[1.0935086,51.2902034],[1.0934192,51.2901253],[1.0933695,51.2900218],[1.0933241,51.289921],[1.0932574,51.2897919],[1.0931879,51.289667],[1.0931496,51.2895947],[1.0930999,51.2895549],[1.0930247,51.2894882],[1.092941,51.2894286],[1.092836,51.2893861],[1.0926629,51.2893449],[1.092504,51.2892811],[1.092277,51.2891732],[1.0921677,51.2891207],[1.0920485,51.2890839],[1.0918868,51.2890413],[1.0917023,51.2890285],[1.0915547,51.28902],[1.0914157,51.2890058],[1.091288,51.2889973],[1.0912241,51.2890129],[1.0911262,51.2890555],[1.091051,51.2891023],[1.0910099,51.2891732],[1.0909815,51.2892555],[1.0909517,51.2892811],[1.0908857,51.2893989],[1.0908199,51.2894544],[1.0906467,51.2895133],[1.0904561,51.2895237]]]}},
{"type":"Feature","properties":{"highway":"cycleway","name":null,"category":"Dedicated cycleway"},"geometry":{"type":"MultiLineString","coordinates":[[[1.085341,51.2857701],[1.0853953,51.2857199],[1.0854224,51.2856625],[1.0854766,51.2855712]]]}},
{"type":"Feature","properties":{"highway":"cycleway","name":null,"category":"Dedicated cycleway"},"geometry":{"type":"MultiLineString","coordinates":[[[1.0979665,51.2867704],[1.0978509,51.2867555],[1.0975733,51.2865802],[1.0975254,51.2865525]]]}},
{"type":"Feature","properties":{"highway":"path","name":null,"category":"Shared path"},"geometry":{"type":"MultiLineString","coordinates":[[[1.0775134,51.2788742],[1.0777827,51.2787707]]]}},
{"type":"Feature","properties":{"highway":"cycleway","name":null,"category":"Dedicated cycleway"},"geometry":{"type":"MultiLineString","coordinates":[[[1.098917,51.2858333],[1.099011,51.2858494],[1.0992372,51.2858983],[1.0992937,51.285913]]]}},
{"type":"Feature","properties":{"highway":"path","name":null,"category":"Shared path"},"geometry":{"type":"MultiLineString","coordinates":[[[1.0968832,51.283035],[1.0965104,51.2834175]]]}},
{"type":"Feature","properties":{"highway":"path","name":null,"category":"Shared path"},"geometry":{"type":"MultiLineString","coordinates":[[[1.0969341,51.2828144],[1.0971621,51.2828225]]]}},
{"type":"Feature","properties":{"highway":"cycleway","name":"Falala Way","category":"Dedicated cycleway"},"geometry":{"type":"MultiLineString","coordinates":[[[1.091876,51.2835151],[1.091814,51.2834896]]]}},
{"type":"Feature","properties":{"highway":"cycleway","name":null,"category":"Dedicated cycleway"},"geometry":{"type":"MultiLineString","coordinates":[[[1.0919639,51.2835846],[1.0919946,51.2835888],[1.092079,51.283568],[1.0921364,51.2835668]]]}},
{"type":"Feature","properties":{"highway":"cycleway","name":null,"category":"Dedicated cycleway"},"geometry":{"type":"MultiLineString","coordinates":[[[1.1005732,51.2811929],[1.1004799,51.28118],[1.1004192,51.2811741],[1.1003749,51.2811581],[1.099986,51.2811221],[1.0996627,51.2810893],[1.099471,51.2810231],[1.0993503,51.2809627],[1.0992604,51.280909],[1.0991585,51.2808327],[1.0990995,51.2807756],[1.0990485,51.2807244],[1.0990003,51.2806607],[1.0989761,51.2806188],[1.0989513,51.2805526]]]}},
{"type":"Feature","properties":{"highway":"cycleway","name":null,"category":"Dedicated cycleway"},"geometry":{"type":"MultiLineString","coordinates":[[[1.0989452,51.2778437],[1.0989346,51.2779074],[1.0988125,51.2779024],[1.0988742,51.278045],[1.0989237,51.2781219],[1.0989788,51.2782178],[1.0990258,51.2783294],[1.0990486,51.2784292],[1.0990633,51.2785131],[1.0990717,51.2786075],[1.0990888,51.27867],[1.099133,51.2787698],[1.0991867,51.2788588],[1.0992191,51.2789354],[1.0992376,51.2790114],[1.099239,51.2791129],[1.0992457,51.2791926],[1.0992698,51.2792891],[1.0993195,51.2793889],[1.0993615,51.2794543],[1.0994078,51.2795321],[1.0994138,51.2795833],[1.0994145,51.2796423],[1.0994003,51.2796935],[1.0993534,51.2797497],[1.0992499,51.2798161],[1.0991049,51.2799107],[1.0989867,51.2800128],[1.0989453,51.2800844],[1.0989091,51.2801725],[1.0988997,51.2802614],[1.0989513,51.2805526],[1.0988815,51.2806486],[1.0988099,51.2807262],[1.0986811,51.2808436],[1.0986059,51.2809173],[1.0985671,51.2810029],[1.0985456,51.2810961],[1.0985417,51.2811389],[1.0985335,51.2811867],[1.0985369,51.2812644],[1.0985629,51.2813845],[1.0985819,51.2814275],[1.0986127,51.2814928],[1.0986325,51.2815223],[1.0986578,51.2815584],[1.0986916,51.2815986],[1.0987277,51.2816409],[1.0987343,51.2816486],[1.0987403,51.2816556],[1.0987795,51.2816991]]]}},
{"type":"Feature","properties":{"highway":"track","name":null,"category":"Track"},"geometry":{"type":"MultiLineString","coordinates":[[[1.0798621,51.2826289],[1.0798574,51.2827476],[1.079856,51.2827838],[1.07986,51.2828518],[1.0798962,51.2829315],[1.0799566,51.2829986],[1.0800223,51.2830447],[1.0800679,51.2830615]]]}},
{"type":"Feature","properties":{"highway":"cycleway","name":null,"category":"Dedicated cycleway"},"geometry":{"type":"MultiLineString","coordinates":[[[1.0786323,51.2836375],[1.0786929,51.2836578],[1.0786937,51.2836932],[1.0786856,51.2837154]]]}},
{"type":"Feature","properties":{"highway":"cycleway","name":null,"category":"Dedicated cycleway"},"geometry":{"type":"MultiLineString","coordinates":[[[1.083555,51.2850249],[1.0835969,51.2850444],[1.0839531,51.2852267],[1.0841549,51.2853437],[1.0843803,51.2854948]]]}},
{"type":"Feature","properties":{"highway":"cycleway","name":null,"category":"Dedicated cycleway"},"geometry":{"type":"MultiLineString","coordinates":[[[1.0872794,51.286154],[1.0872025,51.2861423],[1.086925,51.2860685],[1.0865951,51.2859939],[1.0863389,51.2859528],[1.0861122,51.2859125],[1.0855168,51.2858173],[1.085341,51.2857701]]]}},
{"type":"Feature","properties":{"highway":"cycleway","name":null,"category":"Dedicated cycleway"},"geometry":{"type":"MultiLineString","coordinates":[[[1.0829715,51.2841803],[1.0828329,51.2841672]]]}},
{"type":"Feature","properties":{"highway":"cycleway","name":null,"category":"Dedicated cycleway"},"geometry":{"type":"MultiLineString","coordinates":[[[1.0841549,51.2853437],[1.0842117,51.2852616]]]}},
{"type":"Feature","properties":{"highway":"cycleway","name":null,"category":"Dedicated cycleway"},"geometry":{"type":"MultiLineString","coordinates":[[[1.0858051,51.2852407],[1.0859969,51.2851207],[1.0862116,51.2849953],[1.0863496,51.2849295],[1.0865575,51.2848188],[1.0867335,51.2847217],[1.086774,51.284699],[1.0868268,51.284669],[1.0870289,51.2845806],[1.0871067,51.2845516],[1.0871583,51.2845441],[1.0871945,51.2845411],[1.0872743,51.284555],[1.0873434,51.2845785],[1.0873951,51.2846011],[1.0875257,51.2846774],[1.0878341,51.2848739],[1.0886549,51.2852746],[1.0890706,51.2854761],[1.0895374,51.2857054],[1.089616,51.2856765]]]}},
{"type":"Feature","properties":{"highway":"cycleway","name":null,"category":"Dedicated cycleway"},"geometry":{"type":"MultiLineString","coordinates":[[[1.0854766,51.2855712],[1.0855302,51.2854806],[1.0855825,51.2854235],[1.0857059,51.2853128],[1.0858051,51.2852407]]]}},
{"type":"Feature","properties":{"highway":"path","name":null,"category":"Shared path"},"geometry":{"type":"MultiLineString","coordinates":[[[1.0854045,51.2761698],[1.0855544,51.2762992]]]}},
{"type":"Feature","properties":{"highway":"cycleway","name":null,"category":"Dedicated cycleway"},"geometry":{"type":"MultiLineString","coordinates":[[[1.0890385,51.2774133],[1.0892907,51.2773957],[1.0894436,51.2774058],[1.0895696,51.2774259],[1.0898124,51.2774787],[1.0900551,51.2775316],[1.0902383,51.2775543],[1.0903837,51.277571]]]}},
{"type":"Feature","properties":{"highway":"cycleway","name":null,"category":"Dedicated cycleway"},"geometry":{"type":"MultiLineString","coordinates":[[[1.0872794,51.286154],[1.0872408,51.286209]]]}},
{"type":"Feature","properties":{"highway":"path","name":null,"category":"Shared path"},"geometry":{"type":"MultiLineString","coordinates":[[[1.0897614,51.2823451],[1.0896769,51.2824134],[1.089469,51.2824561]]]}},
{"type":"Feature","properties":{"highway":"path","name":null,"category":"Shared path"},"geometry":{"type":"MultiLineString","coordinates":[[[1.0890694,51.2827321],[1.0891169,51.2827307],[1.0891364,51.2827037],[1.0891052,51.2826341]]]}},
{"type":"Feature","properties":{"highway":"path","name":null,"category":"Shared path"},"geometry":{"type":"MultiLineString","coordinates":[[[1.0920551,51.2826471],[1.0918825,51.2827694],[1.0919245,51.2828275],[1.0920338,51.2829185],[1.0922769,51.2827539]]]}},
{"type":"Feature","properties":{"highway":"path","name":null,"category":"Shared path"},"geometry":{"type":"MultiLineString","coordinates":[[[1.0920338,51.2829185],[1.0920215,51.2830266],[1.0920641,51.2830869],[1.0920755,51.2830891],[1.0922276,51.2831185],[1.0922391,51.2831253],[1.0923527,51.2831929],[1.092354,51.2832582],[1.0923988,51.2832929]]]}},
{"type":"Feature","properties":{"highway":"path","name":null,"category":"Shared path"},"geometry":{"type":"MultiLineString","coordinates":[[[1.0920755,51.2830891],[1.091949,51.2831705]]]}},
{"type":"Feature","properties":{"highway":"path","name":null,"category":"Shared path"},"geometry":{"type":"MultiLineString","coordinates":[[[1.0922391,51.2831253],[1.0923435,51.2830545],[1.0923403,51.2830276]]]}},
{"type":"Feature","properties":{"highway":"path","name":null,"category":"Shared path"},"geometry":{"type":"MultiLineString","coordinates":[[[1.0907106,51.2824389],[1.0907759,51.2824749],[1.0909393,51.2825651],[1.0909948,51.2825801],[1.0911366,51.2825287],[1.0912108,51.2824371],[1.091279,51.2824049],[1.0913358,51.2823898],[1.0914683,51.2825316],[1.091501,51.2825889],[1.0916595,51.2826554],[1.0916448,51.2826956],[1.0916368,51.2827173],[1.0919245,51.2828275]]]}},
{"type":"Feature","properties":{"highway":"path","name":null,"category":"Shared path"},"geometry":{"type":"MultiLineString","coordinates":[[[1.091378,51.2821755],[1.0916501,51.2820686],[1.0917371,51.282087],[1.0918522,51.2822209]]]}},
{"type":"Feature","properties":{"highway":"path","name":null,"category":"Shared path"},"geometry":{"type":"MultiLineString","coordinates":[[[1.0917371,51.282087],[1.0917752,51.2820564],[1.0920298,51.2819626]]]}},
{"type":"Feature","properties":{"highway":"path","name":null,"category":"Shared path"},"geometry":{"type":"MultiLineString","coordinates":[[[1.0938897,51.2825232],[1.0937993,51.2823773],[1.093698,51.2822387],[1.0936445,51.282175]]]}},
{"type":"Feature","properties":{"highway":"path","name":null,"category":"Shared path"},"geometry":{"type":"MultiLineString","coordinates":[[[1.0901183,51.2829007],[1.0903001,51.2829797],[1.0900733,51.2831998]]]}},
{"type":"Feature","properties":{"highway":"path","name":null,"category":"Shared path"},"geometry":{"type":"MultiLineString","coordinates":[[[1.0898362,51.2830959],[1.0900733,51.2831998],[1.0904,51.2833552],[1.0909146,51.2835626],[1.0908661,51.2836156]]]}},
{"type":"Feature","properties":{"highway":"path","name":null,"category":"Shared path"},"geometry":{"type":"MultiLineString","coordinates":[[[1.0862686,51.2798876],[1.0861343,51.2798938]]]}},
{"type":"Feature","properties":{"highway":"path","name":null,"category":"Shared path"},"geometry":{"type":"MultiLineString","coordinates":[[[1.0862525,51.2797856],[1.0861307,51.279789]]]}},
{"type":"Feature","properties":{"highway":"path","name":null,"category":"Shared path"},"geometry":{"type":"MultiLineString","coordinates":[[[1.0859139,51.2792677],[1.0859335,51.2792619],[1.0865891,51.2790663],[1.0867023,51.279032]]]}},
{"type":"Feature","properties":{"highway":"path","name":null,"category":"Shared path"},"geometry":{"type":"MultiLineString","coordinates":[[[1.0939538,51.283056],[1.0940677,51.2829589],[1.0940716,51.2829035],[1.0942958,51.2828519]]]}},
{"type":"Feature","properties":{"highway":"path","name":null,"category":"Shared path"},"geometry":{"type":"MultiLineString","coordinates":[[[1.0928884,51.2829466],[1.0931154,51.2830517],[1.0931726,51.2830782]]]}},
{"type":"Feature","properties":{"highway":"path","name":null,"category":"Shared path"},"geometry":{"type":"MultiLineString","coordinates":[[[1.0931516,51.2830175],[1.0931154,51.2830517]]]}},
{"type":"Feature","properties":{"highway":"path","name":null,"category":"Shared path"},"geometry":{"type":"MultiLineString","coordinates":[[[1.0909393,51.2825651],[1.0909665,51.2826164],[1.0911265,51.2826913],[1.0912485,51.2826201],[1.0913396,51.2826562],[1.0915018,51.2827439],[1.0916448,51.2826956]]]}},
{"type":"Feature","properties":{"highway":"path","name":null,"category":"Shared path"},"geometry":{"type":"MultiLineString","coordinates":[[[1.0904219,51.2826796],[1.0904931,51.2826776],[1.0906352,51.2825879],[1.0906637,51.2825531],[1.0907759,51.2824749]]]}},
{"type":"Feature","properties":{"highway":"path","name":null,"category":"Shared path"},"geometry":{"type":"MultiLineString","coordinates":[[[1.0902712,51.2826006],[1.0903783,51.2825947],[1.0903947,51.2825565],[1.0907694,51.2822803],[1.0906818,51.2822297],[1.0907794,51.2821664]]]}},
{"type":"Feature","properties":{"highway":"path","name":null,"category":"Shared path"},"geometry":{"type":"MultiLineString","coordinates":[[[1.0798936,51.2790783],[1.0798334,51.2790288]]]}},
{"type":"Feature","properties":{"highway":"path","name":null,"category":"Shared path"},"geometry":{"type":"MultiLineString","coordinates":[[[1.0798334,51.2790288],[1.0797235,51.2789524]]]}},
{"type":"Feature","properties":{"highway":"path","name":null,"category":"Shared path"},"geometry":{"type":"MultiLineString","coordinates":[[[1.0797235,51.2789524],[1.0794972,51.2787998]]]}},
{"type":"Feature","properties":{"highway":"path","name":null,"category":"Shared path"},"geometry":{"type":"MultiLineString","coordinates":[[[1.0957169,51.2818196],[1.0956051,51.2818372],[1.0954027,51.2819042]]]}},
{"type":"Feature","properties":{"highway":"path","name":null,"category":"Shared path"},"geometry":{"type":"MultiLineString","coordinates":[[[1.0920833,51.2819972],[1.0924655,51.281873]]]}},
{"type":"Feature","properties":{"highway":"path","name":null,"category":"Shared path"},"geometry":{"type":"MultiLineString","coordinates":[[[1.0874322,51.2818475],[1.0879074,51.2815071]]]}},
{"type":"Feature","properties":{"highway":"path","name":null,"category":"Shared path"},"geometry":{"type":"MultiLineString","coordinates":[[[1.0811806,51.2834548],[1.0813179,51.2833541]]]}},
{"type":"Feature","properties":{"highway":"path","name":null,"category":"Shared path"},"geometry":{"type":"MultiLineString","coordinates":[[[1.0807821,51.2831162],[1.0809872,51.283046]]]}},
{"type":"Feature","properties":{"highway":"path","name":null,"category":"Shared path"},"geometry":{"type":"MultiLineString","coordinates":[[[1.0862968,51.2780155],[1.086242,51.2780285],[1.0860918,51.2779731],[1.0860621,51.2779275]]]}},
{"type":"Feature","properties":{"highway":"path","name":null,"category":"Shared path"},"geometry":{"type":"MultiLineString","coordinates":[[[1.0830219,51.2824854],[1.0830017,51.2824683]]]}},
{"type":"Feature","properties":{"highway":"cycleway","name":null,"category":"Dedicated cycleway"},"geometry":{"type":"MultiLineString","coordinates":[[[1.0821357,51.283738],[1.0821025,51.2836714]]]}},
{"type":"Feature","properties":{"highway":"cycleway","name":null,"category":"Dedicated cycleway"},"geometry":{"type":"MultiLineString","coordinates":[[[1.0883707,51.2771096],[1.0884283,51.277165],[1.0885169,51.2772204],[1.0885946,51.2772514],[1.0886281,51.2772617],[1.0886738,51.2772757],[1.088828,51.2772908],[1.0889926,51.277293],[1.0891458,51.277295],[1.089347,51.2772992],[1.0894959,51.2773168],[1.0896648,51.2773605],[1.0898472,51.2774049],[1.0900632,51.2774385],[1.0902402,51.2774603],[1.0903984,51.2774657]]]}},
{"type":"Feature","properties":{"highway":"cycleway","name":null,"category":"Dedicated cycleway"},"geometry":{"type":"MultiLineString","coordinates":[[[1.0879769,51.2775124],[1.0885028,51.2774582],[1.0890385,51.2774133]]]}},
{"type":"Feature","properties":{"highway":"cycleway","name":null,"category":"Dedicated cycleway"},"geometry":{"type":"MultiLineString","coordinates":[[[1.0889926,51.277293],[1.0890158,51.277361],[1.0890337,51.2774023],[1.0890385,51.2774133]]]}},
{"type":"Feature","properties":{"highway":"cycleway","name":null,"category":"Dedicated cycleway"},"geometry":{"type":"MultiLineString","coordinates":[[[1.0861122,51.2859125],[1.086173,51.285835],[1.0862115,51.2857859]]]}},
{"type":"Feature","properties":{"highway":"cycleway","name":null,"category":"Dedicated cycleway"},"geometry":{"type":"MultiLineString","coordinates":[[[1.0879676,51.2857805],[1.0879119,51.2857904],[1.087737,51.2858938],[1.0876304,51.2859773],[1.0875019,51.2860919],[1.0874426,51.2861264],[1.0874103,51.2861418],[1.0873501,51.2861508],[1.0872794,51.286154]]]}},
{"type":"Feature","properties":{"highway":"cycleway","name":null,"category":"Dedicated cycleway"},"geometry":{"type":"MultiLineString","coordinates":[[[1.0883707,51.2771096],[1.0882902,51.2771255],[1.0882433,51.2771348],[1.0882011,51.2771321],[1.0881799,51.2771308]]]}},
{"type":"Feature","properties":{"highway":"cycleway","name":null,"category":"Dedicated cycleway"},"geometry":{"type":"MultiLineString","coordinates":[[[1.0890706,51.2854761],[1.0890057,51.2855252],[1.0888912,51.2856119],[1.0884204,51.2859681],[1.0883157,51.2860434],[1.0882299,51.286108]]]}},
{"type":"Feature","properties":{"highway":"cycleway","name":"St. Thomas Place","category":"Dedicated cycleway"},"geometry":{"type":"MultiLineString","coordinates":[[[1.0871236,51.2818831],[1.0871586,51.2818605],[1.0872018,51.2818662]]]}},
{"type":"Feature","properties":{"highway":"cycleway","name":null,"category":"Dedicated cycleway"},"geometry":{"type":"MultiLineString","coordinates":[[[1.0883616,51.2825531],[1.0884222,51.2825041]]]}},
{"type":"Feature","properties":{"highway":"cycleway","name":null,"category":"Dedicated cycleway"},"geometry":{"type":"MultiLineString","coordinates":[[[1.0884222,51.2825041],[1.0884668,51.2824678]]]}},
{"type":"Feature","properties":{"highway":"cycleway","name":null,"category":"Dedicated cycleway"},"geometry":{"type":"MultiLineString","coordinates":[[[1.0921364,51.2835668],[1.0923545,51.2836237]]]}},
{"type":"Feature","properties":{"highway":"cycleway","name":null,"category":"Dedicated cycleway"},"geometry":{"type":"MultiLineString","coordinates":[[[1.0878934,51.2774009],[1.0880629,51.2774515],[1.0883841,51.2774137],[1.0885812,51.277399],[1.0890337,51.2774023]]]}},
{"type":"Feature","properties":{"highway":"path","name":null,"category":"Shared path"},"geometry":{"type":"MultiLineString","coordinates":[[[1.094383,51.2857344],[1.0950384,51.2860057]]]}},
{"type":"Feature","properties":{"highway":"path","name":null,"category":"Shared path"},"geometry":{"type":"MultiLineString","coordinates":[[[1.0939609,51.28517],[1.0942587,51.2849443],[1.094596,51.2846888],[1.094612,51.2846766],[1.0950514,51.2843533],[1.0953317,51.2845046]]]}},
{"type":"Feature","properties":{"highway":"path","name":null,"category":"Shared path"},"geometry":{"type":"MultiLineString","coordinates":[[[1.094596,51.2846888],[1.0946422,51.284707]]]}},
{"type":"Feature","properties":{"highway":"path","name":null,"category":"Shared path"},"geometry":{"type":"MultiLineString","coordinates":[[[1.0942587,51.2849443],[1.0945288,51.2850842],[1.0946505,51.2851472]]]}},
{"type":"Feature","properties":{"highway":"path","name":null,"category":"Shared path"},"geometry":{"type":"MultiLineString","coordinates":[[[1.0947079,51.2851165],[1.0948978,51.285211],[1.0951928,51.2853578]]]}},
{"type":"Feature","properties":{"highway":"path","name":null,"category":"Shared path"},"geometry":{"type":"MultiLineString","coordinates":[[[1.0948978,51.285211],[1.0949571,51.2851504],[1.0949992,51.2850693],[1.0950076,51.2850604],[1.0950278,51.2850388],[1.0951457,51.2849588],[1.0952258,51.2849155]]]}},
{"type":"Feature","properties":{"highway":"path","name":null,"category":"Shared path"},"geometry":{"type":"MultiLineString","coordinates":[[[1.0950076,51.2850604],[1.0949136,51.2850111]]]}},
{"type":"Feature","properties":{"highway":"path","name":null,"category":"Shared path"},"geometry":{"type":"MultiLineString","coordinates":[[[1.0948023,51.2850667],[1.0946693,51.2849872],[1.094644,51.2849925],[1.0945288,51.2850842]]]}},
{"type":"Feature","properties":{"highway":"path","name":null,"category":"Shared path"},"geometry":{"type":"MultiLineString","coordinates":[[[1.0948869,51.2848259],[1.0950834,51.2846764],[1.0951374,51.2846654]]]}},
{"type":"Feature","properties":{"highway":"cycle_lane_on_street","name":"Upper Bridge Street","category":"Cycle lane on street"},"geometry":{"type":"MultiLineString","coordinates":[[[1.0812426,51.2757466],[1.0813595,51.2757767],[1.0815938,51.2758749],[1.0816576,51.2759018],[1.0823398,51.2761897],[1.0828796,51.276405],[1.083299,51.2766211],[1.0834727,51.2767259],[1.0836456,51.276879]]]}},
{"type":"Feature","properties":{"highway":"cycle_lane_on_street","name":"Old Ruttington Lane","category":"Cycle lane on street"},"geometry":{"type":"MultiLineString","coordinates":[[[1.0886234,51.2822844],[1.0886059,51.282214],[1.0884629,51.2820524],[1.0883656,51.2819466],[1.0883093,51.2818854],[1.0880662,51.2816492],[1.0879074,51.2815071],[1.0879018,51.2815021],[1.0878383,51.2814508]]]}},
{"type":"Feature","properties":{"highway":"cycle_lane_on_street","name":"Old Ruttington Lane","category":"Cycle lane on street"},"geometry":{"type":"MultiLineString","coordinates":[[[1.0884983,51.2825422],[1.0885619,51.2824558]]]}}
]
}
