{
"type": "FeatureCollection",
"name": "READI_10_toilets",
"crs": { "type": "name", "properties": { "name": "urn:ogc:def:crs:OGC:1.3:CRS84" } },
"features": [
{ "type": "Feature", "properties": { "name": "Tesco Reading W Extra", "payment_info": "Free", "accessible": "True", "radar": "False", "women": "True", "men": "True", "baby_change": "True", "Mon": "06:00-00:00", "Tue": "06:00-00:00", "Wed": "06:00-00:00", "Thu": "06:00-00:00", "Fri": "06:00-00:00", "Sat": "06:00-00:00", "Sun": "10:00-16:00", "index_right": 2, "park_offical_id": "READI_10" }, "geometry": { "type": "Point", "coordinates": [ -0.998499064, 51.458147993 ] } }
]
}
