{
"type": "FeatureCollection",
"name": "WINMA_129_walking",
"crs": { "type": "name", "properties": { "name": "urn:ogc:def:crs:OGC:1.3:CRS84" } },
"features": [
{"type":"Feature","properties":{"highway":"footway","name":null,"category":"Footpath (pedestrian only)"},"geometry":{"type":"MultiLineString","coordinates":[[[-0.6535018,51.4638407],[-0.6536576,51.4639416],[-0.6538471,51.4640806],[-0.6539541,51.4642158],[-0.6539631,51.4642334],[-0.6539971,51.4643002],[-0.6540122,51.4644576],[-0.6539928,51.4645144],[-0.6539915,51.4646191],[-0.6539585,51.4646651],[-0.6539385,51.4646927],[-0.6539144,51.4647375]]]}},
{"type":"Feature","properties":{"highway":"footway","name":null,"category":"Footpath (pedestrian only)"},"geometry":{"type":"MultiLineString","coordinates":[[[-0.6497946,51.463382],[-0.6497364,51.4633824],[-0.6496756,51.4633927]]]}},
{"type":"Feature","properties":{"highway":"footway","name":null,"category":"Footpath (pedestrian only)"},"geometry":{"type":"MultiLineString","coordinates":[[[-0.6491708,51.4636272],[-0.6491219,51.4636139],[-0.6490967,51.4635763],[-0.6491239,51.4635401],[-0.6491764,51.4635279],[-0.6492319,51.4635419],[-0.6492558,51.4635821],[-0.6492322,51.4636131],[-0.6491708,51.4636272]]]}},
{"type":"Feature","properties":{"highway":"footway","name":null,"category":"Footpath (pedestrian only)"},"geometry":{"type":"MultiLineString","coordinates":[[[-0.6491708,51.4636272],[-0.649214,51.4637024]]]}},
{"type":"Feature","properties":{"highway":"footway","name":null,"category":"Footpath (pedestrian only)"},"geometry":{"type":"MultiLineString","coordinates":[[[-0.6491239,51.4635401],[-0.6491084,51.463523],[-0.6489213,51.4635267],[-0.6488716,51.4635995]]]}},
{"type":"Feature","properties":{"highway":"footway","name":null,"category":"Footpath (pedestrian only)"},"geometry":{"type":"MultiLineString","coordinates":[[[-0.6485418,51.4636681],[-0.6487056,51.4639041],[-0.6487397,51.4639533]]]}},
{"type":"Feature","properties":{"highway":"footway","name":null,"category":"Footpath (pedestrian only)"},"geometry":{"type":"MultiLineString","coordinates":[[[-0.6527891,51.4641898],[-0.6527283,51.4641961],[-0.6526909,51.4642317],[-0.6527891,51.4643225],[-0.6528805,51.4643899],[-0.6529481,51.4645142],[-0.652965,51.4646006],[-0.6530298,51.4646549],[-0.6530698,51.4646912],[-0.65308,51.4647312],[-0.6528068,51.4648978],[-0.6527215,51.4649546],[-0.6525592,51.465062],[-0.6525243,51.4650953],[-0.6525017,51.4651168],[-0.6524881,51.4651365],[-0.6524448,51.4651992],[-0.6523347,51.4652328],[-0.6522981,51.4652322],[-0.6520991,51.4652287],[-0.6519919,51.4652737],[-0.651892,51.4653269],[-0.6518052,51.4653431],[-0.651738,51.465326],[-0.6516984,51.4652816],[-0.6517107,51.465178],[-0.6517104,51.4650551],[-0.6517713,51.4649711],[-0.6517895,51.4649032],[-0.6518476,51.4648304]]]}},
{"type":"Feature","properties":{"highway":"footway","name":null,"category":"Footpath (pedestrian only)"},"geometry":{"type":"MultiLineString","coordinates":[[[-0.6536424,51.4646575],[-0.6534959,51.4646217],[-0.6533505,51.4645732],[-0.653222,51.4644911],[-0.6531375,51.4644215],[-0.6530563,51.4643267],[-0.6530293,51.4642593],[-0.6530134,51.4641637],[-0.6529582,51.464177]]]}},
{"type":"Feature","properties":{"highway":"footway","name":null,"category":"Footpath (pedestrian only)"},"geometry":{"type":"MultiLineString","coordinates":[[[-0.6496163,51.464339],[-0.6500858,51.4643617],[-0.6501267,51.4644893],[-0.6501969,51.464533],[-0.6503256,51.4645294],[-0.6503453,51.4645023],[-0.650364,51.4644731],[-0.6503788,51.4642358],[-0.6503387,51.4641771],[-0.6502686,51.464141],[-0.650168,51.464119],[-0.6496431,51.4641306]]]}},
{"type":"Feature","properties":{"highway":"footway","name":null,"category":"Footpath (pedestrian only)"},"geometry":{"type":"MultiLineString","coordinates":[[[-0.6493702,51.4647656],[-0.6495184,51.4646788],[-0.6495754,51.4645873],[-0.6495888,51.464532]]]}},
{"type":"Feature","properties":{"highway":"footway","name":null,"category":"Footpath (pedestrian only)"},"geometry":{"type":"MultiLineString","coordinates":[[[-0.6498766,51.4635105],[-0.6499137,51.4635046],[-0.6499534,51.4635073],[-0.650022,51.4635278],[-0.6500651,51.463543],[-0.6501038,51.4635609],[-0.6501335,51.4635822],[-0.6501715,51.4635963],[-0.6502334,51.4636092],[-0.6502912,51.4636153],[-0.6503445,51.4636247],[-0.6503639,51.4636392],[-0.6503615,51.4636659],[-0.6503401,51.4636978]]]}},
{"type":"Feature","properties":{"highway":"footway","name":null,"category":"Footpath (pedestrian only)"},"geometry":{"type":"MultiLineString","coordinates":[[[-0.6517317,51.4644135],[-0.6516647,51.4644913],[-0.6517313,51.4646027],[-0.6518176,51.4646119],[-0.6518595,51.4646522]]]}},
{"type":"Feature","properties":{"highway":"footway","name":null,"category":"Footpath (pedestrian only)"},"geometry":{"type":"MultiLineString","coordinates":[[[-0.6519566,51.4646428],[-0.6518613,51.4645512],[-0.6518578,51.4644643],[-0.6518699,51.4644194],[-0.6520251,51.4642761],[-0.6521212,51.4642396],[-0.65225,51.4642957],[-0.6522583,51.4643754],[-0.6522473,51.4644512],[-0.6522552,51.4645252],[-0.6522002,51.4646074],[-0.6521011,51.4646344]]]}},
{"type":"Feature","properties":{"highway":"footway","name":null,"category":"Footpath (pedestrian only)"},"geometry":{"type":"MultiLineString","coordinates":[[[-0.6521138,51.4640418],[-0.6522073,51.4640727],[-0.6522277,51.4641484],[-0.6522422,51.4641887],[-0.6522855,51.4642003],[-0.6523534,51.4642068],[-0.652418,51.4641749]]]}},
{"type":"Feature","properties":{"highway":"footway","name":null,"category":"Footpath (pedestrian only)"},"geometry":{"type":"MultiLineString","coordinates":[[[-0.6516489,51.4639611],[-0.6518601,51.4639744],[-0.6520317,51.4640078],[-0.6521138,51.4640418]]]}},
{"type":"Feature","properties":{"highway":"footway","name":null,"category":"Footpath (pedestrian only)"},"geometry":{"type":"MultiLineString","coordinates":[[[-0.6510847,51.4641456],[-0.6511305,51.4640479],[-0.6512056,51.4639744],[-0.6513558,51.4639543],[-0.651506,51.4639811],[-0.651525,51.4640059]]]}},
{"type":"Feature","properties":{"highway":"footway","name":null,"category":"Footpath (pedestrian only)"},"geometry":{"type":"MultiLineString","coordinates":[[[-0.6512807,51.4641615],[-0.6513596,51.464229],[-0.6513725,51.4642671],[-0.6513468,51.4643387],[-0.6514069,51.4643849],[-0.6514774,51.4643977],[-0.6515228,51.4643826],[-0.6515909,51.4643471],[-0.6517317,51.4644135],[-0.6518146,51.4644213],[-0.6518699,51.4644194]]]}},
{"type":"Feature","properties":{"highway":"footway","name":null,"category":"Footpath (pedestrian only)"},"geometry":{"type":"MultiLineString","coordinates":[[[-0.6539585,51.4646651],[-0.653888,51.4645706],[-0.6537664,51.4644439],[-0.6536054,51.4643337],[-0.653504,51.4642283],[-0.653405,51.4641014],[-0.6530724,51.463834],[-0.6529973,51.4638273],[-0.6530889,51.4641333],[-0.6530134,51.4641637]]]}},
{"type":"Feature","properties":{"highway":"footway","name":null,"category":"Footpath (pedestrian only)"},"geometry":{"type":"MultiLineString","coordinates":[[[-0.6530134,51.4641637],[-0.6528233,51.4639473],[-0.6526003,51.4637939],[-0.6526111,51.4639677],[-0.6526209,51.463992],[-0.6526909,51.4642317]]]}},
{"type":"Feature","properties":{"highway":"footway","name":null,"category":"Footpath (pedestrian only)"},"geometry":{"type":"MultiLineString","coordinates":[[[-0.652418,51.4641749],[-0.6523643,51.4640746],[-0.6522999,51.4639142],[-0.6524793,51.4640237],[-0.6526909,51.4642317]]]}},
{"type":"Feature","properties":{"highway":"footway","name":null,"category":"Footpath (pedestrian only)"},"geometry":{"type":"MultiLineString","coordinates":[[[-0.6516489,51.4639611],[-0.651525,51.4640059],[-0.651506,51.4640947],[-0.6513665,51.4641148],[-0.6512807,51.4641615],[-0.6512235,51.4641866],[-0.6512061,51.4641943],[-0.6510847,51.4641456],[-0.6510554,51.4640479],[-0.6508515,51.4640145],[-0.6507228,51.4640078],[-0.6504868,51.4640546],[-0.6503862,51.4640554],[-0.6502587,51.4640544],[-0.6501451,51.4640465],[-0.6500358,51.4640311],[-0.6499797,51.4640195],[-0.6499418,51.4640129],[-0.6498252,51.4639708]]]}},
{"type":"Feature","properties":{"highway":"footway","name":null,"category":"Footpath (pedestrian only)"},"geometry":{"type":"MultiLineString","coordinates":[[[-0.6518476,51.4648304],[-0.6519673,51.4648634],[-0.6520679,51.4648458],[-0.6521254,51.4647876],[-0.6521184,51.464714]]]}},
{"type":"Feature","properties":{"highway":"footway","name":null,"category":"Footpath (pedestrian only)"},"geometry":{"type":"MultiLineString","coordinates":[[[-0.6503843,51.4653803],[-0.6504045,51.4654107],[-0.6504098,51.4654291],[-0.6504353,51.4654566],[-0.6504661,51.4654717],[-0.6505131,51.4655043],[-0.6505547,51.4655418],[-0.6505781,51.4655517],[-0.6506399,51.4655504],[-0.6506928,51.4655285],[-0.6507692,51.4655034],[-0.6508504,51.4654752],[-0.6509151,51.4654561],[-0.6509878,51.4654382]]]}},
{"type":"Feature","properties":{"highway":"footway","name":null,"category":"Footpath (pedestrian only)"},"geometry":{"type":"MultiLineString","coordinates":[[[-0.651079,51.465216],[-0.6510466,51.4652639],[-0.6510609,51.4653114],[-0.651069,51.465348],[-0.6510578,51.4653864],[-0.6510254,51.4654098],[-0.6509878,51.4654382],[-0.6510147,51.4654733],[-0.6510415,51.4655235],[-0.651079,51.4655769],[-0.6511193,51.465607],[-0.6512024,51.4656287],[-0.6513097,51.4656371],[-0.6513989,51.4656468],[-0.6514512,51.4656745]]]}},
{"type":"Feature","properties":{"highway":"footway","name":null,"category":"Footpath (pedestrian only)"},"geometry":{"type":"MultiLineString","coordinates":[[[-0.6452179,51.4646324],[-0.6451482,51.4646073],[-0.6450653,51.4645752],[-0.6449738,51.4645622],[-0.6449094,51.4645521],[-0.6448485,51.4645362],[-0.6447935,51.464515],[-0.6447792,51.4645259],[-0.6447013,51.4644945],[-0.6444898,51.4644146]]]}},
{"type":"Feature","properties":{"highway":"footway","name":null,"category":"Footpath (pedestrian only)"},"geometry":{"type":"MultiLineString","coordinates":[[[-0.6494994,51.4634563],[-0.6494509,51.4634848],[-0.649415,51.463528],[-0.6493982,51.4636085],[-0.6493767,51.4636547],[-0.6493217,51.463695],[-0.649214,51.4637024],[-0.6490777,51.463695],[-0.64897,51.4636458],[-0.6488959,51.4636085],[-0.6488716,51.4635995],[-0.6488193,51.4636011],[-0.6487601,51.4636061],[-0.6486423,51.4636234],[-0.6485418,51.4636681],[-0.6483767,51.4637143],[-0.6481618,51.4637768],[-0.6481303,51.4637859],[-0.6474603,51.4639629],[-0.6473894,51.4639816],[-0.6471862,51.4640395],[-0.6470001,51.4640803],[-0.6468865,51.4641533],[-0.6467708,51.4641974],[-0.6466143,51.4642017],[-0.6465135,51.464199],[-0.6464386,51.4641962],[-0.6463422,51.4642198],[-0.6462492,51.464252],[-0.6461561,51.4643185],[-0.6461458,51.4644144],[-0.6461546,51.4644683],[-0.646165,51.4645358],[-0.6462063,51.4646004],[-0.6462871,51.464677],[-0.6463663,51.4647328],[-0.6464248,51.4648229],[-0.6464869,51.4648937],[-0.6465661,51.4649495],[-0.6466827,51.4649911],[-0.6469056,51.4650423],[-0.6473933,51.4650581],[-0.6474996,51.4651255],[-0.6476711,51.465131],[-0.6477354,51.4651127],[-0.6477891,51.4650976],[-0.6478481,51.465106],[-0.6479017,51.4651394],[-0.6479339,51.4651477],[-0.6480064,51.465131],[-0.6480814,51.4651043],[-0.6481217,51.4650842],[-0.6481485,51.4650642],[-0.6481634,51.4650399],[-0.6481822,51.4650093],[-0.6481989,51.4649624],[-0.6483023,51.4648894],[-0.6483361,51.4648775],[-0.6484918,51.4648229],[-0.6485769,51.4648009],[-0.6488579,51.4647285],[-0.6489824,51.4647258],[-0.6491539,51.4647335],[-0.6493702,51.4647656],[-0.649634,51.4647775],[-0.6497635,51.4648055],[-0.649891,51.4648679],[-0.6499835,51.4649632],[-0.650033,51.4650558],[-0.6500513,51.4651003],[-0.650031,51.4651921],[-0.6499953,51.4652737],[-0.649991,51.4653271],[-0.6499893,51.4653479],[-0.6500639,51.465407],[-0.6501738,51.4654146],[-0.6503107,51.4653887],[-0.6503843,51.4653803],[-0.6504015,51.4653534],[-0.6504908,51.4652969],[-0.6505385,51.4652388],[-0.6505484,51.4652266],[-0.6506397,51.4651647],[-0.6507533,51.4651355],[-0.6508629,51.4651297],[-0.6509565,51.4651605],[-0.6510247,51.4651958],[-0.6510528,51.465208],[-0.651079,51.465216],[-0.6511468,51.46519],[-0.6513121,51.4651151],[-0.651365,51.4650722],[-0.6514482,51.4650193],[-0.651455,51.4649358],[-0.6514706,51.4648918],[-0.6515132,51.4648572],[-0.6515616,51.4648179]]]}},
{"type":"Feature","properties":{"highway":"footway","name":null,"category":"Footpath (pedestrian only)"},"geometry":{"type":"MultiLineString","coordinates":[[[-0.6491035,51.4632915],[-0.64909,51.4631626],[-0.6489781,51.4631646],[-0.6488432,51.4631001]]]}},
{"type":"Feature","properties":{"highway":"footway","name":null,"category":"Footpath (pedestrian only)"},"geometry":{"type":"MultiLineString","coordinates":[[[-0.6496756,51.4633927],[-0.6494994,51.4634563]]]}},
{"type":"Feature","properties":{"highway":"footway","name":null,"category":"Footpath (pedestrian only)"},"geometry":{"type":"MultiLineString","coordinates":[[[-0.6495936,51.4644457],[-0.649603,51.4644013],[-0.6496163,51.464339],[-0.6496445,51.4642403],[-0.6496431,51.4641306],[-0.6496579,51.464065],[-0.6497346,51.4640212],[-0.6498252,51.4639708],[-0.6498183,51.4639409],[-0.6498082,51.4639118],[-0.6498205,51.4638673],[-0.6498307,51.4638017],[-0.6498456,51.4637619],[-0.6498594,51.4637013],[-0.6498718,51.4636522],[-0.6498825,51.4635955],[-0.6498745,51.4635547],[-0.6498766,51.4635105],[-0.6498359,51.4634614],[-0.6497946,51.463382],[-0.6497728,51.4632872],[-0.6497854,51.4631905],[-0.6498789,51.4631182],[-0.6499614,51.4630784],[-0.6500287,51.4630459],[-0.6501223,51.462976],[-0.6501672,51.4628827],[-0.6501672,51.462808],[-0.6500886,51.4627264],[-0.6499538,51.4626774],[-0.6498415,51.4626331],[-0.6498003,51.4625888],[-0.6498228,51.4625258],[-0.6498555,51.4624947],[-0.6498864,51.4623906],[-0.6499345,51.4623601],[-0.6500292,51.4623],[-0.650126,51.4622086],[-0.6501447,51.462127],[-0.6501667,51.4620247],[-0.6502271,51.4619288],[-0.6503366,51.4618625]]]}},
{"type":"Feature","properties":{"highway":"footway","name":null,"category":"Footpath (pedestrian only)"},"geometry":{"type":"MultiLineString","coordinates":[[[-0.6495888,51.464532],[-0.6495936,51.4644457]]]}},
{"type":"Feature","properties":{"highway":"footway","name":null,"category":"Footpath (pedestrian only)"},"geometry":{"type":"MultiLineString","coordinates":[[[-0.6521212,51.4642396],[-0.6520505,51.4641774],[-0.6518922,51.4641415],[-0.6517119,51.4641381],[-0.651507,51.4641607],[-0.6513665,51.4641148]]]}},
{"type":"Feature","properties":{"highway":"footway","name":null,"category":"Footpath (pedestrian only)"},"geometry":{"type":"MultiLineString","coordinates":[[[-0.6521254,51.4647876],[-0.6522633,51.4647662],[-0.6523054,51.4647509],[-0.6524142,51.4647727],[-0.6523545,51.4648864],[-0.65233,51.4649694],[-0.6524212,51.4650372],[-0.6525243,51.4650953]]]}},
{"type":"Feature","properties":{"highway":"footway","name":null,"category":"Footpath (pedestrian only)"},"geometry":{"type":"MultiLineString","coordinates":[[[-0.6524142,51.4647727],[-0.6524352,51.4647247],[-0.6523966,51.4646198],[-0.6523686,51.4645499],[-0.6522914,51.4645215],[-0.6522552,51.4645252]]]}},
{"type":"Feature","properties":{"highway":"footway","name":null,"category":"Footpath (pedestrian only)"},"geometry":{"type":"MultiLineString","coordinates":[[[-0.6512807,51.4646628],[-0.6511971,51.4647028],[-0.6511725,51.4647465],[-0.6512181,51.4647902],[-0.6513023,51.4648099],[-0.6514005,51.4648361],[-0.6515132,51.4648572]]]}},
{"type":"Feature","properties":{"highway":"footway","name":null,"category":"Footpath (pedestrian only)"},"geometry":{"type":"MultiLineString","coordinates":[[[-0.6514774,51.4643977],[-0.6515484,51.4644719],[-0.6515106,51.4645357]]]}},
{"type":"Feature","properties":{"highway":"footway","name":null,"category":"Footpath (pedestrian only)"},"geometry":{"type":"MultiLineString","coordinates":[[[-0.6512956,51.4644843],[-0.6512602,51.4644211],[-0.6512185,51.4643702],[-0.6512069,51.4643069],[-0.6512169,51.4642405],[-0.6512235,51.4641866]]]}},
{"type":"Feature","properties":{"highway":"footway","name":null,"category":"Footpath (pedestrian only)"},"geometry":{"type":"MultiLineString","coordinates":[[[-0.6499614,51.4630784],[-0.6500557,51.4631157],[-0.6500918,51.4631322],[-0.650186,51.4631736]]]}},
{"type":"Feature","properties":{"highway":"footway","name":null,"category":"Footpath (pedestrian only)"},"geometry":{"type":"MultiLineString","coordinates":[[[-0.6506399,51.4655504],[-0.6506432,51.4655951],[-0.650647,51.4656303],[-0.6506468,51.4656812],[-0.6506877,51.4657083],[-0.6507347,51.4657337],[-0.6507972,51.4657454],[-0.6508723,51.4657356],[-0.6509631,51.4656947]]]}},
{"type":"Feature","properties":{"highway":"footway","name":null,"category":"Footpath (pedestrian only)"},"geometry":{"type":"MultiLineString","coordinates":[[[-0.6492701,51.4646932],[-0.6491706,51.4645905]]]}},
{"type":"Feature","properties":{"highway":"footway","name":null,"category":"Footpath (pedestrian only)"},"geometry":{"type":"MultiLineString","coordinates":[[[-0.6492701,51.4646932],[-0.6493702,51.4647656]]]}},
{"type":"Feature","properties":{"highway":"footway","name":null,"category":"Footpath (pedestrian only)"},"geometry":{"type":"MultiLineString","coordinates":[[[-0.6491706,51.4645905],[-0.649145,51.4645587],[-0.6490172,51.4645587],[-0.6489348,51.4645339],[-0.6488808,51.4644755],[-0.6487671,51.4643923],[-0.6486251,51.4643356],[-0.6485398,51.4642648],[-0.648466,51.4641639],[-0.6485569,51.4640949],[-0.6486464,51.4640135],[-0.6486748,51.4639559],[-0.6487056,51.4639041]]]}},
{"type":"Feature","properties":{"highway":"footway","name":null,"category":"Footpath (pedestrian only)"},"geometry":{"type":"MultiLineString","coordinates":[[[-0.648466,51.4641639],[-0.6483779,51.464125],[-0.648314,51.4640719],[-0.6482586,51.4639825],[-0.6482103,51.4638701],[-0.6481618,51.4637768]]]}},
{"type":"Feature","properties":{"highway":"footway","name":null,"category":"Footpath (pedestrian only)"},"geometry":{"type":"MultiLineString","coordinates":[[[-0.649145,51.4645587],[-0.6491791,51.4644985],[-0.6492431,51.4644613],[-0.6493851,51.464464],[-0.6494515,51.4644563],[-0.6495116,51.4644392],[-0.649603,51.4644013]]]}},
{"type":"Feature","properties":{"highway":"footway","name":null,"category":"Footpath (pedestrian only)"},"geometry":{"type":"MultiLineString","coordinates":[[[-0.6507498,51.4650283],[-0.6506858,51.4650645],[-0.6506248,51.4650895],[-0.6505727,51.465108],[-0.6505414,51.4651303],[-0.6505251,51.4651618],[-0.6505291,51.4651887],[-0.650531,51.4652017],[-0.6505385,51.4652388]]]}},
{"type":"Feature","properties":{"highway":"footway","name":null,"category":"Footpath (pedestrian only)"},"geometry":{"type":"MultiLineString","coordinates":[[[-0.6504447,51.46493],[-0.6503881,51.4649931],[-0.6503465,51.4650376],[-0.650208,51.4650533],[-0.6502319,51.4651702],[-0.6503569,51.4651618],[-0.6503777,51.4652156],[-0.6503837,51.4652564],[-0.6503107,51.4653887]]]}},
{"type":"Feature","properties":{"highway":"footway","name":null,"category":"Footpath (pedestrian only)"},"geometry":{"type":"MultiLineString","coordinates":[[[-0.6505291,51.4651887],[-0.6504179,51.4651859],[-0.6503956,51.4650728],[-0.6503569,51.4650765],[-0.6503703,51.4651433],[-0.6503316,51.4651461],[-0.6503167,51.4650802],[-0.650275,51.465083],[-0.6502914,51.4651498],[-0.6502557,51.4651526],[-0.6502378,51.4650645],[-0.6503584,51.4650515],[-0.6504641,51.4649365]]]}},
{"type":"Feature","properties":{"highway":"footway","name":null,"category":"Footpath (pedestrian only)"},"geometry":{"type":"MultiLineString","coordinates":[[[-0.6500513,51.4651003],[-0.6499296,51.4651792],[-0.6498759,51.4652472],[-0.6498121,51.4653026],[-0.6498104,51.4652514],[-0.6498121,51.4651981],[-0.6498289,51.4651573],[-0.6498709,51.4651165],[-0.6499111,51.4650642],[-0.6498876,51.4650192],[-0.6498255,51.46499],[-0.6497265,51.4649513],[-0.6497635,51.4648055]]]}},
{"type":"Feature","properties":{"highway":"footway","name":null,"category":"Footpath (pedestrian only)"},"geometry":{"type":"MultiLineString","coordinates":[[[-0.6474603,51.4639629],[-0.6473707,51.4638816],[-0.6473074,51.4637959],[-0.6471992,51.4637526],[-0.6470633,51.4637507],[-0.6470108,51.4638258],[-0.6470154,51.4639566],[-0.6469907,51.464023],[-0.6470001,51.4640803]]]}},
{"type":"Feature","properties":{"highway":"footway","name":null,"category":"Footpath (pedestrian only)"},"geometry":{"type":"MultiLineString","coordinates":[[[-0.6479339,51.4651477],[-0.6479443,51.4652365],[-0.6475738,51.4652348]]]}},
{"type":"Feature","properties":{"highway":"footway","name":null,"category":"Footpath (pedestrian only)"},"geometry":{"type":"MultiLineString","coordinates":[[[-0.6483361,51.4648775],[-0.6483199,51.4649342],[-0.648338,51.4649737],[-0.648347,51.4650033],[-0.648338,51.4650343]]]}},
{"type":"Feature","properties":{"highway":"footway","name":null,"category":"Footpath (pedestrian only)"},"geometry":{"type":"MultiLineString","coordinates":[[[-0.6483761,51.4645419],[-0.6484051,51.4645322],[-0.6485769,51.4648009]]]}},
{"type":"Feature","properties":{"highway":"footway","name":null,"category":"Footpath (pedestrian only)"},"geometry":{"type":"MultiLineString","coordinates":[[[-0.6515616,51.4648179],[-0.6516026,51.4647898],[-0.6516026,51.4646762],[-0.6516009,51.4646187],[-0.6515796,51.4645695],[-0.6515106,51.4645357],[-0.6514781,51.4645199],[-0.6513451,51.4644757],[-0.6512956,51.4644843],[-0.6511838,51.4645039],[-0.6510988,51.464568],[-0.6512807,51.4646628],[-0.6514094,51.4647431],[-0.651489,51.4647824],[-0.6515616,51.4648179]]]}},
{"type":"Feature","properties":{"highway":"footway","name":null,"category":"Footpath (pedestrian only)"},"geometry":{"type":"MultiLineString","coordinates":[[[-0.6521184,51.464714],[-0.6521011,51.4646344],[-0.6519566,51.4646428],[-0.6518595,51.4646522],[-0.6517897,51.4646631],[-0.6517685,51.464752],[-0.6518476,51.4648304]]]}},
{"type":"Feature","properties":{"highway":"footway","name":null,"category":"Footpath (pedestrian only)"},"geometry":{"type":"MultiLineString","coordinates":[[[-0.6518476,51.4648304],[-0.6516702,51.4648179],[-0.6516056,51.4648232],[-0.6515132,51.4648572]]]}},
{"type":"Feature","properties":{"highway":"footway","name":null,"category":"Footpath (pedestrian only)"},"geometry":{"type":"MultiLineString","coordinates":[[[-0.6477524,51.4632801],[-0.6476566,51.4633315],[-0.6475837,51.4633784],[-0.6475518,51.4633917],[-0.647497,51.4634025],[-0.6473763,51.4634409],[-0.6472368,51.463476],[-0.6471231,51.4635218],[-0.647068,51.4635433],[-0.6470443,51.4635602],[-0.6470407,51.4635971],[-0.6470433,51.4636109],[-0.6470462,51.4636267],[-0.6470533,51.4636608],[-0.6470611,51.4637133],[-0.6470633,51.4637507]]]}},
{"type":"Feature","properties":{"highway":"footway","name":null,"category":"Footpath (pedestrian only)"},"geometry":{"type":"MultiLineString","coordinates":[[[-0.6473763,51.4634409],[-0.64732,51.4633816],[-0.6472717,51.4633265],[-0.6472291,51.4632677],[-0.6472036,51.4632338]]]}},
{"type":"Feature","properties":{"highway":"path","name":"The Magical Forest","category":"Shared path"},"geometry":{"type":"MultiLineString","coordinates":[[[-0.6465135,51.464199],[-0.6464815,51.464139],[-0.6464632,51.4640915],[-0.6464436,51.4640593],[-0.646388,51.4640401],[-0.6464257,51.4639715],[-0.6463853,51.4639504],[-0.6464208,51.4638995],[-0.6464571,51.4638861],[-0.6464794,51.4638609],[-0.6465041,51.4638228],[-0.6465179,51.4638111],[-0.6465227,51.4638028],[-0.6465154,51.4637946],[-0.646492,51.4637907],[-0.6464638,51.4637858],[-0.6464529,51.4637816],[-0.6464511,51.4637761],[-0.6464539,51.4637722],[-0.6464609,51.4637691],[-0.6464906,51.46377],[-0.6464989,51.4637708],[-0.6465069,51.4637687],[-0.646509,51.4637635],[-0.6465036,51.4637578],[-0.6464777,51.4637488],[-0.6464807,51.4637401],[-0.6464943,51.4637335],[-0.6465099,51.4637323],[-0.6465265,51.463735],[-0.6465735,51.4637477],[-0.6465991,51.4637488],[-0.6466371,51.4637452],[-0.646656,51.4637303],[-0.6466684,51.4637128],[-0.6466651,51.4636958],[-0.6466602,51.4636752],[-0.646642,51.4636598],[-0.6466565,51.4636475],[-0.646602,51.4636031],[-0.6466606,51.4635783],[-0.6467075,51.4636307],[-0.6467385,51.4636358],[-0.6467722,51.463624],[-0.6468283,51.4636142],[-0.6468855,51.4636115],[-0.6469574,51.463613],[-0.6470433,51.4636109]]]}},
{"type":"Feature","properties":{"highway":"path","name":null,"category":"Shared path"},"geometry":{"type":"MultiLineString","coordinates":[[[-0.6465265,51.463735],[-0.646538,51.4637102],[-0.6465446,51.4636937],[-0.6465619,51.4636804],[-0.6465883,51.4636696],[-0.6466135,51.4636616],[-0.646642,51.4636598]]]}},
{"type":"Feature","properties":{"highway":"track","name":null,"category":"Track"},"geometry":{"type":"MultiLineString","coordinates":[[[-0.6434065,51.4638598],[-0.643259,51.4640493],[-0.6428679,51.4643426],[-0.6426463,51.4645086],[-0.6424836,51.4645863],[-0.642404,51.464651],[-0.6422448,51.4648796],[-0.6416944,51.4653152],[-0.6410956,51.465753],[-0.6408913,51.4658478],[-0.6406006,51.4661217],[-0.6402336,51.466387],[-0.6396729,51.4667298],[-0.6393336,51.4668829],[-0.6391986,51.4668549],[-0.6390221,51.4667794],[-0.6388975,51.4667363],[-0.6387902,51.4667298],[-0.6386552,51.46676],[-0.6384431,51.4668902],[-0.6381982,51.4670404],[-0.6381186,51.4670878],[-0.6380736,51.4671611],[-0.6383955,51.4673746],[-0.6384371,51.4674458],[-0.6382917,51.4675859],[-0.6376167,51.4679525],[-0.636509,51.4685175],[-0.6354948,51.4690178]]]}},
{"type":"Feature","properties":{"highway":"footway","name":null,"category":"Footpath (pedestrian only)"},"geometry":{"type":"MultiLineString","coordinates":[[[-0.6521998,51.4656421],[-0.6521944,51.4656409],[-0.6520557,51.4656105]]]}},
{"type":"Feature","properties":{"highway":"footway","name":null,"category":"Footpath (pedestrian only)"},"geometry":{"type":"MultiLineString","coordinates":[[[-0.6520748,51.4655749],[-0.6522195,51.4656065]]]}},
{"type":"Feature","properties":{"highway":"footway","name":null,"category":"Footpath (pedestrian only)"},"geometry":{"type":"MultiLineString","coordinates":[[[-0.6522385,51.4655721],[-0.6520933,51.4655402]]]}},
{"type":"Feature","properties":{"highway":"footway","name":null,"category":"Footpath (pedestrian only)"},"geometry":{"type":"MultiLineString","coordinates":[[[-0.6522724,51.4655018],[-0.6522528,51.4655316],[-0.652267,51.4655604]]]}},
{"type":"Feature","properties":{"highway":"footway","name":null,"category":"Footpath (pedestrian only)"},"geometry":{"type":"MultiLineString","coordinates":[[[-0.652343,51.4655185],[-0.6523255,51.4655478],[-0.6522994,51.4655677]]]}},
{"type":"Feature","properties":{"highway":"footway","name":null,"category":"Footpath (pedestrian only)"},"geometry":{"type":"MultiLineString","coordinates":[[[-0.6521322,51.4654676],[-0.6521034,51.4654898],[-0.6520444,51.4654741],[-0.6519855,51.4654585],[-0.6519389,51.4654462],[-0.6518968,51.4654782]]]}},
{"type":"Feature","properties":{"highway":"footway","name":null,"category":"Footpath (pedestrian only)"},"geometry":{"type":"MultiLineString","coordinates":[[[-0.6522981,51.4652322],[-0.6522501,51.4652626],[-0.6520335,51.4653557],[-0.6520842,51.4654214],[-0.65215,51.4654368],[-0.6521322,51.4654676],[-0.6521856,51.4654761],[-0.6521843,51.4654863],[-0.6522514,51.4655077]]]}},
{"type":"Feature","properties":{"highway":"footway","name":null,"category":"Footpath (pedestrian only)"},"geometry":{"type":"MultiLineString","coordinates":[[[-0.6525017,51.4651168],[-0.6524982,51.4652011],[-0.6524721,51.4653096],[-0.6523008,51.4652899],[-0.652298,51.4653045],[-0.6524707,51.4653232],[-0.6524502,51.4653796],[-0.6522857,51.4653617],[-0.6522843,51.4653728],[-0.6524488,51.4653899],[-0.6524392,51.4654232],[-0.6522734,51.4654061],[-0.6522693,51.4654206],[-0.652383,51.4654325],[-0.6523516,51.4654886]]]}},
{"type":"Feature","properties":{"highway":"footway","name":null,"category":"Footpath (pedestrian only)"},"geometry":{"type":"MultiLineString","coordinates":[[[-0.6524881,51.4651365],[-0.6524584,51.4652968],[-0.6522898,51.4652797],[-0.6522788,51.4653156],[-0.6524488,51.4653318],[-0.6524461,51.4653472],[-0.6522802,51.4653284],[-0.6522802,51.4653395],[-0.6524406,51.4653565],[-0.6524365,51.4653668],[-0.6522665,51.465348],[-0.6522597,51.4653796],[-0.6524255,51.4653984],[-0.6524214,51.4654138],[-0.6522583,51.4653941],[-0.652246,51.4654291],[-0.6523597,51.4654402],[-0.6523373,51.4654856]]]}},
{"type":"Feature","properties":{"highway":"footway","name":null,"category":"Footpath (pedestrian only)"},"geometry":{"type":"MultiLineString","coordinates":[[[-0.6523516,51.4654886],[-0.6523435,51.4655027],[-0.652343,51.4655185]]]}},
{"type":"Feature","properties":{"highway":"footway","name":null,"category":"Footpath (pedestrian only)"},"geometry":{"type":"MultiLineString","coordinates":[[[-0.6523373,51.4654856],[-0.6523287,51.4654998],[-0.6522811,51.4654894],[-0.6522724,51.4655018]]]}},
{"type":"Feature","properties":{"highway":"footway","name":null,"category":"Footpath (pedestrian only)"},"geometry":{"type":"MultiLineString","coordinates":[[[-0.652267,51.4655604],[-0.652259,51.4655763],[-0.6522385,51.4655721]]]}},
{"type":"Feature","properties":{"highway":"footway","name":null,"category":"Footpath (pedestrian only)"},"geometry":{"type":"MultiLineString","coordinates":[[[-0.6522994,51.4655677],[-0.6522529,51.4656523],[-0.6521944,51.4656409]]]}},
{"type":"Feature","properties":{"highway":"footway","name":null,"category":"Footpath (pedestrian only)"},"geometry":{"type":"MultiLineString","coordinates":[[[-0.6522195,51.4656065],[-0.6522543,51.465613],[-0.6522885,51.4655495],[-0.6523139,51.4655428],[-0.652324,51.4655245],[-0.6523136,51.4655221]]]}},
{"type":"Feature","properties":{"highway":"footway","name":null,"category":"Footpath (pedestrian only)"},"geometry":{"type":"MultiLineString","coordinates":[[[-0.6523136,51.4655221],[-0.6522514,51.4655077]]]}}
]
}
