{
"type": "FeatureCollection",
"name": "BRAFO_40_cycling",
"crs": { "type": "name", "properties": { "name": "urn:ogc:def:crs:OGC:1.3:CRS84" } },
"features": [
{"type":"Feature","properties":{"highway":"cycleway","name":null,"category":"Dedicated cycleway"},"geometry":{"type":"MultiLineString","coordinates":[[[-0.7696889,51.4138071],[-0.7696831,51.413728],[-0.7696537,51.4135303],[-0.7694466,51.4122592],[-0.7694435,51.412245],[-0.769439,51.4122208],[-0.7694329,51.4121885]]]}},
{"type":"Feature","properties":{"highway":"cycleway","name":"Southern Business Area","category":"Dedicated cycleway"},"geometry":{"type":"MultiLineString","coordinates":[[[-0.7694731,51.4086403],[-0.769431,51.4086722],[-0.7693572,51.4086913],[-0.769191,51.4086783],[-0.7686963,51.4086118],[-0.7681673,51.4085634],[-0.7680587,51.4085476]]]}},
{"type":"Feature","properties":{"highway":"cycleway","name":null,"category":"Dedicated cycleway"},"geometry":{"type":"MultiLineString","coordinates":[[[-0.7608207,51.4124706],[-0.7608573,51.4126561]]]}},
{"type":"Feature","properties":{"highway":"cycleway","name":"Twin Bridges Roundabout","category":"Dedicated cycleway"},"geometry":{"type":"MultiLineString","coordinates":[[[-0.7608573,51.4126561],[-0.7609449,51.4129124],[-0.7609511,51.4129578]]]}},
{"type":"Feature","properties":{"highway":"cycleway","name":null,"category":"Dedicated cycleway"},"geometry":{"type":"MultiLineString","coordinates":[[[-0.760503,51.4129945],[-0.7601697,51.4130206]]]}},
{"type":"Feature","properties":{"highway":"path","name":null,"category":"Shared path"},"geometry":{"type":"MultiLineString","coordinates":[[[-0.7631177,51.4105437],[-0.7632018,51.4105305],[-0.7632828,51.4105001],[-0.7635065,51.4103949]]]}},
{"type":"Feature","properties":{"highway":"cycleway","name":"Southern Business Area","category":"Dedicated cycleway"},"geometry":{"type":"MultiLineString","coordinates":[[[-0.7614527,51.412965],[-0.7610215,51.4129603],[-0.7609511,51.4129578]]]}},
{"type":"Feature","properties":{"highway":"cycleway","name":null,"category":"Dedicated cycleway"},"geometry":{"type":"MultiLineString","coordinates":[[[-0.7618034,51.4129646],[-0.7614527,51.412965]]]}},
{"type":"Feature","properties":{"highway":"cycleway","name":"Oldbury","category":"Dedicated cycleway"},"geometry":{"type":"MultiLineString","coordinates":[[[-0.7652302,51.41178],[-0.7651509,51.4117595],[-0.7635357,51.4113163]]]}},
{"type":"Feature","properties":{"highway":"path","name":null,"category":"Shared path"},"geometry":{"type":"MultiLineString","coordinates":[[[-0.7585199,51.4048816],[-0.7586156,51.4048681],[-0.7592647,51.4047608],[-0.7594834,51.4047263],[-0.7604362,51.4045526],[-0.7608444,51.4044853],[-0.7610117,51.4044676],[-0.7611499,51.4044464]]]}},
{"type":"Feature","properties":{"highway":"cycleway","name":null,"category":"Dedicated cycleway"},"geometry":{"type":"MultiLineString","coordinates":[[[-0.7605897,51.4073644],[-0.7605179,51.4073192],[-0.7603322,51.4072021],[-0.7600843,51.4071076],[-0.7593518,51.4068463],[-0.7592049,51.4067917]]]}},
{"type":"Feature","properties":{"highway":"cycleway","name":null,"category":"Dedicated cycleway"},"geometry":{"type":"MultiLineString","coordinates":[[[-0.7605702,51.410073],[-0.7606064,51.4100909],[-0.7607395,51.4101308],[-0.7608029,51.4101612]]]}},
{"type":"Feature","properties":{"highway":"cycleway","name":null,"category":"Dedicated cycleway"},"geometry":{"type":"MultiLineString","coordinates":[[[-0.7579766,51.403838],[-0.7580522,51.4038103]]]}},
{"type":"Feature","properties":{"highway":"cycleway","name":null,"category":"Dedicated cycleway"},"geometry":{"type":"MultiLineString","coordinates":[[[-0.7672368,51.4039509],[-0.7672861,51.4039663],[-0.7676185,51.404075],[-0.767814,51.404153],[-0.7683534,51.4044933],[-0.7684501,51.4045703],[-0.7685493,51.4046573],[-0.7686003,51.404746],[-0.7686486,51.4048547],[-0.7686297,51.4049284],[-0.7685896,51.4049936],[-0.7685521,51.4050622],[-0.7685226,51.4051475],[-0.7685251,51.4052245],[-0.7685788,51.4053015],[-0.7687236,51.405427],[-0.7688793,51.4055491],[-0.76889,51.405601],[-0.7688552,51.4056378],[-0.7685156,51.4058257],[-0.768455,51.4058569]]]}},
{"type":"Feature","properties":{"highway":"cycleway","name":"Downshire Way","category":"Dedicated cycleway"},"geometry":{"type":"MultiLineString","coordinates":[[[-0.7582994,51.4103956],[-0.7582537,51.4104222],[-0.7580831,51.4105088],[-0.7576847,51.4105416],[-0.7570761,51.4105557],[-0.7566749,51.4105649],[-0.7555737,51.4105265],[-0.7552298,51.4104367]]]}},
{"type":"Feature","properties":{"highway":"cycleway","name":null,"category":"Dedicated cycleway"},"geometry":{"type":"MultiLineString","coordinates":[[[-0.7584176,51.4102991],[-0.7582994,51.4103956]]]}},
{"type":"Feature","properties":{"highway":"cycleway","name":"Wildridings Road","category":"Dedicated cycleway"},"geometry":{"type":"MultiLineString","coordinates":[[[-0.7608207,51.4124706],[-0.7607948,51.4123798],[-0.7607169,51.4121023]]]}},
{"type":"Feature","properties":{"highway":"cycleway","name":null,"category":"Dedicated cycleway"},"geometry":{"type":"MultiLineString","coordinates":[[[-0.7610314,51.4097305],[-0.7611149,51.4095074],[-0.761193,51.4092706],[-0.7611793,51.4089591],[-0.7611966,51.4088725]]]}},
{"type":"Feature","properties":{"highway":"cycleway","name":"Hubberholme","category":"Dedicated cycleway"},"geometry":{"type":"MultiLineString","coordinates":[[[-0.7604338,51.4115902],[-0.7604243,51.4113857],[-0.7604219,51.4113339]]]}},
{"type":"Feature","properties":{"highway":"cycleway","name":null,"category":"Dedicated cycleway"},"geometry":{"type":"MultiLineString","coordinates":[[[-0.7585108,51.4104587],[-0.7585964,51.4104236],[-0.7586204,51.4104116],[-0.7586492,51.4103599],[-0.7586271,51.4103292],[-0.7585735,51.4103003],[-0.7584868,51.4102906],[-0.7584176,51.4102991]]]}},
{"type":"Feature","properties":{"highway":"cycleway","name":"Wildridings Road","category":"Dedicated cycleway"},"geometry":{"type":"MultiLineString","coordinates":[[[-0.7639196,51.4040388],[-0.7638684,51.4040491],[-0.7638162,51.4040481],[-0.7637806,51.4040376],[-0.763743,51.4040167]]]}},
{"type":"Feature","properties":{"highway":"cycleway","name":null,"category":"Dedicated cycleway"},"geometry":{"type":"MultiLineString","coordinates":[[[-0.7642105,51.403958],[-0.7639196,51.4040388]]]}},
{"type":"Feature","properties":{"highway":"cycleway","name":"Wildridings Road","category":"Dedicated cycleway"},"geometry":{"type":"MultiLineString","coordinates":[[[-0.7658152,51.4033068],[-0.765734,51.4034002],[-0.765708,51.4034189],[-0.765647,51.4034327],[-0.7655826,51.4034411],[-0.7654938,51.40344],[-0.7653603,51.403418],[-0.7651563,51.4033623],[-0.7649772,51.4033247],[-0.7648681,51.4033125],[-0.7647451,51.4033169],[-0.7646448,51.4033425],[-0.7645917,51.4033755],[-0.7645477,51.4034095],[-0.7644962,51.4034925],[-0.764452,51.403672],[-0.7644121,51.4037959],[-0.7643657,51.4038571],[-0.7643256,51.4038927],[-0.7642694,51.4039371],[-0.7642105,51.403958]]]}},
{"type":"Feature","properties":{"highway":"cycleway","name":null,"category":"Dedicated cycleway"},"geometry":{"type":"MultiLineString","coordinates":[[[-0.7660047,51.403112],[-0.7658152,51.4033068]]]}},
{"type":"Feature","properties":{"highway":"cycleway","name":"Wildridings Road","category":"Dedicated cycleway"},"geometry":{"type":"MultiLineString","coordinates":[[[-0.7636689,51.4039601],[-0.7636535,51.4039163],[-0.763674,51.4038772],[-0.7637252,51.4038457],[-0.7638245,51.403829],[-0.7638892,51.4038436]]]}},
{"type":"Feature","properties":{"highway":"cycleway","name":"Wildridings Road cycle path","category":"Dedicated cycleway"},"geometry":{"type":"MultiLineString","coordinates":[[[-0.764996,51.4074394],[-0.7649787,51.407552],[-0.7649049,51.4077462],[-0.7648756,51.4077954],[-0.7648503,51.4078379]]]}},
{"type":"Feature","properties":{"highway":"cycleway","name":"Wildridings Road cycle track","category":"Dedicated cycleway"},"geometry":{"type":"MultiLineString","coordinates":[[[-0.7650973,51.4072932],[-0.7650276,51.4073403],[-0.7650041,51.4073928],[-0.764996,51.4074394]]]}},
{"type":"Feature","properties":{"highway":"cycleway","name":null,"category":"Dedicated cycleway"},"geometry":{"type":"MultiLineString","coordinates":[[[-0.7652798,51.4072697],[-0.7653787,51.407266],[-0.765454,51.4072748],[-0.7656282,51.4073223],[-0.7660315,51.4074584],[-0.7665035,51.4076324],[-0.7666967,51.4077462],[-0.7669024,51.4078062],[-0.7672252,51.4078283]]]}},
{"type":"Feature","properties":{"highway":"cycleway","name":null,"category":"Dedicated cycleway"},"geometry":{"type":"MultiLineString","coordinates":[[[-0.7650973,51.4072932],[-0.7652798,51.4072697]]]}},
{"type":"Feature","properties":{"highway":"cycleway","name":null,"category":"Dedicated cycleway"},"geometry":{"type":"MultiLineString","coordinates":[[[-0.7652143,51.4074799],[-0.7653494,51.4075207],[-0.7654231,51.4075048]]]}},
{"type":"Feature","properties":{"highway":"cycleway","name":"Deepdale","category":"Dedicated cycleway"},"geometry":{"type":"MultiLineString","coordinates":[[[-0.7615689,51.4076241],[-0.7616648,51.4076692],[-0.7618311,51.4077194],[-0.7619478,51.407734],[-0.7623243,51.4077914]]]}},
{"type":"Feature","properties":{"highway":"path","name":"Cross Fell","category":"Shared path"},"geometry":{"type":"MultiLineString","coordinates":[[[-0.7624614,51.4067741],[-0.7624145,51.4067999],[-0.7623096,51.4068575]]]}},
{"type":"Feature","properties":{"highway":"cycleway","name":"Wildridings Road cycle track","category":"Dedicated cycleway"},"geometry":{"type":"MultiLineString","coordinates":[[[-0.7651935,51.407627],[-0.7653176,51.4076399],[-0.7653571,51.4075983],[-0.7654231,51.4075048]]]}},
{"type":"Feature","properties":{"highway":"cycleway","name":"Deepdale","category":"Dedicated cycleway"},"geometry":{"type":"MultiLineString","coordinates":[[[-0.7623243,51.4077914],[-0.762579,51.4077387]]]}},
{"type":"Feature","properties":{"highway":"cycleway","name":"Old Bracknell Lane West","category":"Dedicated cycleway"},"geometry":{"type":"MultiLineString","coordinates":[[[-0.7609511,51.4129578],[-0.7608282,51.4129673],[-0.760503,51.4129945]]]}},
{"type":"Feature","properties":{"highway":"cycleway","name":null,"category":"Dedicated cycleway"},"geometry":{"type":"MultiLineString","coordinates":[[[-0.7745285,51.4083353],[-0.7745336,51.4083505],[-0.7746553,51.4084565],[-0.7748844,51.4086239],[-0.7749398,51.4086608],[-0.7749759,51.4086804],[-0.7750213,51.4087081]]]}},
{"type":"Feature","properties":{"highway":"cycleway","name":"Ellesfield Avenue","category":"Dedicated cycleway"},"geometry":{"type":"MultiLineString","coordinates":[[[-0.7711186,51.4086944],[-0.7710779,51.4086967],[-0.7709247,51.4087606],[-0.7705904,51.4089466],[-0.770534,51.4089921],[-0.7705144,51.4090196]]]}},
{"type":"Feature","properties":{"highway":"cycleway","name":null,"category":"Dedicated cycleway"},"geometry":{"type":"MultiLineString","coordinates":[[[-0.765708,51.4034189],[-0.765739,51.4034433],[-0.7657561,51.4035419]]]}},
{"type":"Feature","properties":{"highway":"cycleway","name":"Ellesfield Avenue","category":"Dedicated cycleway"},"geometry":{"type":"MultiLineString","coordinates":[[[-0.7706004,51.4081533],[-0.7706111,51.4081693],[-0.7708913,51.4083838],[-0.7709708,51.4084305],[-0.7710748,51.4084781],[-0.7711494,51.4085033]]]}},
{"type":"Feature","properties":{"highway":"cycleway","name":"Crowthorne Road","category":"Dedicated cycleway"},"geometry":{"type":"MultiLineString","coordinates":[[[-0.7631002,51.4037839],[-0.7631013,51.4037358],[-0.7630959,51.4036784],[-0.763023,51.4035279],[-0.7629712,51.4034493],[-0.762877,51.4033065],[-0.7628557,51.4031751],[-0.762845,51.4030445],[-0.7627593,51.4028995],[-0.7627836,51.4028001]]]}},
{"type":"Feature","properties":{"highway":"cycleway","name":"Ellesfield Avenue","category":"Dedicated cycleway"},"geometry":{"type":"MultiLineString","coordinates":[[[-0.7711494,51.4085033],[-0.7712165,51.4085147],[-0.7725618,51.4085876]]]}},
{"type":"Feature","properties":{"highway":"cycleway","name":"Ellesfield Avenue","category":"Dedicated cycleway"},"geometry":{"type":"MultiLineString","coordinates":[[[-0.7711186,51.4086944],[-0.7734094,51.4088054],[-0.7735293,51.4088176],[-0.7735645,51.4088276]]]}},
{"type":"Feature","properties":{"highway":"cycleway","name":null,"category":"Dedicated cycleway"},"geometry":{"type":"MultiLineString","coordinates":[[[-0.7735963,51.4086314],[-0.7736269,51.4086263],[-0.7737045,51.4086002],[-0.7737735,51.4085708],[-0.7740346,51.4084353],[-0.7741065,51.4083868],[-0.7741403,51.4083578],[-0.7741667,51.4083332]]]}},
{"type":"Feature","properties":{"highway":"cycleway","name":"Lovelace Road","category":"Dedicated cycleway"},"geometry":{"type":"MultiLineString","coordinates":[[[-0.7737044,51.4058764],[-0.7737594,51.4058671],[-0.7738045,51.4058639],[-0.7738755,51.4058694],[-0.7739428,51.4058796],[-0.7740407,51.4059145],[-0.7741134,51.4059523],[-0.7741832,51.4059976],[-0.7743151,51.4061238],[-0.7743962,51.4062286],[-0.7744367,51.4063143],[-0.774466,51.4063849],[-0.7744772,51.4064456],[-0.7744812,51.4064825],[-0.774483,51.4065214],[-0.7744811,51.4065757],[-0.7744706,51.4066809],[-0.7744658,51.4067295],[-0.774368,51.407419],[-0.7743648,51.4074416],[-0.7743387,51.4076509],[-0.7742431,51.4081674],[-0.7742103,51.4082659],[-0.7741667,51.4083332]]]}},
{"type":"Feature","properties":{"highway":"cycleway","name":null,"category":"Dedicated cycleway"},"geometry":{"type":"MultiLineString","coordinates":[[[-0.7736954,51.405865],[-0.7736662,51.4058279],[-0.7736466,51.4058031]]]}},
{"type":"Feature","properties":{"highway":"track","name":"Langton Lane","category":"Track"},"geometry":{"type":"MultiLineString","coordinates":[[[-0.7756548,51.4088812],[-0.7756817,51.4099457],[-0.7756118,51.4101823],[-0.7753813,51.4109629],[-0.7751882,51.4116053],[-0.7751667,51.4119935],[-0.775038,51.412395]]]}},
{"type":"Feature","properties":{"highway":"path","name":null,"category":"Shared path"},"geometry":{"type":"MultiLineString","coordinates":[[[-0.768455,51.4058569],[-0.7685211,51.4059065],[-0.7686016,51.4061876],[-0.7681992,51.4064151],[-0.7677486,51.4064921],[-0.7669869,51.406626],[-0.7667867,51.4065487]]]}},
{"type":"Feature","properties":{"highway":"cycleway","name":"Partridge Close","category":"Dedicated cycleway"},"geometry":{"type":"MultiLineString","coordinates":[[[-0.7771541,51.4087951],[-0.7770373,51.408956]]]}},
{"type":"Feature","properties":{"highway":"cycleway","name":"Ellesfield Avenue","category":"Dedicated cycleway"},"geometry":{"type":"MultiLineString","coordinates":[[[-0.7701567,51.4089919],[-0.7701424,51.4089528],[-0.7700593,51.4088791],[-0.7698175,51.4087117],[-0.7697249,51.4086649],[-0.7696353,51.4086348],[-0.7693191,51.4085881]]]}},
{"type":"Feature","properties":{"highway":"cycleway","name":null,"category":"Dedicated cycleway"},"geometry":{"type":"MultiLineString","coordinates":[[[-0.7695247,51.4083949],[-0.7695065,51.4083523],[-0.7694076,51.4083097],[-0.7693018,51.4082843],[-0.769194,51.4082316],[-0.7690369,51.4081339],[-0.7689317,51.4081143],[-0.7688727,51.4081377]]]}},
{"type":"Feature","properties":{"highway":"cycleway","name":null,"category":"Dedicated cycleway"},"geometry":{"type":"MultiLineString","coordinates":[[[-0.7693191,51.4085881],[-0.7688524,51.4085048],[-0.768771,51.4085115],[-0.7687191,51.4085384],[-0.7686963,51.4086118]]]}},
{"type":"Feature","properties":{"highway":"cycleway","name":null,"category":"Dedicated cycleway"},"geometry":{"type":"MultiLineString","coordinates":[[[-0.7694731,51.4086403],[-0.7695247,51.4083949]]]}},
{"type":"Feature","properties":{"highway":"path","name":null,"category":"Shared path"},"geometry":{"type":"MultiLineString","coordinates":[[[-0.7676472,51.4121959],[-0.7676954,51.4120085],[-0.7680495,51.4115769],[-0.7680978,51.4114464],[-0.7679744,51.4112992],[-0.7679958,51.4111285],[-0.7682186,51.410824],[-0.7682964,51.4104994],[-0.7684466,51.4103873],[-0.7683635,51.4102652],[-0.7684236,51.40999]]]}},
{"type":"Feature","properties":{"highway":"cycleway","name":"Lovelace Road","category":"Dedicated cycleway"},"geometry":{"type":"MultiLineString","coordinates":[[[-0.7741113,51.4056108],[-0.7741481,51.4056439],[-0.7741843,51.4058],[-0.7743114,51.4058866],[-0.7744263,51.4059672],[-0.7744812,51.4060166],[-0.7745559,51.4061014],[-0.7746113,51.4061545]]]}},
{"type":"Feature","properties":{"highway":"cycleway","name":null,"category":"Dedicated cycleway"},"geometry":{"type":"MultiLineString","coordinates":[[[-0.7740315,51.4055556],[-0.7740644,51.4055784],[-0.7741113,51.4056108]]]}},
{"type":"Feature","properties":{"highway":"cycleway","name":null,"category":"Dedicated cycleway"},"geometry":{"type":"MultiLineString","coordinates":[[[-0.7746183,51.4061707],[-0.7746368,51.4062136],[-0.7746688,51.4062878]]]}},
{"type":"Feature","properties":{"highway":"cycleway","name":"Lovelace Road","category":"Dedicated cycleway"},"geometry":{"type":"MultiLineString","coordinates":[[[-0.7746688,51.4062878],[-0.7746856,51.4063158],[-0.7747031,51.4063688],[-0.7747104,51.4064402],[-0.7747047,51.406593]]]}},
{"type":"Feature","properties":{"highway":"cycleway","name":"Lovelace Road","category":"Dedicated cycleway"},"geometry":{"type":"MultiLineString","coordinates":[[[-0.7737415,51.4055567],[-0.773752,51.4055503],[-0.7740084,51.4055397]]]}},
{"type":"Feature","properties":{"highway":"cycleway","name":null,"category":"Dedicated cycleway"},"geometry":{"type":"MultiLineString","coordinates":[[[-0.7736723,51.4055984],[-0.7737056,51.4055783],[-0.7737415,51.4055567]]]}},
{"type":"Feature","properties":{"highway":"cycleway","name":"Lovelace Road","category":"Dedicated cycleway"},"geometry":{"type":"MultiLineString","coordinates":[[[-0.7736385,51.4057928],[-0.773656,51.4057839],[-0.773665,51.4056028],[-0.7736723,51.4055984]]]}},
{"type":"Feature","properties":{"highway":"cycleway","name":"Lovelace Road","category":"Dedicated cycleway"},"geometry":{"type":"MultiLineString","coordinates":[[[-0.7746889,51.406728],[-0.7746244,51.4072508]]]}},
{"type":"Feature","properties":{"highway":"cycleway","name":null,"category":"Dedicated cycleway"},"geometry":{"type":"MultiLineString","coordinates":[[[-0.7746244,51.4072508],[-0.7746079,51.4073646],[-0.7745953,51.4074514]]]}},
{"type":"Feature","properties":{"highway":"cycleway","name":null,"category":"Dedicated cycleway"},"geometry":{"type":"MultiLineString","coordinates":[[[-0.7747047,51.406593],[-0.7746974,51.4066554],[-0.7746889,51.406728]]]}},
{"type":"Feature","properties":{"highway":"cycleway","name":"Lovelace Road","category":"Dedicated cycleway"},"geometry":{"type":"MultiLineString","coordinates":[[[-0.7745953,51.4074514],[-0.7745285,51.4083353]]]}},
{"type":"Feature","properties":{"highway":"cycleway","name":null,"category":"Dedicated cycleway"},"geometry":{"type":"MultiLineString","coordinates":[[[-0.7755613,51.4088709],[-0.7754537,51.4088671],[-0.7753316,51.4088627]]]}},
{"type":"Feature","properties":{"highway":"cycleway","name":"Peacock Lane","category":"Dedicated cycleway"},"geometry":{"type":"MultiLineString","coordinates":[[[-0.7767895,51.4088926],[-0.7767484,51.4088884],[-0.7767073,51.4088891],[-0.7764621,51.4089215],[-0.776392,51.4089056]]]}},
{"type":"Feature","properties":{"highway":"cycleway","name":null,"category":"Dedicated cycleway"},"geometry":{"type":"MultiLineString","coordinates":[[[-0.7742354,51.408341],[-0.7743189,51.4083446],[-0.7743611,51.4083464]]]}},
{"type":"Feature","properties":{"highway":"cycleway","name":null,"category":"Dedicated cycleway"},"geometry":{"type":"MultiLineString","coordinates":[[[-0.7763675,51.408952],[-0.7763506,51.4089833]]]}},
{"type":"Feature","properties":{"highway":"cycleway","name":null,"category":"Dedicated cycleway"},"geometry":{"type":"MultiLineString","coordinates":[[[-0.7750148,51.4087215],[-0.7750036,51.4087445],[-0.7749908,51.4087708]]]}},
{"type":"Feature","properties":{"highway":"cycleway","name":null,"category":"Dedicated cycleway"},"geometry":{"type":"MultiLineString","coordinates":[[[-0.7753316,51.4088627],[-0.7752172,51.4088542],[-0.7751001,51.4088506],[-0.7750527,51.4088556],[-0.7750026,51.4088655]]]}},
{"type":"Feature","properties":{"highway":"cycleway","name":null,"category":"Dedicated cycleway"},"geometry":{"type":"MultiLineString","coordinates":[[[-0.7755613,51.4088709],[-0.7756548,51.4088812],[-0.7758077,51.408898],[-0.775982,51.4089226],[-0.7763446,51.4089944]]]}},
{"type":"Feature","properties":{"highway":"cycleway","name":"Doncastle Road","category":"Dedicated cycleway"},"geometry":{"type":"MultiLineString","coordinates":[[[-0.7744434,51.409203],[-0.7744396,51.4092102],[-0.7744199,51.4092499],[-0.7744001,51.4093123],[-0.774388,51.409371],[-0.774344,51.40964],[-0.7741413,51.4109988]]]}},
{"type":"Feature","properties":{"highway":"cycleway","name":"Ellesfield Avenue","category":"Dedicated cycleway"},"geometry":{"type":"MultiLineString","coordinates":[[[-0.7728681,51.4086003],[-0.7735403,51.4086349],[-0.7735963,51.4086314]]]}},
{"type":"Feature","properties":{"highway":"cycleway","name":null,"category":"Dedicated cycleway"},"geometry":{"type":"MultiLineString","coordinates":[[[-0.7725618,51.4085876],[-0.7727176,51.408594],[-0.7728681,51.4086003]]]}},
{"type":"Feature","properties":{"highway":"cycleway","name":null,"category":"Dedicated cycleway"},"geometry":{"type":"MultiLineString","coordinates":[[[-0.7742519,51.4091854],[-0.7742171,51.4091843],[-0.7741564,51.4091823]]]}},
{"type":"Feature","properties":{"highway":"cycleway","name":"Peacock Roundabout","category":"Dedicated cycleway"},"geometry":{"type":"MultiLineString","coordinates":[[[-0.7740809,51.4091798],[-0.774009,51.409095],[-0.773781,51.408915],[-0.7735645,51.4088276]]]}},
{"type":"Feature","properties":{"highway":"cycleway","name":"Doncastle Road","category":"Dedicated cycleway"},"geometry":{"type":"MultiLineString","coordinates":[[[-0.7705144,51.4090196],[-0.7704619,51.4091022],[-0.7703559,51.4096641]]]}},
{"type":"Feature","properties":{"highway":"cycleway","name":null,"category":"Dedicated cycleway"},"geometry":{"type":"MultiLineString","coordinates":[[[-0.7702928,51.4081216],[-0.770353,51.4081281],[-0.7703973,51.4081328]]]}},
{"type":"Feature","properties":{"highway":"cycleway","name":"Doncastle Road","category":"Dedicated cycleway"},"geometry":{"type":"MultiLineString","coordinates":[[[-0.7736513,51.4116851],[-0.7737025,51.4116469],[-0.7737544,51.4115781],[-0.7737741,51.4115554],[-0.7738005,51.4115067],[-0.773824,51.4114564],[-0.7738386,51.4114297],[-0.7738548,51.4113888],[-0.7738627,51.4113435],[-0.7739011,51.4111639],[-0.7739933,51.4104767],[-0.7740621,51.4098017]]]}},
{"type":"Feature","properties":{"highway":"cycleway","name":null,"category":"Dedicated cycleway"},"geometry":{"type":"MultiLineString","coordinates":[[[-0.770348,51.4089828],[-0.7704094,51.4089964],[-0.770457,51.4090069]]]}},
{"type":"Feature","properties":{"highway":"cycleway","name":null,"category":"Dedicated cycleway"},"geometry":{"type":"MultiLineString","coordinates":[[[-0.7680133,51.4083652],[-0.7680587,51.4085476]]]}},
{"type":"Feature","properties":{"highway":"cycleway","name":"Crowthorne Road","category":"Dedicated cycleway"},"geometry":{"type":"MultiLineString","coordinates":[[[-0.763743,51.4040167],[-0.7636689,51.4039601]]]}},
{"type":"Feature","properties":{"highway":"cycleway","name":null,"category":"Dedicated cycleway"},"geometry":{"type":"MultiLineString","coordinates":[[[-0.7660264,51.4067892],[-0.7659423,51.406896],[-0.7659101,51.4070499],[-0.7658621,51.4071761],[-0.7658044,51.4072347]]]}},
{"type":"Feature","properties":{"highway":"cycleway","name":"Wildridings Road cycle track","category":"Dedicated cycleway"},"geometry":{"type":"MultiLineString","coordinates":[[[-0.7654231,51.4075048],[-0.765545,51.4073667],[-0.7656282,51.4073223]]]}},
{"type":"Feature","properties":{"highway":"cycleway","name":null,"category":"Dedicated cycleway"},"geometry":{"type":"MultiLineString","coordinates":[[[-0.7658044,51.4072347],[-0.7657546,51.4072628],[-0.7657204,51.4072974],[-0.7656282,51.4073223]]]}},
{"type":"Feature","properties":{"highway":"cycleway","name":"Wildridings Road cycle track","category":"Dedicated cycleway"},"geometry":{"type":"MultiLineString","coordinates":[[[-0.764996,51.4074394],[-0.7650927,51.407522],[-0.7651198,51.4075502],[-0.7651935,51.407627]]]}},
{"type":"Feature","properties":{"highway":"cycleway","name":"Ingleton","category":"Dedicated cycleway"},"geometry":{"type":"MultiLineString","coordinates":[[[-0.760713,51.4111299],[-0.7607255,51.4109948],[-0.7607277,51.4109706],[-0.7607789,51.4104192],[-0.7607855,51.4103488],[-0.7608029,51.4101612]]]}},
{"type":"Feature","properties":{"highway":"cycleway","name":"Wildridings Road","category":"Dedicated cycleway"},"geometry":{"type":"MultiLineString","coordinates":[[[-0.7607169,51.4121023],[-0.7607603,51.4119807],[-0.7609105,51.411963],[-0.7611305,51.4119082]]]}},
{"type":"Feature","properties":{"highway":"cycleway","name":null,"category":"Dedicated cycleway"},"geometry":{"type":"MultiLineString","coordinates":[[[-0.7584708,51.4041712],[-0.7584959,51.4042046],[-0.7585165,51.4042365]]]}},
{"type":"Feature","properties":{"highway":"cycleway","name":"Crowthorne Road","category":"Dedicated cycleway"},"geometry":{"type":"MultiLineString","coordinates":[[[-0.7580522,51.4038103],[-0.7582419,51.4040085],[-0.7584708,51.4041712]]]}},
{"type":"Feature","properties":{"highway":"cycleway","name":"Netherton","category":"Dedicated cycleway"},"geometry":{"type":"MultiLineString","coordinates":[[[-0.7607227,51.4074393],[-0.7607936,51.4074765],[-0.7608401,51.407549],[-0.7610137,51.4076435],[-0.7612952,51.4076685],[-0.7615302,51.4076614]]]}},
{"type":"Feature","properties":{"highway":"cycleway","name":"Keldholme","category":"Dedicated cycleway"},"geometry":{"type":"MultiLineString","coordinates":[[[-0.7605702,51.410073],[-0.7606519,51.4100525],[-0.760727,51.410027],[-0.7607965,51.4099891],[-0.7608784,51.4099342],[-0.7609357,51.4098873],[-0.7609994,51.4098033],[-0.7610314,51.4097305]]]}},
{"type":"Feature","properties":{"highway":"cycleway","name":null,"category":"Dedicated cycleway"},"geometry":{"type":"MultiLineString","coordinates":[[[-0.7587901,51.4051323],[-0.75877,51.4050907],[-0.7587497,51.4050488]]]}},
{"type":"Feature","properties":{"highway":"cycleway","name":"Crowthorne Road","category":"Dedicated cycleway"},"geometry":{"type":"MultiLineString","coordinates":[[[-0.7585165,51.4042365],[-0.7584413,51.404259],[-0.7584225,51.4043192],[-0.7584976,51.4045451],[-0.758511,51.4046288],[-0.7585593,51.4046706],[-0.7586156,51.4048681],[-0.7587497,51.4050488]]]}},
{"type":"Feature","properties":{"highway":"cycleway","name":null,"category":"Dedicated cycleway"},"geometry":{"type":"MultiLineString","coordinates":[[[-0.7605702,51.410073],[-0.760503,51.4100832],[-0.7603689,51.4100963],[-0.7602009,51.4101091],[-0.7598031,51.410115],[-0.7588371,51.410107],[-0.7587241,51.4101325],[-0.7584176,51.4102991]]]}},
{"type":"Feature","properties":{"highway":"cycleway","name":null,"category":"Dedicated cycleway"},"geometry":{"type":"MultiLineString","coordinates":[[[-0.759203,51.4058586],[-0.7591677,51.4058004],[-0.759136,51.4057481]]]}},
{"type":"Feature","properties":{"highway":"cycleway","name":null,"category":"Dedicated cycleway"},"geometry":{"type":"MultiLineString","coordinates":[[[-0.7605897,51.4073644],[-0.7606643,51.4074064],[-0.7607227,51.4074393]]]}},
{"type":"Feature","properties":{"highway":"cycleway","name":"Crowthorne Road","category":"Dedicated cycleway"},"geometry":{"type":"MultiLineString","coordinates":[[[-0.759136,51.4057481],[-0.7589921,51.4054799],[-0.758923,51.405376],[-0.7587901,51.4051323]]]}},
{"type":"Feature","properties":{"highway":"cycleway","name":"Ingleton","category":"Dedicated cycleway"},"geometry":{"type":"MultiLineString","coordinates":[[[-0.7604219,51.4113339],[-0.7605202,51.4113167],[-0.7605614,51.4112933],[-0.7606196,51.4112508],[-0.7606561,51.4112221],[-0.7606774,51.4111912],[-0.760713,51.4111299]]]}},
{"type":"Feature","properties":{"highway":"track","name":"Frog Lane","category":"Track"},"geometry":{"type":"MultiLineString","coordinates":[[[-0.7575689,51.4108267],[-0.7579337,51.4109471],[-0.7584728,51.4110509],[-0.7585241,51.4112283]]]}},
{"type":"Feature","properties":{"highway":"cycleway","name":"Doncastle Road","category":"Dedicated cycleway"},"geometry":{"type":"MultiLineString","coordinates":[[[-0.7701529,51.4120408],[-0.7701897,51.4120541],[-0.7702311,51.4120627],[-0.7702894,51.4120659],[-0.7704738,51.4120542],[-0.7707536,51.4120335]]]}},
{"type":"Feature","properties":{"highway":"cycleway","name":null,"category":"Dedicated cycleway"},"geometry":{"type":"MultiLineString","coordinates":[[[-0.7689566,51.4099474],[-0.7688484,51.4099437]]]}},
{"type":"Feature","properties":{"highway":"cycleway","name":null,"category":"Dedicated cycleway"},"geometry":{"type":"MultiLineString","coordinates":[[[-0.7697296,51.4098543],[-0.7696675,51.4098521]]]}},
{"type":"Feature","properties":{"highway":"cycleway","name":"Willoughby Road","category":"Dedicated cycleway"},"geometry":{"type":"MultiLineString","coordinates":[[[-0.7698565,51.4099927],[-0.7689566,51.4099474]]]}},
{"type":"Feature","properties":{"highway":"cycleway","name":null,"category":"Dedicated cycleway"},"geometry":{"type":"MultiLineString","coordinates":[[[-0.7698607,51.409957],[-0.769864,51.4099284],[-0.7698683,51.4098999]]]}},
{"type":"Feature","properties":{"highway":"cycleway","name":null,"category":"Dedicated cycleway"},"geometry":{"type":"MultiLineString","coordinates":[[[-0.7674413,51.4099506],[-0.7664644,51.4094983]]]}},
{"type":"Feature","properties":{"highway":"cycleway","name":"Willoughby Road","category":"Dedicated cycleway"},"geometry":{"type":"MultiLineString","coordinates":[[[-0.7698742,51.4098602],[-0.7697296,51.4098543]]]}},
{"type":"Feature","properties":{"highway":"cycleway","name":"Doncastle Road","category":"Dedicated cycleway"},"geometry":{"type":"MultiLineString","coordinates":[[[-0.7698742,51.4098602],[-0.7699198,51.4098621],[-0.7699693,51.4098576],[-0.7700167,51.4098472],[-0.7700405,51.4098394],[-0.7700642,51.4098248],[-0.7701045,51.4097847],[-0.7701155,51.4097616],[-0.7701286,51.409711],[-0.7701361,51.4096592],[-0.7701605,51.4094324],[-0.7701647,51.4090505],[-0.7701567,51.4089919]]]}},
{"type":"Feature","properties":{"highway":"cycleway","name":null,"category":"Dedicated cycleway"},"geometry":{"type":"MultiLineString","coordinates":[[[-0.7677708,51.4098348],[-0.7676905,51.4098523],[-0.7676115,51.4098696]]]}},
{"type":"Feature","properties":{"highway":"cycleway","name":"Willoughby Road","category":"Dedicated cycleway"},"geometry":{"type":"MultiLineString","coordinates":[[[-0.7685304,51.4097981],[-0.7680572,51.4097925],[-0.7678554,51.4098198],[-0.7677708,51.4098348]]]}},
{"type":"Feature","properties":{"highway":"cycleway","name":"Willoughby Road","category":"Dedicated cycleway"},"geometry":{"type":"MultiLineString","coordinates":[[[-0.7676115,51.4098696],[-0.7674413,51.4099506]]]}},
{"type":"Feature","properties":{"highway":"cycleway","name":null,"category":"Dedicated cycleway"},"geometry":{"type":"MultiLineString","coordinates":[[[-0.7703559,51.4096641],[-0.7703443,51.409713],[-0.7703378,51.4097708]]]}},
{"type":"Feature","properties":{"highway":"cycleway","name":"Doncastle Road","category":"Dedicated cycleway"},"geometry":{"type":"MultiLineString","coordinates":[[[-0.7701574,51.4112274],[-0.7701268,51.4113742],[-0.7700666,51.4119432]]]}},
{"type":"Feature","properties":{"highway":"cycleway","name":"Doncastle Road","category":"Dedicated cycleway"},"geometry":{"type":"MultiLineString","coordinates":[[[-0.7703378,51.4097708],[-0.7702443,51.410492],[-0.7701837,51.4110123]]]}},
{"type":"Feature","properties":{"highway":"cycleway","name":"Doncastle Road","category":"Dedicated cycleway"},"geometry":{"type":"MultiLineString","coordinates":[[[-0.7698967,51.4115424],[-0.769927,51.4113613],[-0.7700014,51.4107291]]]}},
{"type":"Feature","properties":{"highway":"cycleway","name":"Doncastle Road","category":"Dedicated cycleway"},"geometry":{"type":"MultiLineString","coordinates":[[[-0.7699989,51.4106645],[-0.7700137,51.4104763],[-0.7700537,51.4101607],[-0.7700574,51.4101197],[-0.770049,51.410066],[-0.7699972,51.410021],[-0.7699277,51.4100009],[-0.7698565,51.4099927]]]}},
{"type":"Feature","properties":{"highway":"cycleway","name":null,"category":"Dedicated cycleway"},"geometry":{"type":"MultiLineString","coordinates":[[[-0.7700014,51.4107291],[-0.77,51.4106936],[-0.7699989,51.4106645]]]}},
{"type":"Feature","properties":{"highway":"cycleway","name":"Oldbury","category":"Dedicated cycleway"},"geometry":{"type":"MultiLineString","coordinates":[[[-0.7696414,51.4122315],[-0.7694435,51.412245]]]}},
{"type":"Feature","properties":{"highway":"cycleway","name":null,"category":"Dedicated cycleway"},"geometry":{"type":"MultiLineString","coordinates":[[[-0.7699027,51.4122171],[-0.7697605,51.412225],[-0.7696414,51.4122315]]]}},
{"type":"Feature","properties":{"highway":"cycleway","name":null,"category":"Dedicated cycleway"},"geometry":{"type":"MultiLineString","coordinates":[[[-0.7700034,51.4119422],[-0.769956,51.4119415],[-0.7699015,51.41194]]]}},
{"type":"Feature","properties":{"highway":"cycleway","name":"Doncastle Road","category":"Dedicated cycleway"},"geometry":{"type":"MultiLineString","coordinates":[[[-0.7722985,51.4119298],[-0.7726675,51.4119211],[-0.7729282,51.4118997],[-0.7730962,51.411877],[-0.7732185,51.4118543],[-0.7733435,51.4118255],[-0.7734565,51.411786],[-0.7735336,51.4117566],[-0.773616,51.4117106],[-0.7736513,51.4116851]]]}},
{"type":"Feature","properties":{"highway":"cycleway","name":null,"category":"Dedicated cycleway"},"geometry":{"type":"MultiLineString","coordinates":[[[-0.7711666,51.4121473],[-0.7710248,51.4121551],[-0.7708737,51.4121634]]]}},
{"type":"Feature","properties":{"highway":"cycleway","name":"Doncastle Road","category":"Dedicated cycleway"},"geometry":{"type":"MultiLineString","coordinates":[[[-0.771603,51.4121233],[-0.7711666,51.4121473]]]}},
{"type":"Feature","properties":{"highway":"cycleway","name":"Oldbury","category":"Dedicated cycleway"},"geometry":{"type":"MultiLineString","coordinates":[[[-0.7690101,51.4121536],[-0.7693685,51.4121349],[-0.7695855,51.4121195],[-0.7696857,51.4121068],[-0.7697469,51.4120851],[-0.769777,51.4120643],[-0.7698032,51.4120459],[-0.76982,51.4120222],[-0.7698293,51.4119974],[-0.7698438,51.4119385]]]}},
{"type":"Feature","properties":{"highway":"cycleway","name":"Doncastle Road","category":"Dedicated cycleway"},"geometry":{"type":"MultiLineString","coordinates":[[[-0.7698438,51.4119385],[-0.7698727,51.4117161]]]}},
{"type":"Feature","properties":{"highway":"cycleway","name":"Doncastle Road","category":"Dedicated cycleway"},"geometry":{"type":"MultiLineString","coordinates":[[[-0.7710778,51.4120154],[-0.7719449,51.4119573]]]}},
{"type":"Feature","properties":{"highway":"cycleway","name":null,"category":"Dedicated cycleway"},"geometry":{"type":"MultiLineString","coordinates":[[[-0.771894,51.4121069],[-0.7717482,51.4121151],[-0.771603,51.4121233]]]}},
{"type":"Feature","properties":{"highway":"cycleway","name":"Doncastle Road","category":"Dedicated cycleway"},"geometry":{"type":"MultiLineString","coordinates":[[[-0.7708737,51.4121634],[-0.7704984,51.4121842],[-0.7699027,51.4122171]]]}},
{"type":"Feature","properties":{"highway":"cycleway","name":"Doncastle Road","category":"Dedicated cycleway"},"geometry":{"type":"MultiLineString","coordinates":[[[-0.773724,51.411942],[-0.7736878,51.4119372],[-0.7736039,51.4119337],[-0.7735614,51.4119358],[-0.7734792,51.4119503],[-0.7733142,51.4119949],[-0.7731426,51.4120256],[-0.7729755,51.4120378],[-0.7727817,51.4120506],[-0.7725258,51.4120678],[-0.7722061,51.4120846],[-0.771894,51.4121069]]]}},
{"type":"Feature","properties":{"highway":"cycleway","name":null,"category":"Dedicated cycleway"},"geometry":{"type":"MultiLineString","coordinates":[[[-0.7741413,51.4109988],[-0.7741331,51.4110731],[-0.7741169,51.4112195],[-0.7741102,51.4112804]]]}},
{"type":"Feature","properties":{"highway":"cycleway","name":"Doncastle Road","category":"Dedicated cycleway"},"geometry":{"type":"MultiLineString","coordinates":[[[-0.7741102,51.4112804],[-0.7741001,51.4113515],[-0.7740845,51.4114312],[-0.774051,51.4115063],[-0.7740149,51.4115792],[-0.7740036,51.4116302],[-0.7740005,51.411653],[-0.7740144,51.4117089],[-0.7740304,51.4117513]]]}},
{"type":"Feature","properties":{"highway":"cycleway","name":"Doncastle Road","category":"Dedicated cycleway"},"geometry":{"type":"MultiLineString","coordinates":[[[-0.7740842,51.4096639],[-0.7740913,51.4093102],[-0.7740926,51.4092371],[-0.7740809,51.4091798]]]}},
{"type":"Feature","properties":{"highway":"cycleway","name":null,"category":"Dedicated cycleway"},"geometry":{"type":"MultiLineString","coordinates":[[[-0.7750026,51.4088655],[-0.7749543,51.40888],[-0.7748951,51.4089067],[-0.7748128,51.4089425],[-0.7746728,51.4090293],[-0.7745502,51.4091052],[-0.7744434,51.409203]]]}},
{"type":"Feature","properties":{"highway":"cycleway","name":null,"category":"Dedicated cycleway"},"geometry":{"type":"MultiLineString","coordinates":[[[-0.7762739,51.4094518],[-0.7762145,51.40948],[-0.7761506,51.4095104]]]}},
{"type":"Feature","properties":{"highway":"cycleway","name":"Crutchley Wood cycle path","category":"Dedicated cycleway"},"geometry":{"type":"MultiLineString","coordinates":[[[-0.7761506,51.4095104],[-0.7761347,51.4095629],[-0.7760889,51.4096392],[-0.7760728,51.4097061],[-0.7760728,51.4097747],[-0.7761076,51.40986],[-0.7761589,51.4099209],[-0.7762257,51.4099838],[-0.7762498,51.4100156],[-0.7762739,51.4100608],[-0.7762713,51.4101243],[-0.7762474,51.4101685],[-0.7761963,51.4102382]]]}},
{"type":"Feature","properties":{"highway":"cycleway","name":"Butler Drive cycle path","category":"Dedicated cycleway"},"geometry":{"type":"MultiLineString","coordinates":[[[-0.7758248,51.4111128],[-0.7758929,51.4111451],[-0.7760594,51.4111803],[-0.776159,51.4111947],[-0.7767983,51.4113723]]]}},
{"type":"Feature","properties":{"highway":"cycleway","name":"Butler Drive cycle path","category":"Dedicated cycleway"},"geometry":{"type":"MultiLineString","coordinates":[[[-0.7761963,51.4102382],[-0.7761666,51.4102699],[-0.776124,51.410309],[-0.775856,51.4106911],[-0.7757544,51.4108793],[-0.775737,51.4109759],[-0.7757516,51.4110204]]]}},
{"type":"Feature","properties":{"highway":"cycleway","name":null,"category":"Dedicated cycleway"},"geometry":{"type":"MultiLineString","coordinates":[[[-0.7757516,51.4110204],[-0.7757962,51.4110781],[-0.7758248,51.4111128]]]}},
{"type":"Feature","properties":{"highway":"cycleway","name":null,"category":"Dedicated cycleway"},"geometry":{"type":"MultiLineString","coordinates":[[[-0.7793665,51.4089449],[-0.7793153,51.4089398],[-0.7792646,51.4089348]]]}},
{"type":"Feature","properties":{"highway":"cycleway","name":null,"category":"Dedicated cycleway"},"geometry":{"type":"MultiLineString","coordinates":[[[-0.7777133,51.4091267],[-0.777665,51.4091149],[-0.7775837,51.4090949]]]}},
{"type":"Feature","properties":{"highway":"cycleway","name":null,"category":"Dedicated cycleway"},"geometry":{"type":"MultiLineString","coordinates":[[[-0.777902,51.4086688],[-0.7778355,51.4086821],[-0.7777894,51.408714]]]}},
{"type":"Feature","properties":{"highway":"cycleway","name":"Harrier Way","category":"Dedicated cycleway"},"geometry":{"type":"MultiLineString","coordinates":[[[-0.7788784,51.4087491],[-0.7787228,51.4086989],[-0.7786289,51.4086889],[-0.7784894,51.4086872]]]}},
{"type":"Feature","properties":{"highway":"cycleway","name":"Harrier Way","category":"Dedicated cycleway"},"geometry":{"type":"MultiLineString","coordinates":[[[-0.7802034,51.4088729],[-0.7791332,51.4087909],[-0.7789991,51.4087776]]]}},
{"type":"Feature","properties":{"highway":"cycleway","name":"Peacock Lane","category":"Dedicated cycleway"},"geometry":{"type":"MultiLineString","coordinates":[[[-0.7773855,51.409045],[-0.7771093,51.4089744]]]}},
{"type":"Feature","properties":{"highway":"cycleway","name":null,"category":"Dedicated cycleway"},"geometry":{"type":"MultiLineString","coordinates":[[[-0.7789991,51.4087776],[-0.7789455,51.4087645],[-0.7788784,51.4087491]]]}},
{"type":"Feature","properties":{"highway":"cycleway","name":"Harrier Way","category":"Dedicated cycleway"},"geometry":{"type":"MultiLineString","coordinates":[[[-0.7792646,51.4089348],[-0.7791063,51.4089281]]]}},
{"type":"Feature","properties":{"highway":"cycleway","name":null,"category":"Dedicated cycleway"},"geometry":{"type":"MultiLineString","coordinates":[[[-0.7791132,51.4088929],[-0.7791186,51.4088652],[-0.7791237,51.4088396]]]}},
{"type":"Feature","properties":{"highway":"cycleway","name":"Peacock Lane","category":"Dedicated cycleway"},"geometry":{"type":"MultiLineString","coordinates":[[[-0.7775837,51.4090949],[-0.7775404,51.4090842],[-0.7774986,51.4090739]]]}},
{"type":"Feature","properties":{"highway":"cycleway","name":"Peacock Lane","category":"Dedicated cycleway"},"geometry":{"type":"MultiLineString","coordinates":[[[-0.7780541,51.4092233],[-0.7779307,51.409187],[-0.7778911,51.4091753],[-0.7777133,51.4091267]]]}},
{"type":"Feature","properties":{"highway":"cycleway","name":"Harrier Way","category":"Dedicated cycleway"},"geometry":{"type":"MultiLineString","coordinates":[[[-0.7777894,51.408714],[-0.7775404,51.4090842]]]}},
{"type":"Feature","properties":{"highway":"cycleway","name":null,"category":"Dedicated cycleway"},"geometry":{"type":"MultiLineString","coordinates":[[[-0.7784894,51.4086872],[-0.7784549,51.4086915],[-0.7783687,51.4086956]]]}},
{"type":"Feature","properties":{"highway":"cycleway","name":"Harrier Way","category":"Dedicated cycleway"},"geometry":{"type":"MultiLineString","coordinates":[[[-0.7783687,51.4086956],[-0.7781408,51.4086872],[-0.7779691,51.4086638],[-0.777902,51.4086688]]]}},
{"type":"Feature","properties":{"highway":"cycleway","name":null,"category":"Dedicated cycleway"},"geometry":{"type":"MultiLineString","coordinates":[[[-0.7777492,51.4082336],[-0.7776926,51.4082862],[-0.7775051,51.4083256]]]}},
{"type":"Feature","properties":{"highway":"cycleway","name":"Pond Moor Road","category":"Dedicated cycleway"},"geometry":{"type":"MultiLineString","coordinates":[[[-0.7536203,51.4035653],[-0.7537156,51.4035294],[-0.7540171,51.4035079],[-0.7542814,51.4035283],[-0.7544635,51.4035632],[-0.7546428,51.4035977],[-0.7548735,51.4036778],[-0.7552286,51.4038567]]]}},
{"type":"Feature","properties":{"highway":"cycleway","name":null,"category":"Dedicated cycleway"},"geometry":{"type":"MultiLineString","coordinates":[[[-0.7686299,51.4098027],[-0.7685304,51.4097981]]]}},
{"type":"Feature","properties":{"highway":"cycleway","name":"Pond Moor Road","category":"Dedicated cycleway"},"geometry":{"type":"MultiLineString","coordinates":[[[-0.7553405,51.4039134],[-0.7556358,51.4040593]]]}},
{"type":"Feature","properties":{"highway":"cycleway","name":null,"category":"Dedicated cycleway"},"geometry":{"type":"MultiLineString","coordinates":[[[-0.7552286,51.4038567],[-0.755296,51.4038847],[-0.7553405,51.4039134]]]}},
{"type":"Feature","properties":{"highway":"cycleway","name":null,"category":"Dedicated cycleway"},"geometry":{"type":"MultiLineString","coordinates":[[[-0.754449,51.405474],[-0.7545626,51.4054313],[-0.7546196,51.4054075]]]}},
{"type":"Feature","properties":{"highway":"cycleway","name":"Rectory Lane","category":"Dedicated cycleway"},"geometry":{"type":"MultiLineString","coordinates":[[[-0.7552863,51.4048292],[-0.7553055,51.4047837],[-0.7553408,51.4046227],[-0.7554487,51.4043247],[-0.7555437,51.4042546]]]}},
{"type":"Feature","properties":{"highway":"cycleway","name":"Rectory Lane","category":"Dedicated cycleway"},"geometry":{"type":"MultiLineString","coordinates":[[[-0.7546196,51.4054075],[-0.7547444,51.4053605],[-0.7547777,51.4053452],[-0.7549378,51.405272],[-0.7550524,51.4051985],[-0.7551494,51.4051101],[-0.755232,51.4049721],[-0.7552579,51.4049288]]]}},
{"type":"Feature","properties":{"highway":"cycleway","name":null,"category":"Dedicated cycleway"},"geometry":{"type":"MultiLineString","coordinates":[[[-0.7552579,51.4049288],[-0.7552745,51.4048706],[-0.7552863,51.4048292]]]}},
{"type":"Feature","properties":{"highway":"cycleway","name":null,"category":"Dedicated cycleway"},"geometry":{"type":"MultiLineString","coordinates":[[[-0.7726577,51.4042893],[-0.7726843,51.404324],[-0.7727242,51.4043988],[-0.7728739,51.4047679],[-0.7728335,51.4048008],[-0.7727537,51.4048502],[-0.7727128,51.404909],[-0.7735494,51.4054584],[-0.773655,51.4055348],[-0.7737056,51.4055783]]]}},
{"type":"Feature","properties":{"highway":"cycleway","name":null,"category":"Dedicated cycleway"},"geometry":{"type":"MultiLineString","coordinates":[[[-0.7605179,51.4073192],[-0.7604759,51.407344]]]}},
{"type":"Feature","properties":{"highway":"cycleway","name":null,"category":"Dedicated cycleway"},"geometry":{"type":"MultiLineString","coordinates":[[[-0.7591654,51.4068288],[-0.7592049,51.4067917]]]}},
{"type":"Feature","properties":{"highway":"cycleway","name":"Ringmead","category":"Dedicated cycleway"},"geometry":{"type":"MultiLineString","coordinates":[[[-0.7672715,51.4022328],[-0.7672371,51.402229],[-0.7671859,51.4022237],[-0.7670186,51.4022065],[-0.7668526,51.4021921],[-0.7667811,51.4021966],[-0.7666985,51.4022054],[-0.7664932,51.402249],[-0.7662822,51.4022981],[-0.7659889,51.402394],[-0.7658205,51.402463],[-0.7657332,51.4025067],[-0.76568,51.4025478],[-0.765651,51.402594],[-0.7656438,51.4026947],[-0.7656554,51.4027864],[-0.7656672,51.4028441],[-0.7656767,51.4028681],[-0.7657007,51.4028869],[-0.7657589,51.4029121],[-0.7658118,51.4029351],[-0.7659546,51.4029941],[-0.766004,51.4030291],[-0.7660177,51.4030568],[-0.7660159,51.4030736],[-0.7660047,51.403112]]]}},
{"type":"Feature","properties":{"highway":"cycleway","name":"Twin Bridges Roundabout","category":"Dedicated cycleway"},"geometry":{"type":"MultiLineString","coordinates":[[[-0.7609511,51.4129578],[-0.7609212,51.4130444],[-0.7608138,51.4132298]]]}},
{"type":"Feature","properties":{"highway":"cycleway","name":"Ellesfield Avenue","category":"Dedicated cycleway"},"geometry":{"type":"MultiLineString","coordinates":[[[-0.7688727,51.4081377],[-0.7689264,51.4082014],[-0.7689588,51.4082221],[-0.7690211,51.4082618],[-0.7691472,51.4083233],[-0.769376,51.4083919],[-0.7696112,51.4084257],[-0.7696911,51.4084259],[-0.7698044,51.408383],[-0.7702039,51.4082278],[-0.7702928,51.4081216],[-0.7702543,51.4081159]]]}},
{"type":"Feature","properties":{"highway":"cycleway","name":"Southern Business Area","category":"Dedicated cycleway"},"geometry":{"type":"MultiLineString","coordinates":[[[-0.7680587,51.4085476],[-0.7679777,51.408581],[-0.7674958,51.4088115],[-0.7672518,51.4089608],[-0.7667343,51.4092946],[-0.7665541,51.4094266],[-0.7664644,51.4094983],[-0.7663376,51.4095914],[-0.7660272,51.409859],[-0.7656888,51.4101533],[-0.7653096,51.4104533],[-0.7650068,51.4106336],[-0.7647726,51.4107663],[-0.7644418,51.4109178],[-0.763862,51.4111685],[-0.7635357,51.4113163],[-0.7631841,51.4115059],[-0.7630626,51.4115854],[-0.7629296,51.411682],[-0.7627071,51.4118676],[-0.7625227,51.4120435],[-0.7623278,51.4122803],[-0.7622031,51.4124636],[-0.7620872,51.4126811],[-0.7620413,51.4128655],[-0.7620156,51.4129225],[-0.7619538,51.4129543],[-0.7618768,51.4129676],[-0.7618034,51.4129646]]]}},
{"type":"Feature","properties":{"highway":"cycleway","name":null,"category":"Dedicated cycleway"},"geometry":{"type":"MultiLineString","coordinates":[[[-0.7588357,51.4032372],[-0.7587929,51.4031288]]]}},
{"type":"Feature","properties":{"highway":"cycleway","name":null,"category":"Dedicated cycleway"},"geometry":{"type":"MultiLineString","coordinates":[[[-0.7587929,51.4031288],[-0.7587285,51.4029444],[-0.7586979,51.4028529],[-0.7587126,51.4028033],[-0.7589701,51.4024906],[-0.7591342,51.4022913],[-0.7593517,51.4020659],[-0.7594362,51.4019234],[-0.7596024,51.4015822],[-0.759735,51.4012261],[-0.7597747,51.4011193]]]}},
{"type":"Feature","properties":{"highway":"cycleway","name":"Hubberholme","category":"Dedicated cycleway"},"geometry":{"type":"MultiLineString","coordinates":[[[-0.7608705,51.4118117],[-0.7607772,51.4117273],[-0.7607721,51.4115938]]]}},
{"type":"Feature","properties":{"highway":"cycleway","name":"Wildridings Road cycle path","category":"Dedicated cycleway"},"geometry":{"type":"MultiLineString","coordinates":[[[-0.7610431,51.4118137],[-0.7608705,51.4118117]]]}},
{"type":"Feature","properties":{"highway":"cycleway","name":null,"category":"Dedicated cycleway"},"geometry":{"type":"MultiLineString","coordinates":[[[-0.7611305,51.4119082],[-0.7610917,51.4118663],[-0.7610431,51.4118137]]]}},
{"type":"Feature","properties":{"highway":"cycleway","name":"Crowthorne Road","category":"Dedicated cycleway"},"geometry":{"type":"MultiLineString","coordinates":[[[-0.7592049,51.4067917],[-0.7591896,51.406752],[-0.7592325,51.4066951],[-0.7593425,51.406563],[-0.7593988,51.4064676],[-0.7594203,51.4063572],[-0.7593894,51.4062296],[-0.7593061,51.4060335],[-0.759203,51.4058586]]]}},
{"type":"Feature","properties":{"highway":"cycleway","name":"Crowthorne Road","category":"Dedicated cycleway"},"geometry":{"type":"MultiLineString","coordinates":[[[-0.7636689,51.4039601],[-0.7632367,51.4036893],[-0.7631793,51.4036462],[-0.7631674,51.403612],[-0.7631763,51.4035863],[-0.763229,51.4035408]]]}},
{"type":"Feature","properties":{"highway":"cycleway","name":"Arncliffe","category":"Dedicated cycleway"},"geometry":{"type":"MultiLineString","coordinates":[[[-0.7611499,51.4044464],[-0.7611423,51.4044141],[-0.7611188,51.4042677],[-0.761109,51.4041801],[-0.7611143,51.404137],[-0.7611624,51.4040829],[-0.7613728,51.4040107],[-0.7615103,51.4039671],[-0.7616846,51.4039339],[-0.7618765,51.4038984],[-0.7622558,51.4038437],[-0.7624065,51.4038229],[-0.7626915,51.4037853],[-0.7628399,51.4037676],[-0.7629568,51.4037657],[-0.7630537,51.403771],[-0.7631002,51.4037839],[-0.7632004,51.4038075],[-0.7633413,51.4038601],[-0.7634818,51.4039312],[-0.7636117,51.4039917],[-0.7636678,51.4040185],[-0.7636957,51.404021],[-0.763743,51.4040167]]]}},
{"type":"Feature","properties":{"highway":"cycleway","name":"Arncliffe","category":"Dedicated cycleway"},"geometry":{"type":"MultiLineString","coordinates":[[[-0.7616214,51.4051847],[-0.7615557,51.4051609],[-0.7614942,51.4051228],[-0.7613642,51.4049915],[-0.7612716,51.4048707],[-0.761214,51.4047099],[-0.7611684,51.4045498],[-0.7611499,51.4044464]]]}},
{"type":"Feature","properties":{"highway":"cycleway","name":"Cross Fell","category":"Dedicated cycleway"},"geometry":{"type":"MultiLineString","coordinates":[[[-0.7624515,51.4070164],[-0.7623421,51.4069257],[-0.7623096,51.4068575],[-0.7621428,51.4064542],[-0.7621075,51.4063482]]]}},
{"type":"Feature","properties":{"highway":"cycleway","name":"Deepdale","category":"Dedicated cycleway"},"geometry":{"type":"MultiLineString","coordinates":[[[-0.7615689,51.4076241],[-0.761755,51.407496],[-0.761948,51.4073631],[-0.762305,51.4071173],[-0.7624515,51.4070164]]]}},
{"type":"Feature","properties":{"highway":"cycleway","name":null,"category":"Dedicated cycleway"},"geometry":{"type":"MultiLineString","coordinates":[[[-0.7621075,51.4063482],[-0.7621499,51.4061851],[-0.7622003,51.4060617],[-0.7622135,51.4059856],[-0.7621867,51.4059014],[-0.7621745,51.4058629],[-0.7621294,51.4057213],[-0.7620039,51.4054749],[-0.7619198,51.4054065],[-0.7617022,51.4052321],[-0.7616214,51.4051847]]]}},
{"type":"Feature","properties":{"highway":"cycleway","name":"Ennerdale","category":"Dedicated cycleway"},"geometry":{"type":"MultiLineString","coordinates":[[[-0.7611966,51.4088725],[-0.7612211,51.408804],[-0.7613198,51.4084081],[-0.7614121,51.4080536],[-0.7614174,51.4080292],[-0.7614945,51.407788],[-0.7615302,51.4076614],[-0.7615478,51.4076444],[-0.7615689,51.4076241]]]}},
{"type":"Feature","properties":{"highway":"cycleway","name":null,"category":"Dedicated cycleway"},"geometry":{"type":"MultiLineString","coordinates":[[[-0.7744006,51.4083459],[-0.7744473,51.408342],[-0.7744939,51.4083382]]]}},
{"type":"Feature","properties":{"highway":"cycleway","name":null,"category":"Dedicated cycleway"},"geometry":{"type":"MultiLineString","coordinates":[[[-0.7749818,51.4087974],[-0.7749867,51.4088136],[-0.774997,51.408847]]]}},
{"type":"Feature","properties":{"highway":"cycleway","name":null,"category":"Dedicated cycleway"},"geometry":{"type":"MultiLineString","coordinates":[[[-0.7672252,51.4078283],[-0.7678671,51.408083],[-0.7679358,51.4081202],[-0.767968,51.408182],[-0.7679834,51.4082454],[-0.7680133,51.4083652]]]}},
{"type":"Feature","properties":{"highway":"cycleway","name":"Rosedale Gardens","category":"Dedicated cycleway"},"geometry":{"type":"MultiLineString","coordinates":[[[-0.7580522,51.4038103],[-0.7581016,51.4037894],[-0.7581858,51.4037533],[-0.7583436,51.4036044],[-0.7584382,51.4034775],[-0.7585629,51.4034532],[-0.7586538,51.4034455],[-0.7587387,51.40342],[-0.7587952,51.4033851],[-0.7588209,51.4033538],[-0.7588429,51.403318],[-0.7588484,51.4032664],[-0.7588357,51.4032372]]]}},
{"type":"Feature","properties":{"highway":"cycleway","name":"Rectory Lane","category":"Dedicated cycleway"},"geometry":{"type":"MultiLineString","coordinates":[[[-0.7537899,51.4058124],[-0.7539636,51.405692],[-0.7540465,51.4056416],[-0.7543088,51.4055224],[-0.754449,51.405474]]]}},
{"type":"Feature","properties":{"highway":"cycleway","name":"Rectory Lane","category":"Dedicated cycleway"},"geometry":{"type":"MultiLineString","coordinates":[[[-0.7555437,51.4042546],[-0.7556668,51.4041118],[-0.7556721,51.4041018],[-0.7556695,51.4040887],[-0.7556534,51.4040717],[-0.7556358,51.4040593]]]}},
{"type":"Feature","properties":{"highway":"cycleway","name":null,"category":"Dedicated cycleway"},"geometry":{"type":"MultiLineString","coordinates":[[[-0.7791063,51.4089281],[-0.7791132,51.4088929]]]}},
{"type":"Feature","properties":{"highway":"cycleway","name":null,"category":"Dedicated cycleway"},"geometry":{"type":"MultiLineString","coordinates":[[[-0.7791237,51.4088396],[-0.7791332,51.4087909]]]}},
{"type":"Feature","properties":{"highway":"cycleway","name":"Peacock Lane","category":"Dedicated cycleway"},"geometry":{"type":"MultiLineString","coordinates":[[[-0.7791538,51.4095334],[-0.7788013,51.409434],[-0.7780541,51.4092233]]]}},
{"type":"Feature","properties":{"highway":"cycleway","name":"Peacock Lane","category":"Dedicated cycleway"},"geometry":{"type":"MultiLineString","coordinates":[[[-0.7769673,51.4089381],[-0.7767895,51.4088926]]]}},
{"type":"Feature","properties":{"highway":"cycleway","name":"Peacock Lane","category":"Dedicated cycleway"},"geometry":{"type":"MultiLineString","coordinates":[[[-0.7771093,51.4089744],[-0.7770373,51.408956],[-0.7769673,51.4089381]]]}},
{"type":"Feature","properties":{"highway":"cycleway","name":"Peacock Lane","category":"Dedicated cycleway"},"geometry":{"type":"MultiLineString","coordinates":[[[-0.7774986,51.4090739],[-0.7773855,51.409045]]]}},
{"type":"Feature","properties":{"highway":"cycleway","name":"Crutchley Wood","category":"Dedicated cycleway"},"geometry":{"type":"MultiLineString","coordinates":[[[-0.7765908,51.409365],[-0.7765046,51.4093932],[-0.7763893,51.4094183],[-0.7763305,51.4094257],[-0.7762739,51.4094518]]]}},
{"type":"Feature","properties":{"highway":"cycleway","name":null,"category":"Dedicated cycleway"},"geometry":{"type":"MultiLineString","coordinates":[[[-0.7763506,51.4089833],[-0.7763446,51.4089944]]]}},
{"type":"Feature","properties":{"highway":"cycleway","name":null,"category":"Dedicated cycleway"},"geometry":{"type":"MultiLineString","coordinates":[[[-0.776392,51.4089056],[-0.776383,51.4089227]]]}},
{"type":"Feature","properties":{"highway":"cycleway","name":null,"category":"Dedicated cycleway"},"geometry":{"type":"MultiLineString","coordinates":[[[-0.776383,51.4089227],[-0.7763675,51.408952]]]}},
{"type":"Feature","properties":{"highway":"cycleway","name":null,"category":"Dedicated cycleway"},"geometry":{"type":"MultiLineString","coordinates":[[[-0.7749908,51.4087708],[-0.7749818,51.4087974]]]}},
{"type":"Feature","properties":{"highway":"cycleway","name":null,"category":"Dedicated cycleway"},"geometry":{"type":"MultiLineString","coordinates":[[[-0.7750213,51.4087081],[-0.7750148,51.4087215]]]}},
{"type":"Feature","properties":{"highway":"cycleway","name":null,"category":"Dedicated cycleway"},"geometry":{"type":"MultiLineString","coordinates":[[[-0.774997,51.408847],[-0.7750026,51.4088655]]]}},
{"type":"Feature","properties":{"highway":"cycleway","name":null,"category":"Dedicated cycleway"},"geometry":{"type":"MultiLineString","coordinates":[[[-0.7736466,51.4058031],[-0.7736385,51.4057928]]]}},
{"type":"Feature","properties":{"highway":"cycleway","name":null,"category":"Dedicated cycleway"},"geometry":{"type":"MultiLineString","coordinates":[[[-0.7737044,51.4058764],[-0.7736954,51.405865]]]}},
{"type":"Feature","properties":{"highway":"cycleway","name":null,"category":"Dedicated cycleway"},"geometry":{"type":"MultiLineString","coordinates":[[[-0.7746113,51.4061545],[-0.7746183,51.4061707]]]}},
{"type":"Feature","properties":{"highway":"cycleway","name":null,"category":"Dedicated cycleway"},"geometry":{"type":"MultiLineString","coordinates":[[[-0.7741667,51.4083332],[-0.7742354,51.408341]]]}},
{"type":"Feature","properties":{"highway":"cycleway","name":null,"category":"Dedicated cycleway"},"geometry":{"type":"MultiLineString","coordinates":[[[-0.7744939,51.4083382],[-0.7745285,51.4083353]]]}},
{"type":"Feature","properties":{"highway":"cycleway","name":null,"category":"Dedicated cycleway"},"geometry":{"type":"MultiLineString","coordinates":[[[-0.7743611,51.4083464],[-0.7743833,51.4083461],[-0.7744006,51.4083459]]]}},
{"type":"Feature","properties":{"highway":"cycleway","name":null,"category":"Dedicated cycleway"},"geometry":{"type":"MultiLineString","coordinates":[[[-0.7705425,51.4081484],[-0.7706004,51.4081533]]]}},
{"type":"Feature","properties":{"highway":"cycleway","name":null,"category":"Dedicated cycleway"},"geometry":{"type":"MultiLineString","coordinates":[[[-0.7704364,51.408137],[-0.7704914,51.4081429],[-0.7705425,51.4081484]]]}},
{"type":"Feature","properties":{"highway":"cycleway","name":null,"category":"Dedicated cycleway"},"geometry":{"type":"MultiLineString","coordinates":[[[-0.7703973,51.4081328],[-0.7704364,51.408137]]]}},
{"type":"Feature","properties":{"highway":"cycleway","name":null,"category":"Dedicated cycleway"},"geometry":{"type":"MultiLineString","coordinates":[[[-0.7701567,51.4089919],[-0.7702075,51.4089883]]]}},
{"type":"Feature","properties":{"highway":"cycleway","name":null,"category":"Dedicated cycleway"},"geometry":{"type":"MultiLineString","coordinates":[[[-0.7702075,51.4089883],[-0.7702465,51.4089855],[-0.7703046,51.4089813]]]}},
{"type":"Feature","properties":{"highway":"cycleway","name":null,"category":"Dedicated cycleway"},"geometry":{"type":"MultiLineString","coordinates":[[[-0.7703046,51.4089813],[-0.770348,51.4089828]]]}},
{"type":"Feature","properties":{"highway":"cycleway","name":null,"category":"Dedicated cycleway"},"geometry":{"type":"MultiLineString","coordinates":[[[-0.770457,51.4090069],[-0.7705144,51.4090196]]]}},
{"type":"Feature","properties":{"highway":"cycleway","name":null,"category":"Dedicated cycleway"},"geometry":{"type":"MultiLineString","coordinates":[[[-0.7698565,51.4099927],[-0.7698607,51.409957]]]}},
{"type":"Feature","properties":{"highway":"cycleway","name":null,"category":"Dedicated cycleway"},"geometry":{"type":"MultiLineString","coordinates":[[[-0.7698683,51.4098999],[-0.7698742,51.4098602]]]}},
{"type":"Feature","properties":{"highway":"cycleway","name":"Doncastle Road","category":"Dedicated cycleway"},"geometry":{"type":"MultiLineString","coordinates":[[[-0.7700666,51.4119432],[-0.7700755,51.4119773],[-0.7701103,51.4120137],[-0.7701316,51.412029],[-0.7701529,51.4120408]]]}},
{"type":"Feature","properties":{"highway":"cycleway","name":null,"category":"Dedicated cycleway"},"geometry":{"type":"MultiLineString","coordinates":[[[-0.7699015,51.41194],[-0.7698438,51.4119385]]]}},
{"type":"Feature","properties":{"highway":"cycleway","name":null,"category":"Dedicated cycleway"},"geometry":{"type":"MultiLineString","coordinates":[[[-0.7700666,51.4119432],[-0.7700034,51.4119422]]]}},
{"type":"Feature","properties":{"highway":"cycleway","name":null,"category":"Dedicated cycleway"},"geometry":{"type":"MultiLineString","coordinates":[[[-0.7744156,51.4092004],[-0.7743324,51.4091928],[-0.7743089,51.4091906]]]}},
{"type":"Feature","properties":{"highway":"cycleway","name":null,"category":"Dedicated cycleway"},"geometry":{"type":"MultiLineString","coordinates":[[[-0.7743089,51.4091906],[-0.7742519,51.4091854]]]}},
{"type":"Feature","properties":{"highway":"cycleway","name":null,"category":"Dedicated cycleway"},"geometry":{"type":"MultiLineString","coordinates":[[[-0.7741564,51.4091823],[-0.7740809,51.4091798]]]}},
{"type":"Feature","properties":{"highway":"cycleway","name":null,"category":"Dedicated cycleway"},"geometry":{"type":"MultiLineString","coordinates":[[[-0.7744434,51.409203],[-0.7744156,51.4092004]]]}},
{"type":"Feature","properties":{"highway":"cycleway","name":null,"category":"Dedicated cycleway"},"geometry":{"type":"MultiLineString","coordinates":[[[-0.7740304,51.4117513],[-0.7741094,51.4118813]]]}},
{"type":"Feature","properties":{"highway":"cycleway","name":null,"category":"Dedicated cycleway"},"geometry":{"type":"MultiLineString","coordinates":[[[-0.7738941,51.411993],[-0.7738213,51.4119682],[-0.773724,51.411942]]]}},
{"type":"Feature","properties":{"highway":"cycleway","name":null,"category":"Dedicated cycleway"},"geometry":{"type":"MultiLineString","coordinates":[[[-0.7765908,51.409365],[-0.7767059,51.4093182],[-0.7768024,51.4091744],[-0.7767365,51.4091012],[-0.7763446,51.4089944]]]}},
{"type":"Feature","properties":{"highway":"path","name":null,"category":"Shared path"},"geometry":{"type":"MultiLineString","coordinates":[[[-0.7763553,51.412132],[-0.7761901,51.4120977],[-0.7760553,51.4121207],[-0.7759941,51.4121696],[-0.775923,51.4122262],[-0.7757563,51.4122629],[-0.7755038,51.4123087],[-0.77532,51.4123622],[-0.7751926,51.4123943],[-0.775038,51.412395]]]}},
{"type":"Feature","properties":{"highway":"path","name":null,"category":"Shared path"},"geometry":{"type":"MultiLineString","coordinates":[[[-0.7561122,51.4079163],[-0.7562302,51.4080769],[-0.756186,51.4080886],[-0.756245,51.408143]]]}}
]
}
