{
"type": "FeatureCollection",
"name": "DARTF_4_walking",
"crs": { "type": "name", "properties": { "name": "urn:ogc:def:crs:OGC:1.3:CRS84" } },
"features": [
{"type":"Feature","properties":{"highway":"footway","name":null,"category":"Footpath (pedestrian only)"},"geometry":{"type":"MultiLineString","coordinates":[[[0.2763246,51.4405067],[0.2763696,51.4404367],[0.2763993,51.4403864],[0.276426,51.4403318],[0.2764381,51.4402873],[0.2764347,51.4402417],[0.2764149,51.4401947],[0.2763743,51.4401513],[0.2763122,51.4401176],[0.2762466,51.4401008],[0.2761613,51.440089],[0.2760579,51.4400684],[0.2759442,51.4400395],[0.2757944,51.439996],[0.2756307,51.4399338],[0.2754879,51.4398698],[0.2753434,51.4397927],[0.2752645,51.4397438],[0.2751669,51.4396729],[0.2750799,51.4395995],[0.2749673,51.4394935],[0.2748918,51.4394048],[0.2748431,51.439339],[0.2748111,51.4392843],[0.2747595,51.4391971],[0.2747448,51.4391409],[0.2747219,51.4390928],[0.2746718,51.4390107],[0.2746238,51.4389672],[0.2745823,51.4389465],[0.2745402,51.4389321],[0.2744546,51.4389133],[0.27435,51.4389014]]]}},
{"type":"Feature","properties":{"highway":"path","name":null,"category":"Shared path"},"geometry":{"type":"MultiLineString","coordinates":[[[0.2683686,51.4399902],[0.2683601,51.4400107],[0.2682812,51.4400277],[0.2682393,51.4400408],[0.2681706,51.4400259]]]}},
{"type":"Feature","properties":{"highway":"path","name":null,"category":"Shared path"},"geometry":{"type":"MultiLineString","coordinates":[[[0.2686562,51.4399582],[0.2683686,51.4399902]]]}},
{"type":"Feature","properties":{"highway":"path","name":null,"category":"Shared path"},"geometry":{"type":"MultiLineString","coordinates":[[[0.2687225,51.4399514],[0.2686691,51.4399569],[0.2686562,51.4399582]]]}},
{"type":"Feature","properties":{"highway":"path","name":null,"category":"Shared path"},"geometry":{"type":"MultiLineString","coordinates":[[[0.2659383,51.4408971],[0.2659763,51.4408415],[0.2660134,51.4407901],[0.266923,51.4404672],[0.2681059,51.4400566],[0.2681706,51.4400259]]]}},
{"type":"Feature","properties":{"highway":"path","name":null,"category":"Shared path"},"geometry":{"type":"MultiLineString","coordinates":[[[0.2683686,51.4399902],[0.2683524,51.4399861],[0.2683203,51.4399779],[0.2682632,51.4399789],[0.2682008,51.4399943],[0.2681706,51.4400259]]]}},
{"type":"Feature","properties":{"highway":"footway","name":null,"category":"Footpath (pedestrian only)"},"geometry":{"type":"MultiLineString","coordinates":[[[0.2785119,51.44137],[0.2784854,51.441371],[0.2784398,51.4413726],[0.2784053,51.4413734],[0.2782687,51.4413738],[0.2782331,51.4413733],[0.2782309,51.4413733],[0.2782287,51.4413736],[0.2782274,51.4413741],[0.278226,51.4413754],[0.2782251,51.4413767],[0.2782246,51.4413782],[0.2782242,51.441381],[0.2782223,51.4413982],[0.2782215,51.4414069],[0.2782212,51.4414127],[0.278221,51.4414213],[0.2782223,51.4414636],[0.2782309,51.4414923],[0.2782604,51.4415203],[0.2783239,51.4415634],[0.2785143,51.4416934],[0.2788996,51.4418621]]]}},
{"type":"Feature","properties":{"highway":"footway","name":null,"category":"Footpath (pedestrian only)"},"geometry":{"type":"MultiLineString","coordinates":[[[0.2747219,51.4390928],[0.2745949,51.4391052],[0.2745576,51.4391063],[0.2744275,51.4391012],[0.2743157,51.4391075],[0.2741267,51.4390949],[0.2740407,51.4390809],[0.2738476,51.4390496]]]}},
{"type":"Feature","properties":{"highway":"footway","name":null,"category":"Footpath (pedestrian only)"},"geometry":{"type":"MultiLineString","coordinates":[[[0.2745462,51.4394584],[0.2744975,51.4394204],[0.2744741,51.4393944],[0.2744761,51.4393342],[0.2745574,51.4392252],[0.2745849,51.4391796],[0.274595,51.4391391],[0.2745949,51.4391052]]]}},
{"type":"Feature","properties":{"highway":"footway","name":null,"category":"Footpath (pedestrian only)"},"geometry":{"type":"MultiLineString","coordinates":[[[0.2750143,51.4397294],[0.2750431,51.4397306],[0.2750697,51.4397376],[0.2750907,51.4397493],[0.2751045,51.4397646],[0.2751098,51.4397819],[0.2751058,51.4397993],[0.2750931,51.439815],[0.2750731,51.4398273],[0.2750477,51.4398349],[0.2750197,51.4398371],[0.2749921,51.4398336],[0.2749678,51.4398247],[0.274949,51.439811],[0.2749384,51.4397943],[0.2749372,51.4397763],[0.2749456,51.439759],[0.2749626,51.4397445],[0.2749864,51.4397342],[0.2750143,51.4397294]]]}},
{"type":"Feature","properties":{"highway":"footway","name":null,"category":"Footpath (pedestrian only)"},"geometry":{"type":"MultiLineString","coordinates":[[[0.2747675,51.4399702],[0.2749489,51.439839],[0.2749678,51.4398247]]]}},
{"type":"Feature","properties":{"highway":"path","name":null,"category":"Shared path"},"geometry":{"type":"MultiLineString","coordinates":[[[0.2670376,51.4415841],[0.2670526,51.4415328],[0.2670635,51.4414958]]]}},
{"type":"Feature","properties":{"highway":"path","name":null,"category":"Shared path"},"geometry":{"type":"MultiLineString","coordinates":[[[0.268331,51.4402558],[0.2683765,51.4402137],[0.2683985,51.4401558],[0.2683997,51.4401391],[0.2684035,51.4400885],[0.2683601,51.4400107]]]}},
{"type":"Feature","properties":{"highway":"path","name":null,"category":"Shared path"},"geometry":{"type":"MultiLineString","coordinates":[[[0.2683297,51.440144],[0.2683478,51.4401453],[0.2683698,51.4401453],[0.2683997,51.4401391]]]}},
{"type":"Feature","properties":{"highway":"path","name":null,"category":"Shared path"},"geometry":{"type":"MultiLineString","coordinates":[[[0.2683997,51.4401391],[0.2684424,51.4401158],[0.2684626,51.4400959],[0.2684626,51.4400727],[0.2684204,51.4399528],[0.2683917,51.4399118],[0.2683546,51.4398865],[0.2682905,51.4398739],[0.2682634,51.4398665],[0.2682556,51.4398605],[0.2682196,51.4398328],[0.2681487,51.4397655],[0.2681267,51.4397203],[0.2681301,51.4396572],[0.268147,51.4396161],[0.2681841,51.4396098],[0.2682111,51.4395709],[0.2682567,51.4395509],[0.2683343,51.4395477],[0.2684035,51.4395593],[0.2684862,51.4395825]]]}},
{"type":"Feature","properties":{"highway":"path","name":null,"category":"Shared path"},"geometry":{"type":"MultiLineString","coordinates":[[[0.2682008,51.4399943],[0.2682196,51.4399391],[0.2682273,51.4399223],[0.2682556,51.4398605]]]}},
{"type":"Feature","properties":{"highway":"path","name":null,"category":"Shared path"},"geometry":{"type":"MultiLineString","coordinates":[[[0.2681209,51.4398999],[0.2681841,51.4399096],[0.2682273,51.4399223],[0.2682888,51.4399496],[0.2683203,51.4399779]]]}},
{"type":"Feature","properties":{"highway":"path","name":null,"category":"Shared path"},"geometry":{"type":"MultiLineString","coordinates":[[[0.2682634,51.4398665],[0.2683073,51.4399149],[0.2683377,51.4399549],[0.2683524,51.4399861]]]}},
{"type":"Feature","properties":{"highway":"path","name":null,"category":"Shared path"},"geometry":{"type":"MultiLineString","coordinates":[[[0.2683601,51.4400107],[0.2683394,51.4400464],[0.2683191,51.4400769],[0.2683009,51.4401111]]]}},
{"type":"Feature","properties":{"highway":"path","name":null,"category":"Shared path"},"geometry":{"type":"MultiLineString","coordinates":[[[0.2766635,51.4403316],[0.2767209,51.4403408],[0.276741,51.4403441],[0.2768778,51.4403758],[0.276969,51.4404109],[0.2769994,51.4404463],[0.2770086,51.440457]]]}},
{"type":"Feature","properties":{"highway":"footway","name":null,"category":"Footpath (pedestrian only)"},"geometry":{"type":"MultiLineString","coordinates":[[[0.2737019,51.4394058],[0.2737409,51.4393933],[0.2738234,51.4394323],[0.2739287,51.439482],[0.2739458,51.4395464],[0.2739609,51.4395801],[0.273978,51.4396038],[0.2740463,51.4396316],[0.2740804,51.4396422],[0.274124,51.4396706],[0.2741696,51.439706],[0.2742312,51.4397581],[0.274289,51.4397959],[0.274344,51.4398367],[0.2743943,51.4398586],[0.2744749,51.4398863],[0.2745422,51.4398958],[0.274584,51.4398982]]]}},
{"type":"Feature","properties":{"highway":"footway","name":null,"category":"Footpath (pedestrian only)"},"geometry":{"type":"MultiLineString","coordinates":[[[0.2738234,51.4394323],[0.2738684,51.4393853],[0.2739242,51.4393148],[0.2739625,51.439267],[0.2739896,51.4392114],[0.2740119,51.4391418],[0.2740407,51.4390809]]]}},
{"type":"Feature","properties":{"highway":"footway","name":null,"category":"Footpath (pedestrian only)"},"geometry":{"type":"MultiLineString","coordinates":[[[0.2750791,51.4411402],[0.2751089,51.4411093],[0.2751531,51.4410788],[0.2752186,51.4410478],[0.2752705,51.4410215]]]}},
{"type":"Feature","properties":{"highway":"footway","name":null,"category":"Footpath (pedestrian only)"},"geometry":{"type":"MultiLineString","coordinates":[[[0.2778825,51.4411225],[0.2778336,51.4410777],[0.2777377,51.441022],[0.2776149,51.4409597],[0.2775312,51.4408572],[0.277488,51.4407961],[0.277458,51.4407399],[0.2774479,51.4406533]]]}},
{"type":"Feature","properties":{"highway":"footway","name":null,"category":"Footpath (pedestrian only)"},"geometry":{"type":"MultiLineString","coordinates":[[[0.2774479,51.4406533],[0.2773535,51.440651],[0.2773269,51.4406489],[0.2772742,51.4406452]]]}},
{"type":"Feature","properties":{"highway":"footway","name":null,"category":"Footpath (pedestrian only)"},"geometry":{"type":"MultiLineString","coordinates":[[[0.2772742,51.4406452],[0.2773339,51.4404673]]]}},
{"type":"Feature","properties":{"highway":"footway","name":null,"category":"Footpath (pedestrian only)"},"geometry":{"type":"MultiLineString","coordinates":[[[0.2773339,51.4404673],[0.2772675,51.4404519],[0.2772006,51.4404476]]]}},
{"type":"Feature","properties":{"highway":"footway","name":null,"category":"Footpath (pedestrian only)"},"geometry":{"type":"MultiLineString","coordinates":[[[0.2765232,51.4406377],[0.2764791,51.4406248],[0.2764286,51.44061]]]}},
{"type":"Feature","properties":{"highway":"footway","name":null,"category":"Footpath (pedestrian only)"},"geometry":{"type":"MultiLineString","coordinates":[[[0.2764286,51.44061],[0.2764115,51.440605],[0.2764567,51.4405405],[0.2764423,51.4405366]]]}},
{"type":"Feature","properties":{"highway":"footway","name":null,"category":"Footpath (pedestrian only)"},"geometry":{"type":"MultiLineString","coordinates":[[[0.2764423,51.4405366],[0.276392,51.4405236],[0.2763508,51.4405133]]]}},
{"type":"Feature","properties":{"highway":"footway","name":null,"category":"Footpath (pedestrian only)"},"geometry":{"type":"MultiLineString","coordinates":[[[0.2757556,51.4407415],[0.2758047,51.4407109],[0.2758591,51.4406745]]]}},
{"type":"Feature","properties":{"highway":"footway","name":null,"category":"Footpath (pedestrian only)"},"geometry":{"type":"MultiLineString","coordinates":[[[0.2746486,51.4388679],[0.2746567,51.4388423],[0.2746647,51.4388167]]]}},
{"type":"Feature","properties":{"highway":"footway","name":null,"category":"Footpath (pedestrian only)"},"geometry":{"type":"MultiLineString","coordinates":[[[0.2746647,51.4388167],[0.2747243,51.4386984],[0.2747936,51.4386018],[0.2748112,51.4385772],[0.2749254,51.4384571],[0.2751383,51.4382333],[0.2752415,51.4381248],[0.2752926,51.4380735],[0.2752793,51.438066]]]}},
{"type":"Feature","properties":{"highway":"footway","name":null,"category":"Footpath (pedestrian only)"},"geometry":{"type":"MultiLineString","coordinates":[[[0.2754119,51.4380628],[0.275444,51.4380763],[0.2754748,51.4380867]]]}},
{"type":"Feature","properties":{"highway":"footway","name":null,"category":"Footpath (pedestrian only)"},"geometry":{"type":"MultiLineString","coordinates":[[[0.2758004,51.4381052],[0.2757502,51.4381155],[0.2756906,51.4381199]]]}},
{"type":"Feature","properties":{"highway":"footway","name":null,"category":"Footpath (pedestrian only)"},"geometry":{"type":"MultiLineString","coordinates":[[[0.2748157,51.4387225],[0.2748428,51.4387294],[0.2757764,51.4391186]]]}},
{"type":"Feature","properties":{"highway":"footway","name":null,"category":"Footpath (pedestrian only)"},"geometry":{"type":"MultiLineString","coordinates":[[[0.2751669,51.4396729],[0.2750697,51.4397376]]]}},
{"type":"Feature","properties":{"highway":"footway","name":null,"category":"Footpath (pedestrian only)"},"geometry":{"type":"MultiLineString","coordinates":[[[0.2758591,51.4406745],[0.2758691,51.4406662],[0.2759732,51.4406943],[0.2760684,51.4406961],[0.2761439,51.4406828],[0.2761996,51.4406589],[0.2762356,51.4406328],[0.2763246,51.4405067]]]}},
{"type":"Feature","properties":{"highway":"footway","name":null,"category":"Footpath (pedestrian only)"},"geometry":{"type":"MultiLineString","coordinates":[[[0.2676455,51.4417202],[0.2676585,51.4417014],[0.2677057,51.4416707],[0.2677663,51.4416647],[0.2678088,51.4416472]]]}},
{"type":"Feature","properties":{"highway":"footway","name":null,"category":"Footpath (pedestrian only)"},"geometry":{"type":"MultiLineString","coordinates":[[[0.2679548,51.4410904],[0.2678186,51.4412101],[0.2678094,51.4415404],[0.2677801,51.44156]]]}},
{"type":"Feature","properties":{"highway":"path","name":null,"category":"Shared path"},"geometry":{"type":"MultiLineString","coordinates":[[[0.2677801,51.44156],[0.2677632,51.4415843],[0.2677057,51.4416707]]]}},
{"type":"Feature","properties":{"highway":"footway","name":null,"category":"Footpath (pedestrian only)"},"geometry":{"type":"MultiLineString","coordinates":[[[0.2745101,51.4409781],[0.2746216,51.4409607]]]}},
{"type":"Feature","properties":{"highway":"footway","name":null,"category":"Footpath (pedestrian only)"},"geometry":{"type":"MultiLineString","coordinates":[[[0.271428,51.4413594],[0.2714187,51.4413338]]]}},
{"type":"Feature","properties":{"highway":"footway","name":null,"category":"Footpath (pedestrian only)"},"geometry":{"type":"MultiLineString","coordinates":[[[0.2714353,51.4413795],[0.271428,51.4413594]]]}},
{"type":"Feature","properties":{"highway":"footway","name":null,"category":"Footpath (pedestrian only)"},"geometry":{"type":"MultiLineString","coordinates":[[[0.2763508,51.4405133],[0.2763246,51.4405067]]]}},
{"type":"Feature","properties":{"highway":"footway","name":null,"category":"Footpath (pedestrian only)"},"geometry":{"type":"MultiLineString","coordinates":[[[0.2755377,51.4396451],[0.2754482,51.4397201]]]}},
{"type":"Feature","properties":{"highway":"footway","name":null,"category":"Footpath (pedestrian only)"},"geometry":{"type":"MultiLineString","coordinates":[[[0.2754482,51.4397201],[0.275397,51.4397551],[0.2753434,51.4397927]]]}},
{"type":"Feature","properties":{"highway":"footway","name":null,"category":"Footpath (pedestrian only)"},"geometry":{"type":"MultiLineString","coordinates":[[[0.2746416,51.4388972],[0.2746486,51.4388679]]]}},
{"type":"Feature","properties":{"highway":"footway","name":null,"category":"Footpath (pedestrian only)"},"geometry":{"type":"MultiLineString","coordinates":[[[0.2746258,51.4389511],[0.2746337,51.4389241],[0.2746416,51.4388972]]]}},
{"type":"Feature","properties":{"highway":"footway","name":null,"category":"Footpath (pedestrian only)"},"geometry":{"type":"MultiLineString","coordinates":[[[0.2746238,51.4389672],[0.2746258,51.4389511]]]}},
{"type":"Feature","properties":{"highway":"footway","name":null,"category":"Footpath (pedestrian only)"},"geometry":{"type":"MultiLineString","coordinates":[[[0.2756906,51.4381199],[0.2754748,51.4380867]]]}},
{"type":"Feature","properties":{"highway":"footway","name":null,"category":"Footpath (pedestrian only)"},"geometry":{"type":"MultiLineString","coordinates":[[[0.2768514,51.4379669],[0.2758004,51.4381052]]]}},
{"type":"Feature","properties":{"highway":"footway","name":null,"category":"Footpath (pedestrian only)"},"geometry":{"type":"MultiLineString","coordinates":[[[0.2758515,51.4391499],[0.2758681,51.4391567],[0.2766163,51.4394626]]]}},
{"type":"Feature","properties":{"highway":"footway","name":null,"category":"Footpath (pedestrian only)"},"geometry":{"type":"MultiLineString","coordinates":[[[0.2757764,51.4391186],[0.2758151,51.4391348],[0.2758515,51.4391499]]]}},
{"type":"Feature","properties":{"highway":"footway","name":null,"category":"Footpath (pedestrian only)"},"geometry":{"type":"MultiLineString","coordinates":[[[0.2747243,51.4386984],[0.2747863,51.438715],[0.2748157,51.4387225]]]}},
{"type":"Feature","properties":{"highway":"path","name":null,"category":"Shared path"},"geometry":{"type":"MultiLineString","coordinates":[[[0.2662961,51.4413161],[0.2661831,51.4413165],[0.266117,51.4413257],[0.266044,51.4413462],[0.265969,51.4413725]]]}},
{"type":"Feature","properties":{"highway":"footway","name":null,"category":"Footpath (pedestrian only)"},"geometry":{"type":"MultiLineString","coordinates":[[[0.2664184,51.4412459],[0.266391,51.4412663]]]}},
{"type":"Feature","properties":{"highway":"footway","name":null,"category":"Footpath (pedestrian only)"},"geometry":{"type":"MultiLineString","coordinates":[[[0.2784988,51.4412861],[0.2784985,51.441285],[0.2784978,51.4412838],[0.278497,51.441283],[0.2784953,51.4412822],[0.2784932,51.4412817],[0.2784887,51.4412815],[0.2784827,51.4412817],[0.2784709,51.4412824],[0.2784404,51.4412849],[0.277983,51.4412852]]]}},
{"type":"Feature","properties":{"highway":"footway","name":null,"category":"Footpath (pedestrian only)"},"geometry":{"type":"MultiLineString","coordinates":[[[0.277983,51.4412852],[0.2779493,51.4411884],[0.2779204,51.441125],[0.2778825,51.4411225]]]}},
{"type":"Feature","properties":{"highway":"footway","name":null,"category":"Footpath (pedestrian only)"},"geometry":{"type":"MultiLineString","coordinates":[[[0.2722874,51.4363719],[0.2722779,51.4364594],[0.2722779,51.4364647],[0.2722786,51.4364695],[0.2722808,51.4364757],[0.2722843,51.4364815],[0.2723027,51.4365075],[0.2723048,51.4365119],[0.272307,51.4365173],[0.2723077,51.4365221],[0.2723063,51.4365354]]]}},
{"type":"Feature","properties":{"highway":"footway","name":null,"category":"Footpath (pedestrian only)"},"geometry":{"type":"MultiLineString","coordinates":[[[0.2700764,51.4399646],[0.2698119,51.4398533]]]}},
{"type":"Feature","properties":{"highway":"footway","name":null,"category":"Footpath (pedestrian only)"},"geometry":{"type":"MultiLineString","coordinates":[[[0.2698119,51.4398533],[0.2694632,51.4401834],[0.2693456,51.4402001]]]}},
{"type":"Feature","properties":{"highway":"footway","name":null,"category":"Footpath (pedestrian only)"},"geometry":{"type":"MultiLineString","coordinates":[[[0.2706538,51.440169],[0.2709208,51.4401323]]]}},
{"type":"Feature","properties":{"highway":"footway","name":null,"category":"Footpath (pedestrian only)"},"geometry":{"type":"MultiLineString","coordinates":[[[0.2686691,51.4399569],[0.2686764,51.439984],[0.2687762,51.440023],[0.2688355,51.4401982],[0.2686144,51.4403942],[0.2685525,51.4404153],[0.268439,51.4405804],[0.2684135,51.4406296],[0.2684091,51.4406779],[0.2683613,51.4407302]]]}},
{"type":"Feature","properties":{"highway":"footway","name":null,"category":"Footpath (pedestrian only)"},"geometry":{"type":"MultiLineString","coordinates":[[[0.2678094,51.4415404],[0.2679104,51.4415598],[0.2680017,51.4415907],[0.2680382,51.4416248],[0.2680761,51.4416429]]]}},
{"type":"Feature","properties":{"highway":"footway","name":null,"category":"Footpath (pedestrian only)"},"geometry":{"type":"MultiLineString","coordinates":[[[0.2680017,51.4415907],[0.2680891,51.4415651],[0.2681604,51.4415487]]]}},
{"type":"Feature","properties":{"highway":"footway","name":null,"category":"Footpath (pedestrian only)"},"geometry":{"type":"MultiLineString","coordinates":[[[0.2780528,51.4428032],[0.2780186,51.44275],[0.2779988,51.4427232],[0.277987,51.4427106],[0.2779825,51.4427069],[0.2779751,51.4427029],[0.2779667,51.4426992],[0.2779603,51.442697],[0.2779494,51.4426949],[0.2779395,51.4426933],[0.2779077,51.4426537],[0.2778639,51.4425991],[0.2778589,51.4425947],[0.2778421,51.4425824],[0.2778377,51.4425797],[0.2778342,51.4425766],[0.277811,51.4425511],[0.2777438,51.4424774],[0.2777126,51.442442],[0.2777116,51.4424389],[0.2777116,51.4424349],[0.2777151,51.4424288],[0.2777246,51.4424167],[0.2777271,51.4424145],[0.2777302,51.4424123],[0.2777349,51.4424103],[0.2777589,51.4424022]]]}},
{"type":"Feature","properties":{"highway":"footway","name":null,"category":"Footpath (pedestrian only)"},"geometry":{"type":"MultiLineString","coordinates":[[[0.2762234,51.4374097],[0.2762617,51.4374482],[0.2762635,51.4374492],[0.2762668,51.43745],[0.2762693,51.4374498],[0.2762903,51.4374433],[0.2763049,51.4374382],[0.2763274,51.4374299],[0.2763888,51.4374079],[0.2764603,51.4373816],[0.2764878,51.4373716],[0.2765084,51.437364],[0.2765402,51.4373515],[0.276631,51.4373156],[0.2766418,51.4373122],[0.2766448,51.4373118],[0.2766494,51.4373116],[0.2766538,51.4373126],[0.2766578,51.4373148],[0.2766603,51.4373172],[0.2766642,51.4373223],[0.2766855,51.4373723],[0.276687,51.4373764],[0.2766872,51.4373784],[0.276687,51.4373803],[0.2766852,51.4373827],[0.2766829,51.4373846],[0.2766789,51.4373866],[0.2766759,51.4373876],[0.2766448,51.4373928],[0.2766376,51.4373935],[0.2764952,51.4374026],[0.2764783,51.4374053],[0.2764653,51.4374083],[0.2764546,51.4374111],[0.2764411,51.437415],[0.2764087,51.4374249],[0.2764039,51.4374263],[0.276393,51.4374295],[0.2763833,51.4374321],[0.2763712,51.4374355],[0.2763628,51.4374379],[0.276326,51.4374484],[0.2762651,51.4374667],[0.2762412,51.4374738],[0.2761948,51.4374876],[0.27618,51.4374919],[0.2761074,51.4375117],[0.2760538,51.4375257],[0.2760516,51.4375263],[0.2760229,51.4375336],[0.2759665,51.4375473],[0.2759552,51.4375499],[0.2759247,51.4375569],[0.2758961,51.4375631],[0.2758493,51.4375728],[0.2758166,51.4375793],[0.2757833,51.4375853],[0.275764,51.4375887],[0.2757408,51.4375928],[0.2757152,51.4375969],[0.2756751,51.4376028],[0.2756439,51.4376074],[0.2755601,51.4376188],[0.275525,51.4376233],[0.2754946,51.4376265],[0.2754748,51.4376284],[0.2754516,51.4376304],[0.2754051,51.4376342],[0.2753708,51.4376367],[0.2753449,51.4376381],[0.2752629,51.4376416],[0.2751952,51.4376437],[0.2751623,51.4376453],[0.2751405,51.4376473],[0.2751218,51.4376499],[0.2751087,51.4376524],[0.2750941,51.4376557],[0.275077,51.4376606],[0.2750653,51.437664],[0.2750512,51.4376691],[0.2750422,51.4376731],[0.2750291,51.4376795],[0.2750125,51.4376892],[0.2749964,51.4376998],[0.2749874,51.4377064],[0.2749801,51.4377132],[0.2749535,51.4377397],[0.2749389,51.4377746],[0.2749372,51.4377795],[0.2749363,51.437785],[0.2749355,51.4377923],[0.2749357,51.4378017],[0.2749366,51.437811],[0.2749386,51.4378221],[0.2749397,51.4378263],[0.2749421,51.4378332],[0.2749461,51.4378425],[0.2749504,51.4378502],[0.2749633,51.4378692],[0.2749698,51.4378773],[0.2749814,51.4378915],[0.2749911,51.4379013],[0.274999,51.4379086],[0.2750109,51.4379182],[0.2750203,51.4379253],[0.2750326,51.437933],[0.2750692,51.4379514],[0.2751426,51.4379878],[0.2751732,51.4380029],[0.2751939,51.438014],[0.275235,51.438047],[0.2752793,51.438066]]]}},
{"type":"Feature","properties":{"highway":"footway","name":null,"category":"Footpath (pedestrian only)"},"geometry":{"type":"MultiLineString","coordinates":[[[0.2754119,51.4380628],[0.2752926,51.4380735]]]}},
{"type":"Feature","properties":{"highway":"footway","name":null,"category":"Footpath (pedestrian only)"},"geometry":{"type":"MultiLineString","coordinates":[[[0.2755972,51.4379148],[0.2756012,51.4379255],[0.2754809,51.437979],[0.2754529,51.4380226],[0.2754119,51.4380628]]]}},
{"type":"Feature","properties":{"highway":"footway","name":null,"category":"Footpath (pedestrian only)"},"geometry":{"type":"MultiLineString","coordinates":[[[0.2750139,51.4381871],[0.2751383,51.4382333]]]}},
{"type":"Feature","properties":{"highway":"footway","name":null,"category":"Footpath (pedestrian only)"},"geometry":{"type":"MultiLineString","coordinates":[[[0.2747815,51.4384052],[0.2749254,51.4384571]]]}},
{"type":"Feature","properties":{"highway":"footway","name":null,"category":"Footpath (pedestrian only)"},"geometry":{"type":"MultiLineString","coordinates":[[[0.2746331,51.4385477],[0.2747936,51.4386018]]]}},
{"type":"Feature","properties":{"highway":"pedestrian","name":"Rose Gallery","category":"Pedestrian area/street"},"geometry":{"type":"MultiLineString","coordinates":[[[0.2729686,51.4384572],[0.2725639,51.4388648],[0.2718996,51.4395196],[0.2715609,51.4398433]]]}},
{"type":"Feature","properties":{"highway":"pedestrian","name":"Guildhall","category":"Pedestrian area/street"},"geometry":{"type":"MultiLineString","coordinates":[[[0.2712499,51.4398314],[0.2707327,51.4396146],[0.2699356,51.4392803],[0.2697597,51.4392066],[0.2690474,51.4389399]]]}},
{"type":"Feature","properties":{"highway":"pedestrian","name":"Thames Walk","category":"Pedestrian area/street"},"geometry":{"type":"MultiLineString","coordinates":[[[0.2689944,51.4388099],[0.2690688,51.4386808],[0.2695081,51.4384404],[0.2697016,51.4383715],[0.2700339,51.4382531],[0.2707788,51.4380905],[0.2711389,51.4380591],[0.2718685,51.4380591],[0.2720758,51.4380841],[0.27248,51.4381327],[0.2728233,51.4382063],[0.2729578,51.4382521]]]}},
{"type":"Feature","properties":{"highway":"pedestrian","name":"West Village","category":"Pedestrian area/street"},"geometry":{"type":"MultiLineString","coordinates":[[[0.2692694,51.4397103],[0.2697597,51.4392066]]]}},
{"type":"Feature","properties":{"highway":"pedestrian","name":"The Plaza","category":"Pedestrian area/street"},"geometry":{"type":"MultiLineString","coordinates":[[[0.2707788,51.4380905],[0.2707632,51.4376037],[0.2708127,51.437295]]]}},
{"type":"Feature","properties":{"highway":"pedestrian","name":null,"category":"Pedestrian area/street"},"geometry":{"type":"MultiLineString","coordinates":[[[0.2702432,51.4370537],[0.2704203,51.4374176],[0.2707632,51.4376037]]]}},
{"type":"Feature","properties":{"highway":"pedestrian","name":null,"category":"Pedestrian area/street"},"geometry":{"type":"MultiLineString","coordinates":[[[0.2720758,51.4380841],[0.2721908,51.437475]]]}},
{"type":"Feature","properties":{"highway":"pedestrian","name":"Winter Garden","category":"Pedestrian area/street"},"geometry":{"type":"MultiLineString","coordinates":[[[0.2737121,51.439002],[0.2734968,51.4393731],[0.2733962,51.4393698],[0.2729931,51.439055],[0.2729349,51.4390095]]]}},
{"type":"Feature","properties":{"highway":"pedestrian","name":"Winter Garden","category":"Pedestrian area/street"},"geometry":{"type":"MultiLineString","coordinates":[[[0.2738476,51.4390496],[0.2737121,51.439002],[0.2735384,51.4389409],[0.2732514,51.438946],[0.2729349,51.4390095],[0.272816,51.4389631],[0.2725639,51.4388648]]]}},
{"type":"Feature","properties":{"highway":"pedestrian","name":null,"category":"Pedestrian area/street"},"geometry":{"type":"MultiLineString","coordinates":[[[0.2724922,51.439761],[0.2718996,51.4395196]]]}},
{"type":"Feature","properties":{"highway":"pedestrian","name":null,"category":"Pedestrian area/street"},"geometry":{"type":"MultiLineString","coordinates":[[[0.2728267,51.4392158],[0.2729931,51.439055]]]}},
{"type":"Feature","properties":{"highway":"pedestrian","name":"Winter Garden","category":"Pedestrian area/street"},"geometry":{"type":"MultiLineString","coordinates":[[[0.2733962,51.4393698],[0.2737547,51.4396293]]]}},
{"type":"Feature","properties":{"highway":"pedestrian","name":"Star Court","category":"Pedestrian area/street"},"geometry":{"type":"MultiLineString","coordinates":[[[0.2690578,51.4388426],[0.2690742,51.4388664],[0.269078,51.4388923],[0.2690688,51.4389176],[0.2690474,51.4389399],[0.269016,51.4389569],[0.2689776,51.438967],[0.2689361,51.4389692],[0.2688956,51.4389633],[0.2688567,51.4389481],[0.2688285,51.4389255],[0.2688143,51.4388983],[0.2688159,51.4388697],[0.268833,51.4388432],[0.2688636,51.4388218],[0.268904,51.4388083],[0.2689494,51.4388041],[0.2689944,51.4388099],[0.2690302,51.4388231],[0.2690578,51.4388426]]]}},
{"type":"Feature","properties":{"highway":"pedestrian","name":null,"category":"Pedestrian area/street"},"geometry":{"type":"MultiLineString","coordinates":[[[0.2691927,51.437869],[0.2697016,51.4383715]]]}},
{"type":"Feature","properties":{"highway":"pedestrian","name":"Moon Court","category":"Pedestrian area/street"},"geometry":{"type":"MultiLineString","coordinates":[[[0.2729578,51.4382521],[0.2730152,51.4382475],[0.2730718,51.4382551],[0.273121,51.4382741],[0.2731572,51.4383022],[0.2731762,51.4383363],[0.2731759,51.4383724],[0.2731561,51.4384063],[0.2731219,51.4384328],[0.2730759,51.4384512],[0.273023,51.4384596],[0.2729686,51.4384572],[0.2729182,51.4384441],[0.2728769,51.4384218],[0.2728491,51.4383925],[0.2728376,51.4383593],[0.2728435,51.4383254],[0.2728662,51.4382945],[0.2729061,51.4382684],[0.2729578,51.4382521]]]}},
{"type":"Feature","properties":{"highway":"pedestrian","name":"Sun Court","category":"Pedestrian area/street"},"geometry":{"type":"MultiLineString","coordinates":[[[0.2713306,51.4397862],[0.2713838,51.4397775],[0.2714386,51.4397796],[0.2714897,51.4397923],[0.2715318,51.4398142],[0.2715609,51.4398433],[0.271574,51.4398766],[0.2715697,51.4399107],[0.2715486,51.4399423],[0.2715089,51.4399702],[0.2714564,51.439988],[0.2713973,51.4399937],[0.2713387,51.4399866],[0.2712873,51.4399676],[0.2712494,51.4399388],[0.2712293,51.4399037],[0.2712295,51.4398664],[0.2712499,51.4398314],[0.2712844,51.4398048],[0.2713306,51.4397862]]]}},
{"type":"Feature","properties":{"highway":"pedestrian","name":null,"category":"Pedestrian area/street"},"geometry":{"type":"MultiLineString","coordinates":[[[0.2703019,51.4400516],[0.2707327,51.4396146]]]}},
{"type":"Feature","properties":{"highway":"pedestrian","name":null,"category":"Pedestrian area/street"},"geometry":{"type":"MultiLineString","coordinates":[[[0.2699356,51.4392803],[0.2697482,51.4394794]]]}}
]
}
