{
"type": "FeatureCollection",
"name": "SEVEN_77",
"crs": { "type": "name", "properties": { "name": "urn:ogc:def:crs:OGC:1.3:CRS84" } },
"features": [
{ "type": "Feature", "properties": { "osm_id": 738036596, "name": null, "amenity": "bench", "man_made": null, "leisure": null, "playground": null, "memorial": null }, "geometry": { "type": "Point", "coordinates": [ 0.2293542, 51.3058626 ] } },
{ "type": "Feature", "properties": { "osm_id": 1624230476, "name": null, "amenity": "bench", "man_made": null, "leisure": null, "playground": null, "memorial": null }, "geometry": { "type": "Point", "coordinates": [ 0.2292684, 51.3058735 ] } }
]
}
