{
"type": "FeatureCollection",
"name": "MIDS5_65_cycling",
"crs": { "type": "name", "properties": { "name": "urn:ogc:def:crs:OGC:1.3:CRS84" } },
"features": [
{"type":"Feature","properties":{"highway":"bridleway","name":null,"category":"Bridleway"},"geometry":{"type":"MultiLineString","coordinates":[[[-0.1198028,51.0223562],[-0.118696,51.0221275],[-0.1184369,51.0220784],[-0.1181174,51.0220414],[-0.117738,51.0220106],[-0.1168451,51.0219878],[-0.1163602,51.02201],[-0.1158095,51.0220561],[-0.1148162,51.0221453],[-0.1143968,51.0221837],[-0.1143157,51.0221911],[-0.114068,51.0221992]]]}},
{"type":"Feature","properties":{"highway":"track","name":null,"category":"Track"},"geometry":{"type":"MultiLineString","coordinates":[[[-0.1195649,51.0212691],[-0.1194309,51.0208968],[-0.1193179,51.0204774],[-0.1192628,51.0202012],[-0.1191355,51.0200675],[-0.1187113,51.0198875],[-0.118142,51.0196167],[-0.1170518,51.0188371],[-0.1158088,51.0178007],[-0.1154893,51.0174131],[-0.115326,51.0171123],[-0.1148003,51.0164711],[-0.1144983,51.0162521],[-0.114221,51.0161066],[-0.1139849,51.0160256],[-0.1135139,51.0159703]]]}},
{"type":"Feature","properties":{"highway":"track","name":null,"category":"Track"},"geometry":{"type":"MultiLineString","coordinates":[[[-0.121635,51.0228131],[-0.1212412,51.0229123],[-0.1206408,51.0230358],[-0.1203992,51.0230618],[-0.1200911,51.0230878],[-0.119685,51.0230925],[-0.1191777,51.0230919],[-0.1187593,51.0230919],[-0.1182765,51.0230851],[-0.1179811,51.0231049],[-0.1178151,51.0231391],[-0.1176986,51.0231675],[-0.1175291,51.0231979],[-0.1171247,51.0232658],[-0.1169375,51.0233169],[-0.1168228,51.0233908],[-0.1167377,51.0234173],[-0.1166328,51.023423],[-0.1164229,51.0234083]]]}},
{"type":"Feature","properties":{"highway":"track","name":null,"category":"Track"},"geometry":{"type":"MultiLineString","coordinates":[[[-0.1151034,51.021072],[-0.1152785,51.0210612],[-0.1154441,51.0210133],[-0.1156586,51.0209525],[-0.1158947,51.0209525],[-0.1163989,51.0209795],[-0.1165384,51.020939],[-0.1167208,51.0208378],[-0.1168603,51.0207501],[-0.1170105,51.0207433],[-0.1172572,51.0208041],[-0.1176649,51.0209188],[-0.1181692,51.0209863],[-0.11877,51.0210605],[-0.1192206,51.0211618],[-0.1195649,51.0212691],[-0.1195854,51.0213642],[-0.1196712,51.0216342],[-0.1197913,51.0221431],[-0.1198072,51.0222106],[-0.1198028,51.0223562]]]}},
{"type":"Feature","properties":{"highway":"track","name":null,"category":"Track"},"geometry":{"type":"MultiLineString","coordinates":[[[-0.1198028,51.0223562],[-0.1198107,51.0225385],[-0.119757,51.0227409],[-0.1195941,51.0228939],[-0.1193708,51.0230311],[-0.1191777,51.0230919]]]}},
{"type":"Feature","properties":{"highway":"track","name":null,"category":"Track"},"geometry":{"type":"MultiLineString","coordinates":[[[-0.1287863,51.0193938],[-0.1283115,51.0193609],[-0.1277684,51.0193552],[-0.1272568,51.0193163],[-0.1270634,51.0193717],[-0.1270372,51.0195588],[-0.1276366,51.0196345],[-0.1277483,51.019696],[-0.1279957,51.0200053],[-0.1280544,51.0200438],[-0.1280975,51.020072],[-0.1281984,51.0202025]]]}},
{"type":"Feature","properties":{"highway":"path","name":null,"category":"Shared path"},"geometry":{"type":"MultiLineString","coordinates":[[[-0.1170105,51.0207433],[-0.1170088,51.0206363],[-0.1172674,51.0203072],[-0.1174418,51.0200537]]]}},
{"type":"Feature","properties":{"highway":"path","name":null,"category":"Shared path"},"geometry":{"type":"MultiLineString","coordinates":[[[-0.1157503,51.0186568],[-0.1150803,51.0183213]]]}},
{"type":"Feature","properties":{"highway":"track","name":null,"category":"Track"},"geometry":{"type":"MultiLineString","coordinates":[[[-0.1089827,51.020234],[-0.1091999,51.0202104],[-0.1096961,51.0201885],[-0.1099793,51.0201682],[-0.1103326,51.0201202],[-0.1106759,51.0200144],[-0.1112545,51.0197344],[-0.1115279,51.0196928],[-0.1122549,51.0196486],[-0.1125285,51.0196553],[-0.1129496,51.0196823],[-0.1131287,51.0197118]]]}},
{"type":"Feature","properties":{"highway":"track","name":null,"category":"Track"},"geometry":{"type":"MultiLineString","coordinates":[[[-0.1091999,51.0202104],[-0.1092536,51.0200063]]]}},
{"type":"Feature","properties":{"highway":"cycleway","name":null,"category":"Dedicated cycleway"},"geometry":{"type":"MultiLineString","coordinates":[[[-0.1154924,51.0135138],[-0.1154441,51.0135124],[-0.1154007,51.0135108],[-0.115221,51.0135125],[-0.1150722,51.0135202]]]}},
{"type":"Feature","properties":{"highway":"track","name":null,"category":"Track"},"geometry":{"type":"MultiLineString","coordinates":[[[-0.1294423,51.0199802],[-0.1293963,51.0197153],[-0.1293107,51.0195501],[-0.1292059,51.0194689],[-0.1287863,51.0193938]]]}},
{"type":"Feature","properties":{"highway":"track","name":null,"category":"Track"},"geometry":{"type":"MultiLineString","coordinates":[[[-0.1135139,51.0159703],[-0.1131347,51.015937],[-0.1130243,51.0159424],[-0.1129355,51.0159573],[-0.1128447,51.0159941]]]}},
{"type":"Feature","properties":{"highway":"track","name":null,"category":"Track"},"geometry":{"type":"MultiLineString","coordinates":[[[-0.1103361,51.0238431],[-0.1102861,51.0241818],[-0.1102543,51.0243221],[-0.110249,51.0244033],[-0.1103127,51.024479],[-0.1108329,51.0245725]]]}},
{"type":"Feature","properties":{"highway":"track","name":null,"category":"Track"},"geometry":{"type":"MultiLineString","coordinates":[[[-0.1113856,51.0275139],[-0.1115984,51.0275111],[-0.111818,51.0274113],[-0.1119277,51.027327],[-0.1120538,51.0272988],[-0.1127042,51.0273346],[-0.1142207,51.0273576],[-0.1148996,51.0272579],[-0.1157696,51.027286],[-0.116477,51.027465],[-0.1168185,51.0277003],[-0.1173023,51.0279662],[-0.1177251,51.0281401],[-0.1185545,51.0282321],[-0.1201725,51.0284034],[-0.121075,51.0284929],[-0.1228273,51.0286617],[-0.1230549,51.0286412],[-0.1232745,51.0285645],[-0.1237061,51.028407],[-0.1247949,51.0281759],[-0.1252015,51.0280352],[-0.1256853,51.0277821],[-0.126787,51.0275264],[-0.1276896,51.0273755]]]}},
{"type":"Feature","properties":{"highway":"track","name":null,"category":"Track"},"geometry":{"type":"MultiLineString","coordinates":[[[-0.1292059,51.0194689],[-0.1294252,51.0194957],[-0.1297166,51.0195275],[-0.1302086,51.0195587],[-0.1304563,51.0196567],[-0.1307147,51.0197992],[-0.131104,51.0198504],[-0.1322649,51.0198348],[-0.1331036,51.0198081],[-0.1334009,51.0198481],[-0.1340415,51.0200641],[-0.1346397,51.0202266],[-0.1349476,51.0203023],[-0.1351281,51.0204181],[-0.1352661,51.0205695],[-0.1353471,51.0206294],[-0.1354466,51.020703],[-0.1355386,51.0208099],[-0.1355479,51.020885],[-0.1355659,51.020996],[-0.1352731,51.0215431],[-0.1351668,51.0222606],[-0.1351178,51.0226437],[-0.1349827,51.0227786],[-0.1348293,51.0229873],[-0.1343426,51.0238427],[-0.1341575,51.0242333],[-0.1341405,51.0242613],[-0.1341204,51.0243198],[-0.1341797,51.024353],[-0.1343122,51.0244267],[-0.1343452,51.024445],[-0.1348269,51.0250187],[-0.1351909,51.0254497],[-0.1352252,51.0255693],[-0.1352291,51.0256226]]]}},
{"type":"Feature","properties":{"highway":"track","name":null,"category":"Track"},"geometry":{"type":"MultiLineString","coordinates":[[[-0.1119104,51.0258888],[-0.1120088,51.0259495],[-0.1121751,51.0260002],[-0.1123897,51.0260373],[-0.1125345,51.0260508],[-0.1126955,51.0260676],[-0.1128081,51.0260778],[-0.1128886,51.0260811]]]}},
{"type":"Feature","properties":{"highway":"track","name":null,"category":"Track"},"geometry":{"type":"MultiLineString","coordinates":[[[-0.1119252,51.0252223],[-0.1117245,51.0251735],[-0.1114134,51.0251263],[-0.1113061,51.0251128],[-0.1112685,51.0251026],[-0.1111934,51.025106],[-0.1111237,51.0251195],[-0.11107,51.0251229],[-0.1109896,51.0251128]]]}},
{"type":"Feature","properties":{"highway":"path","name":null,"category":"Shared path"},"geometry":{"type":"MultiLineString","coordinates":[[[-0.1143882,51.0232973],[-0.1144814,51.0234366],[-0.1145531,51.0234829],[-0.1149471,51.0235842],[-0.1154048,51.0236402],[-0.1157213,51.0235755],[-0.1159003,51.0235576],[-0.1161339,51.02359],[-0.1162366,51.0235859],[-0.116328,51.0236081],[-0.1165228,51.0237182],[-0.1167509,51.0237847],[-0.1169526,51.023897],[-0.1170998,51.023909],[-0.1178386,51.0245459],[-0.1183939,51.0245744],[-0.1190057,51.0247811],[-0.1203443,51.0247465],[-0.1208229,51.0247399],[-0.1223784,51.0247183],[-0.1233089,51.0248234],[-0.1261535,51.0250893],[-0.1260858,51.025377],[-0.1251626,51.0252902],[-0.1237194,51.0252807],[-0.1231331,51.0250929],[-0.1223784,51.0247183]]]}},
{"type":"Feature","properties":{"highway":"path","name":null,"category":"Shared path"},"geometry":{"type":"MultiLineString","coordinates":[[[-0.1203443,51.0247465],[-0.1196611,51.0253632],[-0.1186955,51.0254307],[-0.1178386,51.0245459],[-0.118202,51.0241215],[-0.1195324,51.0243915],[-0.1200688,51.0246209],[-0.1203443,51.0247465]]]}},
{"type":"Feature","properties":{"highway":"track","name":null,"category":"Track"},"geometry":{"type":"MultiLineString","coordinates":[[[-0.1296632,51.017893],[-0.129915,51.0178609]]]}},
{"type":"Feature","properties":{"highway":"track","name":null,"category":"Track"},"geometry":{"type":"MultiLineString","coordinates":[[[-0.1297935,51.0177376],[-0.129915,51.0178609],[-0.1302387,51.017947],[-0.1306303,51.0181158]]]}},
{"type":"Feature","properties":{"highway":"track","name":null,"category":"Track"},"geometry":{"type":"MultiLineString","coordinates":[[[-0.1270634,51.0193717],[-0.1261434,51.0193046],[-0.1258991,51.0193103],[-0.125768,51.0194308],[-0.1256338,51.0197779],[-0.1255967,51.0198763],[-0.1255109,51.0199789],[-0.1255222,51.0201354],[-0.1257785,51.0204616],[-0.1265519,51.0209292],[-0.1266892,51.0209993],[-0.1267123,51.0210116],[-0.1270148,51.0211824],[-0.1276811,51.0216347],[-0.1281952,51.0220501],[-0.128456,51.0223261],[-0.1285269,51.0225129],[-0.128533,51.0225712],[-0.1285049,51.0227662],[-0.128519,51.0231396],[-0.1285473,51.0234489],[-0.128547,51.0235888],[-0.1285777,51.0239855],[-0.1285857,51.0243545],[-0.128565,51.024683],[-0.1286498,51.0247738],[-0.1288619,51.0248162],[-0.1290607,51.0248282],[-0.1290833,51.0249231],[-0.1291039,51.0249755],[-0.129534,51.0250075],[-0.1298981,51.0250921],[-0.1301639,51.0252269],[-0.1302983,51.0253483],[-0.1303871,51.0253795],[-0.1304517,51.0253486],[-0.1306443,51.025323],[-0.1318577,51.0254008],[-0.1325932,51.0254864],[-0.1323251,51.0253896],[-0.1320701,51.0251297],[-0.1315331,51.0245094],[-0.1313558,51.0243268],[-0.1311969,51.0242811],[-0.1309857,51.0243038],[-0.1308471,51.024365],[-0.1307349,51.0244358],[-0.130615,51.0244303],[-0.1303738,51.0243767],[-0.1294624,51.0240214],[-0.129151,51.0237394],[-0.1288254,51.0232584],[-0.1286851,51.0230504],[-0.1286152,51.0228303],[-0.128533,51.0225712]]]}},
{"type":"Feature","properties":{"highway":"cycleway","name":null,"category":"Dedicated cycleway"},"geometry":{"type":"MultiLineString","coordinates":[[[-0.1150722,51.0135202],[-0.1146812,51.0135454],[-0.1145977,51.0135485]]]}},
{"type":"Feature","properties":{"highway":"track","name":null,"category":"Track"},"geometry":{"type":"MultiLineString","coordinates":[[[-0.1223784,51.0247183],[-0.122727,51.0243497],[-0.1227836,51.0241284],[-0.1228039,51.0238588],[-0.1225329,51.0230144],[-0.1223793,51.0229025],[-0.1220565,51.0227349],[-0.1220121,51.0227108]]]}},
{"type":"Feature","properties":{"highway":"track","name":null,"category":"Track"},"geometry":{"type":"MultiLineString","coordinates":[[[-0.1220121,51.0227108],[-0.121635,51.0228131]]]}},
{"type":"Feature","properties":{"highway":"track","name":null,"category":"Track"},"geometry":{"type":"MultiLineString","coordinates":[[[-0.1322961,51.023549],[-0.1324437,51.0234768],[-0.1325382,51.023428],[-0.1334267,51.0223523]]]}},
{"type":"Feature","properties":{"highway":"track","name":null,"category":"Track"},"geometry":{"type":"MultiLineString","coordinates":[[[-0.1286152,51.0228303],[-0.1301497,51.0231878],[-0.1303079,51.0232762],[-0.1302685,51.0233079]]]}}
]
}
