{
"type": "FeatureCollection",
"name": "163a21f52454_foliage",
"crs": { "type": "name", "properties": { "name": "urn:ogc:def:crs:OGC:1.3:CRS84" } },
"features": [
{ "type": "Feature", "properties": { "max_height": 8.9320030212402344, "mean_height": 2.3095026016235352, "std_height": 2.9138109683990479, "count_pixels": 44, "percent_cover": 0.50967218811537129, "percent_above_0.1m": 56.81818181818182, "low_level_<0.5": 0.0, "mid_level_0.5-2": 15.909090909090908, "tall_2+": 38.636363636363633 }, "geometry": { "type": "Point", "coordinates": [ -0.26932711750266, 51.207280616838112 ] } },
{ "type": "Feature", "properties": { "max_height": 14.693752288818359, "mean_height": 7.7453670501708984, "std_height": 4.8307428359985352, "count_pixels": 44, "percent_cover": 0.50967218811537129, "percent_above_0.1m": 88.63636363636364, "low_level_<0.5": 0.0, "mid_level_0.5-2": 4.5454545454545459, "tall_2+": 81.818181818181827 }, "geometry": { "type": "Point", "coordinates": [ -0.26912885457657, 51.207277684996491 ] } },
{ "type": "Feature", "properties": { "max_height": 5.6452560424804688, "mean_height": 0.93498533964157104, "std_height": 1.6885850429534912, "count_pixels": 43, "percent_cover": 0.49808872929456738, "percent_above_0.1m": 30.232558139534881, "low_level_<0.5": 2.3255813953488373, "mid_level_0.5-2": 6.9767441860465116, "tall_2+": 20.930232558139537 }, "geometry": { "type": "Point", "coordinates": [ -0.268930591684836, 51.207274752818634 ] } },
{ "type": "Feature", "properties": { "max_height": 10.443500518798828, "mean_height": 1.5820385217666626, "std_height": 2.4089694023132324, "count_pixels": 42, "percent_cover": 0.48650527047376346, "percent_above_0.1m": 40.476190476190474, "low_level_<0.5": 0.0, "mid_level_0.5-2": 9.5238095238095237, "tall_2+": 30.952380952380953 }, "geometry": { "type": "Point", "coordinates": [ -0.268732328827463, 51.207271820304562 ] } },
{ "type": "Feature", "properties": { "max_height": 9.2582511901855469, "mean_height": 1.5393898487091064, "std_height": 2.3379766941070557, "count_pixels": 42, "percent_cover": 0.48650527047376346, "percent_above_0.1m": 50.0, "low_level_<0.5": 2.3809523809523809, "mid_level_0.5-2": 19.047619047619047, "tall_2+": 28.571428571428569 }, "geometry": { "type": "Point", "coordinates": [ -0.268534066004451, 51.207268887454241 ] } },
{ "type": "Feature", "properties": { "max_height": 15.486007690429688, "mean_height": 9.4095745086669922, "std_height": 4.632530689239502, "count_pixels": 42, "percent_cover": 0.48650527047376346, "percent_above_0.1m": 95.238095238095227, "low_level_<0.5": 2.3809523809523809, "mid_level_0.5-2": 4.7619047619047619, "tall_2+": 88.095238095238088 }, "geometry": { "type": "Point", "coordinates": [ -0.27001700000135, 51.207398733273699 ] } },
{ "type": "Feature", "properties": { "max_height": 5.4055023193359375, "mean_height": 1.6033662557601929, "std_height": 1.6390671730041504, "count_pixels": 42, "percent_cover": 0.48650527047376346, "percent_above_0.1m": 66.666666666666657, "low_level_<0.5": 4.7619047619047619, "mid_level_0.5-2": 19.047619047619047, "tall_2+": 40.476190476190474 }, "geometry": { "type": "Point", "coordinates": [ -0.269818736474011, 51.207395802605284 ] } },
{ "type": "Feature", "properties": { "max_height": 8.5982513427734375, "mean_height": 2.1932408809661865, "std_height": 2.5377452373504639, "count_pixels": 41, "percent_cover": 0.47492181165295955, "percent_above_0.1m": 58.536585365853654, "low_level_<0.5": 0.0, "mid_level_0.5-2": 9.7560975609756095, "tall_2+": 46.341463414634148 }, "geometry": { "type": "Point", "coordinates": [ -0.269620472981014, 51.207392871600625 ] } },
{ "type": "Feature", "properties": { "max_height": 3.9035072326660156, "mean_height": 0.49213990569114685, "std_height": 1.044147253036499, "count_pixels": 40, "percent_cover": 0.46333835283215569, "percent_above_0.1m": 25.0, "low_level_<0.5": 5.0, "mid_level_0.5-2": 7.5, "tall_2+": 12.5 }, "geometry": { "type": "Point", "coordinates": [ -0.269422209522356, 51.207389940259738 ] } },
{ "type": "Feature", "properties": { "max_height": 6.7820014953613281, "mean_height": 0.56838440895080566, "std_height": 1.585468053817749, "count_pixels": 36, "percent_cover": 0.41700451754894013, "percent_above_0.1m": 16.666666666666664, "low_level_<0.5": 0.0, "mid_level_0.5-2": 5.5555555555555554, "tall_2+": 11.111111111111111 }, "geometry": { "type": "Point", "coordinates": [ -0.269223946098057, 51.207387008582643 ] } },
{ "type": "Feature", "properties": { "max_height": 0.0045013427734375, "mean_height": -0.0024345398414880037, "std_height": 0.0033462867140769958, "count_pixels": 40, "percent_cover": 0.46333835283215569, "percent_above_0.1m": 0.0, "low_level_<0.5": 0.0, "mid_level_0.5-2": 0.0, "tall_2+": 0.0 }, "geometry": { "type": "Point", "coordinates": [ -0.269025682708106, 51.207384076569284 ] } },
{ "type": "Feature", "properties": { "max_height": 0.009002685546875, "mean_height": -0.00083272048505023122, "std_height": 0.0044884560629725456, "count_pixels": 41, "percent_cover": 0.47492181165295955, "percent_above_0.1m": 0.0, "low_level_<0.5": 0.0, "mid_level_0.5-2": 0.0, "tall_2+": 0.0 }, "geometry": { "type": "Point", "coordinates": [ -0.268827419352512, 51.207381144219731 ] } },
{ "type": "Feature", "properties": { "max_height": 0.00925445556640625, "mean_height": -0.0018604823853820562, "std_height": 0.0040641645900905132, "count_pixels": 42, "percent_cover": 0.48650527047376346, "percent_above_0.1m": 0.0, "low_level_<0.5": 0.0, "mid_level_0.5-2": 0.0, "tall_2+": 0.0 }, "geometry": { "type": "Point", "coordinates": [ -0.268629156031284, 51.20737821153395 ] } },
{ "type": "Feature", "properties": { "max_height": 0.16800308227539062, "mean_height": 0.0060739060863852501, "std_height": 0.029400572180747986, "count_pixels": 42, "percent_cover": 0.48650527047376346, "percent_above_0.1m": 2.3809523809523809, "low_level_<0.5": 2.3809523809523809, "mid_level_0.5-2": 0.0, "tall_2+": 0.0 }, "geometry": { "type": "Point", "coordinates": [ -0.26843089274442, 51.207375278511911 ] } },
{ "type": "Feature", "properties": { "max_height": 11.633758544921875, "mean_height": 2.5581836700439453, "std_height": 3.5737886428833008, "count_pixels": 40, "percent_cover": 0.46333835283215569, "percent_above_0.1m": 50.0, "low_level_<0.5": 7.5, "mid_level_0.5-2": 2.5, "tall_2+": 40.0 }, "geometry": { "type": "Point", "coordinates": [ -0.270310358039424, 51.207510986287062 ] } },
{ "type": "Feature", "properties": { "max_height": 14.771499633789062, "mean_height": 10.763192176818848, "std_height": 3.4301390647888184, "count_pixels": 41, "percent_cover": 0.47492181165295955, "percent_above_0.1m": 100.0, "low_level_<0.5": 0.0, "mid_level_0.5-2": 0.0, "tall_2+": 100.0 }, "geometry": { "type": "Point", "coordinates": [ -0.270112093979534, 51.207508056119394 ] } },
{ "type": "Feature", "properties": { "max_height": 8.0752525329589844, "mean_height": 0.67663955688476562, "std_height": 1.6732550859451294, "count_pixels": 42, "percent_cover": 0.48650527047376346, "percent_above_0.1m": 33.333333333333329, "low_level_<0.5": 9.5238095238095237, "mid_level_0.5-2": 11.904761904761903, "tall_2+": 9.5238095238095237 }, "geometry": { "type": "Point", "coordinates": [ -0.269913829953986, 51.207505125615491 ] } },
{ "type": "Feature", "properties": { "max_height": 0.006504058837890625, "mean_height": -0.0018611181294545531, "std_height": 0.0037151637952774763, "count_pixels": 42, "percent_cover": 0.48650527047376346, "percent_above_0.1m": 0.0, "low_level_<0.5": 0.0, "mid_level_0.5-2": 0.0, "tall_2+": 0.0 }, "geometry": { "type": "Point", "coordinates": [ -0.269715565962767, 51.207502194775365 ] } },
{ "type": "Feature", "properties": { "max_height": 0.00400543212890625, "mean_height": -0.002764945849776268, "std_height": 0.0040372922085225582, "count_pixels": 43, "percent_cover": 0.49808872929456738, "percent_above_0.1m": 0.0, "low_level_<0.5": 0.0, "mid_level_0.5-2": 0.0, "tall_2+": 0.0 }, "geometry": { "type": "Point", "coordinates": [ -0.269517302005902, 51.20749926359899 ] } },
{ "type": "Feature", "properties": { "max_height": 0.010501861572265625, "mean_height": -0.00035468014539219439, "std_height": 0.0048466757871210575, "count_pixels": 44, "percent_cover": 0.50967218811537129, "percent_above_0.1m": 0.0, "low_level_<0.5": 0.0, "mid_level_0.5-2": 0.0, "tall_2+": 0.0 }, "geometry": { "type": "Point", "coordinates": [ -0.269319038083384, 51.207496332086414 ] } },
{ "type": "Feature", "properties": { "max_height": 0.007503509521484375, "mean_height": -0.0028552142903208733, "std_height": 0.0042177438735961914, "count_pixels": 44, "percent_cover": 0.50967218811537129, "percent_above_0.1m": 0.0, "low_level_<0.5": 0.0, "mid_level_0.5-2": 0.0, "tall_2+": 0.0 }, "geometry": { "type": "Point", "coordinates": [ -0.269120774195213, 51.207493400237595 ] } },
{ "type": "Feature", "properties": { "max_height": 0.00250244140625, "mean_height": -0.002735847607254982, "std_height": 0.0041393227875232697, "count_pixels": 43, "percent_cover": 0.49808872929456738, "percent_above_0.1m": 0.0, "low_level_<0.5": 0.0, "mid_level_0.5-2": 0.0, "tall_2+": 0.0 }, "geometry": { "type": "Point", "coordinates": [ -0.268922510341406, 51.207490468052562 ] } },
{ "type": "Feature", "properties": { "max_height": 0.005504608154296875, "mean_height": -0.0020270575769245625, "std_height": 0.0040602465160191059, "count_pixels": 42, "percent_cover": 0.48650527047376346, "percent_above_0.1m": 0.0, "low_level_<0.5": 0.0, "mid_level_0.5-2": 0.0, "tall_2+": 0.0 }, "geometry": { "type": "Point", "coordinates": [ -0.268724246521953, 51.207487535531264 ] } },
{ "type": "Feature", "properties": { "max_height": 0.009502410888671875, "mean_height": 0.00035967145231552422, "std_height": 0.0026764243375509977, "count_pixels": 42, "percent_cover": 0.48650527047376346, "percent_above_0.1m": 0.0, "low_level_<0.5": 0.0, "mid_level_0.5-2": 0.0, "tall_2+": 0.0 }, "geometry": { "type": "Point", "coordinates": [ -0.268525982736865, 51.207484602673759 ] } },
{ "type": "Feature", "properties": { "max_height": 15.215999603271484, "mean_height": 3.4780199527740479, "std_height": 4.6469688415527344, "count_pixels": 43, "percent_cover": 0.49808872929456738, "percent_above_0.1m": 53.488372093023251, "low_level_<0.5": 2.3255813953488373, "mid_level_0.5-2": 6.9767441860465116, "tall_2+": 44.186046511627907 }, "geometry": { "type": "Point", "coordinates": [ -0.270207188421573, 51.207617378882695 ] } },
{ "type": "Feature", "properties": { "max_height": 8.2037544250488281, "mean_height": 1.6691520214080811, "std_height": 2.3915345668792725, "count_pixels": 42, "percent_cover": 0.48650527047376346, "percent_above_0.1m": 42.857142857142854, "low_level_<0.5": 2.3809523809523809, "mid_level_0.5-2": 7.1428571428571423, "tall_2+": 33.333333333333329 }, "geometry": { "type": "Point", "coordinates": [ -0.270008923897809, 51.20761444854331 ] } },
{ "type": "Feature", "properties": { "max_height": 0.010005950927734375, "mean_height": -0.0011817386839538813, "std_height": 0.0035425839014351368, "count_pixels": 42, "percent_cover": 0.48650527047376346, "percent_above_0.1m": 0.0, "low_level_<0.5": 0.0, "mid_level_0.5-2": 0.0, "tall_2+": 0.0 }, "geometry": { "type": "Point", "coordinates": [ -0.269810659408384, 51.207611517867711 ] } },
{ "type": "Feature", "properties": { "max_height": 0.00350189208984375, "mean_height": -0.0020709154196083546, "std_height": 0.003787582740187645, "count_pixels": 41, "percent_cover": 0.47492181165295955, "percent_above_0.1m": 0.0, "low_level_<0.5": 0.0, "mid_level_0.5-2": 0.0, "tall_2+": 0.0 }, "geometry": { "type": "Point", "coordinates": [ -0.269612394953294, 51.207608586855869 ] } },
{ "type": "Feature", "properties": { "max_height": 2.9034996032714844, "mean_height": 0.24237146973609924, "std_height": 0.66857659816741943, "count_pixels": 40, "percent_cover": 0.46333835283215569, "percent_above_0.1m": 15.0, "low_level_<0.5": 0.0, "mid_level_0.5-2": 10.0, "tall_2+": 5.0 }, "geometry": { "type": "Point", "coordinates": [ -0.269414130532558, 51.20760565550782 ] } },
{ "type": "Feature", "properties": { "max_height": 3.4115028381347656, "mean_height": 1.4268016815185547, "std_height": 1.2635577917098999, "count_pixels": 36, "percent_cover": 0.41700451754894013, "percent_above_0.1m": 72.222222222222214, "low_level_<0.5": 11.111111111111111, "mid_level_0.5-2": 16.666666666666664, "tall_2+": 44.444444444444443 }, "geometry": { "type": "Point", "coordinates": [ -0.269215866146172, 51.207602723823513 ] } },
{ "type": "Feature", "properties": { "max_height": 0.00350189208984375, "mean_height": -0.0022039413452148438, "std_height": 0.0041116289794445038, "count_pixels": 40, "percent_cover": 0.46333835283215569, "percent_above_0.1m": 0.0, "low_level_<0.5": 0.0, "mid_level_0.5-2": 0.0, "tall_2+": 0.0 }, "geometry": { "type": "Point", "coordinates": [ -0.269017601794138, 51.207599791802984 ] } },
{ "type": "Feature", "properties": { "max_height": 0.0050048828125, "mean_height": -0.0016921438509598374, "std_height": 0.0041872663423418999, "count_pixels": 41, "percent_cover": 0.47492181165295955, "percent_above_0.1m": 0.0, "low_level_<0.5": 0.0, "mid_level_0.5-2": 0.0, "tall_2+": 0.0 }, "geometry": { "type": "Point", "coordinates": [ -0.268819337476464, 51.207596859446234 ] } },
{ "type": "Feature", "properties": { "max_height": 0.006252288818359375, "mean_height": -0.0015989938983693719, "std_height": 0.0038923297543078661, "count_pixels": 42, "percent_cover": 0.48650527047376346, "percent_above_0.1m": 0.0, "low_level_<0.5": 0.0, "mid_level_0.5-2": 0.0, "tall_2+": 0.0 }, "geometry": { "type": "Point", "coordinates": [ -0.268621073193151, 51.207593926753255 ] } },
{ "type": "Feature", "properties": { "max_height": 8.6382522583007812, "mean_height": 1.5971676111221313, "std_height": 2.636366605758667, "count_pixels": 41, "percent_cover": 0.47492181165295955, "percent_above_0.1m": 36.585365853658537, "low_level_<0.5": 2.4390243902439024, "mid_level_0.5-2": 2.4390243902439024, "tall_2+": 29.268292682926827 }, "geometry": { "type": "Point", "coordinates": [ -0.270104018305495, 51.207723771388771 ] } },
{ "type": "Feature", "properties": { "max_height": 9.3482589721679688, "mean_height": 2.241741418838501, "std_height": 3.2625398635864258, "count_pixels": 42, "percent_cover": 0.48650527047376346, "percent_above_0.1m": 52.380952380952387, "low_level_<0.5": 4.7619047619047619, "mid_level_0.5-2": 16.666666666666664, "tall_2+": 30.952380952380953 }, "geometry": { "type": "Point", "coordinates": [ -0.26990575331785, 51.207720840877698 ] } },
{ "type": "Feature", "properties": { "max_height": 0.0865020751953125, "mean_height": -0.00066457473440095782, "std_height": 0.014410028234124184, "count_pixels": 42, "percent_cover": 0.48650527047376346, "percent_above_0.1m": 0.0, "low_level_<0.5": 0.0, "mid_level_0.5-2": 0.0, "tall_2+": 0.0 }, "geometry": { "type": "Point", "coordinates": [ -0.269707488364544, 51.207717910030368 ] } },
{ "type": "Feature", "properties": { "max_height": 0.007755279541015625, "mean_height": -0.0017648740904405713, "std_height": 0.0037590016145259142, "count_pixels": 43, "percent_cover": 0.49808872929456738, "percent_above_0.1m": 0.0, "low_level_<0.5": 0.0, "mid_level_0.5-2": 0.0, "tall_2+": 0.0 }, "geometry": { "type": "Point", "coordinates": [ -0.269509223445586, 51.20771497884683 ] } },
{ "type": "Feature", "properties": { "max_height": 3.1622505187988281, "mean_height": 0.65904861688613892, "std_height": 1.0759735107421875, "count_pixels": 44, "percent_cover": 0.50967218811537129, "percent_above_0.1m": 31.818181818181817, "low_level_<0.5": 0.0, "mid_level_0.5-2": 15.909090909090908, "tall_2+": 15.909090909090908 }, "geometry": { "type": "Point", "coordinates": [ -0.269310958560975, 51.207712047327057 ] } },
{ "type": "Feature", "properties": { "max_height": 3.1850013732910156, "mean_height": 0.47167310118675232, "std_height": 0.95692121982574463, "count_pixels": 44, "percent_cover": 0.50967218811537129, "percent_above_0.1m": 20.454545454545457, "low_level_<0.5": 0.0, "mid_level_0.5-2": 2.2727272727272729, "tall_2+": 18.181818181818183 }, "geometry": { "type": "Point", "coordinates": [ -0.26911269371072, 51.207709115471047 ] } },
{ "type": "Feature", "properties": { "max_height": 0.010501861572265625, "mean_height": -0.0010963262757286429, "std_height": 0.0038121661636978388, "count_pixels": 43, "percent_cover": 0.49808872929456738, "percent_above_0.1m": 0.0, "low_level_<0.5": 0.0, "mid_level_0.5-2": 0.0, "tall_2+": 0.0 }, "geometry": { "type": "Point", "coordinates": [ -0.268914428894821, 51.207706183278823 ] } },
{ "type": "Feature", "properties": { "max_height": 0.00750732421875, "mean_height": -0.00082470121560618281, "std_height": 0.0040228702127933502, "count_pixels": 42, "percent_cover": 0.48650527047376346, "percent_above_0.1m": 0.0, "low_level_<0.5": 0.0, "mid_level_0.5-2": 0.0, "tall_2+": 0.0 }, "geometry": { "type": "Point", "coordinates": [ -0.268716164113279, 51.207703250750356 ] } },
{ "type": "Feature", "properties": { "max_height": 0.00749969482421875, "mean_height": -0.00028310503694228828, "std_height": 0.0044485297985374928, "count_pixels": 42, "percent_cover": 0.48650527047376346, "percent_above_0.1m": 0.0, "low_level_<0.5": 0.0, "mid_level_0.5-2": 0.0, "tall_2+": 0.0 }, "geometry": { "type": "Point", "coordinates": [ -0.268517899366106, 51.20770031788566 ] } },
{ "type": "Feature", "properties": { "max_height": 10.779754638671875, "mean_height": 5.4154739379882812, "std_height": 3.3033733367919922, "count_pixels": 42, "percent_cover": 0.48650527047376346, "percent_above_0.1m": 88.095238095238088, "low_level_<0.5": 2.3809523809523809, "mid_level_0.5-2": 7.1428571428571423, "tall_2+": 78.571428571428569 }, "geometry": { "type": "Point", "coordinates": [ -0.270000847691177, 51.207830163805291 ] } },
{ "type": "Feature", "properties": { "max_height": 2.8947525024414062, "mean_height": 0.27752703428268433, "std_height": 0.74821102619171143, "count_pixels": 42, "percent_cover": 0.48650527047376346, "percent_above_0.1m": 16.666666666666664, "low_level_<0.5": 4.7619047619047619, "mid_level_0.5-2": 4.7619047619047619, "tall_2+": 7.1428571428571423 }, "geometry": { "type": "Point", "coordinates": [ -0.269802582239655, 51.207827233122501 ] } },
{ "type": "Feature", "properties": { "max_height": 2.4112510681152344, "mean_height": 0.10554523020982742, "std_height": 0.42277902364730835, "count_pixels": 41, "percent_cover": 0.47492181165295955, "percent_above_0.1m": 7.3170731707317067, "low_level_<0.5": 0.0, "mid_level_0.5-2": 4.8780487804878048, "tall_2+": 2.4390243902439024 }, "geometry": { "type": "Point", "coordinates": [ -0.269604316822471, 51.207824302103489 ] } },
{ "type": "Feature", "properties": { "max_height": 6.1507568359375, "mean_height": 1.1910529136657715, "std_height": 2.0328993797302246, "count_pixels": 40, "percent_cover": 0.46333835283215569, "percent_above_0.1m": 35.0, "low_level_<0.5": 2.5, "mid_level_0.5-2": 5.0, "tall_2+": 25.0 }, "geometry": { "type": "Point", "coordinates": [ -0.269406051439634, 51.207821370748235 ] } },
{ "type": "Feature", "properties": { "max_height": 4.3260040283203125, "mean_height": 1.0591421127319336, "std_height": 1.5021208524703979, "count_pixels": 36, "percent_cover": 0.41700451754894013, "percent_above_0.1m": 44.444444444444443, "low_level_<0.5": 2.7777777777777777, "mid_level_0.5-2": 16.666666666666664, "tall_2+": 25.0 }, "geometry": { "type": "Point", "coordinates": [ -0.269207786091155, 51.207818439056744 ] } },
{ "type": "Feature", "properties": { "max_height": 11.4842529296875, "mean_height": 4.7526345252990723, "std_height": 4.255669116973877, "count_pixels": 40, "percent_cover": 0.46333835283215569, "percent_above_0.1m": 72.5, "low_level_<0.5": 5.0, "mid_level_0.5-2": 7.5, "tall_2+": 60.0 }, "geometry": { "type": "Point", "coordinates": [ -0.269009520777026, 51.207815507029046 ] } },
{ "type": "Feature", "properties": { "max_height": 11.082752227783203, "mean_height": 4.6209664344787598, "std_height": 4.0723767280578613, "count_pixels": 41, "percent_cover": 0.47492181165295955, "percent_above_0.1m": 78.048780487804876, "low_level_<0.5": 2.4390243902439024, "mid_level_0.5-2": 14.634146341463413, "tall_2+": 58.536585365853654 }, "geometry": { "type": "Point", "coordinates": [ -0.268811255497255, 51.207812574665091 ] } },
{ "type": "Feature", "properties": { "max_height": 0.84100341796875, "mean_height": 0.092425480484962463, "std_height": 0.16956713795661926, "count_pixels": 42, "percent_cover": 0.48650527047376346, "percent_above_0.1m": 28.571428571428569, "low_level_<0.5": 19.047619047619047, "mid_level_0.5-2": 4.7619047619047619, "tall_2+": 0.0 }, "geometry": { "type": "Point", "coordinates": [ -0.268612990251853, 51.207809641964914 ] } },
{ "type": "Feature", "properties": { "max_height": 2.4587516784667969, "mean_height": 0.3101213276386261, "std_height": 0.61029112339019775, "count_pixels": 36, "percent_cover": 0.41700451754894013, "percent_above_0.1m": 27.777777777777779, "low_level_<0.5": 5.5555555555555554, "mid_level_0.5-2": 19.444444444444446, "tall_2+": 2.7777777777777777 }, "geometry": { "type": "Point", "coordinates": [ -0.270492474530874, 51.207945346678322 ] } },
{ "type": "Feature", "properties": { "max_height": 13.279499053955078, "mean_height": 8.3851032257080078, "std_height": 3.2580099105834961, "count_pixels": 40, "percent_cover": 0.46333835283215569, "percent_above_0.1m": 100.0, "low_level_<0.5": 0.0, "mid_level_0.5-2": 0.0, "tall_2+": 100.0 }, "geometry": { "type": "Point", "coordinates": [ -0.270294208512454, 51.207942416832552 ] } },
{ "type": "Feature", "properties": { "max_height": 15.894504547119141, "mean_height": 10.670942306518555, "std_height": 3.4120790958404541, "count_pixels": 41, "percent_cover": 0.47492181165295955, "percent_above_0.1m": 100.0, "low_level_<0.5": 0.0, "mid_level_0.5-2": 2.4390243902439024, "tall_2+": 97.560975609756099 }, "geometry": { "type": "Point", "coordinates": [ -0.270095942528373, 51.207939486650503 ] } },
{ "type": "Feature", "properties": { "max_height": 9.0437545776367188, "mean_height": 2.9805920124053955, "std_height": 3.2902357578277588, "count_pixels": 42, "percent_cover": 0.48650527047376346, "percent_above_0.1m": 59.523809523809526, "low_level_<0.5": 0.0, "mid_level_0.5-2": 9.5238095238095237, "tall_2+": 50.0 }, "geometry": { "type": "Point", "coordinates": [ -0.269897676578621, 51.207936556132253 ] } },
{ "type": "Feature", "properties": { "max_height": 1.1215057373046875, "mean_height": 0.0296750757843256, "std_height": 0.17096295952796936, "count_pixels": 42, "percent_cover": 0.48650527047376346, "percent_above_0.1m": 2.3809523809523809, "low_level_<0.5": 0.0, "mid_level_0.5-2": 2.3809523809523809, "tall_2+": 0.0 }, "geometry": { "type": "Point", "coordinates": [ -0.269699410663214, 51.207933625277761 ] } },
{ "type": "Feature", "properties": { "max_height": 5.7760009765625, "mean_height": 2.0556135177612305, "std_height": 2.2817373275756836, "count_pixels": 43, "percent_cover": 0.49808872929456738, "percent_above_0.1m": 62.790697674418603, "low_level_<0.5": 0.0, "mid_level_0.5-2": 23.255813953488371, "tall_2+": 34.883720930232556 }, "geometry": { "type": "Point", "coordinates": [ -0.269501144782153, 51.20793069408704 ] } },
{ "type": "Feature", "properties": { "max_height": 7.0172538757324219, "mean_height": 2.3662357330322266, "std_height": 2.5070788860321045, "count_pixels": 44, "percent_cover": 0.50967218811537129, "percent_above_0.1m": 68.181818181818173, "low_level_<0.5": 13.636363636363635, "mid_level_0.5-2": 11.363636363636363, "tall_2+": 43.18181818181818 }, "geometry": { "type": "Point", "coordinates": [ -0.269302878935443, 51.207927762560082 ] } },
{ "type": "Feature", "properties": { "max_height": 11.841007232666016, "mean_height": 1.5266109704971313, "std_height": 3.1940822601318359, "count_pixels": 44, "percent_cover": 0.50967218811537129, "percent_above_0.1m": 29.545454545454547, "low_level_<0.5": 2.2727272727272729, "mid_level_0.5-2": 6.8181818181818175, "tall_2+": 20.454545454545457 }, "geometry": { "type": "Point", "coordinates": [ -0.269104613123085, 51.207924830696889 ] } },
{ "type": "Feature", "properties": { "max_height": 12.387500762939453, "mean_height": 3.8545083999633789, "std_height": 3.5875446796417236, "count_pixels": 43, "percent_cover": 0.49808872929456738, "percent_above_0.1m": 90.697674418604649, "low_level_<0.5": 11.627906976744185, "mid_level_0.5-2": 16.279069767441861, "tall_2+": 62.790697674418603 }, "geometry": { "type": "Point", "coordinates": [ -0.268906347345084, 51.207921898497467 ] } },
{ "type": "Feature", "properties": { "max_height": 9.3665046691894531, "mean_height": 3.1287350654602051, "std_height": 2.3381288051605225, "count_pixels": 42, "percent_cover": 0.48650527047376346, "percent_above_0.1m": 92.857142857142861, "low_level_<0.5": 2.3809523809523809, "mid_level_0.5-2": 26.190476190476193, "tall_2+": 64.285714285714292 }, "geometry": { "type": "Point", "coordinates": [ -0.26870808160144, 51.207918965961802 ] } },
{ "type": "Feature", "properties": { "max_height": 14.031505584716797, "mean_height": 3.5697410106658936, "std_height": 4.2391142845153809, "count_pixels": 44, "percent_cover": 0.50967218811537129, "percent_above_0.1m": 59.090909090909093, "low_level_<0.5": 2.2727272727272729, "mid_level_0.5-2": 9.0909090909090917, "tall_2+": 47.727272727272727 }, "geometry": { "type": "Point", "coordinates": [ -0.270587570828383, 51.208054669112123 ] } },
{ "type": "Feature", "properties": { "max_height": 15.141750335693359, "mean_height": 7.936713695526123, "std_height": 5.4232492446899414, "count_pixels": 44, "percent_cover": 0.50967218811537129, "percent_above_0.1m": 90.909090909090907, "low_level_<0.5": 6.8181818181818175, "mid_level_0.5-2": 9.0909090909090917, "tall_2+": 75.0 }, "geometry": { "type": "Point", "coordinates": [ -0.270389304311743, 51.208051739430864 ] } },
{ "type": "Feature", "properties": { "max_height": 13.89849853515625, "mean_height": 3.4233107566833496, "std_height": 4.3106045722961426, "count_pixels": 43, "percent_cover": 0.49808872929456738, "percent_above_0.1m": 74.418604651162795, "low_level_<0.5": 18.604651162790699, "mid_level_0.5-2": 11.627906976744185, "tall_2+": 44.186046511627907 }, "geometry": { "type": "Point", "coordinates": [ -0.270191037829429, 51.208048809413363 ] } },
{ "type": "Feature", "properties": { "max_height": 7.6607551574707031, "mean_height": 0.62018156051635742, "std_height": 1.4760071039199829, "count_pixels": 42, "percent_cover": 0.48650527047376346, "percent_above_0.1m": 26.190476190476193, "low_level_<0.5": 4.7619047619047619, "mid_level_0.5-2": 4.7619047619047619, "tall_2+": 16.666666666666664 }, "geometry": { "type": "Point", "coordinates": [ -0.269992771381459, 51.208045879059618 ] } },
{ "type": "Feature", "properties": { "max_height": 9.0785064697265625, "mean_height": 3.0488953590393066, "std_height": 2.1528580188751221, "count_pixels": 42, "percent_cover": 0.48650527047376346, "percent_above_0.1m": 95.238095238095227, "low_level_<0.5": 7.1428571428571423, "mid_level_0.5-2": 14.285714285714285, "tall_2+": 73.80952380952381 }, "geometry": { "type": "Point", "coordinates": [ -0.269794504967824, 51.208042948369666 ] } },
{ "type": "Feature", "properties": { "max_height": 9.1307525634765625, "mean_height": 2.1418013572692871, "std_height": 2.6629722118377686, "count_pixels": 41, "percent_cover": 0.47492181165295955, "percent_above_0.1m": 75.609756097560975, "low_level_<0.5": 14.634146341463413, "mid_level_0.5-2": 19.512195121951219, "tall_2+": 39.024390243902438 }, "geometry": { "type": "Point", "coordinates": [ -0.269596238588534, 51.208040017343464 ] } },
{ "type": "Feature", "properties": { "max_height": 6.0047531127929688, "mean_height": 1.5020902156829834, "std_height": 1.7745304107666016, "count_pixels": 40, "percent_cover": 0.46333835283215569, "percent_above_0.1m": 67.5, "low_level_<0.5": 7.5, "mid_level_0.5-2": 25.0, "tall_2+": 30.0 }, "geometry": { "type": "Point", "coordinates": [ -0.269397972243589, 51.208037085981033 ] } },
{ "type": "Feature", "properties": { "max_height": 5.0095062255859375, "mean_height": 0.62003707885742188, "std_height": 1.1755833625793457, "count_pixels": 36, "percent_cover": 0.41700451754894013, "percent_above_0.1m": 52.777777777777779, "low_level_<0.5": 19.444444444444446, "mid_level_0.5-2": 22.222222222222221, "tall_2+": 11.111111111111111 }, "geometry": { "type": "Point", "coordinates": [ -0.269199705933002, 51.208034154282359 ] } },
{ "type": "Feature", "properties": { "max_height": 7.03375244140625, "mean_height": 1.2149025201797485, "std_height": 1.7423399686813354, "count_pixels": 40, "percent_cover": 0.46333835283215569, "percent_above_0.1m": 62.5, "low_level_<0.5": 12.5, "mid_level_0.5-2": 25.0, "tall_2+": 20.0 }, "geometry": { "type": "Point", "coordinates": [ -0.269001439656762, 51.208031222247456 ] } },
{ "type": "Feature", "properties": { "max_height": 12.206504821777344, "mean_height": 3.2600090503692627, "std_height": 4.139073371887207, "count_pixels": 41, "percent_cover": 0.47492181165295955, "percent_above_0.1m": 65.853658536585371, "low_level_<0.5": 2.4390243902439024, "mid_level_0.5-2": 19.512195121951219, "tall_2+": 41.463414634146339 }, "geometry": { "type": "Point", "coordinates": [ -0.268803173414893, 51.208028289876317 ] } },
{ "type": "Feature", "properties": { "max_height": 10.815505981445312, "mean_height": 1.9114012718200684, "std_height": 2.4552106857299805, "count_pixels": 42, "percent_cover": 0.48650527047376346, "percent_above_0.1m": 71.428571428571431, "low_level_<0.5": 9.5238095238095237, "mid_level_0.5-2": 19.047619047619047, "tall_2+": 38.095238095238095 }, "geometry": { "type": "Point", "coordinates": [ -0.268604907207374, 51.208025357168935 ] } },
{ "type": "Feature", "properties": { "max_height": 23.571502685546875, "mean_height": 12.032504081726074, "std_height": 7.3402957916259766, "count_pixels": 40, "percent_cover": 0.46333835283215569, "percent_above_0.1m": 85.0, "low_level_<0.5": 0.0, "mid_level_0.5-2": 0.0, "tall_2+": 82.5 }, "geometry": { "type": "Point", "coordinates": [ -0.270682667589767, 51.208163991463515 ] } },
{ "type": "Feature", "properties": { "max_height": 15.721000671386719, "mean_height": 4.6941275596618652, "std_height": 5.3668088912963867, "count_pixels": 36, "percent_cover": 0.41700451754894013, "percent_above_0.1m": 77.777777777777786, "low_level_<0.5": 2.7777777777777777, "mid_level_0.5-2": 27.777777777777779, "tall_2+": 47.222222222222221 }, "geometry": { "type": "Point", "coordinates": [ -0.2704844005749, 51.208161061946782 ] } },
{ "type": "Feature", "properties": { "max_height": 15.951507568359375, "mean_height": 4.702695369720459, "std_height": 5.629755973815918, "count_pixels": 40, "percent_cover": 0.46333835283215569, "percent_above_0.1m": 52.5, "low_level_<0.5": 2.5, "mid_level_0.5-2": 2.5, "tall_2+": 47.5 }, "geometry": { "type": "Point", "coordinates": [ -0.270286133594367, 51.208158132093821 ] } },
{ "type": "Feature", "properties": { "max_height": 13.881500244140625, "mean_height": 4.7623624801635742, "std_height": 5.0324301719665527, "count_pixels": 41, "percent_cover": 0.47492181165295955, "percent_above_0.1m": 68.292682926829272, "low_level_<0.5": 4.8780487804878048, "mid_level_0.5-2": 9.7560975609756095, "tall_2+": 53.658536585365859 }, "geometry": { "type": "Point", "coordinates": [ -0.270087866648162, 51.208155201904617 ] } },
{ "type": "Feature", "properties": { "max_height": 17.183750152587891, "mean_height": 5.2270855903625488, "std_height": 6.2012181282043457, "count_pixels": 42, "percent_cover": 0.48650527047376346, "percent_above_0.1m": 59.523809523809526, "low_level_<0.5": 4.7619047619047619, "mid_level_0.5-2": 4.7619047619047619, "tall_2+": 47.619047619047613 }, "geometry": { "type": "Point", "coordinates": [ -0.269889599736301, 51.208152271379191 ] } },
{ "type": "Feature", "properties": { "max_height": 5.7480010986328125, "mean_height": 0.95994269847869873, "std_height": 1.4713517427444458, "count_pixels": 42, "percent_cover": 0.48650527047376346, "percent_above_0.1m": 52.380952380952387, "low_level_<0.5": 14.285714285714285, "mid_level_0.5-2": 14.285714285714285, "tall_2+": 21.428571428571427 }, "geometry": { "type": "Point", "coordinates": [ -0.269691332858778, 51.208149340517515 ] } },
{ "type": "Feature", "properties": { "max_height": 7.7532539367675781, "mean_height": 2.8653693199157715, "std_height": 2.7118377685546875, "count_pixels": 43, "percent_cover": 0.49808872929456738, "percent_above_0.1m": 74.418604651162795, "low_level_<0.5": 11.627906976744185, "mid_level_0.5-2": 11.627906976744185, "tall_2+": 51.162790697674424 }, "geometry": { "type": "Point", "coordinates": [ -0.269493066015601, 51.208146409319603 ] } },
{ "type": "Feature", "properties": { "max_height": 7.8495025634765625, "mean_height": 4.905275821685791, "std_height": 2.490189790725708, "count_pixels": 44, "percent_cover": 0.50967218811537129, "percent_above_0.1m": 88.63636363636364, "low_level_<0.5": 2.2727272727272729, "mid_level_0.5-2": 0.0, "tall_2+": 84.090909090909093 }, "geometry": { "type": "Point", "coordinates": [ -0.269294799206777, 51.208143477785477 ] } },
{ "type": "Feature", "properties": { "max_height": 4.2675018310546875, "mean_height": 0.98489469289779663, "std_height": 1.1933451890945435, "count_pixels": 44, "percent_cover": 0.50967218811537129, "percent_above_0.1m": 61.363636363636367, "low_level_<0.5": 13.636363636363635, "mid_level_0.5-2": 27.27272727272727, "tall_2+": 20.454545454545457 }, "geometry": { "type": "Point", "coordinates": [ -0.269096532432306, 51.208140545915079 ] } },
{ "type": "Feature", "properties": { "max_height": 11.839752197265625, "mean_height": 2.3206772804260254, "std_height": 3.423614501953125, "count_pixels": 43, "percent_cover": 0.49808872929456738, "percent_above_0.1m": 62.790697674418603, "low_level_<0.5": 11.627906976744185, "mid_level_0.5-2": 18.604651162790699, "tall_2+": 30.232558139534881 }, "geometry": { "type": "Point", "coordinates": [ -0.268898265692192, 51.208137613708466 ] } },
{ "type": "Feature", "properties": { "max_height": 4.4650001525878906, "mean_height": 1.0502409934997559, "std_height": 1.2499635219573975, "count_pixels": 42, "percent_cover": 0.48650527047376346, "percent_above_0.1m": 76.19047619047619, "low_level_<0.5": 21.428571428571427, "mid_level_0.5-2": 28.571428571428569, "tall_2+": 21.428571428571427 }, "geometry": { "type": "Point", "coordinates": [ -0.268699998986438, 51.208134681165618 ] } },
{ "type": "Feature", "properties": { "max_height": 20.296005249023438, "mean_height": 8.7072076797485352, "std_height": 5.8804469108581543, "count_pixels": 44, "percent_cover": 0.50967218811537129, "percent_above_0.1m": 100.0, "low_level_<0.5": 6.8181818181818175, "mid_level_0.5-2": 9.0909090909090917, "tall_2+": 81.818181818181827 }, "geometry": { "type": "Point", "coordinates": [ -0.270381229823176, 51.208267454691914 ] } },
{ "type": "Feature", "properties": { "max_height": 20.593254089355469, "mean_height": 16.200328826904297, "std_height": 3.2144522666931152, "count_pixels": 43, "percent_cover": 0.49808872929456738, "percent_above_0.1m": 100.0, "low_level_<0.5": 0.0, "mid_level_0.5-2": 0.0, "tall_2+": 100.0 }, "geometry": { "type": "Point", "coordinates": [ -0.270182962378742, 51.208264524667236 ] } },
{ "type": "Feature", "properties": { "max_height": 16.141502380371094, "mean_height": 9.1321048736572266, "std_height": 4.3519692420959473, "count_pixels": 42, "percent_cover": 0.48650527047376346, "percent_above_0.1m": 100.0, "low_level_<0.5": 4.7619047619047619, "mid_level_0.5-2": 2.3809523809523809, "tall_2+": 92.857142857142861 }, "geometry": { "type": "Point", "coordinates": [ -0.269984694968649, 51.208261594306329 ] } },
{ "type": "Feature", "properties": { "max_height": 16.011253356933594, "mean_height": 2.9979074001312256, "std_height": 3.7835021018981934, "count_pixels": 42, "percent_cover": 0.48650527047376346, "percent_above_0.1m": 83.333333333333343, "low_level_<0.5": 11.904761904761903, "mid_level_0.5-2": 21.428571428571427, "tall_2+": 47.619047619047613 }, "geometry": { "type": "Point", "coordinates": [ -0.269786427592894, 51.208258663609186 ] } },
{ "type": "Feature", "properties": { "max_height": 3.415252685546875, "mean_height": 0.41114285588264465, "std_height": 0.79034554958343506, "count_pixels": 41, "percent_cover": 0.47492181165295955, "percent_above_0.1m": 31.707317073170731, "low_level_<0.5": 9.7560975609756095, "mid_level_0.5-2": 14.634146341463413, "tall_2+": 7.3170731707317067 }, "geometry": { "type": "Point", "coordinates": [ -0.26958816025148, 51.208255732575815 ] } },
{ "type": "Feature", "properties": { "max_height": 5.0967521667480469, "mean_height": 0.46008959412574768, "std_height": 0.93783068656921387, "count_pixels": 40, "percent_cover": 0.46333835283215569, "percent_above_0.1m": 47.5, "low_level_<0.5": 20.0, "mid_level_0.5-2": 20.0, "tall_2+": 5.0 }, "geometry": { "type": "Point", "coordinates": [ -0.269389892944419, 51.208252801206193 ] } },
{ "type": "Feature", "properties": { "max_height": 1.3720016479492188, "mean_height": 0.19498856365680695, "std_height": 0.38851955533027649, "count_pixels": 36, "percent_cover": 0.41700451754894013, "percent_above_0.1m": 22.222222222222221, "low_level_<0.5": 5.5555555555555554, "mid_level_0.5-2": 16.666666666666664, "tall_2+": 0.0 }, "geometry": { "type": "Point", "coordinates": [ -0.269191625671709, 51.208249869500335 ] } },
{ "type": "Feature", "properties": { "max_height": 10.386253356933594, "mean_height": 3.1879088878631592, "std_height": 3.4004273414611816, "count_pixels": 40, "percent_cover": 0.46333835283215569, "percent_above_0.1m": 70.0, "low_level_<0.5": 5.0, "mid_level_0.5-2": 20.0, "tall_2+": 45.0 }, "geometry": { "type": "Point", "coordinates": [ -0.268993358433355, 51.208246937458235 ] } },
{ "type": "Feature", "properties": { "max_height": 12.92425537109375, "mean_height": 5.6708383560180664, "std_height": 3.5124461650848389, "count_pixels": 41, "percent_cover": 0.47492181165295955, "percent_above_0.1m": 92.682926829268297, "low_level_<0.5": 4.8780487804878048, "mid_level_0.5-2": 7.3170731707317067, "tall_2+": 80.487804878048792 }, "geometry": { "type": "Point", "coordinates": [ -0.268795091229361, 51.208244005079912 ] } },
{ "type": "Feature", "properties": { "max_height": 14.006256103515625, "mean_height": 5.3776516914367676, "std_height": 4.864288330078125, "count_pixels": 42, "percent_cover": 0.48650527047376346, "percent_above_0.1m": 71.428571428571431, "low_level_<0.5": 2.3809523809523809, "mid_level_0.5-2": 2.3809523809523809, "tall_2+": 64.285714285714292 }, "geometry": { "type": "Point", "coordinates": [ -0.269683254951229, 51.208365055749624 ] } },
{ "type": "Feature", "properties": { "max_height": 19.367256164550781, "mean_height": 4.772125244140625, "std_height": 6.108008861541748, "count_pixels": 43, "percent_cover": 0.49808872929456738, "percent_above_0.1m": 69.767441860465112, "low_level_<0.5": 6.9767441860465116, "mid_level_0.5-2": 16.279069767441861, "tall_2+": 46.511627906976742 }, "geometry": { "type": "Point", "coordinates": [ -0.269484987145933, 51.208362124544522 ] } },
{ "type": "Feature", "properties": { "max_height": 3.8290023803710938, "mean_height": 1.0176787376403809, "std_height": 1.0856084823608398, "count_pixels": 44, "percent_cover": 0.50967218811537129, "percent_above_0.1m": 70.454545454545453, "low_level_<0.5": 13.636363636363635, "mid_level_0.5-2": 34.090909090909086, "tall_2+": 22.727272727272727 }, "geometry": { "type": "Point", "coordinates": [ -0.269286719374978, 51.208359193003211 ] } },
{ "type": "Feature", "properties": { "max_height": 14.294254302978516, "mean_height": 3.5085558891296387, "std_height": 4.3880524635314941, "count_pixels": 43, "percent_cover": 0.49808872929456738, "percent_above_0.1m": 51.162790697674424, "low_level_<0.5": 2.3255813953488373, "mid_level_0.5-2": 6.9767441860465116, "tall_2+": 41.860465116279073 }, "geometry": { "type": "Point", "coordinates": [ -0.268890183936141, 51.208353328911819 ] } },
{ "type": "Feature", "properties": { "max_height": 20.676506042480469, "mean_height": 8.175023078918457, "std_height": 4.2741756439208984, "count_pixels": 40, "percent_cover": 0.46333835283215569, "percent_above_0.1m": 100.0, "low_level_<0.5": 0.0, "mid_level_0.5-2": 5.0, "tall_2+": 95.0 }, "geometry": { "type": "Point", "coordinates": [ -0.269381813542121, 51.208468516423707 ] } }
]
}
