{
"type": "FeatureCollection",
"name": "5a030b77387b_foliage",
"crs": { "type": "name", "properties": { "name": "urn:ogc:def:crs:OGC:1.3:CRS84" } },
"features": [
{ "type": "Feature", "properties": { "max_height": 15.225509643554688, "mean_height": 7.6292433738708496, "std_height": 3.7054634094238281, "count_pixels": 42, "percent_cover": 0.59154929577464788, "percent_above_0.1m": 100.0, "low_level_<0.5": 0.0, "mid_level_0.5-2": 4.7619047619047619, "tall_2+": 95.238095238095227 }, "geometry": { "type": "Point", "coordinates": [ -0.279040458050093, 51.257854731121938 ] } },
{ "type": "Feature", "properties": { "max_height": 14.049514770507812, "mean_height": 3.8180906772613525, "std_height": 4.6050906181335449, "count_pixels": 43, "percent_cover": 0.60563380281690149, "percent_above_0.1m": 67.441860465116278, "low_level_<0.5": 11.627906976744185, "mid_level_0.5-2": 9.3023255813953494, "tall_2+": 46.511627906976742 }, "geometry": { "type": "Point", "coordinates": [ -0.27884197638253, 51.25785181421594 ] } },
{ "type": "Feature", "properties": { "max_height": 10.7705078125, "mean_height": 3.4291093349456787, "std_height": 3.0050947666168213, "count_pixels": 43, "percent_cover": 0.60563380281690149, "percent_above_0.1m": 79.069767441860463, "low_level_<0.5": 4.6511627906976747, "mid_level_0.5-2": 13.953488372093023, "tall_2+": 60.465116279069761 }, "geometry": { "type": "Point", "coordinates": [ -0.278643494748511, 51.257848896973606 ] } },
{ "type": "Feature", "properties": { "max_height": 13.136260986328125, "mean_height": 6.6999969482421875, "std_height": 4.560091495513916, "count_pixels": 38, "percent_cover": 0.53521126760563376, "percent_above_0.1m": 89.473684210526315, "low_level_<0.5": 7.8947368421052628, "mid_level_0.5-2": 7.8947368421052628, "tall_2+": 73.68421052631578 }, "geometry": { "type": "Point", "coordinates": [ -0.279135671034813, 51.257964042107304 ] } },
{ "type": "Feature", "properties": { "max_height": 4.9020233154296875, "mean_height": 1.8944449424743652, "std_height": 1.3245480060577393, "count_pixels": 41, "percent_cover": 0.57746478873239437, "percent_above_0.1m": 80.487804878048792, "low_level_<0.5": 7.3170731707317067, "mid_level_0.5-2": 17.073170731707318, "tall_2+": 56.09756097560976 }, "geometry": { "type": "Point", "coordinates": [ -0.278937188881338, 51.25796112535641 ] } },
{ "type": "Feature", "properties": { "max_height": 9.691253662109375, "mean_height": 1.9802517890930176, "std_height": 3.0185947418212891, "count_pixels": 41, "percent_cover": 0.57746478873239437, "percent_above_0.1m": 41.463414634146339, "low_level_<0.5": 4.8780487804878048, "mid_level_0.5-2": 7.3170731707317067, "tall_2+": 29.268292682926827 }, "geometry": { "type": "Point", "coordinates": [ -0.278738706761416, 51.257958208269223 ] } },
{ "type": "Feature", "properties": { "max_height": 11.712249755859375, "mean_height": 3.8336582183837891, "std_height": 3.5031771659851074, "count_pixels": 42, "percent_cover": 0.59154929577464788, "percent_above_0.1m": 71.428571428571431, "low_level_<0.5": 7.1428571428571423, "mid_level_0.5-2": 4.7619047619047619, "tall_2+": 59.523809523809526 }, "geometry": { "type": "Point", "coordinates": [ -0.278341742622218, 51.257952373085949 ] } },
{ "type": "Feature", "properties": { "max_height": 12.02825927734375, "mean_height": 5.0189089775085449, "std_height": 3.449749231338501, "count_pixels": 43, "percent_cover": 0.60563380281690149, "percent_above_0.1m": 83.720930232558146, "low_level_<0.5": 0.0, "mid_level_0.5-2": 6.9767441860465116, "tall_2+": 76.744186046511629 }, "geometry": { "type": "Point", "coordinates": [ -0.278143260602957, 51.257949454989841 ] } },
{ "type": "Feature", "properties": { "max_height": 6.3897705078125, "mean_height": 0.90219408273696899, "std_height": 1.6399314403533936, "count_pixels": 42, "percent_cover": 0.59154929577464788, "percent_above_0.1m": 33.333333333333329, "low_level_<0.5": 2.3809523809523809, "mid_level_0.5-2": 9.5238095238095237, "tall_2+": 21.428571428571427 }, "geometry": { "type": "Point", "coordinates": [ -0.279032401832505, 51.258070436423552 ] } },
{ "type": "Feature", "properties": { "max_height": 11.321762084960938, "mean_height": 4.3002533912658691, "std_height": 2.8208935260772705, "count_pixels": 43, "percent_cover": 0.60563380281690149, "percent_above_0.1m": 100.0, "low_level_<0.5": 2.3255813953488373, "mid_level_0.5-2": 13.953488372093023, "tall_2+": 83.720930232558146 }, "geometry": { "type": "Point", "coordinates": [ -0.278833919226672, 51.258067519491497 ] } },
{ "type": "Feature", "properties": { "max_height": 6.4897613525390625, "mean_height": 1.5773698091506958, "std_height": 1.6596516370773315, "count_pixels": 43, "percent_cover": 0.60563380281690149, "percent_above_0.1m": 72.093023255813947, "low_level_<0.5": 6.9767441860465116, "mid_level_0.5-2": 32.558139534883722, "tall_2+": 32.558139534883722 }, "geometry": { "type": "Point", "coordinates": [ -0.278635436654387, 51.258064602223129 ] } },
{ "type": "Feature", "properties": { "max_height": 4.4027557373046875, "mean_height": 0.44843801856040955, "std_height": 1.0566251277923584, "count_pixels": 42, "percent_cover": 0.59154929577464788, "percent_above_0.1m": 26.190476190476193, "low_level_<0.5": 4.7619047619047619, "mid_level_0.5-2": 9.5238095238095237, "tall_2+": 9.5238095238095237 }, "geometry": { "type": "Point", "coordinates": [ -0.278436954115651, 51.258061684618461 ] } },
{ "type": "Feature", "properties": { "max_height": 8.9522552490234375, "mean_height": 2.0344290733337402, "std_height": 2.8851888179779053, "count_pixels": 41, "percent_cover": 0.57746478873239437, "percent_above_0.1m": 65.853658536585371, "low_level_<0.5": 9.7560975609756095, "mid_level_0.5-2": 21.951219512195124, "tall_2+": 29.268292682926827 }, "geometry": { "type": "Point", "coordinates": [ -0.278238471610477, 51.258058766677493 ] } },
{ "type": "Feature", "properties": { "max_height": 16.560501098632812, "mean_height": 5.2526683807373047, "std_height": 4.9386653900146484, "count_pixels": 41, "percent_cover": 0.57746478873239437, "percent_above_0.1m": 68.292682926829272, "low_level_<0.5": 2.4390243902439024, "mid_level_0.5-2": 4.8780487804878048, "tall_2+": 60.975609756097562 }, "geometry": { "type": "Point", "coordinates": [ -0.278039989138856, 51.258055848400204 ] } },
{ "type": "Feature", "properties": { "max_height": 11.397262573242188, "mean_height": 3.9101860523223877, "std_height": 3.7542996406555176, "count_pixels": 41, "percent_cover": 0.57746478873239437, "percent_above_0.1m": 63.414634146341463, "low_level_<0.5": 0.0, "mid_level_0.5-2": 7.3170731707317067, "tall_2+": 56.09756097560976 }, "geometry": { "type": "Point", "coordinates": [ -0.278730649086085, 51.258173913527187 ] } },
{ "type": "Feature", "properties": { "max_height": 4.865509033203125, "mean_height": 1.7471373081207275, "std_height": 1.4051642417907715, "count_pixels": 41, "percent_cover": 0.57746478873239437, "percent_above_0.1m": 73.170731707317074, "low_level_<0.5": 4.8780487804878048, "mid_level_0.5-2": 17.073170731707318, "tall_2+": 51.219512195121951 }, "geometry": { "type": "Point", "coordinates": [ -0.278532166061435, 51.258170996077638 ] } },
{ "type": "Feature", "properties": { "max_height": 2.745758056640625, "mean_height": 0.4229561984539032, "std_height": 0.77046346664428711, "count_pixels": 42, "percent_cover": 0.59154929577464788, "percent_above_0.1m": 30.952380952380953, "low_level_<0.5": 7.1428571428571423, "mid_level_0.5-2": 16.666666666666664, "tall_2+": 7.1428571428571423 }, "geometry": { "type": "Point", "coordinates": [ -0.278333683070342, 51.258168078291781 ] } },
{ "type": "Feature", "properties": { "max_height": 1.964508056640625, "mean_height": 0.12506742775440216, "std_height": 0.37289541959762573, "count_pixels": 43, "percent_cover": 0.60563380281690149, "percent_above_0.1m": 16.279069767441861, "low_level_<0.5": 4.6511627906976747, "mid_level_0.5-2": 9.3023255813953494, "tall_2+": 0.0 }, "geometry": { "type": "Point", "coordinates": [ -0.278135200112809, 51.258165160169625 ] } },
{ "type": "Feature", "properties": { "max_height": 18.2757568359375, "mean_height": 10.18706226348877, "std_height": 6.0947279930114746, "count_pixels": 43, "percent_cover": 0.60563380281690149, "percent_above_0.1m": 100.0, "low_level_<0.5": 6.9767441860465116, "mid_level_0.5-2": 9.3023255813953494, "tall_2+": 83.720930232558146 }, "geometry": { "type": "Point", "coordinates": [ -0.277936717188833, 51.258162241711162 ] } },
{ "type": "Feature", "properties": { "max_height": 9.3800048828125, "mean_height": 1.5596235990524292, "std_height": 2.5396256446838379, "count_pixels": 43, "percent_cover": 0.60563380281690149, "percent_above_0.1m": 51.162790697674424, "low_level_<0.5": 6.9767441860465116, "mid_level_0.5-2": 20.930232558139537, "tall_2+": 20.930232558139537 }, "geometry": { "type": "Point", "coordinates": [ -0.278825861970132, 51.258283224757889 ] } },
{ "type": "Feature", "properties": { "max_height": 11.389022827148438, "mean_height": 1.7058151960372925, "std_height": 3.4069533348083496, "count_pixels": 43, "percent_cover": 0.60563380281690149, "percent_above_0.1m": 30.232558139534881, "low_level_<0.5": 4.6511627906976747, "mid_level_0.5-2": 4.6511627906976747, "tall_2+": 18.604651162790699 }, "geometry": { "type": "Point", "coordinates": [ -0.278627378459572, 51.25828030746348 ] } },
{ "type": "Feature", "properties": { "max_height": 10.324508666992188, "mean_height": 1.8229494094848633, "std_height": 2.9660747051239014, "count_pixels": 42, "percent_cover": 0.59154929577464788, "percent_above_0.1m": 50.0, "low_level_<0.5": 9.5238095238095237, "mid_level_0.5-2": 11.904761904761903, "tall_2+": 28.571428571428569 }, "geometry": { "type": "Point", "coordinates": [ -0.278428894982558, 51.258277389832735 ] } },
{ "type": "Feature", "properties": { "max_height": 1.24951171875, "mean_height": 0.067099966108798981, "std_height": 0.22286079823970795, "count_pixels": 41, "percent_cover": 0.57746478873239437, "percent_above_0.1m": 12.195121951219512, "low_level_<0.5": 7.3170731707317067, "mid_level_0.5-2": 4.8780487804878048, "tall_2+": 0.0 }, "geometry": { "type": "Point", "coordinates": [ -0.278230411539103, 51.258274471865718 ] } },
{ "type": "Feature", "properties": { "max_height": 20.321762084960938, "mean_height": 11.716635704040527, "std_height": 6.5780410766601562, "count_pixels": 41, "percent_cover": 0.57746478873239437, "percent_above_0.1m": 100.0, "low_level_<0.5": 7.3170731707317067, "mid_level_0.5-2": 4.8780487804878048, "tall_2+": 87.804878048780495 }, "geometry": { "type": "Point", "coordinates": [ -0.278031928129212, 51.258271553562381 ] } },
{ "type": "Feature", "properties": { "max_height": 12.581756591796875, "mean_height": 4.0530047416687012, "std_height": 3.9570591449737549, "count_pixels": 41, "percent_cover": 0.57746478873239437, "percent_above_0.1m": 68.292682926829272, "low_level_<0.5": 4.8780487804878048, "mid_level_0.5-2": 4.8780487804878048, "tall_2+": 58.536585365853654 }, "geometry": { "type": "Point", "coordinates": [ -0.278921075306545, 51.25839253591522 ] } },
{ "type": "Feature", "properties": { "max_height": 0.011016845703125, "mean_height": -0.0031928084790706635, "std_height": 0.0062308073975145817, "count_pixels": 41, "percent_cover": 0.57746478873239437, "percent_above_0.1m": 0.0, "low_level_<0.5": 0.0, "mid_level_0.5-2": 0.0, "tall_2+": 0.0 }, "geometry": { "type": "Point", "coordinates": [ -0.278722591310063, 51.258389618775951 ] } },
{ "type": "Feature", "properties": { "max_height": 4.9239959716796875, "mean_height": 0.12150127440690994, "std_height": 0.75936096906661987, "count_pixels": 41, "percent_cover": 0.57746478873239437, "percent_above_0.1m": 2.4390243902439024, "low_level_<0.5": 0.0, "mid_level_0.5-2": 0.0, "tall_2+": 2.4390243902439024 }, "geometry": { "type": "Point", "coordinates": [ -0.278524107347132, 51.258386701300353 ] } },
{ "type": "Feature", "properties": { "max_height": 15.50225830078125, "mean_height": 3.7659857273101807, "std_height": 5.1256289482116699, "count_pixels": 42, "percent_cover": 0.59154929577464788, "percent_above_0.1m": 50.0, "low_level_<0.5": 0.0, "mid_level_0.5-2": 7.1428571428571423, "tall_2+": 42.857142857142854 }, "geometry": { "type": "Point", "coordinates": [ -0.278325623417759, 51.258383783488448 ] } },
{ "type": "Feature", "properties": { "max_height": 21.951019287109375, "mean_height": 14.260776519775391, "std_height": 5.8327069282531738, "count_pixels": 43, "percent_cover": 0.60563380281690149, "percent_above_0.1m": 100.0, "low_level_<0.5": 2.3255813953488373, "mid_level_0.5-2": 4.6511627906976747, "tall_2+": 93.023255813953483 }, "geometry": { "type": "Point", "coordinates": [ -0.278127139521935, 51.258380865340236 ] } },
{ "type": "Feature", "properties": { "max_height": 11.053756713867188, "mean_height": 2.5144786834716797, "std_height": 3.4225239753723145, "count_pixels": 42, "percent_cover": 0.59154929577464788, "percent_above_0.1m": 64.285714285714292, "low_level_<0.5": 7.1428571428571423, "mid_level_0.5-2": 21.428571428571427, "tall_2+": 33.333333333333329 }, "geometry": { "type": "Point", "coordinates": [ -0.279016289095318, 51.258501846999245 ] } },
{ "type": "Feature", "properties": { "max_height": 0.009490966796875, "mean_height": -0.0010737929260358214, "std_height": 0.0046311225742101669, "count_pixels": 43, "percent_cover": 0.60563380281690149, "percent_above_0.1m": 0.0, "low_level_<0.5": 0.0, "mid_level_0.5-2": 0.0, "tall_2+": 0.0 }, "geometry": { "type": "Point", "coordinates": [ -0.278817804612917, 51.258498930015087 ] } },
{ "type": "Feature", "properties": { "max_height": 0.035247802734375, "mean_height": -0.0010319199645891786, "std_height": 0.0095236767083406448, "count_pixels": 43, "percent_cover": 0.60563380281690149, "percent_above_0.1m": 0.0, "low_level_<0.5": 0.0, "mid_level_0.5-2": 0.0, "tall_2+": 0.0 }, "geometry": { "type": "Point", "coordinates": [ -0.278619320164064, 51.258496012694629 ] } },
{ "type": "Feature", "properties": { "max_height": 15.361770629882812, "mean_height": 7.1971626281738281, "std_height": 5.4768571853637695, "count_pixels": 42, "percent_cover": 0.59154929577464788, "percent_above_0.1m": 78.571428571428569, "low_level_<0.5": 2.3809523809523809, "mid_level_0.5-2": 4.7619047619047619, "tall_2+": 71.428571428571431 }, "geometry": { "type": "Point", "coordinates": [ -0.278420835748762, 51.258493095037856 ] } },
{ "type": "Feature", "properties": { "max_height": 11.859512329101562, "mean_height": 3.1721515655517578, "std_height": 3.8257079124450684, "count_pixels": 38, "percent_cover": 0.53521126760563376, "percent_above_0.1m": 71.05263157894737, "low_level_<0.5": 7.8947368421052628, "mid_level_0.5-2": 18.421052631578945, "tall_2+": 42.105263157894733 }, "geometry": { "type": "Point", "coordinates": [ -0.279111503336461, 51.258611158009899 ] } },
{ "type": "Feature", "properties": { "max_height": 0.016754150390625, "mean_height": -0.0019788043573498726, "std_height": 0.0052939909510314465, "count_pixels": 41, "percent_cover": 0.57746478873239437, "percent_above_0.1m": 0.0, "low_level_<0.5": 0.0, "mid_level_0.5-2": 0.0, "tall_2+": 0.0 }, "geometry": { "type": "Point", "coordinates": [ -0.278913018368135, 51.258608241180895 ] } },
{ "type": "Feature", "properties": { "max_height": 0.0050201416015625, "mean_height": -0.0045281387865543365, "std_height": 0.0070556350983679295, "count_pixels": 41, "percent_cover": 0.57746478873239437, "percent_above_0.1m": 0.0, "low_level_<0.5": 0.0, "mid_level_0.5-2": 0.0, "tall_2+": 0.0 }, "geometry": { "type": "Point", "coordinates": [ -0.278714533433355, 51.258605324015562 ] } },
{ "type": "Feature", "properties": { "max_height": 10.270004272460938, "mean_height": 5.1211724281311035, "std_height": 3.845494270324707, "count_pixels": 41, "percent_cover": 0.57746478873239437, "percent_above_0.1m": 78.048780487804876, "low_level_<0.5": 2.4390243902439024, "mid_level_0.5-2": 2.4390243902439024, "tall_2+": 68.292682926829272 }, "geometry": { "type": "Point", "coordinates": [ -0.278516048532127, 51.258602406513909 ] } },
{ "type": "Feature", "properties": { "max_height": 16.522262573242188, "mean_height": 4.5383124351501465, "std_height": 5.2649760246276855, "count_pixels": 42, "percent_cover": 0.59154929577464788, "percent_above_0.1m": 76.19047619047619, "low_level_<0.5": 11.904761904761903, "mid_level_0.5-2": 14.285714285714285, "tall_2+": 50.0 }, "geometry": { "type": "Point", "coordinates": [ -0.279206718029969, 51.258720468947203 ] } },
{ "type": "Feature", "properties": { "max_height": 0.41973876953125, "mean_height": 0.035098847001791, "std_height": 0.096148289740085602, "count_pixels": 42, "percent_cover": 0.59154929577464788, "percent_above_0.1m": 16.666666666666664, "low_level_<0.5": 11.904761904761903, "mid_level_0.5-2": 0.0, "tall_2+": 0.0 }, "geometry": { "type": "Point", "coordinates": [ -0.279008232575721, 51.258717552273325 ] } },
{ "type": "Feature", "properties": { "max_height": 0.016265869140625, "mean_height": -0.0043274634517729282, "std_height": 0.010018862783908844, "count_pixels": 43, "percent_cover": 0.60563380281690149, "percent_above_0.1m": 0.0, "low_level_<0.5": 0.0, "mid_level_0.5-2": 0.0, "tall_2+": 0.0 }, "geometry": { "type": "Point", "coordinates": [ -0.278809747155017, 51.258714635263118 ] } },
{ "type": "Feature", "properties": { "max_height": 20.061264038085938, "mean_height": 8.1791191101074219, "std_height": 7.2622008323669434, "count_pixels": 43, "percent_cover": 0.60563380281690149, "percent_above_0.1m": 67.441860465116278, "low_level_<0.5": 0.0, "mid_level_0.5-2": 4.6511627906976747, "tall_2+": 62.790697674418603 }, "geometry": { "type": "Point", "coordinates": [ -0.27861126176786, 51.258711717916619 ] } },
{ "type": "Feature", "properties": { "max_height": 6.6302642822265625, "mean_height": 2.3549108505249023, "std_height": 2.4344942569732666, "count_pixels": 41, "percent_cover": 0.57746478873239437, "percent_above_0.1m": 68.292682926829272, "low_level_<0.5": 7.3170731707317067, "mid_level_0.5-2": 17.073170731707318, "tall_2+": 43.902439024390247 }, "geometry": { "type": "Point", "coordinates": [ -0.279301933167858, 51.258829779778495 ] } },
{ "type": "Feature", "properties": { "max_height": 3.16351318359375, "mean_height": 1.6208508014678955, "std_height": 1.243971586227417, "count_pixels": 38, "percent_cover": 0.53521126760563376, "percent_above_0.1m": 76.31578947368422, "low_level_<0.5": 7.8947368421052628, "mid_level_0.5-2": 23.684210526315788, "tall_2+": 44.736842105263158 }, "geometry": { "type": "Point", "coordinates": [ -0.279103447228432, 51.258826863262911 ] } },
{ "type": "Feature", "properties": { "max_height": 3.1525115966796875, "mean_height": 0.93761348724365234, "std_height": 1.2494192123413086, "count_pixels": 41, "percent_cover": 0.57746478873239437, "percent_above_0.1m": 51.219512195121951, "low_level_<0.5": 12.195121951219512, "mid_level_0.5-2": 9.7560975609756095, "tall_2+": 26.829268292682929 }, "geometry": { "type": "Point", "coordinates": [ -0.278904961322534, 51.258823946410949 ] } },
{ "type": "Feature", "properties": { "max_height": 17.27276611328125, "mean_height": 7.7555766105651855, "std_height": 5.913576602935791, "count_pixels": 41, "percent_cover": 0.57746478873239437, "percent_above_0.1m": 78.048780487804876, "low_level_<0.5": 0.0, "mid_level_0.5-2": 2.4390243902439024, "tall_2+": 73.170731707317074 }, "geometry": { "type": "Point", "coordinates": [ -0.278706475450184, 51.258821029222631 ] } },
{ "type": "Feature", "properties": { "max_height": 6.6192626953125, "mean_height": 1.5379283428192139, "std_height": 2.1081292629241943, "count_pixels": 43, "percent_cover": 0.60563380281690149, "percent_above_0.1m": 48.837209302325576, "low_level_<0.5": 6.9767441860465116, "mid_level_0.5-2": 11.627906976744185, "tall_2+": 30.232558139534881 }, "geometry": { "type": "Point", "coordinates": [ -0.279397148431029, 51.258939090346871 ] } },
{ "type": "Feature", "properties": { "max_height": 3.3692626953125, "mean_height": 0.72954267263412476, "std_height": 1.0745385885238647, "count_pixels": 42, "percent_cover": 0.59154929577464788, "percent_above_0.1m": 47.619047619047613, "low_level_<0.5": 7.1428571428571423, "mid_level_0.5-2": 19.047619047619047, "tall_2+": 16.666666666666664 }, "geometry": { "type": "Point", "coordinates": [ -0.279198662020948, 51.258936173993597 ] } },
{ "type": "Feature", "properties": { "max_height": 3.3590087890625, "mean_height": 1.0139330625534058, "std_height": 1.3544598817825317, "count_pixels": 42, "percent_cover": 0.59154929577464788, "percent_above_0.1m": 47.619047619047613, "low_level_<0.5": 4.7619047619047619, "mid_level_0.5-2": 14.285714285714285, "tall_2+": 26.190476190476193 }, "geometry": { "type": "Point", "coordinates": [ -0.279000175644197, 51.258933257303823 ] } },
{ "type": "Feature", "properties": { "max_height": 15.441497802734375, "mean_height": 6.4824628829956055, "std_height": 5.2283244132995605, "count_pixels": 43, "percent_cover": 0.60563380281690149, "percent_above_0.1m": 76.744186046511629, "low_level_<0.5": 0.0, "mid_level_0.5-2": 2.3255813953488373, "tall_2+": 69.767441860465112 }, "geometry": { "type": "Point", "coordinates": [ -0.278801689300774, 51.258930340277573 ] } },
{ "type": "Feature", "properties": { "max_height": 12.432266235351562, "mean_height": 4.1935324668884277, "std_height": 4.2997045516967773, "count_pixels": 41, "percent_cover": 0.57746478873239437, "percent_above_0.1m": 68.292682926829272, "low_level_<0.5": 4.8780487804878048, "mid_level_0.5-2": 12.195121951219512, "tall_2+": 51.219512195121951 }, "geometry": { "type": "Point", "coordinates": [ -0.279293877060634, 51.259045484479969 ] } },
{ "type": "Feature", "properties": { "max_height": 18.662017822265625, "mean_height": 5.1714715957641602, "std_height": 5.699091911315918, "count_pixels": 38, "percent_cover": 0.53521126760563376, "percent_above_0.1m": 68.421052631578945, "low_level_<0.5": 2.6315789473684208, "mid_level_0.5-2": 13.157894736842104, "tall_2+": 52.631578947368418 }, "geometry": { "type": "Point", "coordinates": [ -0.279095390202917, 51.259042567952491 ] } },
{ "type": "Feature", "properties": { "max_height": 21.835006713867188, "mean_height": 9.3727817535400391, "std_height": 8.0121364593505859, "count_pixels": 41, "percent_cover": 0.57746478873239437, "percent_above_0.1m": 68.292682926829272, "low_level_<0.5": 0.0, "mid_level_0.5-2": 7.3170731707317067, "tall_2+": 60.975609756097562 }, "geometry": { "type": "Point", "coordinates": [ -0.278896903378516, 51.259039651088443 ] } },
{ "type": "Feature", "properties": { "max_height": 13.494766235351562, "mean_height": 4.22601318359375, "std_height": 3.944047212600708, "count_pixels": 42, "percent_cover": 0.59154929577464788, "percent_above_0.1m": 78.571428571428569, "low_level_<0.5": 0.0, "mid_level_0.5-2": 19.047619047619047, "tall_2+": 59.523809523809526 }, "geometry": { "type": "Point", "coordinates": [ -0.279190605208386, 51.259151878517223 ] } },
{ "type": "Feature", "properties": { "max_height": 18.6915283203125, "mean_height": 6.7060461044311523, "std_height": 6.9508776664733887, "count_pixels": 42, "percent_cover": 0.59154929577464788, "percent_above_0.1m": 59.523809523809526, "low_level_<0.5": 0.0, "mid_level_0.5-2": 9.5238095238095237, "tall_2+": 50.0 }, "geometry": { "type": "Point", "coordinates": [ -0.278992117902334, 51.25914896181272 ] } },
{ "type": "Feature", "properties": { "max_height": 17.24224853515625, "mean_height": 4.6498985290527344, "std_height": 5.6645903587341309, "count_pixels": 38, "percent_cover": 0.53521126760563376, "percent_above_0.1m": 55.26315789473685, "low_level_<0.5": 0.0, "mid_level_0.5-2": 10.526315789473683, "tall_2+": 44.736842105263158 }, "geometry": { "type": "Point", "coordinates": [ -0.279087332874475, 51.259258272459498 ] } }
]
}
