{
"type": "FeatureCollection",
"name": "8bb11867b3b7_visibility",
"crs": { "type": "name", "properties": { "name": "urn:ogc:def:crs:OGC:1.3:CRS84" } },
"features": [
{ "type": "Feature", "properties": { "visible_points": 0, "total_points": 69, "visibility_pct": 0.0 }, "geometry": { "type": "Point", "coordinates": [ -0.267280141696371, 51.172541491662685 ] } },
{ "type": "Feature", "properties": { "visible_points": 1, "total_points": 74, "visibility_pct": 1.3513513513513513 }, "geometry": { "type": "Point", "coordinates": [ -0.267082029732706, 51.172538557256999 ] } },
{ "type": "Feature", "properties": { "visible_points": 3, "total_points": 78, "visibility_pct": 3.8461538461538463 }, "geometry": { "type": "Point", "coordinates": [ -0.26688391780239, 51.172535622515944 ] } },
{ "type": "Feature", "properties": { "visible_points": 6, "total_points": 79, "visibility_pct": 7.59493670886076 }, "geometry": { "type": "Point", "coordinates": [ -0.266685805905423, 51.172532687439521 ] } },
{ "type": "Feature", "properties": { "visible_points": 3, "total_points": 78, "visibility_pct": 3.8461538461538463 }, "geometry": { "type": "Point", "coordinates": [ -0.266487694041806, 51.172529752027735 ] } },
{ "type": "Feature", "properties": { "visible_points": 0, "total_points": 76, "visibility_pct": 0.0 }, "geometry": { "type": "Point", "coordinates": [ -0.266289582211548, 51.172526816280588 ] } },
{ "type": "Feature", "properties": { "visible_points": 7, "total_points": 74, "visibility_pct": 9.4594594594594597 }, "geometry": { "type": "Point", "coordinates": [ -0.267375157655788, 51.172650813401368 ] } },
{ "type": "Feature", "properties": { "visible_points": 7, "total_points": 82, "visibility_pct": 8.536585365853659 }, "geometry": { "type": "Point", "coordinates": [ -0.267177045213504, 51.172647879151818 ] } },
{ "type": "Feature", "properties": { "visible_points": 0, "total_points": 87, "visibility_pct": 0.0 }, "geometry": { "type": "Point", "coordinates": [ -0.266978932804559, 51.172644944566905 ] } },
{ "type": "Feature", "properties": { "visible_points": 6, "total_points": 90, "visibility_pct": 6.666666666666667 }, "geometry": { "type": "Point", "coordinates": [ -0.266780820428959, 51.172642009646609 ] } },
{ "type": "Feature", "properties": { "visible_points": 7, "total_points": 90, "visibility_pct": 7.7777777777777777 }, "geometry": { "type": "Point", "coordinates": [ -0.266582708086721, 51.172639074390972 ] } },
{ "type": "Feature", "properties": { "visible_points": 0, "total_points": 88, "visibility_pct": 0.0 }, "geometry": { "type": "Point", "coordinates": [ -0.266384595777827, 51.172636138799923 ] } },
{ "type": "Feature", "properties": { "visible_points": 0, "total_points": 84, "visibility_pct": 0.0 }, "geometry": { "type": "Point", "coordinates": [ -0.266186483502299, 51.172633202873563 ] } },
{ "type": "Feature", "properties": { "visible_points": 0, "total_points": 76, "visibility_pct": 0.0 }, "geometry": { "type": "Point", "coordinates": [ -0.265988371260137, 51.172630266611783 ] } },
{ "type": "Feature", "properties": { "visible_points": 0, "total_points": 77, "visibility_pct": 0.0 }, "geometry": { "type": "Point", "coordinates": [ -0.267470174060478, 51.172760135065502 ] } },
{ "type": "Feature", "properties": { "visible_points": 7, "total_points": 87, "visibility_pct": 8.0459770114942533 }, "geometry": { "type": "Point", "coordinates": [ -0.267272061139563, 51.172757200972107 ] } },
{ "type": "Feature", "properties": { "visible_points": 8, "total_points": 95, "visibility_pct": 8.4210526315789469 }, "geometry": { "type": "Point", "coordinates": [ -0.267073948251991, 51.172754266543322 ] } },
{ "type": "Feature", "properties": { "visible_points": 11, "total_points": 100, "visibility_pct": 11.0 }, "geometry": { "type": "Point", "coordinates": [ -0.266875835397765, 51.172751331779168 ] } },
{ "type": "Feature", "properties": { "visible_points": 10, "total_points": 102, "visibility_pct": 9.8039215686274517 }, "geometry": { "type": "Point", "coordinates": [ -0.266677722576888, 51.172748396679637 ] } },
{ "type": "Feature", "properties": { "visible_points": 0, "total_points": 100, "visibility_pct": 0.0 }, "geometry": { "type": "Point", "coordinates": [ -0.266479609789366, 51.172745461244759 ] } },
{ "type": "Feature", "properties": { "visible_points": 1, "total_points": 96, "visibility_pct": 1.0416666666666665 }, "geometry": { "type": "Point", "coordinates": [ -0.266281497035202, 51.172742525474497 ] } },
{ "type": "Feature", "properties": { "visible_points": 3, "total_points": 87, "visibility_pct": 3.4482758620689653 }, "geometry": { "type": "Point", "coordinates": [ -0.266083384314398, 51.172739589368874 ] } },
{ "type": "Feature", "properties": { "visible_points": 2, "total_points": 76, "visibility_pct": 2.6315789473684208 }, "geometry": { "type": "Point", "coordinates": [ -0.265885271626961, 51.172736652927874 ] } },
{ "type": "Feature", "properties": { "visible_points": 0, "total_points": 65, "visibility_pct": 0.0 }, "geometry": { "type": "Point", "coordinates": [ -0.265687158972892, 51.172733716151512 ] } },
{ "type": "Feature", "properties": { "visible_points": 0, "total_points": 54, "visibility_pct": 0.0 }, "geometry": { "type": "Point", "coordinates": [ -0.2654890463522, 51.172730779039767 ] } },
{ "type": "Feature", "properties": { "visible_points": 0, "total_points": 79, "visibility_pct": 0.0 }, "geometry": { "type": "Point", "coordinates": [ -0.267565190910439, 51.172869456655128 ] } },
{ "type": "Feature", "properties": { "visible_points": 8, "total_points": 90, "visibility_pct": 8.8888888888888893 }, "geometry": { "type": "Point", "coordinates": [ -0.267367077510895, 51.172866522717861 ] } },
{ "type": "Feature", "properties": { "visible_points": 7, "total_points": 100, "visibility_pct": 7.0000000000000009 }, "geometry": { "type": "Point", "coordinates": [ -0.26716896414469, 51.172863588445203 ] } },
{ "type": "Feature", "properties": { "visible_points": 13, "total_points": 108, "visibility_pct": 12.037037037037036 }, "geometry": { "type": "Point", "coordinates": [ -0.266970850811833, 51.172860653837198 ] } },
{ "type": "Feature", "properties": { "visible_points": 13, "total_points": 113, "visibility_pct": 11.504424778761061 }, "geometry": { "type": "Point", "coordinates": [ -0.266772737512324, 51.172857718893823 ] } },
{ "type": "Feature", "properties": { "visible_points": 0, "total_points": 111, "visibility_pct": 0.0 }, "geometry": { "type": "Point", "coordinates": [ -0.266574624246166, 51.172854783615051 ] } },
{ "type": "Feature", "properties": { "visible_points": 3, "total_points": 106, "visibility_pct": 2.8301886792452833 }, "geometry": { "type": "Point", "coordinates": [ -0.266376511013363, 51.172851848000931 ] } },
{ "type": "Feature", "properties": { "visible_points": 2, "total_points": 98, "visibility_pct": 2.0408163265306123 }, "geometry": { "type": "Point", "coordinates": [ -0.266178397813924, 51.172848912051428 ] } },
{ "type": "Feature", "properties": { "visible_points": 0, "total_points": 86, "visibility_pct": 0.0 }, "geometry": { "type": "Point", "coordinates": [ -0.265980284647845, 51.172845975766563 ] } },
{ "type": "Feature", "properties": { "visible_points": 0, "total_points": 74, "visibility_pct": 0.0 }, "geometry": { "type": "Point", "coordinates": [ -0.265782171515133, 51.172843039146322 ] } },
{ "type": "Feature", "properties": { "visible_points": 0, "total_points": 62, "visibility_pct": 0.0 }, "geometry": { "type": "Point", "coordinates": [ -0.265584058415796, 51.172840102190719 ] } },
{ "type": "Feature", "properties": { "visible_points": 1, "total_points": 50, "visibility_pct": 2.0 }, "geometry": { "type": "Point", "coordinates": [ -0.265385945349831, 51.172837164899725 ] } },
{ "type": "Feature", "properties": { "visible_points": 0, "total_points": 73, "visibility_pct": 0.0 }, "geometry": { "type": "Point", "coordinates": [ -0.267660208205678, 51.172978778170211 ] } },
{ "type": "Feature", "properties": { "visible_points": 10, "total_points": 85, "visibility_pct": 11.76470588235294 }, "geometry": { "type": "Point", "coordinates": [ -0.2674620943275, 51.172975844389086 ] } },
{ "type": "Feature", "properties": { "visible_points": 10, "total_points": 97, "visibility_pct": 10.309278350515463 }, "geometry": { "type": "Point", "coordinates": [ -0.267263980482668, 51.172972910272563 ] } },
{ "type": "Feature", "properties": { "visible_points": 13, "total_points": 107, "visibility_pct": 12.149532710280374 }, "geometry": { "type": "Point", "coordinates": [ -0.26706586667117, 51.172969975820692 ] } },
{ "type": "Feature", "properties": { "visible_points": 12, "total_points": 114, "visibility_pct": 10.526315789473683 }, "geometry": { "type": "Point", "coordinates": [ -0.266867752893026, 51.172967041033445 ] } },
{ "type": "Feature", "properties": { "visible_points": 10, "total_points": 115, "visibility_pct": 8.695652173913043 }, "geometry": { "type": "Point", "coordinates": [ -0.26666963914823, 51.172964105910822 ] } },
{ "type": "Feature", "properties": { "visible_points": 0, "total_points": 109, "visibility_pct": 0.0 }, "geometry": { "type": "Point", "coordinates": [ -0.266471525436789, 51.17296117045283 ] } },
{ "type": "Feature", "properties": { "visible_points": 1, "total_points": 103, "visibility_pct": 0.97087378640776689 }, "geometry": { "type": "Point", "coordinates": [ -0.266273411758706, 51.172958234659468 ] } },
{ "type": "Feature", "properties": { "visible_points": 0, "total_points": 92, "visibility_pct": 0.0 }, "geometry": { "type": "Point", "coordinates": [ -0.266075298113984, 51.172955298530731 ] } },
{ "type": "Feature", "properties": { "visible_points": 0, "total_points": 80, "visibility_pct": 0.0 }, "geometry": { "type": "Point", "coordinates": [ -0.265877184502632, 51.172952362066617 ] } },
{ "type": "Feature", "properties": { "visible_points": 0, "total_points": 68, "visibility_pct": 0.0 }, "geometry": { "type": "Point", "coordinates": [ -0.265679070924646, 51.172949425267149 ] } },
{ "type": "Feature", "properties": { "visible_points": 2, "total_points": 57, "visibility_pct": 3.5087719298245612 }, "geometry": { "type": "Point", "coordinates": [ -0.265480957380035, 51.172946488132283 ] } },
{ "type": "Feature", "properties": { "visible_points": 1, "total_points": 65, "visibility_pct": 1.5384615384615385 }, "geometry": { "type": "Point", "coordinates": [ -0.267755225946195, 51.173088099610759 ] } },
{ "type": "Feature", "properties": { "visible_points": 1, "total_points": 76, "visibility_pct": 1.3157894736842104 }, "geometry": { "type": "Point", "coordinates": [ -0.267557111589385, 51.173085165985775 ] } },
{ "type": "Feature", "properties": { "visible_points": 0, "total_points": 87, "visibility_pct": 0.0 }, "geometry": { "type": "Point", "coordinates": [ -0.267358997265914, 51.173082232025394 ] } },
{ "type": "Feature", "properties": { "visible_points": 0, "total_points": 98, "visibility_pct": 0.0 }, "geometry": { "type": "Point", "coordinates": [ -0.267160882975786, 51.173079297729664 ] } },
{ "type": "Feature", "properties": { "visible_points": 0, "total_points": 106, "visibility_pct": 0.0 }, "geometry": { "type": "Point", "coordinates": [ -0.266962768719003, 51.173076363098552 ] } },
{ "type": "Feature", "properties": { "visible_points": 0, "total_points": 107, "visibility_pct": 0.0 }, "geometry": { "type": "Point", "coordinates": [ -0.266764654495563, 51.173073428132071 ] } },
{ "type": "Feature", "properties": { "visible_points": 0, "total_points": 104, "visibility_pct": 0.0 }, "geometry": { "type": "Point", "coordinates": [ -0.266566540305482, 51.173070492830199 ] } },
{ "type": "Feature", "properties": { "visible_points": 0, "total_points": 100, "visibility_pct": 0.0 }, "geometry": { "type": "Point", "coordinates": [ -0.266368426148758, 51.173067557192972 ] } },
{ "type": "Feature", "properties": { "visible_points": 0, "total_points": 93, "visibility_pct": 0.0 }, "geometry": { "type": "Point", "coordinates": [ -0.266170312025391, 51.173064621220369 ] } },
{ "type": "Feature", "properties": { "visible_points": 0, "total_points": 83, "visibility_pct": 0.0 }, "geometry": { "type": "Point", "coordinates": [ -0.265972197935389, 51.173061684912398 ] } },
{ "type": "Feature", "properties": { "visible_points": 0, "total_points": 72, "visibility_pct": 0.0 }, "geometry": { "type": "Point", "coordinates": [ -0.265774083878756, 51.173058748269028 ] } },
{ "type": "Feature", "properties": { "visible_points": 2, "total_points": 56, "visibility_pct": 3.5714285714285712 }, "geometry": { "type": "Point", "coordinates": [ -0.267850244131998, 51.173197420976784 ] } },
{ "type": "Feature", "properties": { "visible_points": 1, "total_points": 66, "visibility_pct": 1.5151515151515151 }, "geometry": { "type": "Point", "coordinates": [ -0.267652129296551, 51.173194487507921 ] } },
{ "type": "Feature", "properties": { "visible_points": 0, "total_points": 76, "visibility_pct": 0.0 }, "geometry": { "type": "Point", "coordinates": [ -0.267454014494445, 51.173191553703703 ] } },
{ "type": "Feature", "properties": { "visible_points": 0, "total_points": 86, "visibility_pct": 0.0 }, "geometry": { "type": "Point", "coordinates": [ -0.267255899725672, 51.173188619564094 ] } },
{ "type": "Feature", "properties": { "visible_points": 0, "total_points": 95, "visibility_pct": 0.0 }, "geometry": { "type": "Point", "coordinates": [ -0.267057784990251, 51.173185685089123 ] } },
{ "type": "Feature", "properties": { "visible_points": 1, "total_points": 98, "visibility_pct": 1.0204081632653061 }, "geometry": { "type": "Point", "coordinates": [ -0.266859670288171, 51.173182750278777 ] } },
{ "type": "Feature", "properties": { "visible_points": 1, "total_points": 95, "visibility_pct": 1.0526315789473684 }, "geometry": { "type": "Point", "coordinates": [ -0.266661555619444, 51.173179815133047 ] } },
{ "type": "Feature", "properties": { "visible_points": 0, "total_points": 92, "visibility_pct": 0.0 }, "geometry": { "type": "Point", "coordinates": [ -0.266463440984076, 51.173176879651962 ] } },
{ "type": "Feature", "properties": { "visible_points": 0, "total_points": 89, "visibility_pct": 0.0 }, "geometry": { "type": "Point", "coordinates": [ -0.266265326382063, 51.173173943835494 ] } },
{ "type": "Feature", "properties": { "visible_points": 0, "total_points": 82, "visibility_pct": 0.0 }, "geometry": { "type": "Point", "coordinates": [ -0.266067211813413, 51.173171007683642 ] } },
{ "type": "Feature", "properties": { "visible_points": 1, "total_points": 56, "visibility_pct": 1.7857142857142856 }, "geometry": { "type": "Point", "coordinates": [ -0.267747147449004, 51.173303808955545 ] } },
{ "type": "Feature", "properties": { "visible_points": 1, "total_points": 65, "visibility_pct": 1.5384615384615385 }, "geometry": { "type": "Point", "coordinates": [ -0.267549032168259, 51.173300875307469 ] } },
{ "type": "Feature", "properties": { "visible_points": 1, "total_points": 74, "visibility_pct": 1.3513513513513513 }, "geometry": { "type": "Point", "coordinates": [ -0.267350916920847, 51.173297941324009 ] } },
{ "type": "Feature", "properties": { "visible_points": 0, "total_points": 82, "visibility_pct": 0.0 }, "geometry": { "type": "Point", "coordinates": [ -0.267152801706775, 51.17329500700518 ] } },
{ "type": "Feature", "properties": { "visible_points": 0, "total_points": 88, "visibility_pct": 0.0 }, "geometry": { "type": "Point", "coordinates": [ -0.266954686526059, 51.173292072350961 ] } },
{ "type": "Feature", "properties": { "visible_points": 0, "total_points": 86, "visibility_pct": 0.0 }, "geometry": { "type": "Point", "coordinates": [ -0.266756571378687, 51.173289137361373 ] } },
{ "type": "Feature", "properties": { "visible_points": 0, "total_points": 83, "visibility_pct": 0.0 }, "geometry": { "type": "Point", "coordinates": [ -0.266558456264666, 51.173286202036422 ] } },
{ "type": "Feature", "properties": { "visible_points": 0, "total_points": 80, "visibility_pct": 0.0 }, "geometry": { "type": "Point", "coordinates": [ -0.266360341184004, 51.173283266376082 ] } },
{ "type": "Feature", "properties": { "visible_points": 0, "total_points": 76, "visibility_pct": 0.0 }, "geometry": { "type": "Point", "coordinates": [ -0.266162226136705, 51.173280330380372 ] } },
{ "type": "Feature", "properties": { "visible_points": 0, "total_points": 54, "visibility_pct": 0.0 }, "geometry": { "type": "Point", "coordinates": [ -0.267644050287355, 51.173410196836706 ] } },
{ "type": "Feature", "properties": { "visible_points": 2, "total_points": 62, "visibility_pct": 3.225806451612903 }, "geometry": { "type": "Point", "coordinates": [ -0.267445934561304, 51.173407263009381 ] } },
{ "type": "Feature", "properties": { "visible_points": 0, "total_points": 69, "visibility_pct": 0.0 }, "geometry": { "type": "Point", "coordinates": [ -0.267247818868592, 51.173404328846686 ] } },
{ "type": "Feature", "properties": { "visible_points": 2, "total_points": 75, "visibility_pct": 2.666666666666667 }, "geometry": { "type": "Point", "coordinates": [ -0.267049703209225, 51.173401394348616 ] } },
{ "type": "Feature", "properties": { "visible_points": 1, "total_points": 76, "visibility_pct": 1.3157894736842104 }, "geometry": { "type": "Point", "coordinates": [ -0.266851587583197, 51.17339845951517 ] } },
{ "type": "Feature", "properties": { "visible_points": 0, "total_points": 73, "visibility_pct": 0.0 }, "geometry": { "type": "Point", "coordinates": [ -0.266653471990534, 51.173395524346347 ] } },
{ "type": "Feature", "properties": { "visible_points": 1, "total_points": 70, "visibility_pct": 1.4285714285714286 }, "geometry": { "type": "Point", "coordinates": [ -0.26645535643122, 51.173392588842148 ] } },
{ "type": "Feature", "properties": { "visible_points": 1, "total_points": 67, "visibility_pct": 1.4925373134328357 }, "geometry": { "type": "Point", "coordinates": [ -0.266257240905267, 51.17338965300258 ] } }
]
}
