{
"type": "FeatureCollection",
"name": "af32b296e07e_visibility",
"crs": { "type": "name", "properties": { "name": "urn:ogc:def:crs:OGC:1.3:CRS84" } },
"features": [
{ "type": "Feature", "properties": { "visible_points": 14, "total_points": 58, "visibility_pct": 24.137931034482758 }, "geometry": { "type": "Point", "coordinates": [ -0.269515952926028, 51.169220124593124 ] } },
{ "type": "Feature", "properties": { "visible_points": 13, "total_points": 58, "visibility_pct": 22.413793103448278 }, "geometry": { "type": "Point", "coordinates": [ -0.269317854955334, 51.169217194164865 ] } },
{ "type": "Feature", "properties": { "visible_points": 10, "total_points": 55, "visibility_pct": 18.181818181818183 }, "geometry": { "type": "Point", "coordinates": [ -0.269119757018066, 51.16921426340118 ] } },
{ "type": "Feature", "properties": { "visible_points": 0, "total_points": 51, "visibility_pct": 0.0 }, "geometry": { "type": "Point", "coordinates": [ -0.268921659114216, 51.169211332302119 ] } },
{ "type": "Feature", "properties": { "visible_points": 11, "total_points": 65, "visibility_pct": 16.923076923076923 }, "geometry": { "type": "Point", "coordinates": [ -0.269610967602378, 51.169329444527612 ] } },
{ "type": "Feature", "properties": { "visible_points": 6, "total_points": 65, "visibility_pct": 9.2307692307692317 }, "geometry": { "type": "Point", "coordinates": [ -0.269412869150853, 51.169326514256767 ] } },
{ "type": "Feature", "properties": { "visible_points": 10, "total_points": 64, "visibility_pct": 15.625 }, "geometry": { "type": "Point", "coordinates": [ -0.269214770732741, 51.169323583650502 ] } },
{ "type": "Feature", "properties": { "visible_points": 1, "total_points": 61, "visibility_pct": 1.639344262295082 }, "geometry": { "type": "Point", "coordinates": [ -0.269016672348057, 51.169320652708841 ] } },
{ "type": "Feature", "properties": { "visible_points": 0, "total_points": 56, "visibility_pct": 0.0 }, "geometry": { "type": "Point", "coordinates": [ -0.268818573996791, 51.169317721431803 ] } },
{ "type": "Feature", "properties": { "visible_points": 10, "total_points": 68, "visibility_pct": 14.705882352941178 }, "geometry": { "type": "Point", "coordinates": [ -0.269705982726135, 51.169438764386371 ] } },
{ "type": "Feature", "properties": { "visible_points": 16, "total_points": 72, "visibility_pct": 22.222222222222221 }, "geometry": { "type": "Point", "coordinates": [ -0.26950788379377, 51.169435834272917 ] } },
{ "type": "Feature", "properties": { "visible_points": 15, "total_points": 73, "visibility_pct": 20.547945205479451 }, "geometry": { "type": "Point", "coordinates": [ -0.269309784894821, 51.169432903824081 ] } },
{ "type": "Feature", "properties": { "visible_points": 2, "total_points": 71, "visibility_pct": 2.8169014084507045 }, "geometry": { "type": "Point", "coordinates": [ -0.269111686029291, 51.169429973039854 ] } },
{ "type": "Feature", "properties": { "visible_points": 0, "total_points": 66, "visibility_pct": 0.0 }, "geometry": { "type": "Point", "coordinates": [ -0.268913587197189, 51.169427041920208 ] } },
{ "type": "Feature", "properties": { "visible_points": 13, "total_points": 74, "visibility_pct": 17.567567567567568 }, "geometry": { "type": "Point", "coordinates": [ -0.269602898884095, 51.169545154213324 ] } },
{ "type": "Feature", "properties": { "visible_points": 11, "total_points": 79, "visibility_pct": 13.924050632911392 }, "geometry": { "type": "Point", "coordinates": [ -0.269404799504308, 51.169542223921901 ] } },
{ "type": "Feature", "properties": { "visible_points": 8, "total_points": 80, "visibility_pct": 10.0 }, "geometry": { "type": "Point", "coordinates": [ -0.269206700157932, 51.169539293295081 ] } },
{ "type": "Feature", "properties": { "visible_points": 0, "total_points": 77, "visibility_pct": 0.0 }, "geometry": { "type": "Point", "coordinates": [ -0.269008600844984, 51.169536362332863 ] } },
{ "type": "Feature", "properties": { "visible_points": 12, "total_points": 73, "visibility_pct": 16.43835616438356 }, "geometry": { "type": "Point", "coordinates": [ -0.269697914421834, 51.169654474077973 ] } },
{ "type": "Feature", "properties": { "visible_points": 12, "total_points": 81, "visibility_pct": 14.814814814814813 }, "geometry": { "type": "Point", "coordinates": [ -0.2694998145612, 51.169651543943971 ] } },
{ "type": "Feature", "properties": { "visible_points": 8, "total_points": 85, "visibility_pct": 9.4117647058823533 }, "geometry": { "type": "Point", "coordinates": [ -0.269301714733981, 51.169648613474564 ] } },
{ "type": "Feature", "properties": { "visible_points": 0, "total_points": 86, "visibility_pct": 0.0 }, "geometry": { "type": "Point", "coordinates": [ -0.269103614940184, 51.16964568266976 ] } },
{ "type": "Feature", "properties": { "visible_points": 10, "total_points": 69, "visibility_pct": 14.492753623188406 }, "geometry": { "type": "Point", "coordinates": [ -0.269792930406986, 51.169763793866871 ] } },
{ "type": "Feature", "properties": { "visible_points": 12, "total_points": 78, "visibility_pct": 15.384615384615385 }, "geometry": { "type": "Point", "coordinates": [ -0.269594830065511, 51.169760863890289 ] } },
{ "type": "Feature", "properties": { "visible_points": 5, "total_points": 84, "visibility_pct": 5.9523809523809517 }, "geometry": { "type": "Point", "coordinates": [ -0.269396729757439, 51.169757933578303 ] } },
{ "type": "Feature", "properties": { "visible_points": 4, "total_points": 85, "visibility_pct": 4.7058823529411766 }, "geometry": { "type": "Point", "coordinates": [ -0.269198629482792, 51.16975500293092 ] } },
{ "type": "Feature", "properties": { "visible_points": 8, "total_points": 62, "visibility_pct": 12.903225806451612 }, "geometry": { "type": "Point", "coordinates": [ -0.269887946839561, 51.16987311358001 ] } },
{ "type": "Feature", "properties": { "visible_points": 14, "total_points": 71, "visibility_pct": 19.718309859154928 }, "geometry": { "type": "Point", "coordinates": [ -0.269689846017232, 51.169870183760871 ] } },
{ "type": "Feature", "properties": { "visible_points": 12, "total_points": 77, "visibility_pct": 15.584415584415584 }, "geometry": { "type": "Point", "coordinates": [ -0.269491745228313, 51.169867253606299 ] } },
{ "type": "Feature", "properties": { "visible_points": 4, "total_points": 79, "visibility_pct": 5.0632911392405067 }, "geometry": { "type": "Point", "coordinates": [ -0.269293644472817, 51.169864323116329 ] } },
{ "type": "Feature", "properties": { "visible_points": 1, "total_points": 79, "visibility_pct": 1.2658227848101267 }, "geometry": { "type": "Point", "coordinates": [ -0.269095543750738, 51.169861392290954 ] } },
{ "type": "Feature", "properties": { "visible_points": 4, "total_points": 69, "visibility_pct": 5.7971014492753623 }, "geometry": { "type": "Point", "coordinates": [ -0.269586761146609, 51.169976573558529 ] } },
{ "type": "Feature", "properties": { "visible_points": 3, "total_points": 72, "visibility_pct": 4.1666666666666661 }, "geometry": { "type": "Point", "coordinates": [ -0.269388659910256, 51.169973643225994 ] } },
{ "type": "Feature", "properties": { "visible_points": 0, "total_points": 72, "visibility_pct": 0.0 }, "geometry": { "type": "Point", "coordinates": [ -0.269190558707319, 51.169970712558019 ] } },
{ "type": "Feature", "properties": { "visible_points": 0, "total_points": 69, "visibility_pct": 0.0 }, "geometry": { "type": "Point", "coordinates": [ -0.268992457537813, 51.169967781554661 ] } },
{ "type": "Feature", "properties": { "visible_points": 0, "total_points": 65, "visibility_pct": 0.0 }, "geometry": { "type": "Point", "coordinates": [ -0.269285574111321, 51.170080032749347 ] } },
{ "type": "Feature", "properties": { "visible_points": 0, "total_points": 63, "visibility_pct": 0.0 }, "geometry": { "type": "Point", "coordinates": [ -0.269087472460955, 51.170077101903402 ] } },
{ "type": "Feature", "properties": { "visible_points": 0, "total_points": 58, "visibility_pct": 0.0 }, "geometry": { "type": "Point", "coordinates": [ -0.268889370844012, 51.170074170722053 ] } },
{ "type": "Feature", "properties": { "visible_points": 0, "total_points": 58, "visibility_pct": 0.0 }, "geometry": { "type": "Point", "coordinates": [ -0.269380589962749, 51.170189352864917 ] } },
{ "type": "Feature", "properties": { "visible_points": 0, "total_points": 57, "visibility_pct": 0.0 }, "geometry": { "type": "Point", "coordinates": [ -0.269182487831517, 51.170186422176393 ] } },
{ "type": "Feature", "properties": { "visible_points": 0, "total_points": 53, "visibility_pct": 0.0 }, "geometry": { "type": "Point", "coordinates": [ -0.268984385733709, 51.170183491152457 ] } },
{ "type": "Feature", "properties": { "visible_points": 0, "total_points": 48, "visibility_pct": 0.0 }, "geometry": { "type": "Point", "coordinates": [ -0.268786283669337, 51.170180559793131 ] } },
{ "type": "Feature", "properties": { "visible_points": 0, "total_points": 51, "visibility_pct": 0.0 }, "geometry": { "type": "Point", "coordinates": [ -0.2692775036495, 51.170295742373625 ] } },
{ "type": "Feature", "properties": { "visible_points": 0, "total_points": 44, "visibility_pct": 0.0 }, "geometry": { "type": "Point", "coordinates": [ -0.268881298525589, 51.170289880305205 ] } }
]
}
