{
"type": "FeatureCollection",
"name": "f1bc45ea9400_foliage",
"crs": { "type": "name", "properties": { "name": "urn:ogc:def:crs:OGC:1.3:CRS84" } },
"features": [
{ "type": "Feature", "properties": { "max_height": 13.694252014160156, "mean_height": 5.5481047630310059, "std_height": 4.7735319137573242, "count_pixels": 42, "percent_cover": 1.0624841892233747, "percent_above_0.1m": 80.952380952380949, "low_level_<0.5": 4.7619047619047619, "mid_level_0.5-2": 9.5238095238095237, "tall_2+": 61.904761904761905 }, "geometry": { "type": "Point", "coordinates": [ -0.268314333182608, 51.195526485731442 ] } },
{ "type": "Feature", "properties": { "max_height": 12.219497680664062, "mean_height": 2.0788955688476562, "std_height": 3.226726770401001, "count_pixels": 42, "percent_cover": 1.0624841892233747, "percent_above_0.1m": 61.904761904761905, "low_level_<0.5": 9.5238095238095237, "mid_level_0.5-2": 23.809523809523807, "tall_2+": 26.190476190476193 }, "geometry": { "type": "Point", "coordinates": [ -0.268116121602779, 51.195523552243237 ] } },
{ "type": "Feature", "properties": { "max_height": 6.865753173828125, "mean_height": 0.62332618236541748, "std_height": 1.1627142429351807, "count_pixels": 41, "percent_cover": 1.0371869466228181, "percent_above_0.1m": 56.09756097560976, "low_level_<0.5": 9.7560975609756095, "mid_level_0.5-2": 29.268292682926827, "tall_2+": 4.8780487804878048 }, "geometry": { "type": "Point", "coordinates": [ -0.267917909451812, 51.195520618571159 ] } },
{ "type": "Feature", "properties": { "max_height": 3.0065040588378906, "mean_height": 0.65008234977722168, "std_height": 0.81815475225448608, "count_pixels": 41, "percent_cover": 1.0371869466228181, "percent_above_0.1m": 51.219512195121951, "low_level_<0.5": 4.8780487804878048, "mid_level_0.5-2": 36.585365853658537, "tall_2+": 7.3170731707317067 }, "geometry": { "type": "Point", "coordinates": [ -0.268607612112235, 51.195638742761517 ] } },
{ "type": "Feature", "properties": { "max_height": 4.0965042114257812, "mean_height": 1.5294170379638672, "std_height": 1.1527364253997803, "count_pixels": 41, "percent_cover": 1.0371869466228181, "percent_above_0.1m": 97.560975609756099, "low_level_<0.5": 21.951219512195124, "mid_level_0.5-2": 43.902439024390247, "tall_2+": 31.707317073170731 }, "geometry": { "type": "Point", "coordinates": [ -0.268409400645762, 51.195635809606841 ] } },
{ "type": "Feature", "properties": { "max_height": 9.6835060119628906, "mean_height": 1.1888536214828491, "std_height": 2.2783908843994141, "count_pixels": 42, "percent_cover": 1.0624841892233747, "percent_above_0.1m": 42.857142857142854, "low_level_<0.5": 4.7619047619047619, "mid_level_0.5-2": 19.047619047619047, "tall_2+": 19.047619047619047 }, "geometry": { "type": "Point", "coordinates": [ -0.268211188906894, 51.195632876161234 ] } },
{ "type": "Feature", "properties": { "max_height": 6.3860015869140625, "mean_height": 3.0308127403259277, "std_height": 2.2988760471343994, "count_pixels": 42, "percent_cover": 1.0624841892233747, "percent_above_0.1m": 78.571428571428569, "low_level_<0.5": 2.3809523809523809, "mid_level_0.5-2": 14.285714285714285, "tall_2+": 59.523809523809526 }, "geometry": { "type": "Point", "coordinates": [ -0.268012976512301, 51.195629942620918 ] } },
{ "type": "Feature", "properties": { "max_height": 5.6290054321289062, "mean_height": 0.69820046424865723, "std_height": 1.1362564563751221, "count_pixels": 43, "percent_cover": 1.0877814318239312, "percent_above_0.1m": 60.465116279069761, "low_level_<0.5": 18.604651162790699, "mid_level_0.5-2": 32.558139534883722, "tall_2+": 6.9767441860465116 }, "geometry": { "type": "Point", "coordinates": [ -0.267814763897916, 51.195627008775908 ] } },
{ "type": "Feature", "properties": { "max_height": 13.817752838134766, "mean_height": 5.2362055778503418, "std_height": 4.9349408149719238, "count_pixels": 42, "percent_cover": 1.0624841892233747, "percent_above_0.1m": 71.428571428571431, "low_level_<0.5": 7.1428571428571423, "mid_level_0.5-2": 9.5238095238095237, "tall_2+": 54.761904761904766 }, "geometry": { "type": "Point", "coordinates": [ -0.26909910450902, 51.195753931386996 ] } },
{ "type": "Feature", "properties": { "max_height": 17.330757141113281, "mean_height": 10.192359924316406, "std_height": 5.9098110198974609, "count_pixels": 42, "percent_cover": 1.0624841892233747, "percent_above_0.1m": 92.857142857142861, "low_level_<0.5": 4.7619047619047619, "mid_level_0.5-2": 4.7619047619047619, "tall_2+": 80.952380952380949 }, "geometry": { "type": "Point", "coordinates": [ -0.268900892488744, 51.195750999062945 ] } },
{ "type": "Feature", "properties": { "max_height": 6.373504638671875, "mean_height": 2.5032715797424316, "std_height": 2.3712253570556641, "count_pixels": 42, "percent_cover": 1.0624841892233747, "percent_above_0.1m": 90.476190476190482, "low_level_<0.5": 11.904761904761903, "mid_level_0.5-2": 23.809523809523807, "tall_2+": 45.238095238095241 }, "geometry": { "type": "Point", "coordinates": [ -0.268702680502188, 51.195748066403091 ] } },
{ "type": "Feature", "properties": { "max_height": 6.2517509460449219, "mean_height": 1.7690087556838989, "std_height": 2.0550694465637207, "count_pixels": 43, "percent_cover": 1.0877814318239312, "percent_above_0.1m": 67.441860465116278, "low_level_<0.5": 6.9767441860465116, "mid_level_0.5-2": 20.930232558139537, "tall_2+": 37.209302325581397 }, "geometry": { "type": "Point", "coordinates": [ -0.268504468549352, 51.195745133407442 ] } },
{ "type": "Feature", "properties": { "max_height": 6.6415061950683594, "mean_height": 2.6658482551574707, "std_height": 2.0918164253234863, "count_pixels": 42, "percent_cover": 1.0624841892233747, "percent_above_0.1m": 83.333333333333343, "low_level_<0.5": 4.7619047619047619, "mid_level_0.5-2": 21.428571428571427, "tall_2+": 57.142857142857139 }, "geometry": { "type": "Point", "coordinates": [ -0.268306256595064, 51.195742200081192 ] } },
{ "type": "Feature", "properties": { "max_height": 5.4010009765625, "mean_height": 0.93523508310317993, "std_height": 1.6148257255554199, "count_pixels": 42, "percent_cover": 1.0624841892233747, "percent_above_0.1m": 42.857142857142854, "low_level_<0.5": 7.1428571428571423, "mid_level_0.5-2": 16.666666666666664, "tall_2+": 16.666666666666664 }, "geometry": { "type": "Point", "coordinates": [ -0.268108044036191, 51.195739266589662 ] } },
{ "type": "Feature", "properties": { "max_height": 6.3737525939941406, "mean_height": 1.6491062641143799, "std_height": 1.7785224914550781, "count_pixels": 41, "percent_cover": 1.0371869466228181, "percent_above_0.1m": 73.170731707317074, "low_level_<0.5": 9.7560975609756095, "mid_level_0.5-2": 29.268292682926827, "tall_2+": 34.146341463414636 }, "geometry": { "type": "Point", "coordinates": [ -0.26790983092404, 51.195736332907714 ] } },
{ "type": "Feature", "properties": { "max_height": 15.472251892089844, "mean_height": 10.859131813049316, "std_height": 3.8905529975891113, "count_pixels": 41, "percent_cover": 1.0371869466228181, "percent_above_0.1m": 100.0, "low_level_<0.5": 0.0, "mid_level_0.5-2": 4.8780487804878048, "tall_2+": 95.121951219512198 }, "geometry": { "type": "Point", "coordinates": [ -0.267711617846228, 51.195733398889757 ] } },
{ "type": "Feature", "properties": { "max_height": 19.159255981445312, "mean_height": 9.4938907623291016, "std_height": 5.5123729705810547, "count_pixels": 42, "percent_cover": 1.0624841892233747, "percent_above_0.1m": 97.61904761904762, "low_level_<0.5": 0.0, "mid_level_0.5-2": 0.0, "tall_2+": 97.61904761904762 }, "geometry": { "type": "Point", "coordinates": [ -0.268995961817667, 51.195860322468313 ] } },
{ "type": "Feature", "properties": { "max_height": 11.338005065917969, "mean_height": 2.3039176464080811, "std_height": 3.0916707515716553, "count_pixels": 38, "percent_cover": 0.96129521882114854, "percent_above_0.1m": 65.789473684210535, "low_level_<0.5": 7.8947368421052628, "mid_level_0.5-2": 28.947368421052634, "tall_2+": 28.947368421052634 }, "geometry": { "type": "Point", "coordinates": [ -0.268797749344747, 51.195857389967479 ] } },
{ "type": "Feature", "properties": { "max_height": 6.1227569580078125, "mean_height": 1.9451249837875366, "std_height": 1.7743782997131348, "count_pixels": 41, "percent_cover": 1.0371869466228181, "percent_above_0.1m": 70.731707317073173, "low_level_<0.5": 0.0, "mid_level_0.5-2": 19.512195121951219, "tall_2+": 51.219512195121951 }, "geometry": { "type": "Point", "coordinates": [ -0.268599536905556, 51.195854457130835 ] } },
{ "type": "Feature", "properties": { "max_height": 2.3657493591308594, "mean_height": 0.47635045647621155, "std_height": 0.69533991813659668, "count_pixels": 41, "percent_cover": 1.0371869466228181, "percent_above_0.1m": 51.219512195121951, "low_level_<0.5": 19.512195121951219, "mid_level_0.5-2": 26.829268292682929, "tall_2+": 2.4390243902439024 }, "geometry": { "type": "Point", "coordinates": [ -0.268401324500089, 51.195851523958403 ] } },
{ "type": "Feature", "properties": { "max_height": 11.055252075195312, "mean_height": 3.2265925407409668, "std_height": 2.6396200656890869, "count_pixels": 42, "percent_cover": 1.0624841892233747, "percent_above_0.1m": 95.238095238095227, "low_level_<0.5": 0.0, "mid_level_0.5-2": 30.952380952380953, "tall_2+": 64.285714285714292 }, "geometry": { "type": "Point", "coordinates": [ -0.268203111787797, 51.195848590506657 ] } },
{ "type": "Feature", "properties": { "max_height": 13.313507080078125, "mean_height": 3.8945269584655762, "std_height": 4.2484340667724609, "count_pixels": 42, "percent_cover": 1.0624841892233747, "percent_above_0.1m": 76.19047619047619, "low_level_<0.5": 14.285714285714285, "mid_level_0.5-2": 11.904761904761903, "tall_2+": 50.0 }, "geometry": { "type": "Point", "coordinates": [ -0.268004898413561, 51.195845656958483 ] } },
{ "type": "Feature", "properties": { "max_height": 11.3385009765625, "mean_height": 4.5217123031616211, "std_height": 2.7292211055755615, "count_pixels": 43, "percent_cover": 1.0877814318239312, "percent_above_0.1m": 95.348837209302332, "low_level_<0.5": 0.0, "mid_level_0.5-2": 11.627906976744185, "tall_2+": 83.720930232558146 }, "geometry": { "type": "Point", "coordinates": [ -0.267806684837989, 51.19584272310361 ] } },
{ "type": "Feature", "properties": { "max_height": 12.711002349853516, "mean_height": 3.4912588596343994, "std_height": 2.8098709583282471, "count_pixels": 42, "percent_cover": 1.0624841892233747, "percent_above_0.1m": 97.61904761904762, "low_level_<0.5": 9.5238095238095237, "mid_level_0.5-2": 16.666666666666664, "tall_2+": 71.428571428571431 }, "geometry": { "type": "Point", "coordinates": [ -0.268892818639928, 51.195966713454666 ] } },
{ "type": "Feature", "properties": { "max_height": 4.7332572937011719, "mean_height": 0.69792568683624268, "std_height": 1.2952060699462891, "count_pixels": 42, "percent_cover": 1.0624841892233747, "percent_above_0.1m": 30.952380952380953, "low_level_<0.5": 4.7619047619047619, "mid_level_0.5-2": 7.1428571428571423, "tall_2+": 19.047619047619047 }, "geometry": { "type": "Point", "coordinates": [ -0.268694605714368, 51.195963780777056 ] } },
{ "type": "Feature", "properties": { "max_height": 9.7685089111328125, "mean_height": 3.0101892948150635, "std_height": 3.4603989124298096, "count_pixels": 43, "percent_cover": 1.0877814318239312, "percent_above_0.1m": 81.395348837209298, "low_level_<0.5": 13.953488372093023, "mid_level_0.5-2": 23.255813953488371, "tall_2+": 41.860465116279073 }, "geometry": { "type": "Point", "coordinates": [ -0.268496392822539, 51.195960847763644 ] } },
{ "type": "Feature", "properties": { "max_height": 17.721504211425781, "mean_height": 7.8261637687683105, "std_height": 5.444737434387207, "count_pixels": 42, "percent_cover": 1.0624841892233747, "percent_above_0.1m": 88.095238095238088, "low_level_<0.5": 2.3809523809523809, "mid_level_0.5-2": 2.3809523809523809, "tall_2+": 83.333333333333343 }, "geometry": { "type": "Point", "coordinates": [ -0.268298179905429, 51.195957914422571 ] } },
{ "type": "Feature", "properties": { "max_height": 15.426750183105469, "mean_height": 7.0568838119506836, "std_height": 4.4457473754882812, "count_pixels": 42, "percent_cover": 1.0624841892233747, "percent_above_0.1m": 97.61904761904762, "low_level_<0.5": 2.3809523809523809, "mid_level_0.5-2": 9.5238095238095237, "tall_2+": 85.714285714285708 }, "geometry": { "type": "Point", "coordinates": [ -0.268099966366493, 51.195954980928214 ] } },
{ "type": "Feature", "properties": { "max_height": 10.637508392333984, "mean_height": 3.4315426349639893, "std_height": 3.2127134799957275, "count_pixels": 38, "percent_cover": 0.96129521882114854, "percent_above_0.1m": 92.10526315789474, "low_level_<0.5": 7.8947368421052628, "mid_level_0.5-2": 31.578947368421051, "tall_2+": 52.631578947368418 }, "geometry": { "type": "Point", "coordinates": [ -0.268789674975801, 51.196073104346056 ] } },
{ "type": "Feature", "properties": { "max_height": 21.213253021240234, "mean_height": 5.8438515663146973, "std_height": 6.8986716270446777, "count_pixels": 41, "percent_cover": 1.0371869466228181, "percent_above_0.1m": 73.170731707317074, "low_level_<0.5": 9.7560975609756095, "mid_level_0.5-2": 7.3170731707317067, "tall_2+": 56.09756097560976 }, "geometry": { "type": "Point", "coordinates": [ -0.268591461597604, 51.196070171491662 ] } },
{ "type": "Feature", "properties": { "max_height": 14.578998565673828, "mean_height": 7.0675950050354004, "std_height": 5.0329875946044922, "count_pixels": 41, "percent_cover": 1.0371869466228181, "percent_above_0.1m": 100.0, "low_level_<0.5": 2.4390243902439024, "mid_level_0.5-2": 19.512195121951219, "tall_2+": 75.609756097560975 }, "geometry": { "type": "Point", "coordinates": [ -0.268393248253131, 51.196067238301467 ] } },
{ "type": "Feature", "properties": { "max_height": 19.960250854492188, "mean_height": 14.045985221862793, "std_height": 4.8456296920776367, "count_pixels": 42, "percent_cover": 1.0624841892233747, "percent_above_0.1m": 100.0, "low_level_<0.5": 2.3809523809523809, "mid_level_0.5-2": 0.0, "tall_2+": 97.61904761904762 }, "geometry": { "type": "Point", "coordinates": [ -0.268686530825288, 51.196179495142495 ] } }
]
}
