{
"type": "FeatureCollection",
"name": "TUNWE_69_cycling",
"crs": { "type": "name", "properties": { "name": "urn:ogc:def:crs:OGC:1.3:CRS84" } },
"features": [
{"type":"Feature","properties":{"highway":"track","name":null,"category":"Track"},"geometry":{"type":"MultiLineString","coordinates":[[[0.4482974,51.0722995],[0.4483618,51.0722569],[0.4484541,51.0721286],[0.4484212,51.0720584],[0.4482925,51.071952],[0.4478575,51.071557],[0.4473854,51.07122],[0.4473138,51.0711608],[0.4470429,51.0709369],[0.4467876,51.070653],[0.4465219,51.0703508],[0.4464342,51.0701918],[0.4464395,51.0699695],[0.4465001,51.0696521],[0.4465353,51.0696082],[0.447119,51.0695114]]]}},
{"type":"Feature","properties":{"highway":"path","name":null,"category":"Shared path"},"geometry":{"type":"MultiLineString","coordinates":[[[0.4578848,51.0678589],[0.4575142,51.067593],[0.457213,51.0672423],[0.456613,51.0668379],[0.4561294,51.0666018],[0.4557547,51.0661367],[0.4551539,51.0656512],[0.4545523,51.0652736],[0.4545531,51.0652467],[0.4539093,51.0648422],[0.4533514,51.0644915],[0.4526219,51.064114],[0.4520211,51.0637364],[0.4515061,51.0634936],[0.4510729,51.0632591]]]}},
{"type":"Feature","properties":{"highway":"track","name":null,"category":"Track"},"geometry":{"type":"MultiLineString","coordinates":[[[0.4482974,51.0722995],[0.4482405,51.0723708]]]}},
{"type":"Feature","properties":{"highway":"track","name":null,"category":"Track"},"geometry":{"type":"MultiLineString","coordinates":[[[0.4472859,51.0694278],[0.4475734,51.0694318],[0.4479536,51.0694112],[0.4483733,51.0692919],[0.4487166,51.0692919],[0.4493983,51.0692141],[0.4499991,51.0690308],[0.4504283,51.0688528],[0.4506858,51.068691],[0.4510291,51.0684752],[0.4515012,51.0682865],[0.4518874,51.0681247],[0.4523166,51.0680168]]]}},
{"type":"Feature","properties":{"highway":"track","name":null,"category":"Track"},"geometry":{"type":"MultiLineString","coordinates":[[[0.4472859,51.0694278],[0.4473824,51.0692572],[0.4474212,51.0691438],[0.4474205,51.068936],[0.447276,51.0686638],[0.4470815,51.068364],[0.4469456,51.0681544],[0.4468521,51.0679912],[0.446667,51.0676682],[0.4466057,51.0675611],[0.4465755,51.0674289],[0.4465259,51.0672123],[0.4464915,51.0670618],[0.4464539,51.0668974],[0.4463759,51.0667623],[0.4462918,51.0666417],[0.4461808,51.0664825],[0.4461418,51.0664266],[0.4460703,51.0662956],[0.446025,51.0662126],[0.4459854,51.0661142],[0.445972,51.0660421],[0.4459061,51.0656859],[0.4458994,51.0656497],[0.445883,51.0654729],[0.4458624,51.0652504],[0.4458536,51.0652124],[0.4457998,51.0649795],[0.4457919,51.0649453],[0.4457313,51.0647915],[0.4456836,51.0646705],[0.4456655,51.0645685],[0.4456455,51.0644553],[0.4456377,51.0644074],[0.4456295,51.0643572],[0.4456476,51.0642883],[0.4456634,51.0642278],[0.4456895,51.0641746],[0.4457109,51.0641309],[0.4458055,51.0640681],[0.4458454,51.0640416],[0.4460061,51.0639463],[0.4461412,51.0638912],[0.4462631,51.0638415],[0.4465264,51.0637338],[0.4467006,51.0636626],[0.446882,51.0635968],[0.446914,51.0635852],[0.4472098,51.0634779],[0.4473148,51.0634402],[0.4476113,51.0633339],[0.4477185,51.0632954],[0.4478381,51.0632668],[0.4479535,51.0632391],[0.4481585,51.0632124],[0.4484042,51.0631804],[0.4486632,51.063203],[0.4489897,51.0632316],[0.4492253,51.0632568],[0.4494468,51.0632804],[0.4495146,51.0632823],[0.4498367,51.0632914],[0.449927,51.0632895],[0.4501556,51.0632846]]]}},
{"type":"Feature","properties":{"highway":"cycleway","name":"Genesis","category":"Dedicated cycleway"},"geometry":{"type":"MultiLineString","coordinates":[[[0.4501556,51.0632846],[0.4504001,51.0631266],[0.4505203,51.0629378],[0.4503486,51.0628029],[0.4504173,51.0627058],[0.4503314,51.0626303],[0.4502885,51.0621124],[0.4501598,51.0621017],[0.4499452,51.0620909],[0.4498164,51.0619938],[0.4497306,51.0618589],[0.4498336,51.0617672],[0.4498851,51.0616162],[0.4499023,51.0615083],[0.4499709,51.0613572],[0.4498851,51.0612655],[0.4499194,51.0612116],[0.4499023,51.0610659],[0.4497993,51.0609419],[0.4496877,51.060861],[0.4495589,51.060807],[0.4496019,51.0607261],[0.4497306,51.0606883],[0.4499194,51.060656],[0.4500739,51.0606722],[0.4502027,51.0606182],[0.4503314,51.0605481],[0.4504344,51.0605912],[0.4505031,51.0606991],[0.4506919,51.0608178],[0.4507777,51.0609419],[0.4509322,51.0610767],[0.4509322,51.0612925],[0.4509151,51.0615083],[0.4509752,51.0616162],[0.4511468,51.0616701],[0.4522025,51.0616971],[0.4523914,51.0616971],[0.4525844,51.0617093],[0.4528258,51.0618509],[0.4527722,51.0619925],[0.4527775,51.0621813],[0.4529766,51.0622846],[0.4530391,51.0622925]]]}},
{"type":"Feature","properties":{"highway":"track","name":null,"category":"Track"},"geometry":{"type":"MultiLineString","coordinates":[[[0.4503791,51.063281],[0.450586,51.0632745],[0.4509244,51.0632638],[0.4510729,51.0632591],[0.4513083,51.0632594],[0.4516039,51.0632597],[0.4517195,51.0632608],[0.4519502,51.063263],[0.4520054,51.0632635],[0.4521663,51.0632414],[0.4523143,51.0632211],[0.4524255,51.0631922],[0.4525889,51.0631497],[0.4527001,51.0631058],[0.4528337,51.063053],[0.4529035,51.0630255],[0.453017,51.0629816],[0.4530961,51.062951],[0.4531749,51.0628829]]]}},
{"type":"Feature","properties":{"highway":"cycleway","name":"Starvegoose","category":"Dedicated cycleway"},"geometry":{"type":"MultiLineString","coordinates":[[[0.4513729,51.0648829],[0.4512498,51.0648796],[0.4510438,51.0647879],[0.4507606,51.064734],[0.4504602,51.0647178],[0.4500997,51.064583],[0.4500482,51.0644859],[0.4501855,51.0644103],[0.4505288,51.0643025],[0.4506747,51.0641946],[0.4506147,51.0639357],[0.4503915,51.0634502],[0.4503791,51.063281]]]}},
{"type":"Feature","properties":{"highway":"path","name":null,"category":"Shared path"},"geometry":{"type":"MultiLineString","coordinates":[[[0.4477608,51.0730751],[0.4477112,51.0730406],[0.4476632,51.0729945],[0.4476833,51.0729356],[0.4477267,51.0728719],[0.4478279,51.0727987],[0.4479286,51.0727201]]]}},
{"type":"Feature","properties":{"highway":"path","name":null,"category":"Shared path"},"geometry":{"type":"MultiLineString","coordinates":[[[0.4483318,51.0723163],[0.4482669,51.0723907],[0.4482265,51.0724443],[0.4481571,51.0726301],[0.448057,51.0727038],[0.4479286,51.0727201],[0.4478639,51.0727283],[0.4476678,51.072747],[0.447482,51.0726038],[0.4473516,51.0725326],[0.4470042,51.0724371],[0.4464968,51.0723026],[0.4461679,51.0721976],[0.4460449,51.0721508],[0.4456876,51.0719713],[0.4456915,51.0719224],[0.4456924,51.0718561],[0.4455786,51.0717965],[0.4455354,51.0717488],[0.4454854,51.0716458],[0.4454301,51.0715569],[0.4454163,51.0714712],[0.4453905,51.071392],[0.4453767,51.0713281],[0.4453646,51.0712739],[0.4453439,51.0711741],[0.4453577,51.0711166],[0.4453508,51.0710353],[0.445349,51.07098],[0.4453456,51.0709236],[0.4453214,51.0708705],[0.4453024,51.0708314],[0.4453059,51.0707924],[0.4453232,51.0707501],[0.4453232,51.0707078],[0.4452714,51.0706796],[0.4451765,51.0706493],[0.4451161,51.0706135],[0.4450678,51.0705593],[0.4450177,51.0704693],[0.4449798,51.0703825],[0.4449798,51.0703066],[0.4449659,51.0702296],[0.444959,51.0701234],[0.4449314,51.0700616],[0.4448883,51.0699911],[0.4448659,51.069939],[0.4448348,51.0698501],[0.4448296,51.0697666],[0.4448158,51.0696701],[0.444783,51.069592],[0.4448141,51.0694955],[0.4449159,51.0694012],[0.4449901,51.0693502],[0.4450298,51.0692765],[0.445066,51.069154],[0.4451678,51.0690271],[0.44528,51.0689403],[0.4453214,51.0688688],[0.4453318,51.0688135],[0.445337,51.0687538],[0.4453249,51.0685933],[0.4452852,51.0685261],[0.4452265,51.0684394],[0.4451937,51.0683721],[0.4451592,51.068293],[0.4451523,51.0681856],[0.4451351,51.0679731],[0.445123,51.0678224],[0.4451092,51.067625],[0.4451437,51.0675588],[0.4452472,51.0675361],[0.4453421,51.0675187],[0.4454578,51.0674634],[0.4456148,51.0673691],[0.4457632,51.0673268],[0.4458339,51.0672867],[0.4459547,51.067278],[0.4460186,51.0672639],[0.4460479,51.0672292],[0.4459944,51.067201],[0.4459375,51.067163],[0.4459806,51.0670774],[0.4460255,51.0669158],[0.4460065,51.0668475],[0.4459806,51.0667434],[0.4459012,51.0666848],[0.4458736,51.0666241],[0.4458598,51.0665666],[0.4458547,51.0665135],[0.4458201,51.0664538],[0.4456553,51.0662221],[0.4456526,51.0661137],[0.4456526,51.0660256],[0.4455178,51.0659086],[0.44541,51.0657951],[0.4455367,51.065668],[0.445569,51.0655376],[0.4455097,51.0654562],[0.4454558,51.0653224],[0.4454127,51.0651885],[0.4453938,51.0650512],[0.4453722,51.0648615],[0.4453614,51.064731],[0.4453453,51.0646225],[0.4454558,51.0645107],[0.4456455,51.0644553]]]}},
{"type":"Feature","properties":{"highway":"path","name":null,"category":"Shared path"},"geometry":{"type":"MultiLineString","coordinates":[[[0.4531532,51.0675426],[0.4530364,51.0674661],[0.4525203,51.0671718],[0.4522102,51.0671021],[0.4519098,51.0669672],[0.4511266,51.0668526],[0.450794,51.0667312],[0.4502469,51.0664413],[0.4495817,51.0660975],[0.449056,51.0659424],[0.4485265,51.0658372],[0.4481547,51.0655851],[0.4476009,51.0650364],[0.4472257,51.0647986],[0.4467452,51.0645535],[0.4464126,51.0641152],[0.4463083,51.0639347],[0.4462631,51.0638415]]]}},
{"type":"Feature","properties":{"highway":"cycleway","name":"Cake Run","category":"Dedicated cycleway"},"geometry":{"type":"MultiLineString","coordinates":[[[0.4463083,51.0639347],[0.4462128,51.0640277],[0.4462342,51.0641153],[0.4461334,51.0641581],[0.4460228,51.064259],[0.4459835,51.0643391],[0.4459541,51.0644316],[0.4459884,51.0644717],[0.4460914,51.0644809],[0.4461601,51.0644994],[0.446268,51.0645179],[0.4464348,51.0645364],[0.4465034,51.0645703],[0.4464887,51.0646474],[0.4464299,51.0646844],[0.446268,51.0647614],[0.4462729,51.0648385],[0.446371,51.0648785],[0.4465181,51.0648909],[0.4466604,51.0649001],[0.4467241,51.0649371],[0.4468026,51.0649556],[0.4468811,51.0650172],[0.4469448,51.0650666],[0.4470675,51.0651714],[0.447092,51.0652392],[0.4470527,51.0653871],[0.4469547,51.0655628],[0.4469154,51.0656738],[0.4468418,51.0658125],[0.4468124,51.0659481],[0.4468173,51.066022],[0.4467683,51.0661207],[0.4467585,51.0661916],[0.4468026,51.066244],[0.4468517,51.0662994],[0.4468517,51.0663796],[0.4468566,51.0664412],[0.4469645,51.0664566],[0.4471165,51.066472],[0.4472538,51.066469],[0.4474451,51.0664351],[0.4476364,51.0664258],[0.4477443,51.0664474],[0.4478571,51.0664844],[0.447916,51.0665922],[0.4478473,51.0666816],[0.4477835,51.0667279],[0.4476805,51.066771],[0.4475579,51.066808],[0.44745,51.0668758],[0.4473715,51.0669251],[0.4473225,51.0669621],[0.4472489,51.0670145],[0.4471606,51.06707],[0.447092,51.06711],[0.4470822,51.0671624],[0.4471116,51.0672056],[0.447195,51.0672487],[0.4472784,51.0672826],[0.4473814,51.0672857],[0.4475923,51.0673135],[0.4476805,51.0673196],[0.447813,51.0673504],[0.4478669,51.0673967],[0.4478816,51.0674337],[0.4479552,51.0674583],[0.448019,51.0674552],[0.4480974,51.0674429],[0.4481661,51.0674429],[0.4482985,51.0674645],[0.4483525,51.0674737],[0.4484113,51.0674953],[0.4484947,51.0675169],[0.4486026,51.0675415],[0.448735,51.0675754],[0.4488527,51.0675785],[0.4489999,51.0676248],[0.4491029,51.0676648],[0.4492206,51.0677326],[0.449304,51.0678004],[0.4494266,51.0678097],[0.4495639,51.0678282],[0.4496277,51.067859],[0.4496277,51.0679175],[0.4495835,51.0679977],[0.4495443,51.0680809],[0.4495198,51.0681302],[0.4494511,51.0681857],[0.4493432,51.0682381],[0.4492647,51.0682812],[0.449201,51.0683799],[0.4491519,51.0684816],[0.4491029,51.0685555],[0.449044,51.0686264],[0.4489312,51.0687158],[0.4487596,51.0687528],[0.4486271,51.0687959],[0.4484996,51.0688791],[0.4483721,51.0689685],[0.4483034,51.0690363],[0.4481857,51.069101],[0.4480827,51.0691904],[0.4478972,51.0691918],[0.4477363,51.0692053],[0.4476826,51.0691312],[0.4474212,51.0691438]]]}},
{"type":"Feature","properties":{"highway":"path","name":null,"category":"Shared path"},"geometry":{"type":"MultiLineString","coordinates":[[[0.4435248,51.0644656],[0.4439842,51.0648367],[0.4443798,51.0651702],[0.4449487,51.0656748],[0.4454072,51.066006],[0.4456526,51.0661137],[0.4459854,51.0661142]]]}},
{"type":"Feature","properties":{"highway":"track","name":null,"category":"Track"},"geometry":{"type":"MultiLineString","coordinates":[[[0.4396004,51.0731555],[0.4389108,51.0716734],[0.4387205,51.0711912],[0.4386241,51.0708841],[0.4383978,51.0704936]]]}},
{"type":"Feature","properties":{"highway":"track","name":null,"category":"Track"},"geometry":{"type":"MultiLineString","coordinates":[[[0.4435089,51.0712861],[0.4434985,51.0713421],[0.4434952,51.071516],[0.4434575,51.071805],[0.4434159,51.0721998],[0.4434336,51.0724047],[0.4435088,51.0727818],[0.4436054,51.0732695],[0.443789,51.0735935],[0.444022,51.0738962],[0.4443153,51.0741169],[0.4445595,51.0742068],[0.4448804,51.0742869],[0.4450488,51.0743289],[0.4452436,51.074325],[0.445599,51.074282],[0.4460321,51.074256]]]}},
{"type":"Feature","properties":{"highway":"track","name":null,"category":"Track"},"geometry":{"type":"MultiLineString","coordinates":[[[0.4501556,51.0632846],[0.4502651,51.0632828],[0.4503791,51.063281]]]}},
{"type":"Feature","properties":{"highway":"track","name":null,"category":"Track"},"geometry":{"type":"MultiLineString","coordinates":[[[0.4468769,51.0718056],[0.4469121,51.0717466],[0.446998,51.071674],[0.4472317,51.0715612],[0.447282,51.0714694],[0.4473078,51.0713593],[0.4473138,51.0711608]]]}},
{"type":"Feature","properties":{"highway":"track","name":null,"category":"Track"},"geometry":{"type":"MultiLineString","coordinates":[[[0.4460641,51.0718914],[0.4460655,51.0718085],[0.4461357,51.0716301],[0.4462262,51.0715225],[0.4463964,51.0713942],[0.4463957,51.07129],[0.4463008,51.0712129],[0.445748,51.0708211],[0.4456252,51.0707119],[0.4454631,51.0705408],[0.4453609,51.0703325],[0.4452257,51.0701989],[0.445034,51.0699955],[0.4450108,51.0698445],[0.4450045,51.06962],[0.4449698,51.0694853],[0.4449791,51.0694404],[0.445056,51.0694185],[0.4453218,51.0694444],[0.445818,51.0695295],[0.4461745,51.0695833],[0.4464469,51.0696023],[0.4465353,51.0696082]]]}},
{"type":"Feature","properties":{"highway":"path","name":null,"category":"Shared path"},"geometry":{"type":"MultiLineString","coordinates":[[[0.4466852,51.0727887],[0.4467525,51.0728676],[0.4469412,51.0728972],[0.4476678,51.072747]]]}},
{"type":"Feature","properties":{"highway":"track","name":null,"category":"Track"},"geometry":{"type":"MultiLineString","coordinates":[[[0.4439642,51.0714085],[0.4438818,51.0714913],[0.4438442,51.071569],[0.443852,51.0717391],[0.4439679,51.0720905],[0.4441724,51.0725412],[0.4443538,51.0728174],[0.4447429,51.0731911],[0.4449272,51.0733889],[0.4450144,51.0735566],[0.4450368,51.0737487],[0.4449841,51.0739629],[0.444914,51.0741605],[0.4448804,51.0742869]]]}},
{"type":"Feature","properties":{"highway":"path","name":null,"category":"Shared path"},"geometry":{"type":"MultiLineString","coordinates":[[[0.4443911,51.0639246],[0.4444903,51.0639583],[0.4445761,51.0639533],[0.4447398,51.0639179],[0.4448497,51.0639145],[0.4449785,51.0639179],[0.4450777,51.0639314],[0.4451609,51.0639533],[0.4452762,51.0639786],[0.4454318,51.0640527],[0.4457109,51.0641309]]]}},
{"type":"Feature","properties":{"highway":"path","name":null,"category":"Shared path"},"geometry":{"type":"MultiLineString","coordinates":[[[0.451403,51.069026],[0.4513544,51.0691657],[0.4511852,51.0691622],[0.4510934,51.0692449],[0.4510524,51.0692856],[0.450998,51.069305],[0.4509169,51.0693482],[0.4509004,51.069445],[0.4508695,51.0695124],[0.4507815,51.0695586],[0.4506498,51.0696048],[0.450589,51.0696407],[0.4505127,51.0697184],[0.450382,51.0697783],[0.4502965,51.06987],[0.4500469,51.0699636],[0.4498852,51.0700122],[0.4496637,51.0699928],[0.4494723,51.0700356],[0.449237,51.0701981],[0.4489938,51.0702528],[0.4489484,51.0704171],[0.448794,51.070533],[0.4486482,51.0705957],[0.4485749,51.0706419]]]}},
{"type":"Feature","properties":{"highway":"track","name":null,"category":"Track"},"geometry":{"type":"MultiLineString","coordinates":[[[0.447119,51.0695114],[0.4471904,51.0694806],[0.4472859,51.0694278]]]}},
{"type":"Feature","properties":{"highway":"track","name":null,"category":"Track"},"geometry":{"type":"MultiLineString","coordinates":[[[0.4331253,51.0680843],[0.4329032,51.0684063],[0.4328334,51.0685075]]]}}
]
}
