{
"type": "FeatureCollection",
"name": "7567fd7efa54_foliage",
"crs": { "type": "name", "properties": { "name": "urn:ogc:def:crs:OGC:1.3:CRS84" } },
"features": [
{ "type": "Feature", "properties": { "max_height": 5.9910049438476562, "mean_height": 0.7290656566619873, "std_height": 1.4764031171798706, "count_pixels": 42, "percent_cover": 1.364522417153996, "percent_above_0.1m": 35.714285714285715, "low_level_<0.5": 7.1428571428571423, "mid_level_0.5-2": 11.904761904761903, "tall_2+": 14.285714285714285 }, "geometry": { "type": "Point", "coordinates": [ -1.222789641760093, 51.769280102985554 ] } },
{ "type": "Feature", "properties": { "max_height": 10.238754272460938, "mean_height": 0.92112767696380615, "std_height": 2.2239868640899658, "count_pixels": 43, "percent_cover": 1.3970110461338532, "percent_above_0.1m": 32.558139534883722, "low_level_<0.5": 4.6511627906976747, "mid_level_0.5-2": 9.3023255813953494, "tall_2+": 11.627906976744185 }, "geometry": { "type": "Point", "coordinates": [ -1.222588853242793, 51.769278775341583 ] } },
{ "type": "Feature", "properties": { "max_height": 5.1257476806640625, "mean_height": 0.38788658380508423, "std_height": 0.9521288275718689, "count_pixels": 42, "percent_cover": 1.364522417153996, "percent_above_0.1m": 28.571428571428569, "low_level_<0.5": 7.1428571428571423, "mid_level_0.5-2": 9.5238095238095237, "tall_2+": 7.1428571428571423 }, "geometry": { "type": "Point", "coordinates": [ -1.222388064740942, 51.769277447354796 ] } },
{ "type": "Feature", "properties": { "max_height": 1.75775146484375, "mean_height": 0.2420986145734787, "std_height": 0.47337937355041504, "count_pixels": 43, "percent_cover": 1.3970110461338532, "percent_above_0.1m": 25.581395348837212, "low_level_<0.5": 6.9767441860465116, "mid_level_0.5-2": 16.279069767441861, "tall_2+": 0.0 }, "geometry": { "type": "Point", "coordinates": [ -1.223088973361969, 51.769389978208238 ] } },
{ "type": "Feature", "properties": { "max_height": 8.0532455444335938, "mean_height": 3.8132672309875488, "std_height": 2.3090729713439941, "count_pixels": 42, "percent_cover": 1.364522417153996, "percent_above_0.1m": 90.476190476190482, "low_level_<0.5": 0.0, "mid_level_0.5-2": 14.285714285714285, "tall_2+": 76.19047619047619 }, "geometry": { "type": "Point", "coordinates": [ -1.222888184343449, 51.769388651069029 ] } },
{ "type": "Feature", "properties": { "max_height": 5.1202468872070312, "mean_height": 0.91039013862609863, "std_height": 1.3540961742401123, "count_pixels": 41, "percent_cover": 1.3320337881741389, "percent_above_0.1m": 46.341463414634148, "low_level_<0.5": 7.3170731707317067, "mid_level_0.5-2": 14.634146341463413, "tall_2+": 21.951219512195124 }, "geometry": { "type": "Point", "coordinates": [ -1.222687395340371, 51.76938732358699 ] } },
{ "type": "Feature", "properties": { "max_height": 11.594757080078125, "mean_height": 4.1996526718139648, "std_height": 3.3697669506072998, "count_pixels": 41, "percent_cover": 1.3320337881741389, "percent_above_0.1m": 87.804878048780495, "low_level_<0.5": 4.8780487804878048, "mid_level_0.5-2": 17.073170731707318, "tall_2+": 63.414634146341463 }, "geometry": { "type": "Point", "coordinates": [ -1.222486606352739, 51.769385995762107 ] } },
{ "type": "Feature", "properties": { "max_height": 1.0974960327148438, "mean_height": 0.087381452322006226, "std_height": 0.23223471641540527, "count_pixels": 42, "percent_cover": 1.364522417153996, "percent_above_0.1m": 14.285714285714285, "low_level_<0.5": 7.1428571428571423, "mid_level_0.5-2": 4.7619047619047619, "tall_2+": 0.0 }, "geometry": { "type": "Point", "coordinates": [ -1.222285817380572, 51.769384667594423 ] } },
{ "type": "Feature", "properties": { "max_height": 0.9739990234375, "mean_height": 0.042793087661266327, "std_height": 0.15676096081733704, "count_pixels": 41, "percent_cover": 1.3320337881741389, "percent_above_0.1m": 4.8780487804878048, "low_level_<0.5": 2.4390243902439024, "mid_level_0.5-2": 2.4390243902439024, "tall_2+": 0.0 }, "geometry": { "type": "Point", "coordinates": [ -1.223388306421151, 51.769499852685939 ] } },
{ "type": "Feature", "properties": { "max_height": 1.67724609375, "mean_height": 0.46801814436912537, "std_height": 0.52697229385375977, "count_pixels": 41, "percent_cover": 1.3320337881741389, "percent_above_0.1m": 53.658536585365859, "low_level_<0.5": 12.195121951219512, "mid_level_0.5-2": 39.024390243902438, "tall_2+": 0.0 }, "geometry": { "type": "Point", "coordinates": [ -1.223187516901415, 51.769498526051485 ] } },
{ "type": "Feature", "properties": { "max_height": 7.7249984741210938, "mean_height": 1.9497743844985962, "std_height": 2.2118749618530273, "count_pixels": 41, "percent_cover": 1.3320337881741389, "percent_above_0.1m": 80.487804878048792, "low_level_<0.5": 2.4390243902439024, "mid_level_0.5-2": 39.024390243902438, "tall_2+": 34.146341463414636 }, "geometry": { "type": "Point", "coordinates": [ -1.222986727397121, 51.769497199074188 ] } },
{ "type": "Feature", "properties": { "max_height": 4.3247528076171875, "mean_height": 0.30060195922851562, "std_height": 0.80589514970779419, "count_pixels": 42, "percent_cover": 1.364522417153996, "percent_above_0.1m": 26.190476190476193, "low_level_<0.5": 14.285714285714285, "mid_level_0.5-2": 4.7619047619047619, "tall_2+": 7.1428571428571423 }, "geometry": { "type": "Point", "coordinates": [ -1.222785937908269, 51.769495871754067 ] } },
{ "type": "Feature", "properties": { "max_height": 3.0677566528320312, "mean_height": 0.50459343194961548, "std_height": 0.69948935508728027, "count_pixels": 43, "percent_cover": 1.3970110461338532, "percent_above_0.1m": 46.511627906976742, "low_level_<0.5": 11.627906976744185, "mid_level_0.5-2": 30.232558139534881, "tall_2+": 2.3255813953488373 }, "geometry": { "type": "Point", "coordinates": [ -1.222585148434858, 51.769494544091103 ] } },
{ "type": "Feature", "properties": { "max_height": 5.6142501831054688, "mean_height": 1.0402741432189941, "std_height": 1.2872891426086426, "count_pixels": 42, "percent_cover": 1.364522417153996, "percent_above_0.1m": 83.333333333333343, "low_level_<0.5": 26.190476190476193, "mid_level_0.5-2": 35.714285714285715, "tall_2+": 14.285714285714285 }, "geometry": { "type": "Point", "coordinates": [ -1.222384358976903, 51.76949321608533 ] } },
{ "type": "Feature", "properties": { "max_height": 4.9982452392578125, "mean_height": 0.18885502219200134, "std_height": 0.80341863632202148, "count_pixels": 38, "percent_cover": 1.2345679012345678, "percent_above_0.1m": 13.157894736842104, "low_level_<0.5": 5.2631578947368416, "mid_level_0.5-2": 5.2631578947368416, "tall_2+": 2.6315789473684208 }, "geometry": { "type": "Point", "coordinates": [ -1.222183569534403, 51.769491887736713 ] } },
{ "type": "Feature", "properties": { "max_height": 2.0109939575195312, "mean_height": 0.15420976281166077, "std_height": 0.40927413105964661, "count_pixels": 43, "percent_cover": 1.3970110461338532, "percent_above_0.1m": 16.279069767441861, "low_level_<0.5": 4.6511627906976747, "mid_level_0.5-2": 6.9767441860465116, "tall_2+": 2.3255813953488373 }, "geometry": { "type": "Point", "coordinates": [ -1.223286060911191, 51.769607073816374 ] } },
{ "type": "Feature", "properties": { "max_height": 5.8420028686523438, "mean_height": 1.9361398220062256, "std_height": 1.8652971982955933, "count_pixels": 43, "percent_cover": 1.3970110461338532, "percent_above_0.1m": 76.744186046511629, "low_level_<0.5": 6.9767441860465116, "mid_level_0.5-2": 34.883720930232556, "tall_2+": 34.883720930232556 }, "geometry": { "type": "Point", "coordinates": [ -1.223085270921117, 51.769605747001009 ] } },
{ "type": "Feature", "properties": { "max_height": 3.9524993896484375, "mean_height": 0.65235757827758789, "std_height": 1.0475949048995972, "count_pixels": 42, "percent_cover": 1.364522417153996, "percent_above_0.1m": 38.095238095238095, "low_level_<0.5": 7.1428571428571423, "mid_level_0.5-2": 14.285714285714285, "tall_2+": 16.666666666666664 }, "geometry": { "type": "Point", "coordinates": [ -1.222884480946483, 51.769604419842821 ] } },
{ "type": "Feature", "properties": { "max_height": 0.35350799560546875, "mean_height": 0.038840688765048981, "std_height": 0.068318381905555725, "count_pixels": 41, "percent_cover": 1.3320337881741389, "percent_above_0.1m": 9.7560975609756095, "low_level_<0.5": 7.3170731707317067, "mid_level_0.5-2": 0.0, "tall_2+": 0.0 }, "geometry": { "type": "Point", "coordinates": [ -1.222683690987297, 51.769603092341782 ] } },
{ "type": "Feature", "properties": { "max_height": 10.109748840332031, "mean_height": 1.8130190372467041, "std_height": 2.3871681690216064, "count_pixels": 41, "percent_cover": 1.3320337881741389, "percent_above_0.1m": 65.853658536585371, "low_level_<0.5": 7.3170731707317067, "mid_level_0.5-2": 19.512195121951219, "tall_2+": 36.585365853658537 }, "geometry": { "type": "Point", "coordinates": [ -1.222482901043557, 51.769601764497921 ] } },
{ "type": "Feature", "properties": { "max_height": 7.3077468872070312, "mean_height": 2.2002155780792236, "std_height": 2.0377233028411865, "count_pixels": 42, "percent_cover": 1.364522417153996, "percent_above_0.1m": 76.19047619047619, "low_level_<0.5": 7.1428571428571423, "mid_level_0.5-2": 14.285714285714285, "tall_2+": 52.380952380952387 }, "geometry": { "type": "Point", "coordinates": [ -1.222282111115269, 51.769600436311222 ] } },
{ "type": "Feature", "properties": { "max_height": 2.9512481689453125, "mean_height": 0.18725715577602386, "std_height": 0.52098196744918823, "count_pixels": 41, "percent_cover": 1.3320337881741389, "percent_above_0.1m": 19.512195121951219, "low_level_<0.5": 9.7560975609756095, "mid_level_0.5-2": 4.8780487804878048, "tall_2+": 2.4390243902439024 }, "geometry": { "type": "Point", "coordinates": [ -1.223183814915438, 51.769714294849514 ] } },
{ "type": "Feature", "properties": { "max_height": 6.1689987182617188, "mean_height": 1.8713724613189697, "std_height": 1.6522296667098999, "count_pixels": 41, "percent_cover": 1.3320337881741389, "percent_above_0.1m": 90.243902439024396, "low_level_<0.5": 12.195121951219512, "mid_level_0.5-2": 43.902439024390247, "tall_2+": 31.707317073170731 }, "geometry": { "type": "Point", "coordinates": [ -1.222983024455027, 51.769712967853238 ] } },
{ "type": "Feature", "properties": { "max_height": 8.9084930419921875, "mean_height": 1.7592923641204834, "std_height": 2.6554164886474609, "count_pixels": 42, "percent_cover": 1.364522417153996, "percent_above_0.1m": 59.523809523809526, "low_level_<0.5": 16.666666666666664, "mid_level_0.5-2": 9.5238095238095237, "tall_2+": 30.952380952380953 }, "geometry": { "type": "Point", "coordinates": [ -1.222782234010054, 51.769711640514124 ] } },
{ "type": "Feature", "properties": { "max_height": 6.852752685546875, "mean_height": 1.8089429140090942, "std_height": 2.2857732772827148, "count_pixels": 43, "percent_cover": 1.3970110461338532, "percent_above_0.1m": 67.441860465116278, "low_level_<0.5": 13.953488372093023, "mid_level_0.5-2": 20.930232558139537, "tall_2+": 27.906976744186046 }, "geometry": { "type": "Point", "coordinates": [ -1.222581443580529, 51.769710312832188 ] } },
{ "type": "Feature", "properties": { "max_height": 7.2342529296875, "mean_height": 0.74242633581161499, "std_height": 1.8396573066711426, "count_pixels": 43, "percent_cover": 1.3970110461338532, "percent_above_0.1m": 18.604651162790699, "low_level_<0.5": 2.3255813953488373, "mid_level_0.5-2": 4.6511627906976747, "tall_2+": 11.627906976744185 }, "geometry": { "type": "Point", "coordinates": [ -1.223081568433896, 51.769821515785338 ] } },
{ "type": "Feature", "properties": { "max_height": 9.962249755859375, "mean_height": 2.5888690948486328, "std_height": 3.080324649810791, "count_pixels": 42, "percent_cover": 1.364522417153996, "percent_above_0.1m": 61.904761904761905, "low_level_<0.5": 4.7619047619047619, "mid_level_0.5-2": 14.285714285714285, "tall_2+": 42.857142857142854 }, "geometry": { "type": "Point", "coordinates": [ -1.22288077750314, 51.769820188608158 ] } }
]
}
