{
"type": "FeatureCollection",
"name": "f71ec9f4ad78_visibility",
"crs": { "type": "name", "properties": { "name": "urn:ogc:def:crs:OGC:1.3:CRS84" } },
"features": [
{ "type": "Feature", "properties": { "visible_points": 0, "total_points": 63, "visibility_pct": 0.0 }, "geometry": { "type": "Point", "coordinates": [ -1.241236288479103, 51.733927726624046 ] } },
{ "type": "Feature", "properties": { "visible_points": 3, "total_points": 69, "visibility_pct": 4.3478260869565215 }, "geometry": { "type": "Point", "coordinates": [ -1.241035655936086, 51.733926432004154 ] } },
{ "type": "Feature", "properties": { "visible_points": 7, "total_points": 74, "visibility_pct": 9.4594594594594597 }, "geometry": { "type": "Point", "coordinates": [ -1.240835023408122, 51.733925137041702 ] } },
{ "type": "Feature", "properties": { "visible_points": 7, "total_points": 77, "visibility_pct": 9.0909090909090917 }, "geometry": { "type": "Point", "coordinates": [ -1.240634390895214, 51.733923841736726 ] } },
{ "type": "Feature", "properties": { "visible_points": 0, "total_points": 68, "visibility_pct": 0.0 }, "geometry": { "type": "Point", "coordinates": [ -1.241334799011222, 51.734036259563297 ] } },
{ "type": "Feature", "properties": { "visible_points": 0, "total_points": 76, "visibility_pct": 0.0 }, "geometry": { "type": "Point", "coordinates": [ -1.241134165983748, 51.734034965110844 ] } },
{ "type": "Feature", "properties": { "visible_points": 0, "total_points": 82, "visibility_pct": 0.0 }, "geometry": { "type": "Point", "coordinates": [ -1.240933532971319, 51.73403367031586 ] } },
{ "type": "Feature", "properties": { "visible_points": 0, "total_points": 87, "visibility_pct": 0.0 }, "geometry": { "type": "Point", "coordinates": [ -1.240732899973952, 51.734032375178352 ] } },
{ "type": "Feature", "properties": { "visible_points": 3, "total_points": 89, "visibility_pct": 3.3707865168539324 }, "geometry": { "type": "Point", "coordinates": [ -1.240532266991638, 51.734031079698262 ] } },
{ "type": "Feature", "properties": { "visible_points": 8, "total_points": 86, "visibility_pct": 9.3023255813953494 }, "geometry": { "type": "Point", "coordinates": [ -1.240331634024393, 51.734029783875663 ] } },
{ "type": "Feature", "properties": { "visible_points": 9, "total_points": 83, "visibility_pct": 10.843373493975903 }, "geometry": { "type": "Point", "coordinates": [ -1.240131001072208, 51.734028487710532 ] } },
{ "type": "Feature", "properties": { "visible_points": 9, "total_points": 80, "visibility_pct": 11.25 }, "geometry": { "type": "Point", "coordinates": [ -1.239930368135101, 51.734027191202848 ] } },
{ "type": "Feature", "properties": { "visible_points": 10, "total_points": 71, "visibility_pct": 14.084507042253522 }, "geometry": { "type": "Point", "coordinates": [ -1.241433310012744, 51.734144792418725 ] } },
{ "type": "Feature", "properties": { "visible_points": 5, "total_points": 80, "visibility_pct": 6.25 }, "geometry": { "type": "Point", "coordinates": [ -1.241232676500806, 51.734143498133733 ] } },
{ "type": "Feature", "properties": { "visible_points": 3, "total_points": 89, "visibility_pct": 3.3707865168539324 }, "geometry": { "type": "Point", "coordinates": [ -1.241032043003917, 51.734142203506188 ] } },
{ "type": "Feature", "properties": { "visible_points": 0, "total_points": 95, "visibility_pct": 0.0 }, "geometry": { "type": "Point", "coordinates": [ -1.240831409522082, 51.734140908536119 ] } },
{ "type": "Feature", "properties": { "visible_points": 1, "total_points": 100, "visibility_pct": 1.0 }, "geometry": { "type": "Point", "coordinates": [ -1.240630776055301, 51.734139613223491 ] } },
{ "type": "Feature", "properties": { "visible_points": 0, "total_points": 98, "visibility_pct": 0.0 }, "geometry": { "type": "Point", "coordinates": [ -1.240430142603588, 51.734138317568338 ] } },
{ "type": "Feature", "properties": { "visible_points": 1, "total_points": 95, "visibility_pct": 1.0526315789473684 }, "geometry": { "type": "Point", "coordinates": [ -1.240229509166934, 51.734137021570646 ] } },
{ "type": "Feature", "properties": { "visible_points": 7, "total_points": 92, "visibility_pct": 7.608695652173914 }, "geometry": { "type": "Point", "coordinates": [ -1.240028875745351, 51.734135725230416 ] } },
{ "type": "Feature", "properties": { "visible_points": 17, "total_points": 89, "visibility_pct": 19.101123595505616 }, "geometry": { "type": "Point", "coordinates": [ -1.239828242338841, 51.734134428547627 ] } },
{ "type": "Feature", "properties": { "visible_points": 17, "total_points": 87, "visibility_pct": 19.540229885057471 }, "geometry": { "type": "Point", "coordinates": [ -1.239627608947408, 51.73413313152232 ] } },
{ "type": "Feature", "properties": { "visible_points": 13, "total_points": 84, "visibility_pct": 15.476190476190476 }, "geometry": { "type": "Point", "coordinates": [ -1.239426975571056, 51.734131834154468 ] } },
{ "type": "Feature", "properties": { "visible_points": 12, "total_points": 81, "visibility_pct": 14.814814814814813 }, "geometry": { "type": "Point", "coordinates": [ -1.239226342209788, 51.734130536444084 ] } },
{ "type": "Feature", "properties": { "visible_points": 9, "total_points": 77, "visibility_pct": 11.688311688311687 }, "geometry": { "type": "Point", "coordinates": [ -1.239025708863608, 51.734129238391148 ] } },
{ "type": "Feature", "properties": { "visible_points": 6, "total_points": 82, "visibility_pct": 7.3170731707317067 }, "geometry": { "type": "Point", "coordinates": [ -1.241331187487269, 51.734252031072778 ] } },
{ "type": "Feature", "properties": { "visible_points": 0, "total_points": 93, "visibility_pct": 0.0 }, "geometry": { "type": "Point", "coordinates": [ -1.241130553505915, 51.734250736612694 ] } },
{ "type": "Feature", "properties": { "visible_points": 0, "total_points": 102, "visibility_pct": 0.0 }, "geometry": { "type": "Point", "coordinates": [ -1.240929919539614, 51.734249441810078 ] } },
{ "type": "Feature", "properties": { "visible_points": 1, "total_points": 108, "visibility_pct": 0.92592592592592582 }, "geometry": { "type": "Point", "coordinates": [ -1.240729285588363, 51.734248146664903 ] } },
{ "type": "Feature", "properties": { "visible_points": 1, "total_points": 108, "visibility_pct": 0.92592592592592582 }, "geometry": { "type": "Point", "coordinates": [ -1.24052865165218, 51.734246851177197 ] } },
{ "type": "Feature", "properties": { "visible_points": 0, "total_points": 106, "visibility_pct": 0.0 }, "geometry": { "type": "Point", "coordinates": [ -1.240328017731054, 51.734245555346945 ] } },
{ "type": "Feature", "properties": { "visible_points": 0, "total_points": 103, "visibility_pct": 0.0 }, "geometry": { "type": "Point", "coordinates": [ -1.240127383824996, 51.734244259174154 ] } },
{ "type": "Feature", "properties": { "visible_points": 10, "total_points": 100, "visibility_pct": 10.0 }, "geometry": { "type": "Point", "coordinates": [ -1.239926749934011, 51.734242962658818 ] } },
{ "type": "Feature", "properties": { "visible_points": 14, "total_points": 98, "visibility_pct": 14.285714285714285 }, "geometry": { "type": "Point", "coordinates": [ -1.239726116058096, 51.734241665800958 ] } },
{ "type": "Feature", "properties": { "visible_points": 18, "total_points": 96, "visibility_pct": 18.75 }, "geometry": { "type": "Point", "coordinates": [ -1.239525482197266, 51.734240368600545 ] } },
{ "type": "Feature", "properties": { "visible_points": 17, "total_points": 93, "visibility_pct": 18.27956989247312 }, "geometry": { "type": "Point", "coordinates": [ -1.239324848351516, 51.734239071057608 ] } },
{ "type": "Feature", "properties": { "visible_points": 16, "total_points": 90, "visibility_pct": 17.777777777777779 }, "geometry": { "type": "Point", "coordinates": [ -1.239124214520852, 51.734237773172111 ] } },
{ "type": "Feature", "properties": { "visible_points": 13, "total_points": 84, "visibility_pct": 15.476190476190476 }, "geometry": { "type": "Point", "coordinates": [ -1.238923580705281, 51.734236474944076 ] } },
{ "type": "Feature", "properties": { "visible_points": 18, "total_points": 75, "visibility_pct": 24.0 }, "geometry": { "type": "Point", "coordinates": [ -1.238722946904806, 51.73423517637351 ] } },
{ "type": "Feature", "properties": { "visible_points": 15, "total_points": 65, "visibility_pct": 23.076923076923077 }, "geometry": { "type": "Point", "coordinates": [ -1.238522313119427, 51.734233877460397 ] } },
{ "type": "Feature", "properties": { "visible_points": 7, "total_points": 55, "visibility_pct": 12.727272727272727 }, "geometry": { "type": "Point", "coordinates": [ -1.238321679349152, 51.734232578204747 ] } },
{ "type": "Feature", "properties": { "visible_points": 0, "total_points": 78, "visibility_pct": 0.0 }, "geometry": { "type": "Point", "coordinates": [ -1.241429698943137, 51.734360563928007 ] } },
{ "type": "Feature", "properties": { "visible_points": 0, "total_points": 91, "visibility_pct": 0.0 }, "geometry": { "type": "Point", "coordinates": [ -1.24122906447732, 51.73435926963537 ] } },
{ "type": "Feature", "properties": { "visible_points": 1, "total_points": 103, "visibility_pct": 0.97087378640776689 }, "geometry": { "type": "Point", "coordinates": [ -1.241028430026545, 51.734357975000208 ] } },
{ "type": "Feature", "properties": { "visible_points": 0, "total_points": 113, "visibility_pct": 0.0 }, "geometry": { "type": "Point", "coordinates": [ -1.240827795590827, 51.734356680022486 ] } },
{ "type": "Feature", "properties": { "visible_points": 0, "total_points": 116, "visibility_pct": 0.0 }, "geometry": { "type": "Point", "coordinates": [ -1.240627161170169, 51.734355384702233 ] } },
{ "type": "Feature", "properties": { "visible_points": 0, "total_points": 114, "visibility_pct": 0.0 }, "geometry": { "type": "Point", "coordinates": [ -1.240426526764569, 51.734354089039442 ] } },
{ "type": "Feature", "properties": { "visible_points": 0, "total_points": 112, "visibility_pct": 0.0 }, "geometry": { "type": "Point", "coordinates": [ -1.240225892374035, 51.734352793034077 ] } },
{ "type": "Feature", "properties": { "visible_points": 0, "total_points": 110, "visibility_pct": 0.0 }, "geometry": { "type": "Point", "coordinates": [ -1.24002525799857, 51.734351496686202 ] } },
{ "type": "Feature", "properties": { "visible_points": 2, "total_points": 108, "visibility_pct": 1.8518518518518516 }, "geometry": { "type": "Point", "coordinates": [ -1.239824623638178, 51.734350199995781 ] } },
{ "type": "Feature", "properties": { "visible_points": 9, "total_points": 106, "visibility_pct": 8.4905660377358494 }, "geometry": { "type": "Point", "coordinates": [ -1.239623989292861, 51.734348902962807 ] } },
{ "type": "Feature", "properties": { "visible_points": 18, "total_points": 104, "visibility_pct": 17.307692307692307 }, "geometry": { "type": "Point", "coordinates": [ -1.239423354962632, 51.734347605587296 ] } },
{ "type": "Feature", "properties": { "visible_points": 19, "total_points": 101, "visibility_pct": 18.811881188118811 }, "geometry": { "type": "Point", "coordinates": [ -1.239222720647481, 51.734346307869245 ] } },
{ "type": "Feature", "properties": { "visible_points": 15, "total_points": 97, "visibility_pct": 15.463917525773196 }, "geometry": { "type": "Point", "coordinates": [ -1.239022086347422, 51.734345009808663 ] } },
{ "type": "Feature", "properties": { "visible_points": 12, "total_points": 86, "visibility_pct": 13.953488372093023 }, "geometry": { "type": "Point", "coordinates": [ -1.238821452062456, 51.734343711405529 ] } },
{ "type": "Feature", "properties": { "visible_points": 10, "total_points": 75, "visibility_pct": 13.333333333333334 }, "geometry": { "type": "Point", "coordinates": [ -1.238620817792585, 51.734342412659856 ] } },
{ "type": "Feature", "properties": { "visible_points": 0, "total_points": 64, "visibility_pct": 0.0 }, "geometry": { "type": "Point", "coordinates": [ -1.238420183537818, 51.734341113571631 ] } },
{ "type": "Feature", "properties": { "visible_points": 0, "total_points": 54, "visibility_pct": 0.0 }, "geometry": { "type": "Point", "coordinates": [ -1.238219549298155, 51.734339814140888 ] } },
{ "type": "Feature", "properties": { "visible_points": 8, "total_points": 69, "visibility_pct": 11.594202898550725 }, "geometry": { "type": "Point", "coordinates": [ -1.241528210868426, 51.734469096699399 ] } },
{ "type": "Feature", "properties": { "visible_points": 0, "total_points": 81, "visibility_pct": 0.0 }, "geometry": { "type": "Point", "coordinates": [ -1.241327575918131, 51.73446780257423 ] } },
{ "type": "Feature", "properties": { "visible_points": 2, "total_points": 93, "visibility_pct": 2.1505376344086025 }, "geometry": { "type": "Point", "coordinates": [ -1.241126940982893, 51.734466508106507 ] } },
{ "type": "Feature", "properties": { "visible_points": 0, "total_points": 105, "visibility_pct": 0.0 }, "geometry": { "type": "Point", "coordinates": [ -1.240926306062694, 51.734465213296247 ] } },
{ "type": "Feature", "properties": { "visible_points": 0, "total_points": 114, "visibility_pct": 0.0 }, "geometry": { "type": "Point", "coordinates": [ -1.240725671157563, 51.734463918143433 ] } },
{ "type": "Feature", "properties": { "visible_points": 0, "total_points": 117, "visibility_pct": 0.0 }, "geometry": { "type": "Point", "coordinates": [ -1.240525036267488, 51.734462622648088 ] } },
{ "type": "Feature", "properties": { "visible_points": 0, "total_points": 118, "visibility_pct": 0.0 }, "geometry": { "type": "Point", "coordinates": [ -1.240324401392474, 51.734461326810205 ] } },
{ "type": "Feature", "properties": { "visible_points": 0, "total_points": 118, "visibility_pct": 0.0 }, "geometry": { "type": "Point", "coordinates": [ -1.240123766532526, 51.734460030629762 ] } },
{ "type": "Feature", "properties": { "visible_points": 0, "total_points": 116, "visibility_pct": 0.0 }, "geometry": { "type": "Point", "coordinates": [ -1.239923131687654, 51.734458734106774 ] } },
{ "type": "Feature", "properties": { "visible_points": 4, "total_points": 114, "visibility_pct": 3.5087719298245612 }, "geometry": { "type": "Point", "coordinates": [ -1.239722496857854, 51.734457437241254 ] } },
{ "type": "Feature", "properties": { "visible_points": 2, "total_points": 112, "visibility_pct": 1.7857142857142856 }, "geometry": { "type": "Point", "coordinates": [ -1.239521862043138, 51.734456140033217 ] } },
{ "type": "Feature", "properties": { "visible_points": 10, "total_points": 111, "visibility_pct": 9.0090090090090094 }, "geometry": { "type": "Point", "coordinates": [ -1.239321227243501, 51.734454842482585 ] } },
{ "type": "Feature", "properties": { "visible_points": 11, "total_points": 108, "visibility_pct": 10.185185185185185 }, "geometry": { "type": "Point", "coordinates": [ -1.239120592458949, 51.734453544589435 ] } },
{ "type": "Feature", "properties": { "visible_points": 9, "total_points": 97, "visibility_pct": 9.2783505154639183 }, "geometry": { "type": "Point", "coordinates": [ -1.23891995768949, 51.734452246353733 ] } },
{ "type": "Feature", "properties": { "visible_points": 10, "total_points": 85, "visibility_pct": 11.76470588235294 }, "geometry": { "type": "Point", "coordinates": [ -1.238719322935128, 51.734450947775507 ] } },
{ "type": "Feature", "properties": { "visible_points": 0, "total_points": 73, "visibility_pct": 0.0 }, "geometry": { "type": "Point", "coordinates": [ -1.238518688195865, 51.734449648854728 ] } },
{ "type": "Feature", "properties": { "visible_points": 0, "total_points": 62, "visibility_pct": 0.0 }, "geometry": { "type": "Point", "coordinates": [ -1.238318053471706, 51.734448349591418 ] } },
{ "type": "Feature", "properties": { "visible_points": 2, "total_points": 70, "visibility_pct": 2.8571428571428572 }, "geometry": { "type": "Point", "coordinates": [ -1.24142608782836, 51.734576335429253 ] } },
{ "type": "Feature", "properties": { "visible_points": 1, "total_points": 82, "visibility_pct": 1.2195121951219512 }, "geometry": { "type": "Point", "coordinates": [ -1.241225452408642, 51.734575041128984 ] } },
{ "type": "Feature", "properties": { "visible_points": 0, "total_points": 93, "visibility_pct": 0.0 }, "geometry": { "type": "Point", "coordinates": [ -1.241024817003977, 51.73457374648617 ] } },
{ "type": "Feature", "properties": { "visible_points": 3, "total_points": 103, "visibility_pct": 2.912621359223301 }, "geometry": { "type": "Point", "coordinates": [ -1.240824181614365, 51.734572451500817 ] } },
{ "type": "Feature", "properties": { "visible_points": 0, "total_points": 109, "visibility_pct": 0.0 }, "geometry": { "type": "Point", "coordinates": [ -1.240623546239807, 51.734571156172926 ] } },
{ "type": "Feature", "properties": { "visible_points": 0, "total_points": 112, "visibility_pct": 0.0 }, "geometry": { "type": "Point", "coordinates": [ -1.240422910880316, 51.734569860502482 ] } },
{ "type": "Feature", "properties": { "visible_points": 4, "total_points": 115, "visibility_pct": 3.4782608695652173 }, "geometry": { "type": "Point", "coordinates": [ -1.240222275535887, 51.734568564489493 ] } },
{ "type": "Feature", "properties": { "visible_points": 3, "total_points": 117, "visibility_pct": 2.5641025641025639 }, "geometry": { "type": "Point", "coordinates": [ -1.240021640206528, 51.734567268133965 ] } },
{ "type": "Feature", "properties": { "visible_points": 0, "total_points": 119, "visibility_pct": 0.0 }, "geometry": { "type": "Point", "coordinates": [ -1.239821004892243, 51.734565971435885 ] } },
{ "type": "Feature", "properties": { "visible_points": 0, "total_points": 119, "visibility_pct": 0.0 }, "geometry": { "type": "Point", "coordinates": [ -1.239620369593037, 51.734564674395273 ] } },
{ "type": "Feature", "properties": { "visible_points": 0, "total_points": 118, "visibility_pct": 0.0 }, "geometry": { "type": "Point", "coordinates": [ -1.239419734308908, 51.734563377012101 ] } },
{ "type": "Feature", "properties": { "visible_points": 1, "total_points": 115, "visibility_pct": 0.86956521739130432 }, "geometry": { "type": "Point", "coordinates": [ -1.239219099039867, 51.734562079286398 ] } },
{ "type": "Feature", "properties": { "visible_points": 9, "total_points": 107, "visibility_pct": 8.4112149532710276 }, "geometry": { "type": "Point", "coordinates": [ -1.239018463785916, 51.73456078121815 ] } },
{ "type": "Feature", "properties": { "visible_points": 6, "total_points": 95, "visibility_pct": 6.3157894736842106 }, "geometry": { "type": "Point", "coordinates": [ -1.238817828547057, 51.734559482807356 ] } },
{ "type": "Feature", "properties": { "visible_points": 4, "total_points": 83, "visibility_pct": 4.8192771084337354 }, "geometry": { "type": "Point", "coordinates": [ -1.238617193323297, 51.734558184054009 ] } },
{ "type": "Feature", "properties": { "visible_points": 0, "total_points": 71, "visibility_pct": 0.0 }, "geometry": { "type": "Point", "coordinates": [ -1.238416558114632, 51.734556884958117 ] } },
{ "type": "Feature", "properties": { "visible_points": 1, "total_points": 59, "visibility_pct": 1.6949152542372881 }, "geometry": { "type": "Point", "coordinates": [ -1.241524600208006, 51.734684868200446 ] } },
{ "type": "Feature", "properties": { "visible_points": 4, "total_points": 70, "visibility_pct": 5.7142857142857144 }, "geometry": { "type": "Point", "coordinates": [ -1.241323964303813, 51.734683574067638 ] } },
{ "type": "Feature", "properties": { "visible_points": 5, "total_points": 80, "visibility_pct": 6.25 }, "geometry": { "type": "Point", "coordinates": [ -1.241123328414668, 51.734682279592285 ] } },
{ "type": "Feature", "properties": { "visible_points": 4, "total_points": 90, "visibility_pct": 4.4444444444444446 }, "geometry": { "type": "Point", "coordinates": [ -1.240922692540579, 51.734680984774378 ] } },
{ "type": "Feature", "properties": { "visible_points": 2, "total_points": 99, "visibility_pct": 2.0202020202020203 }, "geometry": { "type": "Point", "coordinates": [ -1.240722056681541, 51.734679689613941 ] } },
{ "type": "Feature", "properties": { "visible_points": 0, "total_points": 103, "visibility_pct": 0.0 }, "geometry": { "type": "Point", "coordinates": [ -1.240521420837564, 51.734678394110958 ] } },
{ "type": "Feature", "properties": { "visible_points": 6, "total_points": 106, "visibility_pct": 5.6603773584905666 }, "geometry": { "type": "Point", "coordinates": [ -1.240320785008651, 51.734677098265436 ] } },
{ "type": "Feature", "properties": { "visible_points": 7, "total_points": 109, "visibility_pct": 6.4220183486238538 }, "geometry": { "type": "Point", "coordinates": [ -1.240120149194806, 51.734675802077334 ] } },
{ "type": "Feature", "properties": { "visible_points": 6, "total_points": 112, "visibility_pct": 5.3571428571428568 }, "geometry": { "type": "Point", "coordinates": [ -1.239919513396032, 51.734674505546693 ] } },
{ "type": "Feature", "properties": { "visible_points": 1, "total_points": 115, "visibility_pct": 0.86956521739130432 }, "geometry": { "type": "Point", "coordinates": [ -1.239718877612333, 51.734673208673534 ] } },
{ "type": "Feature", "properties": { "visible_points": 0, "total_points": 117, "visibility_pct": 0.0 }, "geometry": { "type": "Point", "coordinates": [ -1.239518241843718, 51.734671911457809 ] } },
{ "type": "Feature", "properties": { "visible_points": 0, "total_points": 117, "visibility_pct": 0.0 }, "geometry": { "type": "Point", "coordinates": [ -1.239317606090181, 51.734670613899539 ] } },
{ "type": "Feature", "properties": { "visible_points": 0, "total_points": 113, "visibility_pct": 0.0 }, "geometry": { "type": "Point", "coordinates": [ -1.23911697035173, 51.73466931599873 ] } },
{ "type": "Feature", "properties": { "visible_points": 6, "total_points": 104, "visibility_pct": 5.7692307692307692 }, "geometry": { "type": "Point", "coordinates": [ -1.238916334628375, 51.734668017755375 ] } },
{ "type": "Feature", "properties": { "visible_points": 0, "total_points": 92, "visibility_pct": 0.0 }, "geometry": { "type": "Point", "coordinates": [ -1.238715698920115, 51.734666719169461 ] } },
{ "type": "Feature", "properties": { "visible_points": 0, "total_points": 79, "visibility_pct": 0.0 }, "geometry": { "type": "Point", "coordinates": [ -1.238515063226954, 51.734665420241022 ] } },
{ "type": "Feature", "properties": { "visible_points": 2, "total_points": 77, "visibility_pct": 2.5974025974025974 }, "geometry": { "type": "Point", "coordinates": [ -1.241021203936203, 51.734789517964124 ] } },
{ "type": "Feature", "properties": { "visible_points": 0, "total_points": 86, "visibility_pct": 0.0 }, "geometry": { "type": "Point", "coordinates": [ -1.240820567592687, 51.734788222971126 ] } },
{ "type": "Feature", "properties": { "visible_points": 0, "total_points": 91, "visibility_pct": 0.0 }, "geometry": { "type": "Point", "coordinates": [ -1.240619931264225, 51.734786927635582 ] } },
{ "type": "Feature", "properties": { "visible_points": 0, "total_points": 95, "visibility_pct": 0.0 }, "geometry": { "type": "Point", "coordinates": [ -1.240419294950824, 51.734785631957507 ] } },
{ "type": "Feature", "properties": { "visible_points": 2, "total_points": 99, "visibility_pct": 2.0202020202020203 }, "geometry": { "type": "Point", "coordinates": [ -1.240218658652493, 51.734784335936872 ] } },
{ "type": "Feature", "properties": { "visible_points": 2, "total_points": 103, "visibility_pct": 1.9417475728155338 }, "geometry": { "type": "Point", "coordinates": [ -1.240018022369225, 51.734783039573671 ] } },
{ "type": "Feature", "properties": { "visible_points": 3, "total_points": 106, "visibility_pct": 2.8301886792452833 }, "geometry": { "type": "Point", "coordinates": [ -1.239817386101033, 51.734781742867966 ] } },
{ "type": "Feature", "properties": { "visible_points": 2, "total_points": 109, "visibility_pct": 1.834862385321101 }, "geometry": { "type": "Point", "coordinates": [ -1.239616749847923, 51.73478044581968 ] } },
{ "type": "Feature", "properties": { "visible_points": 0, "total_points": 109, "visibility_pct": 0.0 }, "geometry": { "type": "Point", "coordinates": [ -1.239416113609891, 51.734779148428871 ] } },
{ "type": "Feature", "properties": { "visible_points": 1, "total_points": 106, "visibility_pct": 0.94339622641509435 }, "geometry": { "type": "Point", "coordinates": [ -1.239215477386944, 51.734777850695501 ] } },
{ "type": "Feature", "properties": { "visible_points": 0, "total_points": 100, "visibility_pct": 0.0 }, "geometry": { "type": "Point", "coordinates": [ -1.239014841179088, 51.734776552619586 ] } },
{ "type": "Feature", "properties": { "visible_points": 0, "total_points": 92, "visibility_pct": 0.0 }, "geometry": { "type": "Point", "coordinates": [ -1.238814204986325, 51.734775254201132 ] } },
{ "type": "Feature", "properties": { "visible_points": 1, "total_points": 81, "visibility_pct": 1.2345679012345678 }, "geometry": { "type": "Point", "coordinates": [ -1.23861356880866, 51.734773955440126 ] } },
{ "type": "Feature", "properties": { "visible_points": 0, "total_points": 83, "visibility_pct": 0.0 }, "geometry": { "type": "Point", "coordinates": [ -1.24051780536241, 51.73489416556577 ] } },
{ "type": "Feature", "properties": { "visible_points": 0, "total_points": 87, "visibility_pct": 0.0 }, "geometry": { "type": "Point", "coordinates": [ -1.240317168579586, 51.734892869712588 ] } },
{ "type": "Feature", "properties": { "visible_points": 1, "total_points": 91, "visibility_pct": 1.098901098901099 }, "geometry": { "type": "Point", "coordinates": [ -1.240116531811828, 51.734891573516862 ] } },
{ "type": "Feature", "properties": { "visible_points": 0, "total_points": 95, "visibility_pct": 0.0 }, "geometry": { "type": "Point", "coordinates": [ -1.239915895059143, 51.734890276978575 ] } },
{ "type": "Feature", "properties": { "visible_points": 0, "total_points": 98, "visibility_pct": 0.0 }, "geometry": { "type": "Point", "coordinates": [ -1.239715258321536, 51.73488898009775 ] } },
{ "type": "Feature", "properties": { "visible_points": 0, "total_points": 99, "visibility_pct": 0.0 }, "geometry": { "type": "Point", "coordinates": [ -1.239514621599005, 51.734887682874373 ] } },
{ "type": "Feature", "properties": { "visible_points": 0, "total_points": 97, "visibility_pct": 0.0 }, "geometry": { "type": "Point", "coordinates": [ -1.239313984891556, 51.73488638530845 ] } },
{ "type": "Feature", "properties": { "visible_points": 0, "total_points": 93, "visibility_pct": 0.0 }, "geometry": { "type": "Point", "coordinates": [ -1.239113348199202, 51.734885087399981 ] } },
{ "type": "Feature", "properties": { "visible_points": 1, "total_points": 87, "visibility_pct": 1.1494252873563218 }, "geometry": { "type": "Point", "coordinates": [ -1.238912711521932, 51.734883789148959 ] } },
{ "type": "Feature", "properties": { "visible_points": 1, "total_points": 79, "visibility_pct": 1.2658227848101267 }, "geometry": { "type": "Point", "coordinates": [ -1.238712074859762, 51.7348824905554 ] } },
{ "type": "Feature", "properties": { "visible_points": 4, "total_points": 83, "visibility_pct": 4.8192771084337354 }, "geometry": { "type": "Point", "coordinates": [ -1.240014404486663, 51.734998811005383 ] } },
{ "type": "Feature", "properties": { "visible_points": 3, "total_points": 86, "visibility_pct": 3.4883720930232558 }, "geometry": { "type": "Point", "coordinates": [ -1.239813767264552, 51.73499751429199 ] } },
{ "type": "Feature", "properties": { "visible_points": 0, "total_points": 88, "visibility_pct": 0.0 }, "geometry": { "type": "Point", "coordinates": [ -1.239613130057525, 51.734996217236073 ] } },
{ "type": "Feature", "properties": { "visible_points": 0, "total_points": 87, "visibility_pct": 0.0 }, "geometry": { "type": "Point", "coordinates": [ -1.239412492865575, 51.73499491983759 ] } },
{ "type": "Feature", "properties": { "visible_points": 0, "total_points": 84, "visibility_pct": 0.0 }, "geometry": { "type": "Point", "coordinates": [ -1.23921185568871, 51.734993622096574 ] } },
{ "type": "Feature", "properties": { "visible_points": 1, "total_points": 80, "visibility_pct": 1.25 }, "geometry": { "type": "Point", "coordinates": [ -1.239011218526943, 51.734992324012985 ] } },
{ "type": "Feature", "properties": { "visible_points": 2, "total_points": 74, "visibility_pct": 2.7027027027027026 }, "geometry": { "type": "Point", "coordinates": [ -1.23881058138026, 51.734991025586865 ] } },
{ "type": "Feature", "properties": { "visible_points": 0, "total_points": 76, "visibility_pct": 0.0 }, "geometry": { "type": "Point", "coordinates": [ -1.239511001309001, 51.735103454282914 ] } },
{ "type": "Feature", "properties": { "visible_points": 0, "total_points": 74, "visibility_pct": 0.0 }, "geometry": { "type": "Point", "coordinates": [ -1.239310363647634, 51.735102156709338 ] } },
{ "type": "Feature", "properties": { "visible_points": 0, "total_points": 71, "visibility_pct": 0.0 }, "geometry": { "type": "Point", "coordinates": [ -1.239109726001351, 51.73510085879321 ] } },
{ "type": "Feature", "properties": { "visible_points": 2, "total_points": 67, "visibility_pct": 2.9850746268656714 }, "geometry": { "type": "Point", "coordinates": [ -1.238909088370163, 51.735099560534522 ] } },
{ "type": "Feature", "properties": { "visible_points": 2, "total_points": 59, "visibility_pct": 3.3898305084745761 }, "geometry": { "type": "Point", "coordinates": [ -1.239007595829471, 51.735208095398363 ] } }
]
}
