{
"type": "FeatureCollection",
"name": "ASHFO_353_walking",
"crs": { "type": "name", "properties": { "name": "urn:ogc:def:crs:OGC:1.3:CRS84" } },
"features": [
{"type":"Feature","properties":{"highway":"footway","name":null,"category":"Footpath (pedestrian only)"},"geometry":{"type":"MultiLineString","coordinates":[[[0.9569646,51.2225811],[0.9572289,51.2225022]]]}},
{"type":"Feature","properties":{"highway":"track","name":null,"category":"Track"},"geometry":{"type":"MultiLineString","coordinates":[[[0.9726738,51.2291209],[0.9726309,51.2287996],[0.9726035,51.2285933],[0.9725366,51.2282164],[0.9724179,51.2278748],[0.9722676,51.2274657],[0.9719482,51.2268556],[0.9717743,51.2266112],[0.9715988,51.2263493],[0.9714093,51.2260998],[0.9711739,51.2257855],[0.9710836,51.2256929],[0.9709114,51.2256894],[0.9707241,51.2255058]]]}},
{"type":"Feature","properties":{"highway":"footway","name":null,"category":"Footpath (pedestrian only)"},"geometry":{"type":"MultiLineString","coordinates":[[[0.9597545,51.2174557],[0.959697,51.2174153],[0.9598164,51.2173371],[0.9598863,51.2172798],[0.9599141,51.2172262],[0.9599188,51.2171703],[0.9598921,51.2171026],[0.9598076,51.2170518]]]}},
{"type":"Feature","properties":{"highway":"track","name":"Eggarton Lane","category":"Track"},"geometry":{"type":"MultiLineString","coordinates":[[[0.9673608,51.2185534],[0.9675193,51.2184964],[0.9679887,51.2183671],[0.9685395,51.2181822]]]}},
{"type":"Feature","properties":{"highway":"track","name":"Eggarton Lane","category":"Track"},"geometry":{"type":"MultiLineString","coordinates":[[[0.968604,51.2181576],[0.9690534,51.2179863],[0.9695038,51.217792],[0.9699792,51.2176159],[0.9700191,51.2175988],[0.9702873,51.2174823],[0.9705986,51.2173394],[0.9710126,51.2171398],[0.9713601,51.216966]]]}},
{"type":"Feature","properties":{"highway":"footway","name":null,"category":"Footpath (pedestrian only)"},"geometry":{"type":"MultiLineString","coordinates":[[[0.968604,51.2181576],[0.9686381,51.2182026],[0.9709111,51.2187742],[0.9745033,51.219727],[0.9784043,51.220567],[0.9787679,51.2206892],[0.9790581,51.220994],[0.9794259,51.2212358],[0.9797873,51.2213357],[0.9800111,51.2212185],[0.9802224,51.2212003],[0.9808568,51.2212644],[0.9813654,51.2213329],[0.9815589,51.2216817],[0.9815967,51.2217361],[0.9819129,51.2217885],[0.9856379,51.2216781],[0.9856916,51.2217118],[0.9857457,51.2217459]]]}},
{"type":"Feature","properties":{"highway":"track","name":null,"category":"Track"},"geometry":{"type":"MultiLineString","coordinates":[[[0.9691599,51.2262042],[0.9689861,51.2262329],[0.9688144,51.2262481],[0.9686401,51.2262665],[0.9684148,51.2263186],[0.9681465,51.226416],[0.9679046,51.2264967],[0.9671831,51.2266779],[0.9669846,51.2267081],[0.9668237,51.2267014],[0.9667057,51.2266779],[0.9665823,51.2266241],[0.9656918,51.2262109],[0.9653967,51.2260732],[0.9652519,51.2260228],[0.9651339,51.2259959],[0.9648228,51.2259119],[0.9647423,51.225875],[0.9647208,51.2258313],[0.9647155,51.2257507],[0.9647155,51.2256902]]]}},
{"type":"Feature","properties":{"highway":"track","name":null,"category":"Track"},"geometry":{"type":"MultiLineString","coordinates":[[[0.9553036,51.23083],[0.9553626,51.2308519],[0.9554672,51.2309425],[0.955537,51.2309795],[0.9556174,51.2309778],[0.9557193,51.2309358],[0.9559044,51.2308267],[0.9561914,51.2306386],[0.9563765,51.2305126],[0.9566072,51.2303614],[0.9567654,51.2302674],[0.9571382,51.2300322],[0.9572858,51.2299348],[0.9573984,51.2298676],[0.9575593,51.2298072],[0.9577686,51.229735],[0.9583586,51.2295552],[0.9586322,51.2294629],[0.95893,51.2293671],[0.9592625,51.2292579],[0.9594557,51.2291992],[0.9596059,51.2291807],[0.9597158,51.2292008],[0.9598124,51.2292529],[0.9599116,51.2293302],[0.9603327,51.2297148],[0.9605178,51.2298693],[0.9606063,51.2299281],[0.9606895,51.2299583],[0.9607914,51.2299751],[0.9608772,51.2300171],[0.9611374,51.230222],[0.9612098,51.2302909]]]}},
{"type":"Feature","properties":{"highway":"footway","name":null,"category":"Footpath (pedestrian only)"},"geometry":{"type":"MultiLineString","coordinates":[[[0.9522356,51.215584],[0.9522651,51.215584],[0.9526728,51.2157906],[0.9530681,51.2159867],[0.9533809,51.2161418],[0.9541373,51.2165248],[0.954883,51.2168978],[0.9556045,51.2172809],[0.9558486,51.2173985],[0.9563367,51.2176471],[0.9567551,51.2178554],[0.9570155,51.2179926],[0.9571242,51.2180528]]]}},
{"type":"Feature","properties":{"highway":"footway","name":null,"category":"Footpath (pedestrian only)"},"geometry":{"type":"MultiLineString","coordinates":[[[0.9665668,51.2224696],[0.9692373,51.2210049],[0.971028,51.2208378],[0.9719889,51.2205607],[0.9735148,51.2200682],[0.9745033,51.219727],[0.9753636,51.2174941],[0.9754131,51.2165966],[0.9761035,51.2156854]]]}},
{"type":"Feature","properties":{"highway":"track","name":null,"category":"Track"},"geometry":{"type":"MultiLineString","coordinates":[[[0.9657824,51.2189322],[0.9654611,51.2180209],[0.965144,51.2178677],[0.9643286,51.2167839],[0.9638666,51.2162618],[0.9633589,51.215147],[0.9622173,51.2139059],[0.9620876,51.2138615],[0.9618627,51.2138419],[0.9617124,51.213808],[0.9617004,51.2137064],[0.9622053,51.213409],[0.9625757,51.2132387]]]}},
{"type":"Feature","properties":{"highway":"footway","name":null,"category":"Footpath (pedestrian only)"},"geometry":{"type":"MultiLineString","coordinates":[[[0.959926,51.2164253],[0.9599858,51.2163926],[0.9601584,51.2162609],[0.9603757,51.2159938],[0.9610757,51.2151285],[0.9612903,51.2148614],[0.9614834,51.2146396],[0.9617302,51.2143103],[0.9620876,51.2138615],[0.9621466,51.2137874],[0.9625757,51.2132387]]]}},
{"type":"Feature","properties":{"highway":"path","name":null,"category":"Shared path"},"geometry":{"type":"MultiLineString","coordinates":[[[0.9600202,51.217182],[0.9601012,51.2171876],[0.9601586,51.2172722],[0.9601761,51.2172738]]]}},
{"type":"Feature","properties":{"highway":"path","name":null,"category":"Shared path"},"geometry":{"type":"MultiLineString","coordinates":[[[0.9601012,51.2171876],[0.9601403,51.2170963],[0.9601598,51.2170961]]]}},
{"type":"Feature","properties":{"highway":"path","name":null,"category":"Shared path"},"geometry":{"type":"MultiLineString","coordinates":[[[0.9601598,51.2170961],[0.9601761,51.2172738],[0.9601996,51.2176537]]]}},
{"type":"Feature","properties":{"highway":"path","name":null,"category":"Shared path"},"geometry":{"type":"MultiLineString","coordinates":[[[0.9601598,51.2170961],[0.9601471,51.2169636]]]}},
{"type":"Feature","properties":{"highway":"track","name":null,"category":"Track"},"geometry":{"type":"MultiLineString","coordinates":[[[0.9719067,51.2287834],[0.9718364,51.2286408],[0.9718607,51.228468],[0.9717172,51.2281625],[0.9710059,51.2268623],[0.9708152,51.2265637],[0.9702335,51.2259247],[0.9702129,51.2256956]]]}}
]
}
