{
"type": "FeatureCollection",
"name": "ASHFO_13_walking",
"crs": { "type": "name", "properties": { "name": "urn:ogc:def:crs:OGC:1.3:CRS84" } },
"features": [
{"type":"Feature","properties":{"highway":"footway","name":null,"category":"Footpath (pedestrian only)"},"geometry":{"type":"MultiLineString","coordinates":[[[0.6889066,51.0688595],[0.689236,51.0685664],[0.6893614,51.0686141],[0.6896642,51.0683272]]]}},
{"type":"Feature","properties":{"highway":"footway","name":null,"category":"Footpath (pedestrian only)"},"geometry":{"type":"MultiLineString","coordinates":[[[0.6862625,51.0662181],[0.6862084,51.0665663]]]}},
{"type":"Feature","properties":{"highway":"path","name":null,"category":"Shared path"},"geometry":{"type":"MultiLineString","coordinates":[[[0.6915808,51.0603495],[0.6915676,51.0604518],[0.6914741,51.0620518],[0.6915497,51.0622009],[0.6905097,51.064324],[0.6904201,51.0645145],[0.690373,51.0647309]]]}},
{"type":"Feature","properties":{"highway":"footway","name":"Bells Lane","category":"Footpath (pedestrian only)"},"geometry":{"type":"MultiLineString","coordinates":[[[0.6877114,51.0679582],[0.6877184,51.0679927],[0.6874693,51.0683227]]]}},
{"type":"Feature","properties":{"highway":"footway","name":null,"category":"Footpath (pedestrian only)"},"geometry":{"type":"MultiLineString","coordinates":[[[0.6934102,51.0704363],[0.6937568,51.0704562]]]}},
{"type":"Feature","properties":{"highway":"footway","name":null,"category":"Footpath (pedestrian only)"},"geometry":{"type":"MultiLineString","coordinates":[[[0.6937568,51.0704562],[0.6937898,51.0701696],[0.6936703,51.0701265],[0.6936544,51.0701431]]]}},
{"type":"Feature","properties":{"highway":"footway","name":null,"category":"Footpath (pedestrian only)"},"geometry":{"type":"MultiLineString","coordinates":[[[0.6937568,51.0704562],[0.6939014,51.07053],[0.693961,51.0706418],[0.6938942,51.0709626],[0.693958,51.071096]]]}},
{"type":"Feature","properties":{"highway":"footway","name":null,"category":"Footpath (pedestrian only)"},"geometry":{"type":"MultiLineString","coordinates":[[[0.692752,51.0728633],[0.6927315,51.0728085],[0.6928071,51.0727157],[0.6929196,51.0726262],[0.6930128,51.0725434],[0.6930708,51.0724881],[0.6931018,51.0724678]]]}},
{"type":"Feature","properties":{"highway":"footway","name":null,"category":"Footpath (pedestrian only)"},"geometry":{"type":"MultiLineString","coordinates":[[[0.6938942,51.0709626],[0.693646,51.0710077],[0.6933246,51.0709944],[0.6931206,51.0709541],[0.6929779,51.0709105]]]}},
{"type":"Feature","properties":{"highway":"footway","name":null,"category":"Footpath (pedestrian only)"},"geometry":{"type":"MultiLineString","coordinates":[[[0.6894062,51.072809],[0.6896623,51.0727981],[0.6899079,51.0731581]]]}},
{"type":"Feature","properties":{"highway":"footway","name":null,"category":"Footpath (pedestrian only)"},"geometry":{"type":"MultiLineString","coordinates":[[[0.6920908,51.0730526],[0.6921855,51.0730112]]]}},
{"type":"Feature","properties":{"highway":"footway","name":null,"category":"Footpath (pedestrian only)"},"geometry":{"type":"MultiLineString","coordinates":[[[0.6925628,51.0734358],[0.6923357,51.0735039],[0.6922869,51.0735169]]]}},
{"type":"Feature","properties":{"highway":"footway","name":null,"category":"Footpath (pedestrian only)"},"geometry":{"type":"MultiLineString","coordinates":[[[0.6923357,51.0735039],[0.6922932,51.0734478],[0.6922512,51.0734599]]]}},
{"type":"Feature","properties":{"highway":"path","name":null,"category":"Shared path"},"geometry":{"type":"MultiLineString","coordinates":[[[0.6839813,51.0716105],[0.6832073,51.073676],[0.6828527,51.0743308]]]}},
{"type":"Feature","properties":{"highway":"footway","name":null,"category":"Footpath (pedestrian only)"},"geometry":{"type":"MultiLineString","coordinates":[[[0.6916073,51.0670677],[0.6917039,51.0671285],[0.6926842,51.067379]]]}},
{"type":"Feature","properties":{"highway":"path","name":null,"category":"Shared path"},"geometry":{"type":"MultiLineString","coordinates":[[[0.6869733,51.0662011],[0.6869001,51.0659595]]]}},
{"type":"Feature","properties":{"highway":"footway","name":null,"category":"Footpath (pedestrian only)"},"geometry":{"type":"MultiLineString","coordinates":[[[0.6902079,51.0684585],[0.6903019,51.0684869],[0.6903714,51.0685079],[0.6907365,51.068618],[0.6911696,51.0687487],[0.6912872,51.0686059],[0.6914719,51.0686636],[0.6919994,51.0688303]]]}},
{"type":"Feature","properties":{"highway":"footway","name":null,"category":"Footpath (pedestrian only)"},"geometry":{"type":"MultiLineString","coordinates":[[[0.6844772,51.0704622],[0.6844385,51.0705036],[0.6842191,51.0708133],[0.6841964,51.0708423],[0.6841143,51.0709474]]]}},
{"type":"Feature","properties":{"highway":"track","name":null,"category":"Track"},"geometry":{"type":"MultiLineString","coordinates":[[[0.6845407,51.07017],[0.6844926,51.0701636],[0.6842754,51.0701416],[0.6841704,51.0701137],[0.684077,51.0700697],[0.6839812,51.0699875],[0.6838738,51.0699288],[0.6836006,51.069854],[0.6830589,51.0697249],[0.6828628,51.0696809],[0.6827484,51.0696823],[0.6826876,51.0697219],[0.6826526,51.069785],[0.6826269,51.0698672]]]}},
{"type":"Feature","properties":{"highway":"track","name":null,"category":"Track"},"geometry":{"type":"MultiLineString","coordinates":[[[0.6845407,51.07017],[0.6844895,51.0702243],[0.684283,51.0703946],[0.6840872,51.0705547],[0.6840086,51.0706405],[0.6838431,51.070821],[0.6836205,51.0711462],[0.6835373,51.0711884],[0.6834112,51.0712035],[0.6832798,51.0712423],[0.6831162,51.0713384],[0.682826,51.0715763],[0.6823459,51.0718925],[0.6821198,51.0718894],[0.6820192,51.0719047]]]}},
{"type":"Feature","properties":{"highway":"footway","name":null,"category":"Footpath (pedestrian only)"},"geometry":{"type":"MultiLineString","coordinates":[[[0.6865639,51.0686878],[0.6867606,51.0687113],[0.6868191,51.0686629],[0.6869454,51.06863],[0.6871024,51.0686087],[0.6871944,51.0686077],[0.6872779,51.0686068],[0.687586,51.0686154],[0.6876906,51.0686048],[0.6877876,51.0686059],[0.6879541,51.0686077]]]}},
{"type":"Feature","properties":{"highway":"footway","name":null,"category":"Footpath (pedestrian only)"},"geometry":{"type":"MultiLineString","coordinates":[[[0.6871944,51.0686077],[0.6872036,51.0685301],[0.6871821,51.0684482],[0.6871983,51.0684309],[0.6873448,51.0682745]]]}},
{"type":"Feature","properties":{"highway":"footway","name":null,"category":"Footpath (pedestrian only)"},"geometry":{"type":"MultiLineString","coordinates":[[[0.6907967,51.0698751],[0.69092,51.0697833],[0.6898509,51.0691977]]]}},
{"type":"Feature","properties":{"highway":"footway","name":null,"category":"Footpath (pedestrian only)"},"geometry":{"type":"MultiLineString","coordinates":[[[0.6903714,51.0685079],[0.6898509,51.0691977]]]}},
{"type":"Feature","properties":{"highway":"footway","name":null,"category":"Footpath (pedestrian only)"},"geometry":{"type":"MultiLineString","coordinates":[[[0.689848,51.0683885],[0.6896935,51.0685267],[0.6895862,51.0686284],[0.6891612,51.0689714]]]}},
{"type":"Feature","properties":{"highway":"footway","name":null,"category":"Footpath (pedestrian only)"},"geometry":{"type":"MultiLineString","coordinates":[[[0.6886997,51.0681814],[0.6890414,51.0682603],[0.6891366,51.0680791],[0.6891728,51.0680888]]]}},
{"type":"Feature","properties":{"highway":"footway","name":null,"category":"Footpath (pedestrian only)"},"geometry":{"type":"MultiLineString","coordinates":[[[0.6898509,51.0691977],[0.6896566,51.0691097]]]}},
{"type":"Feature","properties":{"highway":"path","name":null,"category":"Shared path"},"geometry":{"type":"MultiLineString","coordinates":[[[0.6793223,51.0732621],[0.6796251,51.0728554],[0.6796271,51.0725249],[0.6796286,51.0722897],[0.6796402,51.0722652],[0.6797666,51.071999],[0.679671,51.0716152],[0.679701,51.0714892],[0.6804652,51.0710126],[0.6804203,51.0701579],[0.6803892,51.0695649],[0.6803837,51.0694605],[0.679948,51.0692828],[0.6798332,51.0691262],[0.6795889,51.0678193],[0.6800392,51.0675607]]]}},
{"type":"Feature","properties":{"highway":"path","name":null,"category":"Shared path"},"geometry":{"type":"MultiLineString","coordinates":[[[0.6745192,51.0698116],[0.6745646,51.0697512],[0.674986,51.06919],[0.6751396,51.0689855],[0.6760086,51.0683855],[0.6768455,51.0676371],[0.6773283,51.0671517],[0.677693,51.0669966],[0.678369,51.0668213],[0.6793845,51.0666178]]]}},
{"type":"Feature","properties":{"highway":"footway","name":null,"category":"Footpath (pedestrian only)"},"geometry":{"type":"MultiLineString","coordinates":[[[0.6912695,51.0667024],[0.691778,51.0668344]]]}},
{"type":"Feature","properties":{"highway":"path","name":null,"category":"Shared path"},"geometry":{"type":"MultiLineString","coordinates":[[[0.6800268,51.0725107],[0.6804147,51.0724341],[0.6808223,51.0724412],[0.6810717,51.0725385],[0.6815603,51.0724086],[0.6819713,51.0721571],[0.6824928,51.0718603],[0.682957,51.0715741],[0.6835075,51.0712857],[0.683637,51.0712602]]]}},
{"type":"Feature","properties":{"highway":"footway","name":null,"category":"Footpath (pedestrian only)"},"geometry":{"type":"MultiLineString","coordinates":[[[0.688487,51.0650808],[0.6882628,51.0655165],[0.6880823,51.0656097],[0.6879831,51.065665]]]}},
{"type":"Feature","properties":{"highway":"path","name":null,"category":"Shared path"},"geometry":{"type":"MultiLineString","coordinates":[[[0.6956208,51.0610339],[0.6960514,51.0607567],[0.696755,51.0604219],[0.6986631,51.0599251],[0.6986573,51.0596812],[0.6987412,51.0595193],[0.6990047,51.0592481],[0.6993232,51.059108],[0.6997373,51.0589624],[0.7005683,51.0588114],[0.7006841,51.0587204],[0.7007159,51.0585857],[0.7007014,51.0580943],[0.7007308,51.0580682]]]}},
{"type":"Feature","properties":{"highway":"footway","name":null,"category":"Footpath (pedestrian only)"},"geometry":{"type":"MultiLineString","coordinates":[[[0.6908422,51.0699016],[0.6903106,51.0702382]]]}},
{"type":"Feature","properties":{"highway":"footway","name":null,"category":"Footpath (pedestrian only)"},"geometry":{"type":"MultiLineString","coordinates":[[[0.684426,51.0666211],[0.6844319,51.0665821],[0.6844552,51.066563],[0.6845037,51.0665306]]]}},
{"type":"Feature","properties":{"highway":"path","name":null,"category":"Shared path"},"geometry":{"type":"MultiLineString","coordinates":[[[0.6916197,51.0603558],[0.6918437,51.0609068],[0.6920382,51.0612392],[0.6924033,51.061599],[0.6929899,51.0621732]]]}},
{"type":"Feature","properties":{"highway":"track","name":null,"category":"Track"},"geometry":{"type":"MultiLineString","coordinates":[[[0.6932788,51.0613482],[0.6931482,51.0613026],[0.6927455,51.0612713],[0.6920537,51.0612224],[0.6920776,51.0611711]]]}},
{"type":"Feature","properties":{"highway":"track","name":null,"category":"Track"},"geometry":{"type":"MultiLineString","coordinates":[[[0.6938711,51.060305],[0.6938941,51.0602587],[0.6939876,51.0601204],[0.6940369,51.0600435],[0.6942121,51.059792],[0.6942494,51.0597551],[0.6943133,51.0597459],[0.6943919,51.059756],[0.6947637,51.0597903],[0.6954459,51.0598205]]]}},
{"type":"Feature","properties":{"highway":"footway","name":null,"category":"Footpath (pedestrian only)"},"geometry":{"type":"MultiLineString","coordinates":[[[0.6906185,51.0678399],[0.6912107,51.0679965]]]}},
{"type":"Feature","properties":{"highway":"footway","name":null,"category":"Footpath (pedestrian only)"},"geometry":{"type":"MultiLineString","coordinates":[[[0.6885252,51.0650455],[0.6883446,51.0648602],[0.6880678,51.0645761]]]}},
{"type":"Feature","properties":{"highway":"footway","name":null,"category":"Footpath (pedestrian only)"},"geometry":{"type":"MultiLineString","coordinates":[[[0.6879261,51.0649377],[0.6880526,51.0649235],[0.6883446,51.0648602],[0.6888097,51.0647594]]]}},
{"type":"Feature","properties":{"highway":"path","name":null,"category":"Shared path"},"geometry":{"type":"MultiLineString","coordinates":[[[0.6936385,51.0665445],[0.693692,51.0665636],[0.6937269,51.066583],[0.6937433,51.0665984],[0.6937721,51.06661],[0.693815,51.0666216]]]}},
{"type":"Feature","properties":{"highway":"path","name":null,"category":"Shared path"},"geometry":{"type":"MultiLineString","coordinates":[[[0.6867207,51.0682292],[0.6871983,51.0684309],[0.6875581,51.0685892],[0.6877537,51.0685929],[0.6877876,51.0686059]]]}},
{"type":"Feature","properties":{"highway":"path","name":null,"category":"Shared path"},"geometry":{"type":"MultiLineString","coordinates":[[[0.6863182,51.0678217],[0.6860073,51.0676953],[0.6856402,51.0675595],[0.6851221,51.0673382],[0.6846818,51.0671936],[0.6845142,51.0671506],[0.6842388,51.0670677],[0.6838283,51.0669569],[0.6831799,51.0667977],[0.682948,51.0667507],[0.6826726,51.0666949],[0.6822476,51.0666171],[0.6821177,51.0665933],[0.6818495,51.0665378],[0.6818115,51.0665956]]]}},
{"type":"Feature","properties":{"highway":"path","name":null,"category":"Shared path"},"geometry":{"type":"MultiLineString","coordinates":[[[0.6818495,51.0665378],[0.6816506,51.0664947]]]}},
{"type":"Feature","properties":{"highway":"path","name":null,"category":"Shared path"},"geometry":{"type":"MultiLineString","coordinates":[[[0.6814227,51.0665997],[0.6818461,51.0667051],[0.6820226,51.0667549],[0.6822826,51.0668283]]]}},
{"type":"Feature","properties":{"highway":"path","name":null,"category":"Shared path"},"geometry":{"type":"MultiLineString","coordinates":[[[0.6820915,51.0666656],[0.6820226,51.0667549],[0.6819333,51.0669239],[0.6817938,51.0670963],[0.6817796,51.0671869],[0.6815763,51.0673162]]]}},
{"type":"Feature","properties":{"highway":"path","name":null,"category":"Shared path"},"geometry":{"type":"MultiLineString","coordinates":[[[0.6817938,51.0670963],[0.6816685,51.0670332],[0.6815943,51.0670508]]]}},
{"type":"Feature","properties":{"highway":"path","name":null,"category":"Shared path"},"geometry":{"type":"MultiLineString","coordinates":[[[0.6816383,51.0682212],[0.681664,51.0680417],[0.6817736,51.0678988],[0.6821735,51.0675903],[0.6822202,51.0675896],[0.6825456,51.0677261]]]}},
{"type":"Feature","properties":{"highway":"path","name":null,"category":"Shared path"},"geometry":{"type":"MultiLineString","coordinates":[[[0.6821735,51.0675903],[0.6823986,51.067476],[0.682542,51.0675412],[0.6825686,51.067615]]]}},
{"type":"Feature","properties":{"highway":"path","name":null,"category":"Shared path"},"geometry":{"type":"MultiLineString","coordinates":[[[0.6823986,51.067476],[0.6824849,51.0673778],[0.6825047,51.0672877],[0.6825362,51.0672137],[0.682655,51.0670849]]]}},
{"type":"Feature","properties":{"highway":"path","name":null,"category":"Shared path"},"geometry":{"type":"MultiLineString","coordinates":[[[0.682655,51.0670849],[0.6827233,51.0670192]]]}},
{"type":"Feature","properties":{"highway":"path","name":null,"category":"Shared path"},"geometry":{"type":"MultiLineString","coordinates":[[[0.6827233,51.0670192],[0.6828388,51.0668695]]]}},
{"type":"Feature","properties":{"highway":"footway","name":null,"category":"Footpath (pedestrian only)"},"geometry":{"type":"MultiLineString","coordinates":[[[0.6891735,51.0593076],[0.6892293,51.0593481],[0.6898383,51.0595528],[0.6899931,51.0596248],[0.6900377,51.0596682],[0.6900418,51.0596886]]]}},
{"type":"Feature","properties":{"highway":"footway","name":null,"category":"Footpath (pedestrian only)"},"geometry":{"type":"MultiLineString","coordinates":[[[0.6900418,51.0596886],[0.6900514,51.0597279],[0.6900881,51.0598388],[0.6901178,51.0598795],[0.6903398,51.0599531],[0.6907086,51.0600706],[0.6908344,51.0600772],[0.6909253,51.0600651],[0.6909795,51.0600706],[0.6912504,51.0601233]]]}},
{"type":"Feature","properties":{"highway":"footway","name":null,"category":"Footpath (pedestrian only)"},"geometry":{"type":"MultiLineString","coordinates":[[[0.6912504,51.0601233],[0.6913867,51.0601508],[0.691576,51.060229]]]}},
{"type":"Feature","properties":{"highway":"footway","name":null,"category":"Footpath (pedestrian only)"},"geometry":{"type":"MultiLineString","coordinates":[[[0.6891735,51.0593076],[0.6888962,51.0590171],[0.6888158,51.0589095],[0.6887529,51.0588513],[0.6885816,51.0587129],[0.6883334,51.0584635],[0.6883229,51.0584152],[0.6882845,51.0583899],[0.6880171,51.0583031],[0.6876273,51.0581988],[0.6869649,51.0580142],[0.6864563,51.0578912],[0.6863672,51.0578912],[0.6863167,51.0579001]]]}},
{"type":"Feature","properties":{"highway":"footway","name":null,"category":"Footpath (pedestrian only)"},"geometry":{"type":"MultiLineString","coordinates":[[[0.6926825,51.0573236],[0.6930858,51.0573099],[0.6934462,51.0572808],[0.6939026,51.0572143],[0.6947326,51.0570813],[0.6949955,51.0570449],[0.6951046,51.0570449],[0.6951592,51.0570501],[0.6951939,51.0570501],[0.6952502,51.0570376],[0.6953775,51.0570168],[0.6956123,51.0570158],[0.6958289,51.0570595],[0.6960091,51.0571073],[0.6960967,51.0571218],[0.6962968,51.0571301],[0.6968755,51.0571291],[0.6971831,51.0571312],[0.6980362,51.057128],[0.6988531,51.057127],[0.6991375,51.0571332],[0.6994483,51.0571187],[0.7000898,51.057075],[0.7004205,51.0570553],[0.7005975,51.0570252],[0.7008124,51.0569431],[0.7013167,51.0568225],[0.7014077,51.0567757],[0.701497,51.0567595]]]}},
{"type":"Feature","properties":{"highway":"pedestrian","name":"Sayers Lane","category":"Pedestrian area/street"},"geometry":{"type":"MultiLineString","coordinates":[[[0.6882689,51.068617],[0.6883555,51.068535],[0.6886997,51.0681814]]]}}
]
}
