{
"type": "FeatureCollection",
"name": "0233fcaf0e96_visibility",
"crs": { "type": "name", "properties": { "name": "urn:ogc:def:crs:OGC:1.3:CRS84" } },
"features": [
{ "type": "Feature", "properties": { "visible_points": 1, "total_points": 67, "visibility_pct": 1.4925373134328357 }, "geometry": { "type": "Point", "coordinates": [ -0.121291490945289, 50.947417462575153 ] } },
{ "type": "Feature", "properties": { "visible_points": 1, "total_points": 75, "visibility_pct": 1.3333333333333335 }, "geometry": { "type": "Point", "coordinates": [ -0.121094357258668, 50.94741428909974 ] } },
{ "type": "Feature", "properties": { "visible_points": 0, "total_points": 76, "visibility_pct": 0.0 }, "geometry": { "type": "Point", "coordinates": [ -0.120897223607564, 50.947411115291594 ] } },
{ "type": "Feature", "properties": { "visible_points": 0, "total_points": 72, "visibility_pct": 0.0 }, "geometry": { "type": "Point", "coordinates": [ -0.120700089991974, 50.947407941150772 ] } },
{ "type": "Feature", "properties": { "visible_points": 0, "total_points": 65, "visibility_pct": 0.0 }, "geometry": { "type": "Point", "coordinates": [ -0.120502956411905, 50.947404766677231 ] } },
{ "type": "Feature", "properties": { "visible_points": 0, "total_points": 57, "visibility_pct": 0.0 }, "geometry": { "type": "Point", "coordinates": [ -0.120305822867361, 50.947401591870964 ] } },
{ "type": "Feature", "properties": { "visible_points": 0, "total_points": 61, "visibility_pct": 0.0 }, "geometry": { "type": "Point", "coordinates": [ -0.121582845335404, 50.947530072409855 ] } },
{ "type": "Feature", "properties": { "visible_points": 0, "total_points": 71, "visibility_pct": 0.0 }, "geometry": { "type": "Point", "coordinates": [ -0.121385711143146, 50.947526899422492 ] } },
{ "type": "Feature", "properties": { "visible_points": 0, "total_points": 80, "visibility_pct": 0.0 }, "geometry": { "type": "Point", "coordinates": [ -0.12118857698639, 50.947523726102432 ] } },
{ "type": "Feature", "properties": { "visible_points": 0, "total_points": 86, "visibility_pct": 0.0 }, "geometry": { "type": "Point", "coordinates": [ -0.120991442865147, 50.947520552449653 ] } },
{ "type": "Feature", "properties": { "visible_points": 0, "total_points": 85, "visibility_pct": 0.0 }, "geometry": { "type": "Point", "coordinates": [ -0.120794308779418, 50.947517378464184 ] } },
{ "type": "Feature", "properties": { "visible_points": 1, "total_points": 77, "visibility_pct": 1.2987012987012987 }, "geometry": { "type": "Point", "coordinates": [ -0.120597174729213, 50.947514204145996 ] } },
{ "type": "Feature", "properties": { "visible_points": 7, "total_points": 69, "visibility_pct": 10.144927536231885 }, "geometry": { "type": "Point", "coordinates": [ -0.120400040714521, 50.947511029495104 ] } },
{ "type": "Feature", "properties": { "visible_points": 0, "total_points": 60, "visibility_pct": 0.0 }, "geometry": { "type": "Point", "coordinates": [ -0.120202906735365, 50.947507854511485 ] } },
{ "type": "Feature", "properties": { "visible_points": 0, "total_points": 62, "visibility_pct": 0.0 }, "geometry": { "type": "Point", "coordinates": [ -0.121677066438016, 50.947639509027439 ] } },
{ "type": "Feature", "properties": { "visible_points": 5, "total_points": 73, "visibility_pct": 6.8493150684931505 }, "geometry": { "type": "Point", "coordinates": [ -0.121479931775617, 50.947636336195444 ] } },
{ "type": "Feature", "properties": { "visible_points": 11, "total_points": 83, "visibility_pct": 13.253012048192772 }, "geometry": { "type": "Point", "coordinates": [ -0.121282797148722, 50.94763316303073 ] } },
{ "type": "Feature", "properties": { "visible_points": 16, "total_points": 93, "visibility_pct": 17.20430107526882 }, "geometry": { "type": "Point", "coordinates": [ -0.121085662557344, 50.947629989533333 ] } },
{ "type": "Feature", "properties": { "visible_points": 13, "total_points": 96, "visibility_pct": 13.541666666666666 }, "geometry": { "type": "Point", "coordinates": [ -0.120888528001475, 50.947626815703202 ] } },
{ "type": "Feature", "properties": { "visible_points": 14, "total_points": 90, "visibility_pct": 15.555555555555555 }, "geometry": { "type": "Point", "coordinates": [ -0.120691393481122, 50.947623641540368 ] } },
{ "type": "Feature", "properties": { "visible_points": 9, "total_points": 81, "visibility_pct": 11.111111111111111 }, "geometry": { "type": "Point", "coordinates": [ -0.12049425899629, 50.947620467044814 ] } },
{ "type": "Feature", "properties": { "visible_points": 9, "total_points": 71, "visibility_pct": 12.676056338028168 }, "geometry": { "type": "Point", "coordinates": [ -0.120297124546982, 50.94761729221657 ] } },
{ "type": "Feature", "properties": { "visible_points": 6, "total_points": 73, "visibility_pct": 8.2191780821917799 }, "geometry": { "type": "Point", "coordinates": [ -0.121574152842709, 50.947745772893974 ] } },
{ "type": "Feature", "properties": { "visible_points": 5, "total_points": 85, "visibility_pct": 5.8823529411764701 }, "geometry": { "type": "Point", "coordinates": [ -0.121377017745677, 50.947742599884634 ] } },
{ "type": "Feature", "properties": { "visible_points": 19, "total_points": 96, "visibility_pct": 19.791666666666664 }, "geometry": { "type": "Point", "coordinates": [ -0.121179882684155, 50.947739426542583 ] } },
{ "type": "Feature", "properties": { "visible_points": 18, "total_points": 104, "visibility_pct": 17.307692307692307 }, "geometry": { "type": "Point", "coordinates": [ -0.120982747658142, 50.947736252867827 ] } },
{ "type": "Feature", "properties": { "visible_points": 16, "total_points": 103, "visibility_pct": 15.53398058252427 }, "geometry": { "type": "Point", "coordinates": [ -0.120785612667646, 50.947733078860338 ] } },
{ "type": "Feature", "properties": { "visible_points": 14, "total_points": 93, "visibility_pct": 15.053763440860216 }, "geometry": { "type": "Point", "coordinates": [ -0.120588477712666, 50.947729904520152 ] } },
{ "type": "Feature", "properties": { "visible_points": 12, "total_points": 83, "visibility_pct": 14.457831325301203 }, "geometry": { "type": "Point", "coordinates": [ -0.120391342793214, 50.947726729847268 ] } },
{ "type": "Feature", "properties": { "visible_points": 0, "total_points": 72, "visibility_pct": 0.0 }, "geometry": { "type": "Point", "coordinates": [ -0.120194207909284, 50.947723554841659 ] } },
{ "type": "Feature", "properties": { "visible_points": 1, "total_points": 71, "visibility_pct": 1.4084507042253522 }, "geometry": { "type": "Point", "coordinates": [ -0.121668374344425, 50.94785520951811 ] } },
{ "type": "Feature", "properties": { "visible_points": 10, "total_points": 83, "visibility_pct": 12.048192771084338 }, "geometry": { "type": "Point", "coordinates": [ -0.12147123877725, 50.947852036664145 ] } },
{ "type": "Feature", "properties": { "visible_points": 19, "total_points": 96, "visibility_pct": 19.791666666666664 }, "geometry": { "type": "Point", "coordinates": [ -0.121274103245584, 50.947848863477446 ] } },
{ "type": "Feature", "properties": { "visible_points": 20, "total_points": 108, "visibility_pct": 18.518518518518519 }, "geometry": { "type": "Point", "coordinates": [ -0.121076967749426, 50.947845689958044 ] } },
{ "type": "Feature", "properties": { "visible_points": 23, "total_points": 111, "visibility_pct": 20.72072072072072 }, "geometry": { "type": "Point", "coordinates": [ -0.120879832288784, 50.947842516105929 ] } },
{ "type": "Feature", "properties": { "visible_points": 19, "total_points": 105, "visibility_pct": 18.095238095238095 }, "geometry": { "type": "Point", "coordinates": [ -0.120682696863659, 50.947839341921103 ] } },
{ "type": "Feature", "properties": { "visible_points": 17, "total_points": 95, "visibility_pct": 17.894736842105264 }, "geometry": { "type": "Point", "coordinates": [ -0.120485561474051, 50.947836167403565 ] } },
{ "type": "Feature", "properties": { "visible_points": 13, "total_points": 82, "visibility_pct": 15.853658536585366 }, "geometry": { "type": "Point", "coordinates": [ -0.120288426119974, 50.947832992553323 ] } },
{ "type": "Feature", "properties": { "visible_points": 5, "total_points": 77, "visibility_pct": 6.4935064935064926 }, "geometry": { "type": "Point", "coordinates": [ -0.12156546024345, 50.947961473369254 ] } },
{ "type": "Feature", "properties": { "visible_points": 14, "total_points": 89, "visibility_pct": 15.730337078651685 }, "geometry": { "type": "Point", "coordinates": [ -0.121368324241636, 50.947958300337923 ] } },
{ "type": "Feature", "properties": { "visible_points": 18, "total_points": 101, "visibility_pct": 17.82178217821782 }, "geometry": { "type": "Point", "coordinates": [ -0.121171188275331, 50.947955126973888 ] } },
{ "type": "Feature", "properties": { "visible_points": 19, "total_points": 110, "visibility_pct": 17.272727272727273 }, "geometry": { "type": "Point", "coordinates": [ -0.120974052344541, 50.947951953277133 ] } },
{ "type": "Feature", "properties": { "visible_points": 19, "total_points": 109, "visibility_pct": 17.431192660550458 }, "geometry": { "type": "Point", "coordinates": [ -0.120776916449261, 50.947948779247653 ] } },
{ "type": "Feature", "properties": { "visible_points": 15, "total_points": 98, "visibility_pct": 15.306122448979592 }, "geometry": { "type": "Point", "coordinates": [ -0.120579780589506, 50.947945604885483 ] } },
{ "type": "Feature", "properties": { "visible_points": 16, "total_points": 87, "visibility_pct": 18.390804597701148 }, "geometry": { "type": "Point", "coordinates": [ -0.120382644765275, 50.947942430190587 ] } },
{ "type": "Feature", "properties": { "visible_points": 0, "total_points": 74, "visibility_pct": 0.0 }, "geometry": { "type": "Point", "coordinates": [ -0.120185508976565, 50.947939255162979 ] } },
{ "type": "Feature", "properties": { "visible_points": 1, "total_points": 66, "visibility_pct": 1.5151515151515151 }, "geometry": { "type": "Point", "coordinates": [ -0.121659682144273, 50.948070909999956 ] } },
{ "type": "Feature", "properties": { "visible_points": 13, "total_points": 78, "visibility_pct": 16.666666666666664 }, "geometry": { "type": "Point", "coordinates": [ -0.121462545672313, 50.948067737123985 ] } },
{ "type": "Feature", "properties": { "visible_points": 18, "total_points": 89, "visibility_pct": 20.224719101123593 }, "geometry": { "type": "Point", "coordinates": [ -0.121265409235861, 50.94806456391531 ] } },
{ "type": "Feature", "properties": { "visible_points": 19, "total_points": 100, "visibility_pct": 19.0 }, "geometry": { "type": "Point", "coordinates": [ -0.12106827283492, 50.94806139037393 ] } },
{ "type": "Feature", "properties": { "visible_points": 14, "total_points": 103, "visibility_pct": 13.592233009708737 }, "geometry": { "type": "Point", "coordinates": [ -0.120871136469486, 50.94805821649981 ] } },
{ "type": "Feature", "properties": { "visible_points": 11, "total_points": 96, "visibility_pct": 11.458333333333332 }, "geometry": { "type": "Point", "coordinates": [ -0.120674000139577, 50.948055042292999 ] } },
{ "type": "Feature", "properties": { "visible_points": 15, "total_points": 86, "visibility_pct": 17.441860465116278 }, "geometry": { "type": "Point", "coordinates": [ -0.120476863845188, 50.948051867753456 ] } },
{ "type": "Feature", "properties": { "visible_points": 0, "total_points": 75, "visibility_pct": 0.0 }, "geometry": { "type": "Point", "coordinates": [ -0.120279727586328, 50.948048692881201 ] } },
{ "type": "Feature", "properties": { "visible_points": 11, "total_points": 66, "visibility_pct": 16.666666666666664 }, "geometry": { "type": "Point", "coordinates": [ -0.121556767537622, 50.948177173835646 ] } },
{ "type": "Feature", "properties": { "visible_points": 17, "total_points": 77, "visibility_pct": 22.077922077922079 }, "geometry": { "type": "Point", "coordinates": [ -0.121359630631016, 50.948174000782359 ] } },
{ "type": "Feature", "properties": { "visible_points": 14, "total_points": 87, "visibility_pct": 16.091954022988507 }, "geometry": { "type": "Point", "coordinates": [ -0.121162493759921, 50.948170827396311 ] } },
{ "type": "Feature", "properties": { "visible_points": 11, "total_points": 93, "visibility_pct": 11.827956989247312 }, "geometry": { "type": "Point", "coordinates": [ -0.120965356924337, 50.948167653677558 ] } },
{ "type": "Feature", "properties": { "visible_points": 9, "total_points": 92, "visibility_pct": 9.7826086956521738 }, "geometry": { "type": "Point", "coordinates": [ -0.120768220124271, 50.948164479626108 ] } },
{ "type": "Feature", "properties": { "visible_points": 9, "total_points": 83, "visibility_pct": 10.843373493975903 }, "geometry": { "type": "Point", "coordinates": [ -0.120571083359724, 50.948161305241939 ] } },
{ "type": "Feature", "properties": { "visible_points": 8, "total_points": 74, "visibility_pct": 10.810810810810811 }, "geometry": { "type": "Point", "coordinates": [ -0.120373946630699, 50.948158130525037 ] } },
{ "type": "Feature", "properties": { "visible_points": 0, "total_points": 64, "visibility_pct": 0.0 }, "geometry": { "type": "Point", "coordinates": [ -0.120176809937205, 50.948154955475431 ] } },
{ "type": "Feature", "properties": { "visible_points": 4, "total_points": 55, "visibility_pct": 7.2727272727272725 }, "geometry": { "type": "Point", "coordinates": [ -0.121650989837565, 50.948286610472927 ] } },
{ "type": "Feature", "properties": { "visible_points": 2, "total_points": 65, "visibility_pct": 3.0769230769230771 }, "geometry": { "type": "Point", "coordinates": [ -0.121453852460805, 50.948283437574979 ] } },
{ "type": "Feature", "properties": { "visible_points": 0, "total_points": 74, "visibility_pct": 0.0 }, "geometry": { "type": "Point", "coordinates": [ -0.121256715119553, 50.948280264344312 ] } },
{ "type": "Feature", "properties": { "visible_points": 2, "total_points": 82, "visibility_pct": 2.4390243902439024 }, "geometry": { "type": "Point", "coordinates": [ -0.121059577813815, 50.948277090780934 ] } },
{ "type": "Feature", "properties": { "visible_points": 7, "total_points": 83, "visibility_pct": 8.4337349397590362 }, "geometry": { "type": "Point", "coordinates": [ -0.120862440543588, 50.948273916884837 ] } },
{ "type": "Feature", "properties": { "visible_points": 6, "total_points": 79, "visibility_pct": 7.59493670886076 }, "geometry": { "type": "Point", "coordinates": [ -0.12066530330888, 50.948270742656021 ] } },
{ "type": "Feature", "properties": { "visible_points": 5, "total_points": 71, "visibility_pct": 7.042253521126761 }, "geometry": { "type": "Point", "coordinates": [ -0.120468166109698, 50.948267568094487 ] } },
{ "type": "Feature", "properties": { "visible_points": 0, "total_points": 62, "visibility_pct": 0.0 }, "geometry": { "type": "Point", "coordinates": [ -0.120271028946037, 50.948264393200233 ] } },
{ "type": "Feature", "properties": { "visible_points": 7, "total_points": 72, "visibility_pct": 9.7222222222222232 }, "geometry": { "type": "Point", "coordinates": [ -0.120759523692667, 50.948380179995695 ] } },
{ "type": "Feature", "properties": { "visible_points": 3, "total_points": 66, "visibility_pct": 4.5454545454545459 }, "geometry": { "type": "Point", "coordinates": [ -0.120562386023316, 50.948377005589542 ] } },
{ "type": "Feature", "properties": { "visible_points": 0, "total_points": 59, "visibility_pct": 0.0 }, "geometry": { "type": "Point", "coordinates": [ -0.120365248389494, 50.948373830850649 ] } },
{ "type": "Feature", "properties": { "visible_points": 2, "total_points": 54, "visibility_pct": 3.7037037037037033 }, "geometry": { "type": "Point", "coordinates": [ -0.120459468267577, 50.948483268426656 ] } }
]
}
