{
"type": "FeatureCollection",
"name": "def8f3599f68_foliage",
"crs": { "type": "name", "properties": { "name": "urn:ogc:def:crs:OGC:1.3:CRS84" } },
"features": [
{ "type": "Feature", "properties": { "max_height": 0.7610015869140625, "mean_height": 0.10469985753297806, "std_height": 0.1996527761220932, "count_pixels": 41, "percent_cover": 1.4559659090909089, "percent_above_0.1m": 24.390243902439025, "low_level_<0.5": 9.7560975609756095, "mid_level_0.5-2": 7.3170731707317067, "tall_2+": 0.0 }, "geometry": { "type": "Point", "coordinates": [ -0.03489448448025, 51.129987110107159 ] } },
{ "type": "Feature", "properties": { "max_height": 6.8365097045898438, "mean_height": 1.580059289932251, "std_height": 2.0135815143585205, "count_pixels": 41, "percent_cover": 1.4559659090909089, "percent_above_0.1m": 58.536585365853654, "low_level_<0.5": 7.3170731707317067, "mid_level_0.5-2": 24.390243902439025, "tall_2+": 26.829268292682929 }, "geometry": { "type": "Point", "coordinates": [ -0.034696583370954, 51.129983784886491 ] } },
{ "type": "Feature", "properties": { "max_height": 7.850006103515625, "mean_height": 1.1508512496948242, "std_height": 1.9239944219589233, "count_pixels": 42, "percent_cover": 1.4914772727272727, "percent_above_0.1m": 64.285714285714292, "low_level_<0.5": 11.904761904761903, "mid_level_0.5-2": 30.952380952380953, "tall_2+": 16.666666666666664 }, "geometry": { "type": "Point", "coordinates": [ -0.034988857033862, 51.130096613420932 ] } },
{ "type": "Feature", "properties": { "max_height": 8.8547515869140625, "mean_height": 1.7125396728515625, "std_height": 2.3842933177947998, "count_pixels": 43, "percent_cover": 1.5269886363636365, "percent_above_0.1m": 53.488372093023251, "low_level_<0.5": 0.0, "mid_level_0.5-2": 13.953488372093023, "tall_2+": 34.883720930232556 }, "geometry": { "type": "Point", "coordinates": [ -0.034790955094383, 51.130093288190693 ] } },
{ "type": "Feature", "properties": { "max_height": 7.0595016479492188, "mean_height": 1.7438085079193115, "std_height": 2.028031587600708, "count_pixels": 43, "percent_cover": 1.5269886363636365, "percent_above_0.1m": 69.767441860465112, "low_level_<0.5": 9.3023255813953494, "mid_level_0.5-2": 27.906976744186046, "tall_2+": 32.558139534883722 }, "geometry": { "type": "Point", "coordinates": [ -0.034593053812019, 51.130089962843094 ] } },
{ "type": "Feature", "properties": { "max_height": 3.1187515258789062, "mean_height": 0.27679723501205444, "std_height": 0.60532170534133911, "count_pixels": 41, "percent_cover": 1.4559659090909089, "percent_above_0.1m": 36.585365853658537, "low_level_<0.5": 21.951219512195124, "mid_level_0.5-2": 9.7560975609756095, "tall_2+": 2.4390243902439024 }, "geometry": { "type": "Point", "coordinates": [ -0.034885327495073, 51.130202791462956 ] } },
{ "type": "Feature", "properties": { "max_height": 1.6147537231445312, "mean_height": 0.18166406452655792, "std_height": 0.40687495470046997, "count_pixels": 41, "percent_cover": 1.4559659090909089, "percent_above_0.1m": 19.512195121951219, "low_level_<0.5": 4.8780487804878048, "mid_level_0.5-2": 14.634146341463413, "tall_2+": 0.0 }, "geometry": { "type": "Point", "coordinates": [ -0.034687425497985, 51.130199466228852 ] } },
{ "type": "Feature", "properties": { "max_height": 7.49749755859375, "mean_height": 1.0372012853622437, "std_height": 1.893341064453125, "count_pixels": 41, "percent_cover": 1.4559659090909089, "percent_above_0.1m": 34.146341463414636, "low_level_<0.5": 4.8780487804878048, "mid_level_0.5-2": 7.3170731707317067, "tall_2+": 21.951219512195124 }, "geometry": { "type": "Point", "coordinates": [ -0.034489523778238, 51.130196140703866 ] } },
{ "type": "Feature", "properties": { "max_height": 0.52825927734375, "mean_height": 0.061178296804428101, "std_height": 0.12541335821151733, "count_pixels": 42, "percent_cover": 1.4914772727272727, "percent_above_0.1m": 14.285714285714285, "low_level_<0.5": 9.5238095238095237, "mid_level_0.5-2": 2.3809523809523809, "tall_2+": 0.0 }, "geometry": { "type": "Point", "coordinates": [ -0.034979700447417, 51.130312294766533 ] } },
{ "type": "Feature", "properties": { "max_height": 3.7335052490234375, "mean_height": 0.48765599727630615, "std_height": 0.98922854661941528, "count_pixels": 43, "percent_cover": 1.5269886363636365, "percent_above_0.1m": 32.558139534883722, "low_level_<0.5": 6.9767441860465116, "mid_level_0.5-2": 9.3023255813953494, "tall_2+": 11.627906976744185 }, "geometry": { "type": "Point", "coordinates": [ -0.034781797621332, 51.130308969538646 ] } },
{ "type": "Feature", "properties": { "max_height": 6.98150634765625, "mean_height": 1.443406343460083, "std_height": 1.7070217132568359, "count_pixels": 43, "percent_cover": 1.5269886363636365, "percent_above_0.1m": 55.813953488372093, "low_level_<0.5": 2.3255813953488373, "mid_level_0.5-2": 20.930232558139537, "tall_2+": 32.558139534883722 }, "geometry": { "type": "Point", "coordinates": [ -0.034583895426738, 51.130305644171195 ] } },
{ "type": "Feature", "properties": { "max_height": 2.9612579345703125, "mean_height": 0.0856962651014328, "std_height": 0.4513382613658905, "count_pixels": 42, "percent_cover": 1.4914772727272727, "percent_above_0.1m": 7.1428571428571423, "low_level_<0.5": 2.3809523809523809, "mid_level_0.5-2": 0.0, "tall_2+": 2.3809523809523809 }, "geometry": { "type": "Point", "coordinates": [ -0.034385993269595, 51.130302318468814 ] } },
{ "type": "Feature", "properties": { "max_height": 1.9787521362304688, "mean_height": 0.16172893345355988, "std_height": 0.4765530526638031, "count_pixels": 37, "percent_cover": 1.3139204545454546, "percent_above_0.1m": 16.216216216216218, "low_level_<0.5": 2.7027027027027026, "mid_level_0.5-2": 8.1081081081081088, "tall_2+": 0.0 }, "geometry": { "type": "Point", "coordinates": [ -0.03507407407658, 51.130421798060397 ] } },
{ "type": "Feature", "properties": { "max_height": 2.85650634765625, "mean_height": 0.18079246580600739, "std_height": 0.47383040189743042, "count_pixels": 41, "percent_cover": 1.4559659090909089, "percent_above_0.1m": 29.268292682926827, "low_level_<0.5": 12.195121951219512, "mid_level_0.5-2": 9.7560975609756095, "tall_2+": 2.4390243902439024 }, "geometry": { "type": "Point", "coordinates": [ -0.034876170396576, 51.130418472810305 ] } },
{ "type": "Feature", "properties": { "max_height": 6.6125030517578125, "mean_height": 0.98555958271026611, "std_height": 1.8049753904342651, "count_pixels": 41, "percent_cover": 1.4559659090909089, "percent_above_0.1m": 29.268292682926827, "low_level_<0.5": 0.0, "mid_level_0.5-2": 4.8780487804878048, "tall_2+": 24.390243902439025 }, "geometry": { "type": "Point", "coordinates": [ -0.034678267512615, 51.130415147562566 ] } },
{ "type": "Feature", "properties": { "max_height": 3.6855010986328125, "mean_height": 0.38104212284088135, "std_height": 0.87497085332870483, "count_pixels": 41, "percent_cover": 1.4559659090909089, "percent_above_0.1m": 21.951219512195124, "low_level_<0.5": 2.4390243902439024, "mid_level_0.5-2": 7.3170731707317067, "tall_2+": 9.7560975609756095 }, "geometry": { "type": "Point", "coordinates": [ -0.034480364880626, 51.130411822017734 ] } },
{ "type": "Feature", "properties": { "max_height": 8.3377532958984375, "mean_height": 0.78591573238372803, "std_height": 1.8271121978759766, "count_pixels": 42, "percent_cover": 1.4914772727272727, "percent_above_0.1m": 38.095238095238095, "low_level_<0.5": 2.3809523809523809, "mid_level_0.5-2": 16.666666666666664, "tall_2+": 11.904761904761903 }, "geometry": { "type": "Point", "coordinates": [ -0.034282462286099, 51.13040849613796 ] } },
{ "type": "Feature", "properties": { "max_height": 5.8375015258789062, "mean_height": 0.8580591082572937, "std_height": 1.5628622770309448, "count_pixels": 42, "percent_cover": 1.4914772727272727, "percent_above_0.1m": 33.333333333333329, "low_level_<0.5": 2.3809523809523809, "mid_level_0.5-2": 11.904761904761903, "tall_2+": 19.047619047619047 }, "geometry": { "type": "Point", "coordinates": [ -0.034970543747411, 51.130527976104275 ] } },
{ "type": "Feature", "properties": { "max_height": 6.9612579345703125, "mean_height": 1.0847265720367432, "std_height": 1.8262662887573242, "count_pixels": 43, "percent_cover": 1.5269886363636365, "percent_above_0.1m": 39.534883720930232, "low_level_<0.5": 4.6511627906976747, "mid_level_0.5-2": 11.627906976744185, "tall_2+": 23.255813953488371 }, "geometry": { "type": "Point", "coordinates": [ -0.034772640035879, 51.130524650877966 ] } },
{ "type": "Feature", "properties": { "max_height": 3.1722564697265625, "mean_height": 0.61730211973190308, "std_height": 0.89632749557495117, "count_pixels": 43, "percent_cover": 1.5269886363636365, "percent_above_0.1m": 39.534883720930232, "low_level_<0.5": 0.0, "mid_level_0.5-2": 27.906976744186046, "tall_2+": 6.9767441860465116 }, "geometry": { "type": "Point", "coordinates": [ -0.034574736929039, 51.130521325490676 ] } },
{ "type": "Feature", "properties": { "max_height": 1.1820068359375, "mean_height": 0.15597569942474365, "std_height": 0.31110650300979614, "count_pixels": 42, "percent_cover": 1.4914772727272727, "percent_above_0.1m": 26.190476190476193, "low_level_<0.5": 9.5238095238095237, "mid_level_0.5-2": 14.285714285714285, "tall_2+": 0.0 }, "geometry": { "type": "Point", "coordinates": [ -0.034376833859654, 51.130517999768436 ] } },
{ "type": "Feature", "properties": { "max_height": 3.230010986328125, "mean_height": 0.53548693656921387, "std_height": 0.92925840616226196, "count_pixels": 41, "percent_cover": 1.4559659090909089, "percent_above_0.1m": 31.707317073170731, "low_level_<0.5": 2.4390243902439024, "mid_level_0.5-2": 17.073170731707318, "tall_2+": 12.195121951219512 }, "geometry": { "type": "Point", "coordinates": [ -0.03486701318477, 51.130634154149227 ] } },
{ "type": "Feature", "properties": { "max_height": 11.786758422851562, "mean_height": 3.8122491836547852, "std_height": 2.6191685199737549, "count_pixels": 41, "percent_cover": 1.4559659090909089, "percent_above_0.1m": 85.365853658536579, "low_level_<0.5": 0.0, "mid_level_0.5-2": 7.3170731707317067, "tall_2+": 75.609756097560975 }, "geometry": { "type": "Point", "coordinates": [ -0.034669109414838, 51.130630828887661 ] } },
{ "type": "Feature", "properties": { "max_height": 4.1797561645507812, "mean_height": 0.49885839223861694, "std_height": 1.0572794675827026, "count_pixels": 41, "percent_cover": 1.4559659090909089, "percent_above_0.1m": 29.268292682926827, "low_level_<0.5": 7.3170731707317067, "mid_level_0.5-2": 9.7560975609756095, "tall_2+": 9.7560975609756095 }, "geometry": { "type": "Point", "coordinates": [ -0.034471205870593, 51.130627503322962 ] } },
{ "type": "Feature", "properties": { "max_height": 5.5877532958984375, "mean_height": 0.61386889219284058, "std_height": 1.2221882343292236, "count_pixels": 42, "percent_cover": 1.4914772727272727, "percent_above_0.1m": 52.380952380952387, "low_level_<0.5": 23.809523809523807, "mid_level_0.5-2": 19.047619047619047, "tall_2+": 9.5238095238095237 }, "geometry": { "type": "Point", "coordinates": [ -0.034273302363818, 51.130624177423336 ] } },
{ "type": "Feature", "properties": { "max_height": 6.1160125732421875, "mean_height": 0.77145242691040039, "std_height": 1.3115595579147339, "count_pixels": 43, "percent_cover": 1.5269886363636365, "percent_above_0.1m": 46.511627906976742, "low_level_<0.5": 11.627906976744185, "mid_level_0.5-2": 23.255813953488371, "tall_2+": 11.627906976744185 }, "geometry": { "type": "Point", "coordinates": [ -0.03476348233803, 51.130740332208674 ] } },
{ "type": "Feature", "properties": { "max_height": 2.0785064697265625, "mean_height": 0.25309789180755615, "std_height": 0.49423155188560486, "count_pixels": 43, "percent_cover": 1.5269886363636365, "percent_above_0.1m": 30.232558139534881, "low_level_<0.5": 9.3023255813953494, "mid_level_0.5-2": 16.279069767441861, "tall_2+": 2.3255813953488373 }, "geometry": { "type": "Point", "coordinates": [ -0.034565578318923, 51.130737006801517 ] } },
{ "type": "Feature", "properties": { "max_height": 1.2930068969726562, "mean_height": 0.2403084933757782, "std_height": 0.35289445519447327, "count_pixels": 42, "percent_cover": 1.4914772727272727, "percent_above_0.1m": 40.476190476190474, "low_level_<0.5": 14.285714285714285, "mid_level_0.5-2": 19.047619047619047, "tall_2+": 0.0 }, "geometry": { "type": "Point", "coordinates": [ -0.034367674337287, 51.130733681059432 ] } }
]
}
