{
"type": "FeatureCollection",
"name": "dfe971e661b5_foliage",
"crs": { "type": "name", "properties": { "name": "urn:ogc:def:crs:OGC:1.3:CRS84" } },
"features": [
{ "type": "Feature", "properties": { "max_height": 6.1044998168945312, "mean_height": 1.6980845928192139, "std_height": 1.8060387372970581, "count_pixels": 41, "percent_cover": 0.30222615361934246, "percent_above_0.1m": 60.975609756097562, "low_level_<0.5": 4.8780487804878048, "mid_level_0.5-2": 12.195121951219512, "tall_2+": 43.902439024390247 }, "geometry": { "type": "Point", "coordinates": [ -0.144042623797739, 51.006830477640094 ] } },
{ "type": "Feature", "properties": { "max_height": 18.262252807617188, "mean_height": 9.4804935455322266, "std_height": 5.7313642501831055, "count_pixels": 41, "percent_cover": 0.30222615361934246, "percent_above_0.1m": 95.121951219512198, "low_level_<0.5": 2.4390243902439024, "mid_level_0.5-2": 4.8780487804878048, "tall_2+": 87.804878048780495 }, "geometry": { "type": "Point", "coordinates": [ -0.143845233383725, 51.006827341988036 ] } },
{ "type": "Feature", "properties": { "max_height": 20.319755554199219, "mean_height": 4.8912606239318848, "std_height": 6.5505809783935547, "count_pixels": 37, "percent_cover": 0.27274067521745538, "percent_above_0.1m": 70.270270270270274, "low_level_<0.5": 13.513513513513514, "mid_level_0.5-2": 13.513513513513514, "tall_2+": 40.54054054054054 }, "geometry": { "type": "Point", "coordinates": [ -0.143647843005058, 51.006824206002555 ] } },
{ "type": "Feature", "properties": { "max_height": 16.808761596679688, "mean_height": 3.7121813297271729, "std_height": 4.6417336463928223, "count_pixels": 41, "percent_cover": 0.30222615361934246, "percent_above_0.1m": 68.292682926829272, "low_level_<0.5": 4.8780487804878048, "mid_level_0.5-2": 19.512195121951219, "tall_2+": 43.902439024390247 }, "geometry": { "type": "Point", "coordinates": [ -0.143450452661739, 51.006821069683639 ] } },
{ "type": "Feature", "properties": { "max_height": 14.858009338378906, "mean_height": 7.0698518753051758, "std_height": 4.638556957244873, "count_pixels": 41, "percent_cover": 0.30222615361934246, "percent_above_0.1m": 95.121951219512198, "low_level_<0.5": 0.0, "mid_level_0.5-2": 12.195121951219512, "tall_2+": 82.926829268292678 }, "geometry": { "type": "Point", "coordinates": [ -0.143253062353785, 51.006817933031321 ] } },
{ "type": "Feature", "properties": { "max_height": 13.47125244140625, "mean_height": 6.4093842506408691, "std_height": 4.9476709365844727, "count_pixels": 43, "percent_cover": 0.31696889282028601, "percent_above_0.1m": 72.093023255813947, "low_level_<0.5": 0.0, "mid_level_0.5-2": 2.3255813953488373, "tall_2+": 67.441860465116278 }, "geometry": { "type": "Point", "coordinates": [ -0.144137015294385, 51.006939895976728 ] } },
{ "type": "Feature", "properties": { "max_height": 13.985504150390625, "mean_height": 7.0257844924926758, "std_height": 4.1357202529907227, "count_pixels": 43, "percent_cover": 0.31696889282028601, "percent_above_0.1m": 95.348837209302332, "low_level_<0.5": 2.3255813953488373, "mid_level_0.5-2": 6.9767441860465116, "tall_2+": 86.04651162790698 }, "geometry": { "type": "Point", "coordinates": [ -0.143939624406152, 51.006936760480535 ] } },
{ "type": "Feature", "properties": { "max_height": 17.709503173828125, "mean_height": 5.8001594543457031, "std_height": 6.2137880325317383, "count_pixels": 42, "percent_cover": 0.30959752321981426, "percent_above_0.1m": 64.285714285714292, "low_level_<0.5": 0.0, "mid_level_0.5-2": 4.7619047619047619, "tall_2+": 59.523809523809526 }, "geometry": { "type": "Point", "coordinates": [ -0.143742233553275, 51.006933624650912 ] } },
{ "type": "Feature", "properties": { "max_height": 10.24700927734375, "mean_height": 1.5357325077056885, "std_height": 2.8843076229095459, "count_pixels": 43, "percent_cover": 0.31696889282028601, "percent_above_0.1m": 37.209302325581397, "low_level_<0.5": 6.9767441860465116, "mid_level_0.5-2": 9.3023255813953494, "tall_2+": 20.930232558139537 }, "geometry": { "type": "Point", "coordinates": [ -0.143544842735738, 51.006930488487868 ] } },
{ "type": "Feature", "properties": { "max_height": 17.123497009277344, "mean_height": 7.4820618629455566, "std_height": 4.8746719360351562, "count_pixels": 43, "percent_cover": 0.31696889282028601, "percent_above_0.1m": 97.674418604651152, "low_level_<0.5": 4.6511627906976747, "mid_level_0.5-2": 13.953488372093023, "tall_2+": 79.069767441860463 }, "geometry": { "type": "Point", "coordinates": [ -0.143347451953563, 51.006927351991393 ] } },
{ "type": "Feature", "properties": { "max_height": 15.042510986328125, "mean_height": 7.973475456237793, "std_height": 4.6261892318725586, "count_pixels": 43, "percent_cover": 0.31696889282028601, "percent_above_0.1m": 86.04651162790698, "low_level_<0.5": 0.0, "mid_level_0.5-2": 6.9767441860465116, "tall_2+": 79.069767441860463 }, "geometry": { "type": "Point", "coordinates": [ -0.143150061206742, 51.006924215161511 ] } },
{ "type": "Feature", "properties": { "max_height": 14.925750732421875, "mean_height": 6.9230728149414062, "std_height": 5.4297661781311035, "count_pixels": 41, "percent_cover": 0.30222615361934246, "percent_above_0.1m": 78.048780487804876, "low_level_<0.5": 2.4390243902439024, "mid_level_0.5-2": 2.4390243902439024, "tall_2+": 70.731707317073173 }, "geometry": { "type": "Point", "coordinates": [ -0.144231407229888, 51.007049314238664 ] } },
{ "type": "Feature", "properties": { "max_height": 14.597511291503906, "mean_height": 9.7060546875, "std_height": 3.6440787315368652, "count_pixels": 41, "percent_cover": 0.30222615361934246, "percent_above_0.1m": 95.121951219512198, "low_level_<0.5": 0.0, "mid_level_0.5-2": 2.4390243902439024, "tall_2+": 92.682926829268297 }, "geometry": { "type": "Point", "coordinates": [ -0.144034015867443, 51.007046178898321 ] } },
{ "type": "Feature", "properties": { "max_height": 11.938003540039062, "mean_height": 4.0962734222412109, "std_height": 3.3961191177368164, "count_pixels": 41, "percent_cover": 0.30222615361934246, "percent_above_0.1m": 90.243902439024396, "low_level_<0.5": 12.195121951219512, "mid_level_0.5-2": 9.7560975609756095, "tall_2+": 68.292682926829272 }, "geometry": { "type": "Point", "coordinates": [ -0.143836624540341, 51.007043043224563 ] } },
{ "type": "Feature", "properties": { "max_height": 11.574752807617188, "mean_height": 5.8083353042602539, "std_height": 3.1972298622131348, "count_pixels": 37, "percent_cover": 0.27274067521745538, "percent_above_0.1m": 97.297297297297305, "low_level_<0.5": 0.0, "mid_level_0.5-2": 13.513513513513514, "tall_2+": 83.78378378378379 }, "geometry": { "type": "Point", "coordinates": [ -0.143639233248592, 51.007039907217361 ] } },
{ "type": "Feature", "properties": { "max_height": 10.866256713867188, "mean_height": 1.0730544328689575, "std_height": 2.5234549045562744, "count_pixels": 41, "percent_cover": 0.30222615361934246, "percent_above_0.1m": 21.951219512195124, "low_level_<0.5": 2.4390243902439024, "mid_level_0.5-2": 2.4390243902439024, "tall_2+": 17.073170731707318 }, "geometry": { "type": "Point", "coordinates": [ -0.143441841992192, 51.007036770876773 ] } },
{ "type": "Feature", "properties": { "max_height": 12.3955078125, "mean_height": 2.3212733268737793, "std_height": 3.065014123916626, "count_pixels": 41, "percent_cover": 0.30222615361934246, "percent_above_0.1m": 60.975609756097562, "low_level_<0.5": 9.7560975609756095, "mid_level_0.5-2": 4.8780487804878048, "tall_2+": 46.341463414634148 }, "geometry": { "type": "Point", "coordinates": [ -0.143244450771151, 51.007033634202728 ] } },
{ "type": "Feature", "properties": { "max_height": 17.707756042480469, "mean_height": 9.4521245956420898, "std_height": 4.6416201591491699, "count_pixels": 42, "percent_cover": 0.30959752321981426, "percent_above_0.1m": 97.61904761904762, "low_level_<0.5": 0.0, "mid_level_0.5-2": 4.7619047619047619, "tall_2+": 92.857142857142861 }, "geometry": { "type": "Point", "coordinates": [ -0.144325799604256, 51.007158732425864 ] } },
{ "type": "Feature", "properties": { "max_height": 17.360252380371094, "mean_height": 13.799365997314453, "std_height": 2.6373286247253418, "count_pixels": 43, "percent_cover": 0.31696889282028601, "percent_above_0.1m": 100.0, "low_level_<0.5": 0.0, "mid_level_0.5-2": 0.0, "tall_2+": 100.0 }, "geometry": { "type": "Point", "coordinates": [ -0.144128407767591, 51.007155597241379 ] } },
{ "type": "Feature", "properties": { "max_height": 6.9102554321289062, "mean_height": 1.1856045722961426, "std_height": 1.9237155914306641, "count_pixels": 43, "percent_cover": 0.31696889282028601, "percent_above_0.1m": 46.511627906976742, "low_level_<0.5": 6.9767441860465116, "mid_level_0.5-2": 11.627906976744185, "tall_2+": 25.581395348837212 }, "geometry": { "type": "Point", "coordinates": [ -0.143931015966272, 51.007152461723507 ] } },
{ "type": "Feature", "properties": { "max_height": 11.6455078125, "mean_height": 6.7913274765014648, "std_height": 2.8118219375610352, "count_pixels": 42, "percent_cover": 0.30959752321981426, "percent_above_0.1m": 97.61904761904762, "low_level_<0.5": 0.0, "mid_level_0.5-2": 2.3809523809523809, "tall_2+": 95.238095238095227 }, "geometry": { "type": "Point", "coordinates": [ -0.1437336242003, 51.007149325872177 ] } },
{ "type": "Feature", "properties": { "max_height": 12.855003356933594, "mean_height": 2.4799175262451172, "std_height": 3.6756141185760498, "count_pixels": 43, "percent_cover": 0.31696889282028601, "percent_above_0.1m": 53.488372093023251, "low_level_<0.5": 4.6511627906976747, "mid_level_0.5-2": 16.279069767441861, "tall_2+": 32.558139534883722 }, "geometry": { "type": "Point", "coordinates": [ -0.143536232469677, 51.007146189687418 ] } },
{ "type": "Feature", "properties": { "max_height": 1.4080047607421875, "mean_height": 0.058267105370759964, "std_height": 0.24483917653560638, "count_pixels": 43, "percent_cover": 0.31696889282028601, "percent_above_0.1m": 6.9767441860465116, "low_level_<0.5": 2.3255813953488373, "mid_level_0.5-2": 4.6511627906976747, "tall_2+": 0.0 }, "geometry": { "type": "Point", "coordinates": [ -0.143338840774409, 51.007143053169251 ] } },
{ "type": "Feature", "properties": { "max_height": 6.6567535400390625, "mean_height": 1.5936384201049805, "std_height": 1.522734522819519, "count_pixels": 43, "percent_cover": 0.31696889282028601, "percent_above_0.1m": 72.093023255813947, "low_level_<0.5": 4.6511627906976747, "mid_level_0.5-2": 30.232558139534881, "tall_2+": 37.209302325581397 }, "geometry": { "type": "Point", "coordinates": [ -0.143141449114501, 51.007139916317655 ] } },
{ "type": "Feature", "properties": { "max_height": 15.075508117675781, "mean_height": 8.7853736877441406, "std_height": 4.6529760360717773, "count_pixels": 42, "percent_cover": 0.30959752321981426, "percent_above_0.1m": 100.0, "low_level_<0.5": 2.3809523809523809, "mid_level_0.5-2": 14.285714285714285, "tall_2+": 83.333333333333343 }, "geometry": { "type": "Point", "coordinates": [ -0.144420192417493, 51.007268150538366 ] } },
{ "type": "Feature", "properties": { "max_height": 18.774253845214844, "mean_height": 13.296256065368652, "std_height": 3.4878580570220947, "count_pixels": 41, "percent_cover": 0.30222615361934246, "percent_above_0.1m": 100.0, "low_level_<0.5": 0.0, "mid_level_0.5-2": 0.0, "tall_2+": 100.0 }, "geometry": { "type": "Point", "coordinates": [ -0.144222800106606, 51.007265015509752 ] } },
{ "type": "Feature", "properties": { "max_height": 16.010505676269531, "mean_height": 3.4715085029602051, "std_height": 4.9482946395874023, "count_pixels": 41, "percent_cover": 0.30222615361934246, "percent_above_0.1m": 39.024390243902438, "low_level_<0.5": 0.0, "mid_level_0.5-2": 2.4390243902439024, "tall_2+": 36.585365853658537 }, "geometry": { "type": "Point", "coordinates": [ -0.144025407831064, 51.007261880147723 ] } },
{ "type": "Feature", "properties": { "max_height": 6.613250732421875, "mean_height": 0.71968173980712891, "std_height": 1.6499177217483521, "count_pixels": 41, "percent_cover": 0.30222615361934246, "percent_above_0.1m": 21.951219512195124, "low_level_<0.5": 2.4390243902439024, "mid_level_0.5-2": 2.4390243902439024, "tall_2+": 17.073170731707318 }, "geometry": { "type": "Point", "coordinates": [ -0.143828015590868, 51.007258744452258 ] } },
{ "type": "Feature", "properties": { "max_height": 11.812759399414062, "mean_height": 1.9321606159210205, "std_height": 3.3770294189453125, "count_pixels": 37, "percent_cover": 0.27274067521745538, "percent_above_0.1m": 43.243243243243242, "low_level_<0.5": 5.4054054054054053, "mid_level_0.5-2": 13.513513513513514, "tall_2+": 24.324324324324326 }, "geometry": { "type": "Point", "coordinates": [ -0.143630623386023, 51.007255608423385 ] } },
{ "type": "Feature", "properties": { "max_height": 16.265007019042969, "mean_height": 6.9109392166137695, "std_height": 6.3172802925109863, "count_pixels": 41, "percent_cover": 0.30222615361934246, "percent_above_0.1m": 65.853658536585371, "low_level_<0.5": 0.0, "mid_level_0.5-2": 7.3170731707317067, "tall_2+": 58.536585365853654 }, "geometry": { "type": "Point", "coordinates": [ -0.143433231216526, 51.007252472061076 ] } },
{ "type": "Feature", "properties": { "max_height": 16.776260375976562, "mean_height": 9.2087736129760742, "std_height": 4.1642661094665527, "count_pixels": 41, "percent_cover": 0.30222615361934246, "percent_above_0.1m": 97.560975609756099, "low_level_<0.5": 2.4390243902439024, "mid_level_0.5-2": 2.4390243902439024, "tall_2+": 92.682926829268297 }, "geometry": { "type": "Point", "coordinates": [ -0.143235839082391, 51.007249335365323 ] } },
{ "type": "Feature", "properties": { "max_height": 16.68060302734375, "mean_height": 10.239884376525879, "std_height": 4.4532814025878906, "count_pixels": 41, "percent_cover": 0.30222615361934246, "percent_above_0.1m": 100.0, "low_level_<0.5": 0.0, "mid_level_0.5-2": 7.3170731707317067, "tall_2+": 92.682926829268297 }, "geometry": { "type": "Point", "coordinates": [ -0.144711978490042, 51.007380703115437 ] } },
{ "type": "Feature", "properties": { "max_height": 14.59954833984375, "mean_height": 10.029986381530762, "std_height": 3.2708196640014648, "count_pixels": 41, "percent_cover": 0.30222615361934246, "percent_above_0.1m": 100.0, "low_level_<0.5": 0.0, "mid_level_0.5-2": 2.4390243902439024, "tall_2+": 97.560975609756099 }, "geometry": { "type": "Point", "coordinates": [ -0.144514585669598, 51.007377568576125 ] } },
{ "type": "Feature", "properties": { "max_height": 13.69500732421875, "mean_height": 6.538482666015625, "std_height": 4.5129761695861816, "count_pixels": 42, "percent_cover": 0.30959752321981426, "percent_above_0.1m": 78.571428571428569, "low_level_<0.5": 2.3809523809523809, "mid_level_0.5-2": 4.7619047619047619, "tall_2+": 71.428571428571431 }, "geometry": { "type": "Point", "coordinates": [ -0.144317192884489, 51.007374433703411 ] } },
{ "type": "Feature", "properties": { "max_height": 8.5422592163085938, "mean_height": 0.94594377279281616, "std_height": 2.3360002040863037, "count_pixels": 43, "percent_cover": 0.31696889282028601, "percent_above_0.1m": 20.930232558139537, "low_level_<0.5": 0.0, "mid_level_0.5-2": 6.9767441860465116, "tall_2+": 13.953488372093023 }, "geometry": { "type": "Point", "coordinates": [ -0.144119800134725, 51.007371298497226 ] } },
{ "type": "Feature", "properties": { "max_height": 0.0327606201171875, "mean_height": 0.0043448512442409992, "std_height": 0.0067085539922118187, "count_pixels": 43, "percent_cover": 0.31696889282028601, "percent_above_0.1m": 0.0, "low_level_<0.5": 0.0, "mid_level_0.5-2": 0.0, "tall_2+": 0.0 }, "geometry": { "type": "Point", "coordinates": [ -0.1439224074203, 51.007368162957633 ] } },
{ "type": "Feature", "properties": { "max_height": 0.01757049560546875, "mean_height": 0.0036043438594788313, "std_height": 0.005273294635117054, "count_pixels": 42, "percent_cover": 0.30959752321981426, "percent_above_0.1m": 0.0, "low_level_<0.5": 0.0, "mid_level_0.5-2": 0.0, "tall_2+": 0.0 }, "geometry": { "type": "Point", "coordinates": [ -0.143725014741228, 51.007365027084617 ] } },
{ "type": "Feature", "properties": { "max_height": 11.604759216308594, "mean_height": 0.76464754343032837, "std_height": 2.2959122657775879, "count_pixels": 43, "percent_cover": 0.31696889282028601, "percent_above_0.1m": 16.279069767441861, "low_level_<0.5": 0.0, "mid_level_0.5-2": 6.9767441860465116, "tall_2+": 9.3023255813953494 }, "geometry": { "type": "Point", "coordinates": [ -0.143527622097505, 51.007361890878173 ] } },
{ "type": "Feature", "properties": { "max_height": 17.506759643554688, "mean_height": 5.3745183944702148, "std_height": 6.060798168182373, "count_pixels": 43, "percent_cover": 0.31696889282028601, "percent_above_0.1m": 60.465116279069761, "low_level_<0.5": 6.9767441860465116, "mid_level_0.5-2": 4.6511627906976747, "tall_2+": 48.837209302325576 }, "geometry": { "type": "Point", "coordinates": [ -0.143330229489136, 51.007358754338284 ] } },
{ "type": "Feature", "properties": { "max_height": 14.623077392578125, "mean_height": 7.9762439727783203, "std_height": 4.4955615997314453, "count_pixels": 43, "percent_cover": 0.31696889282028601, "percent_above_0.1m": 93.023255813953483, "low_level_<0.5": 2.3255813953488373, "mid_level_0.5-2": 6.9767441860465116, "tall_2+": 83.720930232558146 }, "geometry": { "type": "Point", "coordinates": [ -0.143132836916126, 51.007355617464988 ] } },
{ "type": "Feature", "properties": { "max_height": 10.034294128417969, "mean_height": 4.996307373046875, "std_height": 2.7680678367614746, "count_pixels": 42, "percent_cover": 0.30959752321981426, "percent_above_0.1m": 100.0, "low_level_<0.5": 0.0, "mid_level_0.5-2": 21.428571428571427, "tall_2+": 78.571428571428569 }, "geometry": { "type": "Point", "coordinates": [ -0.145201159350569, 51.007496388689226 ] } },
{ "type": "Feature", "properties": { "max_height": 15.806648254394531, "mean_height": 10.126684188842773, "std_height": 4.3137364387512207, "count_pixels": 42, "percent_cover": 0.30959752321981426, "percent_above_0.1m": 100.0, "low_level_<0.5": 0.0, "mid_level_0.5-2": 7.1428571428571423, "tall_2+": 92.857142857142861 }, "geometry": { "type": "Point", "coordinates": [ -0.145003765985243, 51.007493254972637 ] } },
{ "type": "Feature", "properties": { "max_height": 17.398811340332031, "mean_height": 9.3972883224487305, "std_height": 5.7864603996276855, "count_pixels": 43, "percent_cover": 0.31696889282028601, "percent_above_0.1m": 86.04651162790698, "low_level_<0.5": 4.6511627906976747, "mid_level_0.5-2": 2.3255813953488373, "tall_2+": 79.069767441860463 }, "geometry": { "type": "Point", "coordinates": [ -0.144806372655245, 51.007490120922618 ] } },
{ "type": "Feature", "properties": { "max_height": 14.755104064941406, "mean_height": 5.4910726547241211, "std_height": 5.4908285140991211, "count_pixels": 43, "percent_cover": 0.31696889282028601, "percent_above_0.1m": 60.465116279069761, "low_level_<0.5": 0.0, "mid_level_0.5-2": 4.6511627906976747, "tall_2+": 55.813953488372093 }, "geometry": { "type": "Point", "coordinates": [ -0.144608979360579, 51.007486986539192 ] } },
{ "type": "Feature", "properties": { "max_height": 9.4216690063476562, "mean_height": 0.59645301103591919, "std_height": 1.6987664699554443, "count_pixels": 42, "percent_cover": 0.30959752321981426, "percent_above_0.1m": 21.428571428571427, "low_level_<0.5": 4.7619047619047619, "mid_level_0.5-2": 7.1428571428571423, "tall_2+": 9.5238095238095237 }, "geometry": { "type": "Point", "coordinates": [ -0.14441158610125, 51.007483851822322 ] } },
{ "type": "Feature", "properties": { "max_height": 0.05602264404296875, "mean_height": 0.033122364431619644, "std_height": 0.011176066473126411, "count_pixels": 41, "percent_cover": 0.30222615361934246, "percent_above_0.1m": 0.0, "low_level_<0.5": 0.0, "mid_level_0.5-2": 0.0, "tall_2+": 0.0 }, "geometry": { "type": "Point", "coordinates": [ -0.144214192877251, 51.007480716772029 ] } },
{ "type": "Feature", "properties": { "max_height": 0.054290771484375, "mean_height": 0.033346038311719894, "std_height": 0.010957452468574047, "count_pixels": 41, "percent_cover": 0.30222615361934246, "percent_above_0.1m": 0.0, "low_level_<0.5": 0.0, "mid_level_0.5-2": 0.0, "tall_2+": 0.0 }, "geometry": { "type": "Point", "coordinates": [ -0.144016799688606, 51.007477581388287 ] } },
{ "type": "Feature", "properties": { "max_height": 0.05779266357421875, "mean_height": 0.033883631229400635, "std_height": 0.011208968237042427, "count_pixels": 41, "percent_cover": 0.30222615361934246, "percent_above_0.1m": 0.0, "low_level_<0.5": 0.0, "mid_level_0.5-2": 0.0, "tall_2+": 0.0 }, "geometry": { "type": "Point", "coordinates": [ -0.1438194065353, 51.007474445671143 ] } },
{ "type": "Feature", "properties": { "max_height": 0.05941009521484375, "mean_height": 0.035473179072141647, "std_height": 0.0124109061434865, "count_pixels": 37, "percent_cover": 0.27274067521745538, "percent_above_0.1m": 0.0, "low_level_<0.5": 0.0, "mid_level_0.5-2": 0.0, "tall_2+": 0.0 }, "geometry": { "type": "Point", "coordinates": [ -0.143622013417346, 51.007471309620556 ] } },
{ "type": "Feature", "properties": { "max_height": 0.12689971923828125, "mean_height": 0.037392593920230865, "std_height": 0.018768718466162682, "count_pixels": 41, "percent_cover": 0.30222615361934246, "percent_above_0.1m": 2.4390243902439024, "low_level_<0.5": 0.0, "mid_level_0.5-2": 0.0, "tall_2+": 0.0 }, "geometry": { "type": "Point", "coordinates": [ -0.143424620334745, 51.007468173236539 ] } },
{ "type": "Feature", "properties": { "max_height": 12.692855834960938, "mean_height": 2.927351713180542, "std_height": 3.4737327098846436, "count_pixels": 41, "percent_cover": 0.30222615361934246, "percent_above_0.1m": 60.975609756097562, "low_level_<0.5": 0.0, "mid_level_0.5-2": 9.7560975609756095, "tall_2+": 51.219512195121951 }, "geometry": { "type": "Point", "coordinates": [ -0.143227227287502, 51.0074650365191 ] } },
{ "type": "Feature", "properties": { "max_height": 18.18817138671875, "mean_height": 12.088207244873047, "std_height": 4.6017675399780273, "count_pixels": 41, "percent_cover": 0.30222615361934246, "percent_above_0.1m": 97.560975609756099, "low_level_<0.5": 0.0, "mid_level_0.5-2": 0.0, "tall_2+": 97.560975609756099 }, "geometry": { "type": "Point", "coordinates": [ -0.145690342688159, 51.007612072231048 ] } },
{ "type": "Feature", "properties": { "max_height": 14.487693786621094, "mean_height": 8.2678346633911133, "std_height": 4.2243585586547852, "count_pixels": 41, "percent_cover": 0.30222615361934246, "percent_above_0.1m": 92.682926829268297, "low_level_<0.5": 2.4390243902439024, "mid_level_0.5-2": 7.3170731707317067, "tall_2+": 82.926829268292678 }, "geometry": { "type": "Point", "coordinates": [ -0.145492948777971, 51.007608939337217 ] } },
{ "type": "Feature", "properties": { "max_height": 12.855720520019531, "mean_height": 2.668410062789917, "std_height": 4.0438876152038574, "count_pixels": 41, "percent_cover": 0.30222615361934246, "percent_above_0.1m": 41.463414634146339, "low_level_<0.5": 0.0, "mid_level_0.5-2": 7.3170731707317067, "tall_2+": 31.707317073170731 }, "geometry": { "type": "Point", "coordinates": [ -0.145295554903101, 51.007605806109943 ] } },
{ "type": "Feature", "properties": { "max_height": 0.10289764404296875, "mean_height": 0.065809749066829681, "std_height": 0.010299315676093102, "count_pixels": 38, "percent_cover": 0.28011204481792717, "percent_above_0.1m": 2.6315789473684208, "low_level_<0.5": 0.0, "mid_level_0.5-2": 0.0, "tall_2+": 0.0 }, "geometry": { "type": "Point", "coordinates": [ -0.145098161063554, 51.00760267254924 ] } },
{ "type": "Feature", "properties": { "max_height": 3.8601303100585938, "mean_height": 0.24077141284942627, "std_height": 0.74128270149230957, "count_pixels": 41, "percent_cover": 0.30222615361934246, "percent_above_0.1m": 7.3170731707317067, "low_level_<0.5": 0.0, "mid_level_0.5-2": 2.4390243902439024, "tall_2+": 4.8780487804878048 }, "geometry": { "type": "Point", "coordinates": [ -0.144900767259331, 51.007599538655093 ] } },
{ "type": "Feature", "properties": { "max_height": 0.0810089111328125, "mean_height": 0.062310755252838135, "std_height": 0.0087441345676779747, "count_pixels": 41, "percent_cover": 0.30222615361934246, "percent_above_0.1m": 0.0, "low_level_<0.5": 0.0, "mid_level_0.5-2": 0.0, "tall_2+": 0.0 }, "geometry": { "type": "Point", "coordinates": [ -0.144703373490437, 51.007596404427538 ] } },
{ "type": "Feature", "properties": { "max_height": 0.07991790771484375, "mean_height": 0.061316326260566711, "std_height": 0.0081223621964454651, "count_pixels": 41, "percent_cover": 0.30222615361934246, "percent_above_0.1m": 0.0, "low_level_<0.5": 0.0, "mid_level_0.5-2": 0.0, "tall_2+": 0.0 }, "geometry": { "type": "Point", "coordinates": [ -0.144505979756881, 51.007593269866526 ] } },
{ "type": "Feature", "properties": { "max_height": 0.0770111083984375, "mean_height": 0.065095812082290649, "std_height": 0.0069575621746480465, "count_pixels": 42, "percent_cover": 0.30959752321981426, "percent_above_0.1m": 0.0, "low_level_<0.5": 0.0, "mid_level_0.5-2": 0.0, "tall_2+": 0.0 }, "geometry": { "type": "Point", "coordinates": [ -0.144308586058659, 51.007590134972105 ] } },
{ "type": "Feature", "properties": { "max_height": 0.07656097412109375, "mean_height": 0.063915342092514038, "std_height": 0.008085835725069046, "count_pixels": 43, "percent_cover": 0.31696889282028601, "percent_above_0.1m": 0.0, "low_level_<0.5": 0.0, "mid_level_0.5-2": 0.0, "tall_2+": 0.0 }, "geometry": { "type": "Point", "coordinates": [ -0.144111192395777, 51.007586999744241 ] } },
{ "type": "Feature", "properties": { "max_height": 0.0797271728515625, "mean_height": 0.067081719636917114, "std_height": 0.0078336698934435844, "count_pixels": 43, "percent_cover": 0.31696889282028601, "percent_above_0.1m": 0.0, "low_level_<0.5": 0.0, "mid_level_0.5-2": 0.0, "tall_2+": 0.0 }, "geometry": { "type": "Point", "coordinates": [ -0.143913798768242, 51.007583864182941 ] } },
{ "type": "Feature", "properties": { "max_height": 0.96973419189453125, "mean_height": 0.1007407084107399, "std_height": 0.14476156234741211, "count_pixels": 42, "percent_cover": 0.30959752321981426, "percent_above_0.1m": 7.1428571428571423, "low_level_<0.5": 4.7619047619047619, "mid_level_0.5-2": 2.3809523809523809, "tall_2+": 0.0 }, "geometry": { "type": "Point", "coordinates": [ -0.143716405176054, 51.007580728288232 ] } },
{ "type": "Feature", "properties": { "max_height": 9.806182861328125, "mean_height": 1.2470482587814331, "std_height": 2.7836372852325439, "count_pixels": 43, "percent_cover": 0.31696889282028601, "percent_above_0.1m": 25.581395348837212, "low_level_<0.5": 2.3255813953488373, "mid_level_0.5-2": 2.3255813953488373, "tall_2+": 16.279069767441861 }, "geometry": { "type": "Point", "coordinates": [ -0.14351901161922, 51.00757759206008 ] } },
{ "type": "Feature", "properties": { "max_height": 12.86004638671875, "mean_height": 4.8177900314331055, "std_height": 4.1447052955627441, "count_pixels": 43, "percent_cover": 0.31696889282028601, "percent_above_0.1m": 81.395348837209298, "low_level_<0.5": 6.9767441860465116, "mid_level_0.5-2": 13.953488372093023, "tall_2+": 60.465116279069761 }, "geometry": { "type": "Point", "coordinates": [ -0.143321618097741, 51.007574455498492 ] } },
{ "type": "Feature", "properties": { "max_height": 14.386062622070312, "mean_height": 6.0904254913330078, "std_height": 4.237276554107666, "count_pixels": 43, "percent_cover": 0.31696889282028601, "percent_above_0.1m": 93.023255813953483, "low_level_<0.5": 6.9767441860465116, "mid_level_0.5-2": 6.9767441860465116, "tall_2+": 79.069767441860463 }, "geometry": { "type": "Point", "coordinates": [ -0.143124224611621, 51.007571318603482 ] } },
{ "type": "Feature", "properties": { "max_height": 16.330291748046875, "mean_height": 11.833168983459473, "std_height": 4.1319050788879395, "count_pixels": 41, "percent_cover": 0.30222615361934246, "percent_above_0.1m": 100.0, "low_level_<0.5": 0.0, "mid_level_0.5-2": 7.3170731707317067, "tall_2+": 92.682926829268297 }, "geometry": { "type": "Point", "coordinates": [ -0.145784739628023, 51.007721489265293 ] } },
{ "type": "Feature", "properties": { "max_height": 14.254646301269531, "mean_height": 5.3885369300842285, "std_height": 4.7259063720703125, "count_pixels": 43, "percent_cover": 0.31696889282028601, "percent_above_0.1m": 81.395348837209298, "low_level_<0.5": 4.6511627906976747, "mid_level_0.5-2": 16.279069767441861, "tall_2+": 60.465116279069761 }, "geometry": { "type": "Point", "coordinates": [ -0.145587345243614, 51.007718356527327 ] } },
{ "type": "Feature", "properties": { "max_height": 3.1717987060546875, "mean_height": 0.1368248462677002, "std_height": 0.46834105253219604, "count_pixels": 43, "percent_cover": 0.31696889282028601, "percent_above_0.1m": 2.3255813953488373, "low_level_<0.5": 0.0, "mid_level_0.5-2": 0.0, "tall_2+": 2.3255813953488373 }, "geometry": { "type": "Point", "coordinates": [ -0.14538995089452, 51.007715223455925 ] } },
{ "type": "Feature", "properties": { "max_height": 0.0810699462890625, "mean_height": 0.071919761598110199, "std_height": 0.005877726711332798, "count_pixels": 42, "percent_cover": 0.30959752321981426, "percent_above_0.1m": 0.0, "low_level_<0.5": 0.0, "mid_level_0.5-2": 0.0, "tall_2+": 0.0 }, "geometry": { "type": "Point", "coordinates": [ -0.145192556580752, 51.007712090051086 ] } },
{ "type": "Feature", "properties": { "max_height": 0.0754241943359375, "mean_height": 0.0672578364610672, "std_height": 0.0045744623057544231, "count_pixels": 42, "percent_cover": 0.30959752321981426, "percent_above_0.1m": 0.0, "low_level_<0.5": 0.0, "mid_level_0.5-2": 0.0, "tall_2+": 0.0 }, "geometry": { "type": "Point", "coordinates": [ -0.1449951623023, 51.00770895631284 ] } },
{ "type": "Feature", "properties": { "max_height": 0.08154296875, "mean_height": 0.069788381457328796, "std_height": 0.0049811946228146553, "count_pixels": 43, "percent_cover": 0.31696889282028601, "percent_above_0.1m": 0.0, "low_level_<0.5": 0.0, "mid_level_0.5-2": 0.0, "tall_2+": 0.0 }, "geometry": { "type": "Point", "coordinates": [ -0.14479776805918, 51.007705822241142 ] } },
{ "type": "Feature", "properties": { "max_height": 0.07503509521484375, "mean_height": 0.065880179405212402, "std_height": 0.0044672787189483643, "count_pixels": 43, "percent_cover": 0.31696889282028601, "percent_above_0.1m": 0.0, "low_level_<0.5": 0.0, "mid_level_0.5-2": 0.0, "tall_2+": 0.0 }, "geometry": { "type": "Point", "coordinates": [ -0.144600373851394, 51.007702687836016 ] } },
{ "type": "Feature", "properties": { "max_height": 0.0789337158203125, "mean_height": 0.067417144775390625, "std_height": 0.0041234786622226238, "count_pixels": 42, "percent_cover": 0.30959752321981426, "percent_above_0.1m": 0.0, "low_level_<0.5": 0.0, "mid_level_0.5-2": 0.0, "tall_2+": 0.0 }, "geometry": { "type": "Point", "coordinates": [ -0.144402979678942, 51.00769955309746 ] } },
{ "type": "Feature", "properties": { "max_height": 0.0774383544921875, "mean_height": 0.066909417510032654, "std_height": 0.0039050327613949776, "count_pixels": 41, "percent_cover": 0.30222615361934246, "percent_above_0.1m": 0.0, "low_level_<0.5": 0.0, "mid_level_0.5-2": 0.0, "tall_2+": 0.0 }, "geometry": { "type": "Point", "coordinates": [ -0.144205585541827, 51.007696418025461 ] } },
{ "type": "Feature", "properties": { "max_height": 0.08046722412109375, "mean_height": 0.06795501708984375, "std_height": 0.0057200496084988117, "count_pixels": 41, "percent_cover": 0.30222615361934246, "percent_above_0.1m": 0.0, "low_level_<0.5": 0.0, "mid_level_0.5-2": 0.0, "tall_2+": 0.0 }, "geometry": { "type": "Point", "coordinates": [ -0.144008191440058, 51.007693282620032 ] } },
{ "type": "Feature", "properties": { "max_height": 0.0857696533203125, "mean_height": 0.071811027824878693, "std_height": 0.0049278219230473042, "count_pixels": 41, "percent_cover": 0.30222615361934246, "percent_above_0.1m": 0.0, "low_level_<0.5": 0.0, "mid_level_0.5-2": 0.0, "tall_2+": 0.0 }, "geometry": { "type": "Point", "coordinates": [ -0.143810797373634, 51.007690146881181 ] } },
{ "type": "Feature", "properties": { "max_height": 1.5313644409179688, "mean_height": 0.2376389354467392, "std_height": 0.3791821300983429, "count_pixels": 37, "percent_cover": 0.27274067521745538, "percent_above_0.1m": 21.621621621621621, "low_level_<0.5": 8.1081081081081088, "mid_level_0.5-2": 13.513513513513514, "tall_2+": 0.0 }, "geometry": { "type": "Point", "coordinates": [ -0.143613403342564, 51.007687010808908 ] } },
{ "type": "Feature", "properties": { "max_height": 14.324943542480469, "mean_height": 10.082493782043457, "std_height": 2.2594866752624512, "count_pixels": 41, "percent_cover": 0.30222615361934246, "percent_above_0.1m": 100.0, "low_level_<0.5": 0.0, "mid_level_0.5-2": 0.0, "tall_2+": 100.0 }, "geometry": { "type": "Point", "coordinates": [ -0.143416009346844, 51.007683874403192 ] } },
{ "type": "Feature", "properties": { "max_height": 11.988563537597656, "mean_height": 2.8284087181091309, "std_height": 3.6980066299438477, "count_pixels": 41, "percent_cover": 0.30222615361934246, "percent_above_0.1m": 65.853658536585371, "low_level_<0.5": 0.0, "mid_level_0.5-2": 24.390243902439025, "tall_2+": 36.585365853658537 }, "geometry": { "type": "Point", "coordinates": [ -0.143218615386484, 51.007680737664039 ] } },
{ "type": "Feature", "properties": { "max_height": 9.924774169921875, "mean_height": 4.2485709190368652, "std_height": 3.2958407402038574, "count_pixels": 41, "percent_cover": 0.30222615361934246, "percent_above_0.1m": 82.926829268292678, "low_level_<0.5": 4.8780487804878048, "mid_level_0.5-2": 4.8780487804878048, "tall_2+": 65.853658536585371 }, "geometry": { "type": "Point", "coordinates": [ -0.143021221461486, 51.00767760059145 ] } },
{ "type": "Feature", "properties": { "max_height": 17.679351806640625, "mean_height": 12.621462821960449, "std_height": 2.7848923206329346, "count_pixels": 41, "percent_cover": 0.30222615361934246, "percent_above_0.1m": 100.0, "low_level_<0.5": 0.0, "mid_level_0.5-2": 0.0, "tall_2+": 100.0 }, "geometry": { "type": "Point", "coordinates": [ -0.145681742148153, 51.007827773642724 ] } },
{ "type": "Feature", "properties": { "max_height": 19.254951477050781, "mean_height": 12.757058143615723, "std_height": 5.1530346870422363, "count_pixels": 41, "percent_cover": 0.30222615361934246, "percent_above_0.1m": 97.560975609756099, "low_level_<0.5": 0.0, "mid_level_0.5-2": 4.8780487804878048, "tall_2+": 92.682926829268297 }, "geometry": { "type": "Point", "coordinates": [ -0.145484347324836, 51.007824640727193 ] } },
{ "type": "Feature", "properties": { "max_height": 0.1178436279296875, "mean_height": 0.068494655191898346, "std_height": 0.009887993335723877, "count_pixels": 41, "percent_cover": 0.30222615361934246, "percent_above_0.1m": 2.4390243902439024, "low_level_<0.5": 0.0, "mid_level_0.5-2": 0.0, "tall_2+": 0.0 }, "geometry": { "type": "Point", "coordinates": [ -0.145286952536832, 51.007821507478248 ] } },
{ "type": "Feature", "properties": { "max_height": 0.079345703125, "mean_height": 0.068578220903873444, "std_height": 0.0054888045415282249, "count_pixels": 38, "percent_cover": 0.28011204481792717, "percent_above_0.1m": 0.0, "low_level_<0.5": 0.0, "mid_level_0.5-2": 0.0, "tall_2+": 0.0 }, "geometry": { "type": "Point", "coordinates": [ -0.145089557784162, 51.007818373895851 ] } },
{ "type": "Feature", "properties": { "max_height": 0.07468414306640625, "mean_height": 0.063717350363731384, "std_height": 0.0057170935906469822, "count_pixels": 41, "percent_cover": 0.30222615361934246, "percent_above_0.1m": 0.0, "low_level_<0.5": 0.0, "mid_level_0.5-2": 0.0, "tall_2+": 0.0 }, "geometry": { "type": "Point", "coordinates": [ -0.144892163066808, 51.00781523998004 ] } },
{ "type": "Feature", "properties": { "max_height": 0.073394775390625, "mean_height": 0.063820071518421173, "std_height": 0.0040456405840814114, "count_pixels": 41, "percent_cover": 0.30222615361934246, "percent_above_0.1m": 0.0, "low_level_<0.5": 0.0, "mid_level_0.5-2": 0.0, "tall_2+": 0.0 }, "geometry": { "type": "Point", "coordinates": [ -0.14469476838479, 51.007812105730778 ] } },
{ "type": "Feature", "properties": { "max_height": 0.07415008544921875, "mean_height": 0.062110342085361481, "std_height": 0.0039626630023121834, "count_pixels": 41, "percent_cover": 0.30222615361934246, "percent_above_0.1m": 0.0, "low_level_<0.5": 0.0, "mid_level_0.5-2": 0.0, "tall_2+": 0.0 }, "geometry": { "type": "Point", "coordinates": [ -0.144497373738108, 51.007808971148087 ] } },
{ "type": "Feature", "properties": { "max_height": 0.07434844970703125, "mean_height": 0.063427150249481201, "std_height": 0.0042977207340300083, "count_pixels": 42, "percent_cover": 0.30959752321981426, "percent_above_0.1m": 0.0, "low_level_<0.5": 0.0, "mid_level_0.5-2": 0.0, "tall_2+": 0.0 }, "geometry": { "type": "Point", "coordinates": [ -0.144299979126756, 51.007805836231967 ] } },
{ "type": "Feature", "properties": { "max_height": 0.0744476318359375, "mean_height": 0.06343415379524231, "std_height": 0.0043824347667396069, "count_pixels": 43, "percent_cover": 0.31696889282028601, "percent_above_0.1m": 0.0, "low_level_<0.5": 0.0, "mid_level_0.5-2": 0.0, "tall_2+": 0.0 }, "geometry": { "type": "Point", "coordinates": [ -0.144102584550751, 51.007802700982417 ] } },
{ "type": "Feature", "properties": { "max_height": 0.07940673828125, "mean_height": 0.06990264356136322, "std_height": 0.0052650682628154755, "count_pixels": 43, "percent_cover": 0.31696889282028601, "percent_above_0.1m": 0.0, "low_level_<0.5": 0.0, "mid_level_0.5-2": 0.0, "tall_2+": 0.0 }, "geometry": { "type": "Point", "coordinates": [ -0.143905190010091, 51.007799565399438 ] } },
{ "type": "Feature", "properties": { "max_height": 0.076690673828125, "mean_height": 0.069385893642902374, "std_height": 0.0042327176779508591, "count_pixels": 42, "percent_cover": 0.30959752321981426, "percent_above_0.1m": 0.0, "low_level_<0.5": 0.0, "mid_level_0.5-2": 0.0, "tall_2+": 0.0 }, "geometry": { "type": "Point", "coordinates": [ -0.143707795504782, 51.007796429483015 ] } },
{ "type": "Feature", "properties": { "max_height": 9.228515625, "mean_height": 2.7055113315582275, "std_height": 3.2994308471679688, "count_pixels": 43, "percent_cover": 0.31696889282028601, "percent_above_0.1m": 53.488372093023251, "low_level_<0.5": 6.9767441860465116, "mid_level_0.5-2": 6.9767441860465116, "tall_2+": 39.534883720930232 }, "geometry": { "type": "Point", "coordinates": [ -0.14351040103482, 51.007793293233163 ] } },
{ "type": "Feature", "properties": { "max_height": 10.1717529296875, "mean_height": 1.865349292755127, "std_height": 2.9996054172515869, "count_pixels": 43, "percent_cover": 0.31696889282028601, "percent_above_0.1m": 39.534883720930232, "low_level_<0.5": 4.6511627906976747, "mid_level_0.5-2": 6.9767441860465116, "tall_2+": 27.906976744186046 }, "geometry": { "type": "Point", "coordinates": [ -0.143313006600218, 51.007790156649861 ] } },
{ "type": "Feature", "properties": { "max_height": 2.81927490234375, "mean_height": 0.91743028163909912, "std_height": 0.9744676947593689, "count_pixels": 43, "percent_cover": 0.31696889282028601, "percent_above_0.1m": 67.441860465116278, "low_level_<0.5": 6.9767441860465116, "mid_level_0.5-2": 34.883720930232556, "tall_2+": 18.604651162790699 }, "geometry": { "type": "Point", "coordinates": [ -0.143115612200974, 51.007787019733151 ] } },
{ "type": "Feature", "properties": { "max_height": 19.17376708984375, "mean_height": 11.403297424316406, "std_height": 4.1333527565002441, "count_pixels": 43, "percent_cover": 0.31696889282028601, "percent_above_0.1m": 100.0, "low_level_<0.5": 0.0, "mid_level_0.5-2": 2.3255813953488373, "tall_2+": 97.674418604651152 }, "geometry": { "type": "Point", "coordinates": [ -0.145578744194041, 51.007934057923741 ] } },
{ "type": "Feature", "properties": { "max_height": 19.233161926269531, "mean_height": 9.0684108734130859, "std_height": 6.5989694595336914, "count_pixels": 43, "percent_cover": 0.31696889282028601, "percent_above_0.1m": 83.720930232558146, "low_level_<0.5": 2.3255813953488373, "mid_level_0.5-2": 4.6511627906976747, "tall_2+": 74.418604651162795 }, "geometry": { "type": "Point", "coordinates": [ -0.145381348931817, 51.007930924830667 ] } },
{ "type": "Feature", "properties": { "max_height": 5.8443756103515625, "mean_height": 0.27487200498580933, "std_height": 0.94384950399398804, "count_pixels": 42, "percent_cover": 0.30959752321981426, "percent_above_0.1m": 11.904761904761903, "low_level_<0.5": 2.3809523809523809, "mid_level_0.5-2": 2.3809523809523809, "tall_2+": 4.7619047619047619 }, "geometry": { "type": "Point", "coordinates": [ -0.145183953704911, 51.00792779140415 ] } },
{ "type": "Feature", "properties": { "max_height": 6.0638046264648438, "mean_height": 0.36146655678749084, "std_height": 0.98848074674606323, "count_pixels": 42, "percent_cover": 0.30959752321981426, "percent_above_0.1m": 23.809523809523807, "low_level_<0.5": 2.3809523809523809, "mid_level_0.5-2": 11.904761904761903, "tall_2+": 4.7619047619047619 }, "geometry": { "type": "Point", "coordinates": [ -0.144986558513329, 51.007924657644203 ] } },
{ "type": "Feature", "properties": { "max_height": 0.06884765625, "mean_height": 0.060319766402244568, "std_height": 0.0043544708751142025, "count_pixels": 43, "percent_cover": 0.31696889282028601, "percent_above_0.1m": 0.0, "low_level_<0.5": 0.0, "mid_level_0.5-2": 0.0, "tall_2+": 0.0 }, "geometry": { "type": "Point", "coordinates": [ -0.144789163357075, 51.007921523550827 ] } },
{ "type": "Feature", "properties": { "max_height": 0.068450927734375, "mean_height": 0.057876940816640854, "std_height": 0.0043326136656105518, "count_pixels": 43, "percent_cover": 0.31696889282028601, "percent_above_0.1m": 0.0, "low_level_<0.5": 0.0, "mid_level_0.5-2": 0.0, "tall_2+": 0.0 }, "geometry": { "type": "Point", "coordinates": [ -0.144591768236156, 51.007918389124015 ] } },
{ "type": "Feature", "properties": { "max_height": 0.06963348388671875, "mean_height": 0.060751777142286301, "std_height": 0.0046206214465200901, "count_pixels": 42, "percent_cover": 0.30959752321981426, "percent_above_0.1m": 0.0, "low_level_<0.5": 0.0, "mid_level_0.5-2": 0.0, "tall_2+": 0.0 }, "geometry": { "type": "Point", "coordinates": [ -0.14439437315057, 51.007915254363752 ] } },
{ "type": "Feature", "properties": { "max_height": 0.0706787109375, "mean_height": 0.060071434825658798, "std_height": 0.0042477883398532867, "count_pixels": 41, "percent_cover": 0.30222615361934246, "percent_above_0.1m": 0.0, "low_level_<0.5": 0.0, "mid_level_0.5-2": 0.0, "tall_2+": 0.0 }, "geometry": { "type": "Point", "coordinates": [ -0.144196978100327, 51.007912119270067 ] } },
{ "type": "Feature", "properties": { "max_height": 0.0727691650390625, "mean_height": 0.063818022608757019, "std_height": 0.0037258102092891932, "count_pixels": 41, "percent_cover": 0.30222615361934246, "percent_above_0.1m": 0.0, "low_level_<0.5": 0.0, "mid_level_0.5-2": 0.0, "tall_2+": 0.0 }, "geometry": { "type": "Point", "coordinates": [ -0.143999583085428, 51.007908983842967 ] } },
{ "type": "Feature", "properties": { "max_height": 0.5064239501953125, "mean_height": 0.072569496929645538, "std_height": 0.068788997828960419, "count_pixels": 41, "percent_cover": 0.30222615361934246, "percent_above_0.1m": 2.4390243902439024, "low_level_<0.5": 0.0, "mid_level_0.5-2": 2.4390243902439024, "tall_2+": 0.0 }, "geometry": { "type": "Point", "coordinates": [ -0.143802188105872, 51.007905848082402 ] } },
{ "type": "Feature", "properties": { "max_height": 3.1843795776367188, "mean_height": 0.33523622155189514, "std_height": 0.71123534440994263, "count_pixels": 37, "percent_cover": 0.27274067521745538, "percent_above_0.1m": 18.918918918918919, "low_level_<0.5": 2.7027027027027026, "mid_level_0.5-2": 10.810810810810811, "tall_2+": 5.4054054054054053 }, "geometry": { "type": "Point", "coordinates": [ -0.143604793161672, 51.007902711988415 ] } },
{ "type": "Feature", "properties": { "max_height": 7.80950927734375, "mean_height": 2.5480461120605469, "std_height": 2.7509415149688721, "count_pixels": 41, "percent_cover": 0.30222615361934246, "percent_above_0.1m": 56.09756097560976, "low_level_<0.5": 2.4390243902439024, "mid_level_0.5-2": 7.3170731707317067, "tall_2+": 46.341463414634148 }, "geometry": { "type": "Point", "coordinates": [ -0.143407398252823, 51.007899575560991 ] } },
{ "type": "Feature", "properties": { "max_height": 14.771614074707031, "mean_height": 6.2099752426147461, "std_height": 5.0696821212768555, "count_pixels": 41, "percent_cover": 0.30222615361934246, "percent_above_0.1m": 90.243902439024396, "low_level_<0.5": 7.3170731707317067, "mid_level_0.5-2": 7.3170731707317067, "tall_2+": 65.853658536585371 }, "geometry": { "type": "Point", "coordinates": [ -0.143210003379338, 51.007896438800145 ] } },
{ "type": "Feature", "properties": { "max_height": 5.3658676147460938, "mean_height": 1.0090886354446411, "std_height": 1.3829880952835083, "count_pixels": 41, "percent_cover": 0.30222615361934246, "percent_above_0.1m": 75.609756097560975, "low_level_<0.5": 26.829268292682929, "mid_level_0.5-2": 29.268292682926827, "tall_2+": 14.634146341463413 }, "geometry": { "type": "Point", "coordinates": [ -0.14301260854121, 51.007893301705849 ] } },
{ "type": "Feature", "properties": { "max_height": 11.970558166503906, "mean_height": 6.5402231216430664, "std_height": 2.6490974426269531, "count_pixels": 41, "percent_cover": 0.30222615361934246, "percent_above_0.1m": 100.0, "low_level_<0.5": 0.0, "mid_level_0.5-2": 2.4390243902439024, "tall_2+": 97.560975609756099 }, "geometry": { "type": "Point", "coordinates": [ -0.145475745765695, 51.008040342108366 ] } },
{ "type": "Feature", "properties": { "max_height": 11.113021850585938, "mean_height": 2.9631388187408447, "std_height": 3.5505321025848389, "count_pixels": 41, "percent_cover": 0.30222615361934246, "percent_above_0.1m": 60.975609756097562, "low_level_<0.5": 4.8780487804878048, "mid_level_0.5-2": 14.634146341463413, "tall_2+": 41.463414634146339 }, "geometry": { "type": "Point", "coordinates": [ -0.145278350064554, 51.008037208837727 ] } },
{ "type": "Feature", "properties": { "max_height": 13.586616516113281, "mean_height": 4.9317989349365234, "std_height": 4.3492221832275391, "count_pixels": 38, "percent_cover": 0.28011204481792717, "percent_above_0.1m": 86.842105263157904, "low_level_<0.5": 5.2631578947368416, "mid_level_0.5-2": 21.052631578947366, "tall_2+": 57.894736842105267 }, "geometry": { "type": "Point", "coordinates": [ -0.145080954398743, 51.008034075233653 ] } },
{ "type": "Feature", "properties": { "max_height": 0.06641387939453125, "mean_height": 0.055279616266489029, "std_height": 0.0047498163767158985, "count_pixels": 41, "percent_cover": 0.30222615361934246, "percent_above_0.1m": 0.0, "low_level_<0.5": 0.0, "mid_level_0.5-2": 0.0, "tall_2+": 0.0 }, "geometry": { "type": "Point", "coordinates": [ -0.144883558768254, 51.008030941296141 ] } },
{ "type": "Feature", "properties": { "max_height": 0.06353759765625, "mean_height": 0.056293394416570663, "std_height": 0.0037295385263860226, "count_pixels": 41, "percent_cover": 0.30222615361934246, "percent_above_0.1m": 0.0, "low_level_<0.5": 0.0, "mid_level_0.5-2": 0.0, "tall_2+": 0.0 }, "geometry": { "type": "Point", "coordinates": [ -0.144686163173093, 51.008027807025201 ] } },
{ "type": "Feature", "properties": { "max_height": 0.06562042236328125, "mean_height": 0.055777013301849365, "std_height": 0.0047745360061526299, "count_pixels": 41, "percent_cover": 0.30222615361934246, "percent_above_0.1m": 0.0, "low_level_<0.5": 0.0, "mid_level_0.5-2": 0.0, "tall_2+": 0.0 }, "geometry": { "type": "Point", "coordinates": [ -0.144488767613271, 51.008024672420817 ] } },
{ "type": "Feature", "properties": { "max_height": 0.06587982177734375, "mean_height": 0.056725092232227325, "std_height": 0.0043258555233478546, "count_pixels": 42, "percent_cover": 0.30959752321981426, "percent_above_0.1m": 0.0, "low_level_<0.5": 0.0, "mid_level_0.5-2": 0.0, "tall_2+": 0.0 }, "geometry": { "type": "Point", "coordinates": [ -0.144291372088786, 51.008021537483017 ] } },
{ "type": "Feature", "properties": { "max_height": 0.06805419921875, "mean_height": 0.060558762401342392, "std_height": 0.0042855548672378063, "count_pixels": 43, "percent_cover": 0.31696889282028601, "percent_above_0.1m": 0.0, "low_level_<0.5": 0.0, "mid_level_0.5-2": 0.0, "tall_2+": 0.0 }, "geometry": { "type": "Point", "coordinates": [ -0.144093976599646, 51.008018402211761 ] } },
{ "type": "Feature", "properties": { "max_height": 4.5221710205078125, "mean_height": 0.43993520736694336, "std_height": 0.98612892627716064, "count_pixels": 43, "percent_cover": 0.31696889282028601, "percent_above_0.1m": 18.604651162790699, "low_level_<0.5": 4.6511627906976747, "mid_level_0.5-2": 2.3255813953488373, "tall_2+": 11.627906976744185 }, "geometry": { "type": "Point", "coordinates": [ -0.143896581145847, 51.008015266607082 ] } },
{ "type": "Feature", "properties": { "max_height": 4.7339630126953125, "mean_height": 0.67566883563995361, "std_height": 1.0757251977920532, "count_pixels": 42, "percent_cover": 0.30959752321981426, "percent_above_0.1m": 40.476190476190474, "low_level_<0.5": 7.1428571428571423, "mid_level_0.5-2": 16.666666666666664, "tall_2+": 14.285714285714285 }, "geometry": { "type": "Point", "coordinates": [ -0.143699185727399, 51.008012130668966 ] } },
{ "type": "Feature", "properties": { "max_height": 7.558441162109375, "mean_height": 1.7863625288009644, "std_height": 2.1706461906433105, "count_pixels": 43, "percent_cover": 0.31696889282028601, "percent_above_0.1m": 55.813953488372093, "low_level_<0.5": 2.3255813953488373, "mid_level_0.5-2": 16.279069767441861, "tall_2+": 34.883720930232556 }, "geometry": { "type": "Point", "coordinates": [ -0.143501790344307, 51.008008994397407 ] } },
{ "type": "Feature", "properties": { "max_height": 12.320945739746094, "mean_height": 4.597865104675293, "std_height": 3.509843111038208, "count_pixels": 43, "percent_cover": 0.31696889282028601, "percent_above_0.1m": 81.395348837209298, "low_level_<0.5": 0.0, "mid_level_0.5-2": 13.953488372093023, "tall_2+": 67.441860465116278 }, "geometry": { "type": "Point", "coordinates": [ -0.143304394996573, 51.008005857792433 ] } },
{ "type": "Feature", "properties": { "max_height": 15.061767578125, "mean_height": 3.7294986248016357, "std_height": 4.6285285949707031, "count_pixels": 43, "percent_cover": 0.31696889282028601, "percent_above_0.1m": 81.395348837209298, "low_level_<0.5": 11.627906976744185, "mid_level_0.5-2": 23.255813953488371, "tall_2+": 39.534883720930232 }, "geometry": { "type": "Point", "coordinates": [ -0.143106999684193, 51.008002720853987 ] } },
{ "type": "Feature", "properties": { "max_height": 22.359466552734375, "mean_height": 13.215587615966797, "std_height": 5.7008295059204102, "count_pixels": 43, "percent_cover": 0.31696889282028601, "percent_above_0.1m": 100.0, "low_level_<0.5": 0.0, "mid_level_0.5-2": 0.0, "tall_2+": 100.0 }, "geometry": { "type": "Point", "coordinates": [ -0.145372746863101, 51.008146626196556 ] } },
{ "type": "Feature", "properties": { "max_height": 18.330490112304688, "mean_height": 11.528367042541504, "std_height": 3.3399298191070557, "count_pixels": 42, "percent_cover": 0.30959752321981426, "percent_above_0.1m": 100.0, "low_level_<0.5": 0.0, "mid_level_0.5-2": 0.0, "tall_2+": 100.0 }, "geometry": { "type": "Point", "coordinates": [ -0.145175350723051, 51.008143492748374 ] } },
{ "type": "Feature", "properties": { "max_height": 8.4988632202148438, "mean_height": 0.85710960626602173, "std_height": 2.0586142539978027, "count_pixels": 42, "percent_cover": 0.30959752321981426, "percent_above_0.1m": 23.809523809523807, "low_level_<0.5": 2.3809523809523809, "mid_level_0.5-2": 7.1428571428571423, "tall_2+": 11.904761904761903 }, "geometry": { "type": "Point", "coordinates": [ -0.144977954618323, 51.008140358966742 ] } },
{ "type": "Feature", "properties": { "max_height": 0.06122589111328125, "mean_height": 0.051832154393196106, "std_height": 0.004999406635761261, "count_pixels": 43, "percent_cover": 0.31696889282028601, "percent_above_0.1m": 0.0, "low_level_<0.5": 0.0, "mid_level_0.5-2": 0.0, "tall_2+": 0.0 }, "geometry": { "type": "Point", "coordinates": [ -0.144780558548928, 51.00813722485168 ] } },
{ "type": "Feature", "properties": { "max_height": 0.05803680419921875, "mean_height": 0.05249892920255661, "std_height": 0.0035659505520015955, "count_pixels": 43, "percent_cover": 0.31696889282028601, "percent_above_0.1m": 0.0, "low_level_<0.5": 0.0, "mid_level_0.5-2": 0.0, "tall_2+": 0.0 }, "geometry": { "type": "Point", "coordinates": [ -0.144583162514863, 51.008134090403175 ] } },
{ "type": "Feature", "properties": { "max_height": 2.9271621704101562, "mean_height": 0.13227662444114685, "std_height": 0.44004401564598083, "count_pixels": 42, "percent_cover": 0.30959752321981426, "percent_above_0.1m": 7.1428571428571423, "low_level_<0.5": 2.3809523809523809, "mid_level_0.5-2": 0.0, "tall_2+": 2.3809523809523809 }, "geometry": { "type": "Point", "coordinates": [ -0.144385766516136, 51.00813095562124 ] } },
{ "type": "Feature", "properties": { "max_height": 4.361602783203125, "mean_height": 0.46781215071678162, "std_height": 1.0007352828979492, "count_pixels": 41, "percent_cover": 0.30222615361934246, "percent_above_0.1m": 26.829268292682929, "low_level_<0.5": 7.3170731707317067, "mid_level_0.5-2": 12.195121951219512, "tall_2+": 7.3170731707317067 }, "geometry": { "type": "Point", "coordinates": [ -0.144188370552748, 51.008127820505862 ] } },
{ "type": "Feature", "properties": { "max_height": 1.3730316162109375, "mean_height": 0.14597953855991364, "std_height": 0.24783363938331604, "count_pixels": 41, "percent_cover": 0.30222615361934246, "percent_above_0.1m": 21.951219512195124, "low_level_<0.5": 12.195121951219512, "mid_level_0.5-2": 4.8780487804878048, "tall_2+": 0.0 }, "geometry": { "type": "Point", "coordinates": [ -0.143990974624708, 51.008124685057034 ] } },
{ "type": "Feature", "properties": { "max_height": 0.48296356201171875, "mean_height": 0.07659614086151123, "std_height": 0.075077593326568604, "count_pixels": 41, "percent_cover": 0.30222615361934246, "percent_above_0.1m": 9.7560975609756095, "low_level_<0.5": 9.7560975609756095, "mid_level_0.5-2": 0.0, "tall_2+": 0.0 }, "geometry": { "type": "Point", "coordinates": [ -0.143793578732014, 51.008121549274783 ] } },
{ "type": "Feature", "properties": { "max_height": 0.06586456298828125, "mean_height": 0.055972330272197723, "std_height": 0.0053519951179623604, "count_pixels": 37, "percent_cover": 0.27274067521745538, "percent_above_0.1m": 0.0, "low_level_<0.5": 0.0, "mid_level_0.5-2": 0.0, "tall_2+": 0.0 }, "geometry": { "type": "Point", "coordinates": [ -0.143596182874666, 51.008118413159103 ] } },
{ "type": "Feature", "properties": { "max_height": 0.08118438720703125, "mean_height": 0.057964231818914413, "std_height": 0.0073534203693270683, "count_pixels": 41, "percent_cover": 0.30222615361934246, "percent_above_0.1m": 0.0, "low_level_<0.5": 0.0, "mid_level_0.5-2": 0.0, "tall_2+": 0.0 }, "geometry": { "type": "Point", "coordinates": [ -0.143398787052685, 51.008115276709979 ] } },
{ "type": "Feature", "properties": { "max_height": 3.098602294921875, "mean_height": 0.20049993693828583, "std_height": 0.56114274263381958, "count_pixels": 41, "percent_cover": 0.30222615361934246, "percent_above_0.1m": 14.634146341463413, "low_level_<0.5": 7.3170731707317067, "mid_level_0.5-2": 0.0, "tall_2+": 4.8780487804878048 }, "geometry": { "type": "Point", "coordinates": [ -0.143201391266051, 51.008112139927427 ] } },
{ "type": "Feature", "properties": { "max_height": 6.828765869140625, "mean_height": 3.3741188049316406, "std_height": 2.5601446628570557, "count_pixels": 41, "percent_cover": 0.30222615361934246, "percent_above_0.1m": 92.682926829268297, "low_level_<0.5": 4.8780487804878048, "mid_level_0.5-2": 26.829268292682929, "tall_2+": 58.536585365853654 }, "geometry": { "type": "Point", "coordinates": [ -0.143003995514791, 51.008109002811423 ] } },
{ "type": "Feature", "properties": { "max_height": 16.600975036621094, "mean_height": 10.863990783691406, "std_height": 3.4938762187957764, "count_pixels": 38, "percent_cover": 0.28011204481792717, "percent_above_0.1m": 100.0, "low_level_<0.5": 0.0, "mid_level_0.5-2": 2.6315789473684208, "tall_2+": 97.368421052631575 }, "geometry": { "type": "Point", "coordinates": [ -0.145072350907297, 51.008249776562614 ] } },
{ "type": "Feature", "properties": { "max_height": 11.911994934082031, "mean_height": 2.8788235187530518, "std_height": 3.876478910446167, "count_pixels": 41, "percent_cover": 0.30222615361934246, "percent_above_0.1m": 58.536585365853654, "low_level_<0.5": 9.7560975609756095, "mid_level_0.5-2": 9.7560975609756095, "tall_2+": 39.024390243902438 }, "geometry": { "type": "Point", "coordinates": [ -0.144874954363654, 51.008246642603432 ] } },
{ "type": "Feature", "properties": { "max_height": 0.957916259765625, "mean_height": 0.18356341123580933, "std_height": 0.24892087280750275, "count_pixels": 41, "percent_cover": 0.30222615361934246, "percent_above_0.1m": 26.829268292682929, "low_level_<0.5": 12.195121951219512, "mid_level_0.5-2": 14.634146341463413, "tall_2+": 0.0 }, "geometry": { "type": "Point", "coordinates": [ -0.144677557855351, 51.008243508310805 ] } },
{ "type": "Feature", "properties": { "max_height": 9.1979904174804688, "mean_height": 2.3639528751373291, "std_height": 2.8818466663360596, "count_pixels": 41, "percent_cover": 0.30222615361934246, "percent_above_0.1m": 68.292682926829272, "low_level_<0.5": 4.8780487804878048, "mid_level_0.5-2": 24.390243902439025, "tall_2+": 34.146341463414636 }, "geometry": { "type": "Point", "coordinates": [ -0.144480161382376, 51.008240373684735 ] } },
{ "type": "Feature", "properties": { "max_height": 8.0733795166015625, "mean_height": 3.934497594833374, "std_height": 1.5453722476959229, "count_pixels": 42, "percent_cover": 0.30959752321981426, "percent_above_0.1m": 100.0, "low_level_<0.5": 0.0, "mid_level_0.5-2": 11.904761904761903, "tall_2+": 88.095238095238088 }, "geometry": { "type": "Point", "coordinates": [ -0.144282764944743, 51.008237238725243 ] } },
{ "type": "Feature", "properties": { "max_height": 7.5601882934570312, "mean_height": 1.7301536798477173, "std_height": 2.1670081615447998, "count_pixels": 43, "percent_cover": 0.31696889282028601, "percent_above_0.1m": 62.790697674418603, "low_level_<0.5": 9.3023255813953494, "mid_level_0.5-2": 20.930232558139537, "tall_2+": 30.232558139534881 }, "geometry": { "type": "Point", "coordinates": [ -0.144085368542455, 51.008234103432279 ] } },
{ "type": "Feature", "properties": { "max_height": 6.2650222778320312, "mean_height": 0.88251656293869019, "std_height": 1.7925069332122803, "count_pixels": 43, "percent_cover": 0.31696889282028601, "percent_above_0.1m": 30.232558139534881, "low_level_<0.5": 6.9767441860465116, "mid_level_0.5-2": 9.3023255813953494, "tall_2+": 13.953488372093023 }, "geometry": { "type": "Point", "coordinates": [ -0.143887972175509, 51.008230967805908 ] } },
{ "type": "Feature", "properties": { "max_height": 0.05762481689453125, "mean_height": 0.05047280341386795, "std_height": 0.0033964547328650951, "count_pixels": 42, "percent_cover": 0.30959752321981426, "percent_above_0.1m": 0.0, "low_level_<0.5": 0.0, "mid_level_0.5-2": 0.0, "tall_2+": 0.0 }, "geometry": { "type": "Point", "coordinates": [ -0.143690575843917, 51.008227831846085 ] } },
{ "type": "Feature", "properties": { "max_height": 0.05858612060546875, "mean_height": 0.04911254346370697, "std_height": 0.0049942662008106709, "count_pixels": 43, "percent_cover": 0.31696889282028601, "percent_above_0.1m": 0.0, "low_level_<0.5": 0.0, "mid_level_0.5-2": 0.0, "tall_2+": 0.0 }, "geometry": { "type": "Point", "coordinates": [ -0.143493179547679, 51.008224695552819 ] } },
{ "type": "Feature", "properties": { "max_height": 0.063720703125, "mean_height": 0.05240631103515625, "std_height": 0.0047889989800751209, "count_pixels": 43, "percent_cover": 0.31696889282028601, "percent_above_0.1m": 0.0, "low_level_<0.5": 0.0, "mid_level_0.5-2": 0.0, "tall_2+": 0.0 }, "geometry": { "type": "Point", "coordinates": [ -0.143295783286792, 51.008221558926131 ] } },
{ "type": "Feature", "properties": { "max_height": 3.2779388427734375, "mean_height": 1.2137926816940308, "std_height": 1.0911390781402588, "count_pixels": 43, "percent_cover": 0.31696889282028601, "percent_above_0.1m": 72.093023255813947, "low_level_<0.5": 11.627906976744185, "mid_level_0.5-2": 27.906976744186046, "tall_2+": 30.232558139534881 }, "geometry": { "type": "Point", "coordinates": [ -0.143098387061273, 51.008218421965999 ] } },
{ "type": "Feature", "properties": { "max_height": 16.305900573730469, "mean_height": 9.2996797561645508, "std_height": 4.1596908569335938, "count_pixels": 42, "percent_cover": 0.30959752321981426, "percent_above_0.1m": 100.0, "low_level_<0.5": 0.0, "mid_level_0.5-2": 7.1428571428571423, "tall_2+": 92.857142857142861 }, "geometry": { "type": "Point", "coordinates": [ -0.145166747635166, 51.008359194083766 ] } },
{ "type": "Feature", "properties": { "max_height": 11.696304321289062, "mean_height": 4.4632234573364258, "std_height": 3.8815994262695312, "count_pixels": 42, "percent_cover": 0.30959752321981426, "percent_above_0.1m": 92.857142857142861, "low_level_<0.5": 2.3809523809523809, "mid_level_0.5-2": 35.714285714285715, "tall_2+": 54.761904761904766 }, "geometry": { "type": "Point", "coordinates": [ -0.144969350617287, 51.008356060280448 ] } },
{ "type": "Feature", "properties": { "max_height": 0.81134796142578125, "mean_height": 0.20048345625400543, "std_height": 0.24760711193084717, "count_pixels": 43, "percent_cover": 0.31696889282028601, "percent_above_0.1m": 34.883720930232556, "low_level_<0.5": 13.953488372093023, "mid_level_0.5-2": 18.604651162790699, "tall_2+": 0.0 }, "geometry": { "type": "Point", "coordinates": [ -0.144771953634733, 51.008352926143708 ] } },
{ "type": "Feature", "properties": { "max_height": 3.0983123779296875, "mean_height": 0.28985258936882019, "std_height": 0.55423158407211304, "count_pixels": 43, "percent_cover": 0.31696889282028601, "percent_above_0.1m": 32.558139534883722, "low_level_<0.5": 18.604651162790699, "mid_level_0.5-2": 11.627906976744185, "tall_2+": 2.3255813953488373 }, "geometry": { "type": "Point", "coordinates": [ -0.144574556687515, 51.008349791673517 ] } },
{ "type": "Feature", "properties": { "max_height": 6.2041091918945312, "mean_height": 1.1452186107635498, "std_height": 1.8137302398681641, "count_pixels": 42, "percent_cover": 0.30959752321981426, "percent_above_0.1m": 42.857142857142854, "low_level_<0.5": 7.1428571428571423, "mid_level_0.5-2": 14.285714285714285, "tall_2+": 21.428571428571427 }, "geometry": { "type": "Point", "coordinates": [ -0.144377159775632, 51.008346656869868 ] } },
{ "type": "Feature", "properties": { "max_height": 7.2743988037109375, "mean_height": 1.8899692296981812, "std_height": 2.4455752372741699, "count_pixels": 41, "percent_cover": 0.30222615361934246, "percent_above_0.1m": 58.536585365853654, "low_level_<0.5": 14.634146341463413, "mid_level_0.5-2": 7.3170731707317067, "tall_2+": 34.146341463414636 }, "geometry": { "type": "Point", "coordinates": [ -0.144179762899094, 51.008343521732812 ] } },
{ "type": "Feature", "properties": { "max_height": 6.8679962158203125, "mean_height": 0.7856670618057251, "std_height": 1.7252905368804932, "count_pixels": 41, "percent_cover": 0.30222615361934246, "percent_above_0.1m": 26.829268292682929, "low_level_<0.5": 7.3170731707317067, "mid_level_0.5-2": 0.0, "tall_2+": 17.073170731707318 }, "geometry": { "type": "Point", "coordinates": [ -0.143982366057896, 51.008340386262297 ] } },
{ "type": "Feature", "properties": { "max_height": 3.9868698120117188, "mean_height": 0.1945311427116394, "std_height": 0.63534104824066162, "count_pixels": 41, "percent_cover": 0.30222615361934246, "percent_above_0.1m": 9.7560975609756095, "low_level_<0.5": 2.4390243902439024, "mid_level_0.5-2": 4.8780487804878048, "tall_2+": 2.4390243902439024 }, "geometry": { "type": "Point", "coordinates": [ -0.14378496925205, 51.008337250458347 ] } },
{ "type": "Feature", "properties": { "max_height": 0.0530242919921875, "mean_height": 0.044162854552268982, "std_height": 0.0029570788610726595, "count_pixels": 37, "percent_cover": 0.27274067521745538, "percent_above_0.1m": 0.0, "low_level_<0.5": 0.0, "mid_level_0.5-2": 0.0, "tall_2+": 0.0 }, "geometry": { "type": "Point", "coordinates": [ -0.143587572481555, 51.008334114320967 ] } },
{ "type": "Feature", "properties": { "max_height": 0.05629730224609375, "mean_height": 0.047291640192270279, "std_height": 0.0050731250084936619, "count_pixels": 41, "percent_cover": 0.30222615361934246, "percent_above_0.1m": 0.0, "low_level_<0.5": 0.0, "mid_level_0.5-2": 0.0, "tall_2+": 0.0 }, "geometry": { "type": "Point", "coordinates": [ -0.143390175746417, 51.008330977850136 ] } },
{ "type": "Feature", "properties": { "max_height": 1.2130889892578125, "mean_height": 0.1251952052116394, "std_height": 0.28033488988876343, "count_pixels": 41, "percent_cover": 0.30222615361934246, "percent_above_0.1m": 7.3170731707317067, "low_level_<0.5": 0.0, "mid_level_0.5-2": 7.3170731707317067, "tall_2+": 0.0 }, "geometry": { "type": "Point", "coordinates": [ -0.143192779046639, 51.008327841045862 ] } },
{ "type": "Feature", "properties": { "max_height": 6.2975387573242188, "mean_height": 1.3621165752410889, "std_height": 1.7695636749267578, "count_pixels": 41, "percent_cover": 0.30222615361934246, "percent_above_0.1m": 73.170731707317074, "low_level_<0.5": 14.634146341463413, "mid_level_0.5-2": 34.146341463414636, "tall_2+": 21.951219512195124 }, "geometry": { "type": "Point", "coordinates": [ -0.142995382382221, 51.008324703908166 ] } },
{ "type": "Feature", "properties": { "max_height": 20.756782531738281, "mean_height": 8.8581123352050781, "std_height": 4.8252706527709961, "count_pixels": 38, "percent_cover": 0.28011204481792717, "percent_above_0.1m": 100.0, "low_level_<0.5": 0.0, "mid_level_0.5-2": 2.6315789473684208, "tall_2+": 97.368421052631575 }, "geometry": { "type": "Point", "coordinates": [ -0.14506374730982, 51.008465477882773 ] } },
{ "type": "Feature", "properties": { "max_height": 17.056060791015625, "mean_height": 7.208524227142334, "std_height": 4.7342157363891602, "count_pixels": 41, "percent_cover": 0.30222615361934246, "percent_above_0.1m": 92.682926829268297, "low_level_<0.5": 2.4390243902439024, "mid_level_0.5-2": 4.8780487804878048, "tall_2+": 85.365853658536579 }, "geometry": { "type": "Point", "coordinates": [ -0.144866349853021, 51.00846234390189 ] } },
{ "type": "Feature", "properties": { "max_height": 8.8152694702148438, "mean_height": 0.91653311252593994, "std_height": 1.9288876056671143, "count_pixels": 41, "percent_cover": 0.30222615361934246, "percent_above_0.1m": 43.902439024390247, "low_level_<0.5": 12.195121951219512, "mid_level_0.5-2": 17.073170731707318, "tall_2+": 14.634146341463413 }, "geometry": { "type": "Point", "coordinates": [ -0.144668952431553, 51.008459209587571 ] } },
{ "type": "Feature", "properties": { "max_height": 0.0851287841796875, "mean_height": 0.041179563850164413, "std_height": 0.0083983410149812698, "count_pixels": 41, "percent_cover": 0.30222615361934246, "percent_above_0.1m": 0.0, "low_level_<0.5": 0.0, "mid_level_0.5-2": 0.0, "tall_2+": 0.0 }, "geometry": { "type": "Point", "coordinates": [ -0.144471555045419, 51.008456074939808 ] } },
{ "type": "Feature", "properties": { "max_height": 0.2215118408203125, "mean_height": 0.050541650503873825, "std_height": 0.031888332217931747, "count_pixels": 42, "percent_cover": 0.30959752321981426, "percent_above_0.1m": 4.7619047619047619, "low_level_<0.5": 2.3809523809523809, "mid_level_0.5-2": 0.0, "tall_2+": 0.0 }, "geometry": { "type": "Point", "coordinates": [ -0.144274157694629, 51.00845293995863 ] } },
{ "type": "Feature", "properties": { "max_height": 3.0144119262695312, "mean_height": 0.19153808057308197, "std_height": 0.48347541689872742, "count_pixels": 43, "percent_cover": 0.31696889282028601, "percent_above_0.1m": 27.906976744186046, "low_level_<0.5": 9.3023255813953494, "mid_level_0.5-2": 4.6511627906976747, "tall_2+": 2.3255813953488373 }, "geometry": { "type": "Point", "coordinates": [ -0.144076760379176, 51.008449804643973 ] } },
{ "type": "Feature", "properties": { "max_height": 2.9751129150390625, "mean_height": 0.27668070793151855, "std_height": 0.66794794797897339, "count_pixels": 43, "percent_cover": 0.31696889282028601, "percent_above_0.1m": 18.604651162790699, "low_level_<0.5": 2.3255813953488373, "mid_level_0.5-2": 4.6511627906976747, "tall_2+": 6.9767441860465116 }, "geometry": { "type": "Point", "coordinates": [ -0.143879363099074, 51.008446668995894 ] } },
{ "type": "Feature", "properties": { "max_height": 3.2098464965820312, "mean_height": 0.33502468466758728, "std_height": 0.69664347171783447, "count_pixels": 42, "percent_cover": 0.30959752321981426, "percent_above_0.1m": 28.571428571428569, "low_level_<0.5": 7.1428571428571423, "mid_level_0.5-2": 9.5238095238095237, "tall_2+": 7.1428571428571423 }, "geometry": { "type": "Point", "coordinates": [ -0.143681965854325, 51.008443533014379 ] } },
{ "type": "Feature", "properties": { "max_height": 3.3355331420898438, "mean_height": 0.42477595806121826, "std_height": 0.73316055536270142, "count_pixels": 43, "percent_cover": 0.31696889282028601, "percent_above_0.1m": 34.883720930232556, "low_level_<0.5": 6.9767441860465116, "mid_level_0.5-2": 18.604651162790699, "tall_2+": 4.6511627906976747 }, "geometry": { "type": "Point", "coordinates": [ -0.143484568644928, 51.00844039669942 ] } },
{ "type": "Feature", "properties": { "max_height": 6.1256027221679688, "mean_height": 0.74820923805236816, "std_height": 1.2316876649856567, "count_pixels": 43, "percent_cover": 0.31696889282028601, "percent_above_0.1m": 44.186046511627907, "low_level_<0.5": 6.9767441860465116, "mid_level_0.5-2": 27.906976744186046, "tall_2+": 9.3023255813953494 }, "geometry": { "type": "Point", "coordinates": [ -0.143287171470885, 51.008437260051011 ] } },
{ "type": "Feature", "properties": { "max_height": 5.2724685668945312, "mean_height": 0.74506378173828125, "std_height": 1.0558028221130371, "count_pixels": 43, "percent_cover": 0.31696889282028601, "percent_above_0.1m": 67.441860465116278, "low_level_<0.5": 20.930232558139537, "mid_level_0.5-2": 34.883720930232556, "tall_2+": 6.9767441860465116 }, "geometry": { "type": "Point", "coordinates": [ -0.143089774332211, 51.008434123069186 ] } },
{ "type": "Feature", "properties": { "max_height": 14.946533203125, "mean_height": 10.270729064941406, "std_height": 2.5882575511932373, "count_pixels": 43, "percent_cover": 0.31696889282028601, "percent_above_0.1m": 100.0, "low_level_<0.5": 0.0, "mid_level_0.5-2": 0.0, "tall_2+": 100.0 }, "geometry": { "type": "Point", "coordinates": [ -0.144763348614492, 51.008568627426889 ] } },
{ "type": "Feature", "properties": { "max_height": 14.147598266601562, "mean_height": 4.9578204154968262, "std_height": 3.8011777400970459, "count_pixels": 43, "percent_cover": 0.31696889282028601, "percent_above_0.1m": 83.720930232558146, "low_level_<0.5": 2.3255813953488373, "mid_level_0.5-2": 13.953488372093023, "tall_2+": 67.441860465116278 }, "geometry": { "type": "Point", "coordinates": [ -0.144565950754108, 51.008565492935034 ] } },
{ "type": "Feature", "properties": { "max_height": 10.993789672851562, "mean_height": 4.6741142272949219, "std_height": 3.7408366203308105, "count_pixels": 42, "percent_cover": 0.30959752321981426, "percent_above_0.1m": 73.80952380952381, "low_level_<0.5": 2.3809523809523809, "mid_level_0.5-2": 4.7619047619047619, "tall_2+": 66.666666666666657 }, "geometry": { "type": "Point", "coordinates": [ -0.144368552929063, 51.0085623581097 ] } },
{ "type": "Feature", "properties": { "max_height": 12.79693603515625, "mean_height": 5.2454352378845215, "std_height": 3.4705126285552979, "count_pixels": 41, "percent_cover": 0.30222615361934246, "percent_above_0.1m": 87.804878048780495, "low_level_<0.5": 4.8780487804878048, "mid_level_0.5-2": 7.3170731707317067, "tall_2+": 75.609756097560975 }, "geometry": { "type": "Point", "coordinates": [ -0.144171155139354, 51.008559222950929 ] } },
{ "type": "Feature", "properties": { "max_height": 10.919136047363281, "mean_height": 5.3283615112304688, "std_height": 3.5815479755401611, "count_pixels": 41, "percent_cover": 0.30222615361934246, "percent_above_0.1m": 87.804878048780495, "low_level_<0.5": 4.8780487804878048, "mid_level_0.5-2": 7.3170731707317067, "tall_2+": 73.170731707317074 }, "geometry": { "type": "Point", "coordinates": [ -0.143973757384998, 51.008556087458722 ] } },
{ "type": "Feature", "properties": { "max_height": 5.4704971313476562, "mean_height": 0.76160132884979248, "std_height": 1.3687006235122681, "count_pixels": 41, "percent_cover": 0.30222615361934246, "percent_above_0.1m": 48.780487804878049, "low_level_<0.5": 19.512195121951219, "mid_level_0.5-2": 19.512195121951219, "tall_2+": 9.7560975609756095 }, "geometry": { "type": "Point", "coordinates": [ -0.143776359665984, 51.008552951633078 ] } }
]
}
