{
"type": "FeatureCollection",
"name": "ed78f4df4f48_foliage",
"crs": { "type": "name", "properties": { "name": "urn:ogc:def:crs:OGC:1.3:CRS84" } },
"features": [
{ "type": "Feature", "properties": { "max_height": 12.362751007080078, "mean_height": 3.2140023708343506, "std_height": 4.2122993469238281, "count_pixels": 42, "percent_cover": 0.33920206751736393, "percent_above_0.1m": 54.761904761904766, "low_level_<0.5": 2.3809523809523809, "mid_level_0.5-2": 9.5238095238095237, "tall_2+": 40.476190476190474 }, "geometry": { "type": "Point", "coordinates": [ -0.170918300937333, 50.932612094024066 ] } },
{ "type": "Feature", "properties": { "max_height": 12.716499328613281, "mean_height": 3.7330455780029297, "std_height": 3.9949662685394287, "count_pixels": 41, "percent_cover": 0.33112582781456956, "percent_above_0.1m": 80.487804878048792, "low_level_<0.5": 14.634146341463413, "mid_level_0.5-2": 14.634146341463413, "tall_2+": 48.780487804878049 }, "geometry": { "type": "Point", "coordinates": [ -0.170721222751845, 50.932609007186983 ] } },
{ "type": "Feature", "properties": { "max_height": 15.055507659912109, "mean_height": 9.3031072616577148, "std_height": 4.3770370483398438, "count_pixels": 41, "percent_cover": 0.33112582781456956, "percent_above_0.1m": 100.0, "low_level_<0.5": 0.0, "mid_level_0.5-2": 2.4390243902439024, "tall_2+": 97.560975609756099 }, "geometry": { "type": "Point", "coordinates": [ -0.169932910355375, 50.932596656513951 ] } },
{ "type": "Feature", "properties": { "max_height": 12.577003479003906, "mean_height": 4.2690763473510742, "std_height": 3.417905330657959, "count_pixels": 41, "percent_cover": 0.33112582781456956, "percent_above_0.1m": 95.121951219512198, "low_level_<0.5": 2.4390243902439024, "mid_level_0.5-2": 31.707317073170731, "tall_2+": 60.975609756097562 }, "geometry": { "type": "Point", "coordinates": [ -0.169735832342653, 50.932593568014489 ] } },
{ "type": "Feature", "properties": { "max_height": 12.268051147460938, "mean_height": 5.3786458969116211, "std_height": 3.9188740253448486, "count_pixels": 42, "percent_cover": 0.33920206751736393, "percent_above_0.1m": 88.095238095238088, "low_level_<0.5": 2.3809523809523809, "mid_level_0.5-2": 9.5238095238095237, "tall_2+": 71.428571428571431 }, "geometry": { "type": "Point", "coordinates": [ -0.16953875436449, 50.932590479182537 ] } },
{ "type": "Feature", "properties": { "max_height": 13.448677062988281, "mean_height": 8.0482416152954102, "std_height": 3.2711794376373291, "count_pixels": 43, "percent_cover": 0.34727830722015829, "percent_above_0.1m": 95.348837209302332, "low_level_<0.5": 0.0, "mid_level_0.5-2": 4.6511627906976747, "tall_2+": 90.697674418604649 }, "geometry": { "type": "Point", "coordinates": [ -0.169341676420899, 50.932587390018121 ] } },
{ "type": "Feature", "properties": { "max_height": 13.791507720947266, "mean_height": 7.3989200592041016, "std_height": 4.7548627853393555, "count_pixels": 43, "percent_cover": 0.34727830722015829, "percent_above_0.1m": 93.023255813953483, "low_level_<0.5": 0.0, "mid_level_0.5-2": 16.279069767441861, "tall_2+": 74.418604651162795 }, "geometry": { "type": "Point", "coordinates": [ -0.169144598511877, 50.932584300521221 ] } },
{ "type": "Feature", "properties": { "max_height": 12.813503265380859, "mean_height": 7.6520395278930664, "std_height": 4.1049737930297852, "count_pixels": 42, "percent_cover": 0.33920206751736393, "percent_above_0.1m": 92.857142857142861, "low_level_<0.5": 7.1428571428571423, "mid_level_0.5-2": 4.7619047619047619, "tall_2+": 80.952380952380949 }, "geometry": { "type": "Point", "coordinates": [ -0.170815530193018, 50.932718406080788 ] } },
{ "type": "Feature", "properties": { "max_height": 16.480499267578125, "mean_height": 8.5808115005493164, "std_height": 4.1766757965087891, "count_pixels": 43, "percent_cover": 0.34727830722015829, "percent_above_0.1m": 100.0, "low_level_<0.5": 2.3255813953488373, "mid_level_0.5-2": 2.3255813953488373, "tall_2+": 95.348837209302332 }, "geometry": { "type": "Point", "coordinates": [ -0.170618451572892, 50.93271531906538 ] } },
{ "type": "Feature", "properties": { "max_height": 13.329246520996094, "mean_height": 10.451230049133301, "std_height": 2.2620794773101807, "count_pixels": 43, "percent_cover": 0.34727830722015829, "percent_above_0.1m": 100.0, "low_level_<0.5": 0.0, "mid_level_0.5-2": 0.0, "tall_2+": 100.0 }, "geometry": { "type": "Point", "coordinates": [ -0.169830137437908, 50.932702967678956 ] } },
{ "type": "Feature", "properties": { "max_height": 11.979255676269531, "mean_height": 3.3830442428588867, "std_height": 4.2069692611694336, "count_pixels": 42, "percent_cover": 0.33920206751736393, "percent_above_0.1m": 54.761904761904766, "low_level_<0.5": 9.5238095238095237, "mid_level_0.5-2": 0.0, "tall_2+": 45.238095238095241 }, "geometry": { "type": "Point", "coordinates": [ -0.169633058990555, 50.932699879001149 ] } },
{ "type": "Feature", "properties": { "max_height": 7.2735824584960938, "mean_height": 0.58186769485473633, "std_height": 1.6684348583221436, "count_pixels": 41, "percent_cover": 0.33112582781456956, "percent_above_0.1m": 17.073170731707318, "low_level_<0.5": 2.4390243902439024, "mid_level_0.5-2": 4.8780487804878048, "tall_2+": 9.7560975609756095 }, "geometry": { "type": "Point", "coordinates": [ -0.169435980577773, 50.932696789990871 ] } },
{ "type": "Feature", "properties": { "max_height": 11.145500183105469, "mean_height": 2.4767162799835205, "std_height": 3.6720297336578369, "count_pixels": 41, "percent_cover": 0.33112582781456956, "percent_above_0.1m": 41.463414634146339, "low_level_<0.5": 0.0, "mid_level_0.5-2": 9.7560975609756095, "tall_2+": 31.707317073170731 }, "geometry": { "type": "Point", "coordinates": [ -0.169238902199559, 50.932693700648088 ] } },
{ "type": "Feature", "properties": { "max_height": 14.517341613769531, "mean_height": 7.6501598358154297, "std_height": 3.8446719646453857, "count_pixels": 41, "percent_cover": 0.33112582781456956, "percent_above_0.1m": 95.121951219512198, "low_level_<0.5": 2.4390243902439024, "mid_level_0.5-2": 2.4390243902439024, "tall_2+": 90.243902439024396 }, "geometry": { "type": "Point", "coordinates": [ -0.169041823855922, 50.932690610972827 ] } },
{ "type": "Feature", "properties": { "max_height": 5.7970008850097656, "mean_height": 1.7516871690750122, "std_height": 1.6984455585479736, "count_pixels": 42, "percent_cover": 0.33920206751736393, "percent_above_0.1m": 85.714285714285708, "low_level_<0.5": 19.047619047619047, "mid_level_0.5-2": 35.714285714285715, "tall_2+": 30.952380952380953 }, "geometry": { "type": "Point", "coordinates": [ -0.170909838068821, 50.932827804901279 ] } },
{ "type": "Feature", "properties": { "max_height": 17.323001861572266, "mean_height": 9.5852527618408203, "std_height": 5.8652324676513672, "count_pixels": 41, "percent_cover": 0.33112582781456956, "percent_above_0.1m": 95.121951219512198, "low_level_<0.5": 4.8780487804878048, "mid_level_0.5-2": 12.195121951219512, "tall_2+": 78.048780487804876 }, "geometry": { "type": "Point", "coordinates": [ -0.170712758979513, 50.932824718040045 ] } },
{ "type": "Feature", "properties": { "max_height": 16.618999481201172, "mean_height": 8.567753791809082, "std_height": 5.5964136123657227, "count_pixels": 41, "percent_cover": 0.33112582781456956, "percent_above_0.1m": 97.560975609756099, "low_level_<0.5": 0.0, "mid_level_0.5-2": 19.512195121951219, "tall_2+": 78.048780487804876 }, "geometry": { "type": "Point", "coordinates": [ -0.170515679924746, 50.932821630846298 ] } },
{ "type": "Feature", "properties": { "max_height": 12.019752502441406, "mean_height": 2.8126990795135498, "std_height": 3.6690175533294678, "count_pixels": 42, "percent_cover": 0.33920206751736393, "percent_above_0.1m": 52.380952380952387, "low_level_<0.5": 4.7619047619047619, "mid_level_0.5-2": 7.1428571428571423, "tall_2+": 40.476190476190474 }, "geometry": { "type": "Point", "coordinates": [ -0.170121521918879, 50.932815455461338 ] } },
{ "type": "Feature", "properties": { "max_height": 13.741500854492188, "mean_height": 7.7080211639404297, "std_height": 4.3154644966125488, "count_pixels": 41, "percent_cover": 0.33112582781456956, "percent_above_0.1m": 95.121951219512198, "low_level_<0.5": 2.4390243902439024, "mid_level_0.5-2": 7.3170731707317067, "tall_2+": 85.365853658536579 }, "geometry": { "type": "Point", "coordinates": [ -0.169924442967776, 50.932812367270166 ] } },
{ "type": "Feature", "properties": { "max_height": 12.833251953125, "mean_height": 5.8207769393920898, "std_height": 3.8821864128112793, "count_pixels": 41, "percent_cover": 0.33112582781456956, "percent_above_0.1m": 85.365853658536579, "low_level_<0.5": 2.4390243902439024, "mid_level_0.5-2": 4.8780487804878048, "tall_2+": 78.048780487804876 }, "geometry": { "type": "Point", "coordinates": [ -0.169727364051239, 50.932809278746483 ] } },
{ "type": "Feature", "properties": { "max_height": 10.620750427246094, "mean_height": 1.5267403125762939, "std_height": 3.086230993270874, "count_pixels": 42, "percent_cover": 0.33920206751736393, "percent_above_0.1m": 28.571428571428569, "low_level_<0.5": 4.7619047619047619, "mid_level_0.5-2": 2.3809523809523809, "tall_2+": 21.428571428571427 }, "geometry": { "type": "Point", "coordinates": [ -0.169530285169259, 50.932806189890321 ] } },
{ "type": "Feature", "properties": { "max_height": 6.4130020141601562, "mean_height": 0.21270130574703217, "std_height": 1.026368260383606, "count_pixels": 43, "percent_cover": 0.34727830722015829, "percent_above_0.1m": 6.9767441860465116, "low_level_<0.5": 2.3255813953488373, "mid_level_0.5-2": 0.0, "tall_2+": 4.6511627906976747 }, "geometry": { "type": "Point", "coordinates": [ -0.169333206321854, 50.932803100701683 ] } },
{ "type": "Feature", "properties": { "max_height": 10.400501251220703, "mean_height": 2.4989445209503174, "std_height": 3.4029617309570312, "count_pixels": 43, "percent_cover": 0.34727830722015829, "percent_above_0.1m": 53.488372093023251, "low_level_<0.5": 0.0, "mid_level_0.5-2": 16.279069767441861, "tall_2+": 34.883720930232556 }, "geometry": { "type": "Point", "coordinates": [ -0.169136127509019, 50.932800011180561 ] } },
{ "type": "Feature", "properties": { "max_height": 9.3030052185058594, "mean_height": 4.1508064270019531, "std_height": 2.6095948219299316, "count_pixels": 42, "percent_cover": 0.33920206751736393, "percent_above_0.1m": 95.238095238095227, "low_level_<0.5": 4.7619047619047619, "mid_level_0.5-2": 14.285714285714285, "tall_2+": 76.19047619047619 }, "geometry": { "type": "Point", "coordinates": [ -0.168939048730761, 50.932796921326961 ] } },
{ "type": "Feature", "properties": { "max_height": 15.018497467041016, "mean_height": 5.9237051010131836, "std_height": 4.4239840507507324, "count_pixels": 42, "percent_cover": 0.33920206751736393, "percent_above_0.1m": 95.238095238095227, "low_level_<0.5": 2.3809523809523809, "mid_level_0.5-2": 14.285714285714285, "tall_2+": 78.571428571428569 }, "geometry": { "type": "Point", "coordinates": [ -0.171595385261966, 50.932946461774968 ] } },
{ "type": "Feature", "properties": { "max_height": 12.842498779296875, "mean_height": 2.9631674289703369, "std_height": 3.1032474040985107, "count_pixels": 41, "percent_cover": 0.33112582781456956, "percent_above_0.1m": 85.365853658536579, "low_level_<0.5": 9.7560975609756095, "mid_level_0.5-2": 31.707317073170731, "tall_2+": 43.902439024390247 }, "geometry": { "type": "Point", "coordinates": [ -0.171398305599863, 50.932943376065317 ] } },
{ "type": "Feature", "properties": { "max_height": 7.79949951171875, "mean_height": 2.5176675319671631, "std_height": 2.3516788482666016, "count_pixels": 41, "percent_cover": 0.33112582781456956, "percent_above_0.1m": 87.804878048780495, "low_level_<0.5": 9.7560975609756095, "mid_level_0.5-2": 34.146341463414636, "tall_2+": 41.463414634146339 }, "geometry": { "type": "Point", "coordinates": [ -0.171201225972288, 50.932940290023147 ] } },
{ "type": "Feature", "properties": { "max_height": 2.0032539367675781, "mean_height": 0.35814520716667175, "std_height": 0.52145779132843018, "count_pixels": 42, "percent_cover": 0.33920206751736393, "percent_above_0.1m": 47.619047619047613, "low_level_<0.5": 9.5238095238095237, "mid_level_0.5-2": 28.571428571428569, "tall_2+": 2.3809523809523809 }, "geometry": { "type": "Point", "coordinates": [ -0.170807066820761, 50.932934116941411 ] } },
{ "type": "Feature", "properties": { "max_height": 9.4690055847167969, "mean_height": 1.8471602201461792, "std_height": 2.7525136470794678, "count_pixels": 43, "percent_cover": 0.34727830722015829, "percent_above_0.1m": 58.139534883720934, "low_level_<0.5": 11.627906976744185, "mid_level_0.5-2": 13.953488372093023, "tall_2+": 30.232558139534881 }, "geometry": { "type": "Point", "coordinates": [ -0.170609987296813, 50.932931029901788 ] } },
{ "type": "Feature", "properties": { "max_height": 8.9885025024414062, "mean_height": 3.0500438213348389, "std_height": 2.5334303379058838, "count_pixels": 43, "percent_cover": 0.34727830722015829, "percent_above_0.1m": 88.372093023255815, "low_level_<0.5": 4.6511627906976747, "mid_level_0.5-2": 27.906976744186046, "tall_2+": 55.813953488372093 }, "geometry": { "type": "Point", "coordinates": [ -0.17041290780741, 50.932927942529716 ] } },
{ "type": "Feature", "properties": { "max_height": 9.9485054016113281, "mean_height": 5.7113656997680664, "std_height": 2.6022050380706787, "count_pixels": 38, "percent_cover": 0.30689710870618642, "percent_above_0.1m": 100.0, "low_level_<0.5": 7.8947368421052628, "mid_level_0.5-2": 2.6315789473684208, "tall_2+": 89.473684210526315 }, "geometry": { "type": "Point", "coordinates": [ -0.170215828352561, 50.932924854825139 ] } },
{ "type": "Feature", "properties": { "max_height": 13.970756530761719, "mean_height": 10.041866302490234, "std_height": 2.5472197532653809, "count_pixels": 42, "percent_cover": 0.33920206751736393, "percent_above_0.1m": 100.0, "low_level_<0.5": 0.0, "mid_level_0.5-2": 0.0, "tall_2+": 100.0 }, "geometry": { "type": "Point", "coordinates": [ -0.17001874893227, 50.93292176678807 ] } },
{ "type": "Feature", "properties": { "max_height": 10.939754486083984, "mean_height": 6.8195738792419434, "std_height": 2.7144489288330078, "count_pixels": 43, "percent_cover": 0.34727830722015829, "percent_above_0.1m": 100.0, "low_level_<0.5": 0.0, "mid_level_0.5-2": 6.9767441860465116, "tall_2+": 93.023255813953483 }, "geometry": { "type": "Point", "coordinates": [ -0.169821669546537, 50.932918678418524 ] } },
{ "type": "Feature", "properties": { "max_height": 10.341251373291016, "mean_height": 4.4803838729858398, "std_height": 3.2767229080200195, "count_pixels": 42, "percent_cover": 0.33920206751736393, "percent_above_0.1m": 88.095238095238088, "low_level_<0.5": 7.1428571428571423, "mid_level_0.5-2": 11.904761904761903, "tall_2+": 69.047619047619051 }, "geometry": { "type": "Point", "coordinates": [ -0.169624590195365, 50.932915589716501 ] } },
{ "type": "Feature", "properties": { "max_height": 10.405624389648438, "mean_height": 2.6466953754425049, "std_height": 3.8330276012420654, "count_pixels": 41, "percent_cover": 0.33112582781456956, "percent_above_0.1m": 41.463414634146339, "low_level_<0.5": 0.0, "mid_level_0.5-2": 7.3170731707317067, "tall_2+": 34.146341463414636 }, "geometry": { "type": "Point", "coordinates": [ -0.169427510878763, 50.932912500682015 ] } },
{ "type": "Feature", "properties": { "max_height": 11.127498626708984, "mean_height": 4.6975274085998535, "std_height": 3.3229410648345947, "count_pixels": 41, "percent_cover": 0.33112582781456956, "percent_above_0.1m": 87.804878048780495, "low_level_<0.5": 7.3170731707317067, "mid_level_0.5-2": 2.4390243902439024, "tall_2+": 78.048780487804876 }, "geometry": { "type": "Point", "coordinates": [ -0.169230431596731, 50.932909411315002 ] } },
{ "type": "Feature", "properties": { "max_height": 8.5007553100585938, "mean_height": 1.8966737985610962, "std_height": 2.7979896068572998, "count_pixels": 41, "percent_cover": 0.33112582781456956, "percent_above_0.1m": 46.341463414634148, "low_level_<0.5": 4.8780487804878048, "mid_level_0.5-2": 9.7560975609756095, "tall_2+": 31.707317073170731 }, "geometry": { "type": "Point", "coordinates": [ -0.169033352349274, 50.932906321615526 ] } },
{ "type": "Feature", "properties": { "max_height": 12.018501281738281, "mean_height": 2.4537684917449951, "std_height": 2.8667037487030029, "count_pixels": 42, "percent_cover": 0.33920206751736393, "percent_above_0.1m": 80.952380952380949, "low_level_<0.5": 14.285714285714285, "mid_level_0.5-2": 23.809523809523807, "tall_2+": 40.476190476190474 }, "geometry": { "type": "Point", "coordinates": [ -0.168836273136395, 50.932903231583573 ] } },
{ "type": "Feature", "properties": { "max_height": 17.631748199462891, "mean_height": 11.404942512512207, "std_height": 5.6689434051513672, "count_pixels": 42, "percent_cover": 0.33920206751736393, "percent_above_0.1m": 95.238095238095227, "low_level_<0.5": 0.0, "mid_level_0.5-2": 0.0, "tall_2+": 92.857142857142861 }, "geometry": { "type": "Point", "coordinates": [ -0.172280936015607, 50.933065114658127 ] } },
{ "type": "Feature", "properties": { "max_height": 5.9020042419433594, "mean_height": 2.2227122783660889, "std_height": 2.2525129318237305, "count_pixels": 43, "percent_cover": 0.34727830722015829, "percent_above_0.1m": 67.441860465116278, "low_level_<0.5": 9.3023255813953494, "mid_level_0.5-2": 4.6511627906976747, "tall_2+": 48.837209302325576 }, "geometry": { "type": "Point", "coordinates": [ -0.172083855780746, 50.933062030100082 ] } },
{ "type": "Feature", "properties": { "max_height": 9.878753662109375, "mean_height": 2.0315144062042236, "std_height": 3.1640205383300781, "count_pixels": 43, "percent_cover": 0.34727830722015829, "percent_above_0.1m": 53.488372093023251, "low_level_<0.5": 9.3023255813953494, "mid_level_0.5-2": 16.279069767441861, "tall_2+": 25.581395348837212 }, "geometry": { "type": "Point", "coordinates": [ -0.171886775580404, 50.933058945209531 ] } },
{ "type": "Feature", "properties": { "max_height": 18.910499572753906, "mean_height": 11.824729919433594, "std_height": 5.0013017654418945, "count_pixels": 42, "percent_cover": 0.33920206751736393, "percent_above_0.1m": 95.238095238095227, "low_level_<0.5": 2.3809523809523809, "mid_level_0.5-2": 0.0, "tall_2+": 92.857142857142861 }, "geometry": { "type": "Point", "coordinates": [ -0.171689695414588, 50.933055859986489 ] } },
{ "type": "Feature", "properties": { "max_height": 16.306499481201172, "mean_height": 6.5509247779846191, "std_height": 6.2248430252075195, "count_pixels": 38, "percent_cover": 0.30689710870618642, "percent_above_0.1m": 86.842105263157904, "low_level_<0.5": 5.2631578947368416, "mid_level_0.5-2": 23.684210526315788, "tall_2+": 55.26315789473685 }, "geometry": { "type": "Point", "coordinates": [ -0.171492615283299, 50.933052774430962 ] } },
{ "type": "Feature", "properties": { "max_height": 4.3052520751953125, "mean_height": 0.41811895370483398, "std_height": 0.83702206611633301, "count_pixels": 43, "percent_cover": 0.34727830722015829, "percent_above_0.1m": 41.860465116279073, "low_level_<0.5": 9.3023255813953494, "mid_level_0.5-2": 18.604651162790699, "tall_2+": 6.9767441860465116 }, "geometry": { "type": "Point", "coordinates": [ -0.171295535186544, 50.933049688542958 ] } },
{ "type": "Feature", "properties": { "max_height": 6.4565010070800781, "mean_height": 1.439665675163269, "std_height": 1.7694439888000488, "count_pixels": 43, "percent_cover": 0.34727830722015829, "percent_above_0.1m": 67.441860465116278, "low_level_<0.5": 6.9767441860465116, "mid_level_0.5-2": 32.558139534883722, "tall_2+": 25.581395348837212 }, "geometry": { "type": "Point", "coordinates": [ -0.171098455124324, 50.933046602322456 ] } },
{ "type": "Feature", "properties": { "max_height": 8.7992515563964844, "mean_height": 3.220508337020874, "std_height": 2.2746350765228271, "count_pixels": 42, "percent_cover": 0.33920206751736393, "percent_above_0.1m": 95.238095238095227, "low_level_<0.5": 2.3809523809523809, "mid_level_0.5-2": 28.571428571428569, "tall_2+": 61.904761904761905 }, "geometry": { "type": "Point", "coordinates": [ -0.17090137509664, 50.933043515769491 ] } },
{ "type": "Feature", "properties": { "max_height": 7.9707527160644531, "mean_height": 1.4057896137237549, "std_height": 2.1286699771881104, "count_pixels": 41, "percent_cover": 0.33112582781456956, "percent_above_0.1m": 48.780487804878049, "low_level_<0.5": 4.8780487804878048, "mid_level_0.5-2": 14.634146341463413, "tall_2+": 29.268292682926827 }, "geometry": { "type": "Point", "coordinates": [ -0.170704295103505, 50.933040428884027 ] } },
{ "type": "Feature", "properties": { "max_height": 13.751998901367188, "mean_height": 4.2419967651367188, "std_height": 4.2490792274475098, "count_pixels": 41, "percent_cover": 0.33112582781456956, "percent_above_0.1m": 78.048780487804876, "low_level_<0.5": 9.7560975609756095, "mid_level_0.5-2": 9.7560975609756095, "tall_2+": 53.658536585365859 }, "geometry": { "type": "Point", "coordinates": [ -0.170507215144915, 50.933037341666065 ] } },
{ "type": "Feature", "properties": { "max_height": 12.241504669189453, "mean_height": 3.4840211868286133, "std_height": 3.5128815174102783, "count_pixels": 41, "percent_cover": 0.33112582781456956, "percent_above_0.1m": 85.365853658536579, "low_level_<0.5": 2.4390243902439024, "mid_level_0.5-2": 29.268292682926827, "tall_2+": 53.658536585365859 }, "geometry": { "type": "Point", "coordinates": [ -0.17031013522087, 50.933034254115633 ] } },
{ "type": "Feature", "properties": { "max_height": 14.209754943847656, "mean_height": 6.3229598999023438, "std_height": 4.1001315116882324, "count_pixels": 41, "percent_cover": 0.33112582781456956, "percent_above_0.1m": 87.804878048780495, "low_level_<0.5": 0.0, "mid_level_0.5-2": 9.7560975609756095, "tall_2+": 75.609756097560975 }, "geometry": { "type": "Point", "coordinates": [ -0.169915975476458, 50.933028078017301 ] } },
{ "type": "Feature", "properties": { "max_height": 12.496002197265625, "mean_height": 7.5466928482055664, "std_height": 2.5292508602142334, "count_pixels": 41, "percent_cover": 0.33112582781456956, "percent_above_0.1m": 100.0, "low_level_<0.5": 0.0, "mid_level_0.5-2": 2.4390243902439024, "tall_2+": 97.560975609756099 }, "geometry": { "type": "Point", "coordinates": [ -0.169718895656094, 50.933024989469423 ] } },
{ "type": "Feature", "properties": { "max_height": 11.654254913330078, "mean_height": 2.3813052177429199, "std_height": 3.392664909362793, "count_pixels": 42, "percent_cover": 0.33920206751736393, "percent_above_0.1m": 47.619047619047613, "low_level_<0.5": 4.7619047619047619, "mid_level_0.5-2": 4.7619047619047619, "tall_2+": 35.714285714285715 }, "geometry": { "type": "Point", "coordinates": [ -0.169521815870285, 50.93302190058904 ] } },
{ "type": "Feature", "properties": { "max_height": 7.1827507019042969, "mean_height": 1.260640025138855, "std_height": 2.0411059856414795, "count_pixels": 43, "percent_cover": 0.34727830722015829, "percent_above_0.1m": 51.162790697674424, "low_level_<0.5": 11.627906976744185, "mid_level_0.5-2": 13.953488372093023, "tall_2+": 23.255813953488371 }, "geometry": { "type": "Point", "coordinates": [ -0.169324736119059, 50.933018811376179 ] } },
{ "type": "Feature", "properties": { "max_height": 11.605758666992188, "mean_height": 1.4140843152999878, "std_height": 2.8634400367736816, "count_pixels": 43, "percent_cover": 0.34727830722015829, "percent_above_0.1m": 37.209302325581397, "low_level_<0.5": 9.3023255813953494, "mid_level_0.5-2": 4.6511627906976747, "tall_2+": 23.255813953488371 }, "geometry": { "type": "Point", "coordinates": [ -0.169127656402402, 50.933015721830849 ] } },
{ "type": "Feature", "properties": { "max_height": 11.843002319335938, "mean_height": 3.3344261646270752, "std_height": 3.4336402416229248, "count_pixels": 42, "percent_cover": 0.33920206751736393, "percent_above_0.1m": 83.333333333333343, "low_level_<0.5": 9.5238095238095237, "mid_level_0.5-2": 19.047619047619047, "tall_2+": 52.380952380952387 }, "geometry": { "type": "Point", "coordinates": [ -0.168930576720315, 50.933012631953027 ] } },
{ "type": "Feature", "properties": { "max_height": 16.73150634765625, "mean_height": 7.2465248107910156, "std_height": 5.9804267883300781, "count_pixels": 38, "percent_cover": 0.30689710870618642, "percent_above_0.1m": 94.73684210526315, "low_level_<0.5": 2.6315789473684208, "mid_level_0.5-2": 15.789473684210526, "tall_2+": 76.31578947368422 }, "geometry": { "type": "Point", "coordinates": [ -0.168733497072815, 50.933009541742699 ] } },
{ "type": "Feature", "properties": { "max_height": 12.607749938964844, "mean_height": 4.9739260673522949, "std_height": 3.0653293132781982, "count_pixels": 42, "percent_cover": 0.33920206751736393, "percent_above_0.1m": 100.0, "low_level_<0.5": 2.3809523809523809, "mid_level_0.5-2": 11.904761904761903, "tall_2+": 85.714285714285708 }, "geometry": { "type": "Point", "coordinates": [ -0.172375248010418, 50.933174512333892 ] } },
{ "type": "Feature", "properties": { "max_height": 17.518253326416016, "mean_height": 10.949826240539551, "std_height": 3.9408419132232666, "count_pixels": 41, "percent_cover": 0.33112582781456956, "percent_above_0.1m": 97.560975609756099, "low_level_<0.5": 0.0, "mid_level_0.5-2": 0.0, "tall_2+": 97.560975609756099 }, "geometry": { "type": "Point", "coordinates": [ -0.172178167306374, 50.933171427929985 ] } },
{ "type": "Feature", "properties": { "max_height": 10.239505767822266, "mean_height": 4.5890517234802246, "std_height": 3.0471451282501221, "count_pixels": 41, "percent_cover": 0.33112582781456956, "percent_above_0.1m": 90.243902439024396, "low_level_<0.5": 0.0, "mid_level_0.5-2": 12.195121951219512, "tall_2+": 75.609756097560975 }, "geometry": { "type": "Point", "coordinates": [ -0.171981086636853, 50.933168343193586 ] } },
{ "type": "Feature", "properties": { "max_height": 15.125251770019531, "mean_height": 7.7692217826843262, "std_height": 3.798762321472168, "count_pixels": 41, "percent_cover": 0.33112582781456956, "percent_above_0.1m": 100.0, "low_level_<0.5": 2.4390243902439024, "mid_level_0.5-2": 2.4390243902439024, "tall_2+": 95.121951219512198 }, "geometry": { "type": "Point", "coordinates": [ -0.171784006001856, 50.933165258124703 ] } },
{ "type": "Feature", "properties": { "max_height": 15.623001098632812, "mean_height": 12.335312843322754, "std_height": 3.3390545845031738, "count_pixels": 42, "percent_cover": 0.33920206751736393, "percent_above_0.1m": 100.0, "low_level_<0.5": 2.3809523809523809, "mid_level_0.5-2": 0.0, "tall_2+": 97.61904761904762 }, "geometry": { "type": "Point", "coordinates": [ -0.171586925401381, 50.933162172723321 ] } },
{ "type": "Feature", "properties": { "max_height": 12.832004547119141, "mean_height": 4.6391000747680664, "std_height": 2.7787013053894043, "count_pixels": 41, "percent_cover": 0.33112582781456956, "percent_above_0.1m": 97.560975609756099, "low_level_<0.5": 7.3170731707317067, "mid_level_0.5-2": 14.634146341463413, "tall_2+": 75.609756097560975 }, "geometry": { "type": "Point", "coordinates": [ -0.17138984483544, 50.933159086989463 ] } },
{ "type": "Feature", "properties": { "max_height": 4.9427566528320312, "mean_height": 0.99029576778411865, "std_height": 1.3544458150863647, "count_pixels": 41, "percent_cover": 0.33112582781456956, "percent_above_0.1m": 60.975609756097562, "low_level_<0.5": 21.951219512195124, "mid_level_0.5-2": 14.634146341463413, "tall_2+": 21.951219512195124 }, "geometry": { "type": "Point", "coordinates": [ -0.171192764304033, 50.933156000923127 ] } },
{ "type": "Feature", "properties": { "max_height": 6.6940040588378906, "mean_height": 2.9636430740356445, "std_height": 1.7482520341873169, "count_pixels": 41, "percent_cover": 0.33112582781456956, "percent_above_0.1m": 95.121951219512198, "low_level_<0.5": 4.8780487804878048, "mid_level_0.5-2": 17.073170731707318, "tall_2+": 73.170731707317074 }, "geometry": { "type": "Point", "coordinates": [ -0.170995683807158, 50.933152914524271 ] } },
{ "type": "Feature", "properties": { "max_height": 8.0967521667480469, "mean_height": 4.4898419380187988, "std_height": 2.0361957550048828, "count_pixels": 42, "percent_cover": 0.33920206751736393, "percent_above_0.1m": 100.0, "low_level_<0.5": 0.0, "mid_level_0.5-2": 9.5238095238095237, "tall_2+": 90.476190476190482 }, "geometry": { "type": "Point", "coordinates": [ -0.170798603344832, 50.93314982779296 ] } },
{ "type": "Feature", "properties": { "max_height": 15.177753448486328, "mean_height": 8.0784339904785156, "std_height": 4.2310571670532227, "count_pixels": 43, "percent_cover": 0.34727830722015829, "percent_above_0.1m": 90.697674418604649, "low_level_<0.5": 0.0, "mid_level_0.5-2": 4.6511627906976747, "tall_2+": 86.04651162790698 }, "geometry": { "type": "Point", "coordinates": [ -0.170601522917049, 50.93314674072915 ] } },
{ "type": "Feature", "properties": { "max_height": 13.445755004882812, "mean_height": 6.9617228507995605, "std_height": 4.1419010162353516, "count_pixels": 42, "percent_cover": 0.33920206751736393, "percent_above_0.1m": 85.714285714285708, "low_level_<0.5": 0.0, "mid_level_0.5-2": 7.1428571428571423, "tall_2+": 78.571428571428569 }, "geometry": { "type": "Point", "coordinates": [ -0.169616121296439, 50.933131300422822 ] } },
{ "type": "Feature", "properties": { "max_height": 13.286453247070312, "mean_height": 7.6437282562255859, "std_height": 4.2559595108032227, "count_pixels": 41, "percent_cover": 0.33112582781456956, "percent_above_0.1m": 92.682926829268297, "low_level_<0.5": 4.8780487804878048, "mid_level_0.5-2": 7.3170731707317067, "tall_2+": 80.487804878048792 }, "geometry": { "type": "Point", "coordinates": [ -0.169419041076005, 50.933128211364092 ] } },
{ "type": "Feature", "properties": { "max_height": 11.447257995605469, "mean_height": 2.4457342624664307, "std_height": 3.401604175567627, "count_pixels": 41, "percent_cover": 0.33112582781456956, "percent_above_0.1m": 56.09756097560976, "low_level_<0.5": 2.4390243902439024, "mid_level_0.5-2": 14.634146341463413, "tall_2+": 34.146341463414636 }, "geometry": { "type": "Point", "coordinates": [ -0.169221960890142, 50.933125121972886 ] } },
{ "type": "Feature", "properties": { "max_height": 7.0962562561035156, "mean_height": 1.2971189022064209, "std_height": 1.9449949264526367, "count_pixels": 41, "percent_cover": 0.33112582781456956, "percent_above_0.1m": 43.902439024390247, "low_level_<0.5": 4.8780487804878048, "mid_level_0.5-2": 14.634146341463413, "tall_2+": 24.390243902439025 }, "geometry": { "type": "Point", "coordinates": [ -0.169024880738855, 50.933122032249173 ] } },
{ "type": "Feature", "properties": { "max_height": 14.878749847412109, "mean_height": 6.844515323638916, "std_height": 4.5668883323669434, "count_pixels": 42, "percent_cover": 0.33920206751736393, "percent_above_0.1m": 97.61904761904762, "low_level_<0.5": 2.3809523809523809, "mid_level_0.5-2": 14.285714285714285, "tall_2+": 80.952380952380949 }, "geometry": { "type": "Point", "coordinates": [ -0.168827800622144, 50.933118942192998 ] } },
{ "type": "Feature", "properties": { "max_height": 19.466751098632812, "mean_height": 9.8716630935668945, "std_height": 6.2350897789001465, "count_pixels": 42, "percent_cover": 0.33920206751736393, "percent_above_0.1m": 95.238095238095227, "low_level_<0.5": 9.5238095238095237, "mid_level_0.5-2": 4.7619047619047619, "tall_2+": 80.952380952380949 }, "geometry": { "type": "Point", "coordinates": [ -0.172272479266663, 50.933280825686623 ] } },
{ "type": "Feature", "properties": { "max_height": 14.188255310058594, "mean_height": 8.0513114929199219, "std_height": 3.1422019004821777, "count_pixels": 43, "percent_cover": 0.34727830722015829, "percent_above_0.1m": 100.0, "low_level_<0.5": 2.3255813953488373, "mid_level_0.5-2": 4.6511627906976747, "tall_2+": 93.023255813953483 }, "geometry": { "type": "Point", "coordinates": [ -0.172075398127955, 50.933277741104355 ] } },
{ "type": "Feature", "properties": { "max_height": 11.757007598876953, "mean_height": 8.7938108444213867, "std_height": 2.251471996307373, "count_pixels": 43, "percent_cover": 0.34727830722015829, "percent_above_0.1m": 100.0, "low_level_<0.5": 0.0, "mid_level_0.5-2": 2.3255813953488373, "tall_2+": 97.674418604651152 }, "geometry": { "type": "Point", "coordinates": [ -0.171878317023769, 50.933274656189631 ] } },
{ "type": "Feature", "properties": { "max_height": 14.890007019042969, "mean_height": 7.1109137535095215, "std_height": 3.4651739597320557, "count_pixels": 42, "percent_cover": 0.33920206751736393, "percent_above_0.1m": 100.0, "low_level_<0.5": 0.0, "mid_level_0.5-2": 9.5238095238095237, "tall_2+": 90.476190476190482 }, "geometry": { "type": "Point", "coordinates": [ -0.171681235954112, 50.933271570942402 ] } },
{ "type": "Feature", "properties": { "max_height": 9.7234992980957031, "mean_height": 6.851081371307373, "std_height": 1.9614828824996948, "count_pixels": 38, "percent_cover": 0.30689710870618642, "percent_above_0.1m": 100.0, "low_level_<0.5": 0.0, "mid_level_0.5-2": 0.0, "tall_2+": 100.0 }, "geometry": { "type": "Point", "coordinates": [ -0.171484154918979, 50.933268485362696 ] } },
{ "type": "Feature", "properties": { "max_height": 6.4092559814453125, "mean_height": 3.6840789318084717, "std_height": 1.9337919950485229, "count_pixels": 43, "percent_cover": 0.34727830722015829, "percent_above_0.1m": 90.697674418604649, "low_level_<0.5": 0.0, "mid_level_0.5-2": 11.627906976744185, "tall_2+": 79.069767441860463 }, "geometry": { "type": "Point", "coordinates": [ -0.171287073918383, 50.933265399450484 ] } },
{ "type": "Feature", "properties": { "max_height": 11.057254791259766, "mean_height": 2.670950174331665, "std_height": 3.3655850887298584, "count_pixels": 43, "percent_cover": 0.34727830722015829, "percent_above_0.1m": 60.465116279069761, "low_level_<0.5": 2.3255813953488373, "mid_level_0.5-2": 23.255813953488371, "tall_2+": 34.883720930232556 }, "geometry": { "type": "Point", "coordinates": [ -0.171089992952318, 50.933262313205788 ] } },
{ "type": "Feature", "properties": { "max_height": 14.44000244140625, "mean_height": 7.1829252243041992, "std_height": 3.8879408836364746, "count_pixels": 42, "percent_cover": 0.33920206751736393, "percent_above_0.1m": 95.238095238095227, "low_level_<0.5": 4.7619047619047619, "mid_level_0.5-2": 4.7619047619047619, "tall_2+": 85.714285714285708 }, "geometry": { "type": "Point", "coordinates": [ -0.170892912020799, 50.933259226628614 ] } },
{ "type": "Feature", "properties": { "max_height": 11.999752044677734, "mean_height": 7.1743435859680176, "std_height": 3.5241644382476807, "count_pixels": 43, "percent_cover": 0.34727830722015829, "percent_above_0.1m": 93.023255813953483, "low_level_<0.5": 2.3255813953488373, "mid_level_0.5-2": 2.3255813953488373, "tall_2+": 88.372093023255815 }, "geometry": { "type": "Point", "coordinates": [ -0.169316265812508, 50.93323452204163 ] } },
{ "type": "Feature", "properties": { "max_height": 13.624755859375, "mean_height": 7.7870616912841797, "std_height": 3.1623756885528564, "count_pixels": 43, "percent_cover": 0.34727830722015829, "percent_above_0.1m": 100.0, "low_level_<0.5": 0.0, "mid_level_0.5-2": 6.9767441860465116, "tall_2+": 93.023255813953483 }, "geometry": { "type": "Point", "coordinates": [ -0.169119185192011, 50.933231432472063 ] } },
{ "type": "Feature", "properties": { "max_height": 13.605003356933594, "mean_height": 6.7279438972473145, "std_height": 3.3164112567901611, "count_pixels": 42, "percent_cover": 0.33920206751736393, "percent_above_0.1m": 100.0, "low_level_<0.5": 0.0, "mid_level_0.5-2": 2.3809523809523809, "tall_2+": 97.61904761904762 }, "geometry": { "type": "Point", "coordinates": [ -0.168922104606093, 50.933228342570004 ] } },
{ "type": "Feature", "properties": { "max_height": 16.373004913330078, "mean_height": 9.4709644317626953, "std_height": 3.2833218574523926, "count_pixels": 38, "percent_cover": 0.30689710870618642, "percent_above_0.1m": 100.0, "low_level_<0.5": 0.0, "mid_level_0.5-2": 0.0, "tall_2+": 100.0 }, "geometry": { "type": "Point", "coordinates": [ -0.168725024054756, 50.933225252335482 ] } },
{ "type": "Feature", "properties": { "max_height": 8.1954994201660156, "mean_height": 3.3202164173126221, "std_height": 2.9620330333709717, "count_pixels": 41, "percent_cover": 0.33112582781456956, "percent_above_0.1m": 68.292682926829272, "low_level_<0.5": 2.4390243902439024, "mid_level_0.5-2": 4.8780487804878048, "tall_2+": 60.975609756097562 }, "geometry": { "type": "Point", "coordinates": [ -0.172169710053714, 50.933387138941846 ] } },
{ "type": "Feature", "properties": { "max_height": 18.706001281738281, "mean_height": 10.450946807861328, "std_height": 2.6427829265594482, "count_pixels": 41, "percent_cover": 0.33112582781456956, "percent_above_0.1m": 100.0, "low_level_<0.5": 0.0, "mid_level_0.5-2": 0.0, "tall_2+": 100.0 }, "geometry": { "type": "Point", "coordinates": [ -0.171972628480337, 50.933384054181261 ] } },
{ "type": "Feature", "properties": { "max_height": 18.516502380371094, "mean_height": 11.365094184875488, "std_height": 3.4576594829559326, "count_pixels": 41, "percent_cover": 0.33112582781456956, "percent_above_0.1m": 100.0, "low_level_<0.5": 0.0, "mid_level_0.5-2": 0.0, "tall_2+": 100.0 }, "geometry": { "type": "Point", "coordinates": [ -0.171775546941492, 50.933380969088184 ] } },
{ "type": "Feature", "properties": { "max_height": 10.241756439208984, "mean_height": 7.3900799751281738, "std_height": 2.14044189453125, "count_pixels": 42, "percent_cover": 0.33920206751736393, "percent_above_0.1m": 100.0, "low_level_<0.5": 0.0, "mid_level_0.5-2": 2.3809523809523809, "tall_2+": 97.61904761904762 }, "geometry": { "type": "Point", "coordinates": [ -0.171578465437167, 50.933377883662608 ] } },
{ "type": "Feature", "properties": { "max_height": 12.47125244140625, "mean_height": 4.516075611114502, "std_height": 3.4021096229553223, "count_pixels": 41, "percent_cover": 0.33112582781456956, "percent_above_0.1m": 100.0, "low_level_<0.5": 4.8780487804878048, "mid_level_0.5-2": 19.512195121951219, "tall_2+": 70.731707317073173 }, "geometry": { "type": "Point", "coordinates": [ -0.171381383967378, 50.933374797904577 ] } },
{ "type": "Feature", "properties": { "max_height": 14.892753601074219, "mean_height": 10.891315460205078, "std_height": 2.7981810569763184, "count_pixels": 41, "percent_cover": 0.33112582781456956, "percent_above_0.1m": 100.0, "low_level_<0.5": 0.0, "mid_level_0.5-2": 0.0, "tall_2+": 100.0 }, "geometry": { "type": "Point", "coordinates": [ -0.171184302532127, 50.933371711814033 ] } },
{ "type": "Feature", "properties": { "max_height": 12.981010437011719, "mean_height": 3.8171491622924805, "std_height": 4.6013283729553223, "count_pixels": 41, "percent_cover": 0.33112582781456956, "percent_above_0.1m": 48.780487804878049, "low_level_<0.5": 2.4390243902439024, "mid_level_0.5-2": 0.0, "tall_2+": 46.341463414634148 }, "geometry": { "type": "Point", "coordinates": [ -0.170987221131403, 50.933368625390997 ] } },
{ "type": "Feature", "properties": { "max_height": 14.511001586914062, "mean_height": 9.1603565216064453, "std_height": 2.8457357883453369, "count_pixels": 41, "percent_cover": 0.33112582781456956, "percent_above_0.1m": 100.0, "low_level_<0.5": 0.0, "mid_level_0.5-2": 2.4390243902439024, "tall_2+": 97.560975609756099 }, "geometry": { "type": "Point", "coordinates": [ -0.169016409024662, 50.933337742873761 ] } },
{ "type": "Feature", "properties": { "max_height": 11.930004119873047, "mean_height": 4.8993415832519531, "std_height": 3.6068422794342041, "count_pixels": 42, "percent_cover": 0.33920206751736393, "percent_above_0.1m": 97.61904761904762, "low_level_<0.5": 9.5238095238095237, "mid_level_0.5-2": 19.047619047619047, "tall_2+": 69.047619047619051 }, "geometry": { "type": "Point", "coordinates": [ -0.168819328004113, 50.933334652793341 ] } },
{ "type": "Feature", "properties": { "max_height": 18.583251953125, "mean_height": 9.8676910400390625, "std_height": 6.2095952033996582, "count_pixels": 41, "percent_cover": 0.33112582781456956, "percent_above_0.1m": 100.0, "low_level_<0.5": 0.0, "mid_level_0.5-2": 17.073170731707318, "tall_2+": 82.926829268292678 }, "geometry": { "type": "Point", "coordinates": [ -0.168622247018148, 50.933331562380452 ] } },
{ "type": "Feature", "properties": { "max_height": 14.544002532958984, "mean_height": 7.7449736595153809, "std_height": 3.6182730197906494, "count_pixels": 43, "percent_cover": 0.34727830722015829, "percent_above_0.1m": 97.674418604651152, "low_level_<0.5": 0.0, "mid_level_0.5-2": 4.6511627906976747, "tall_2+": 90.697674418604649 }, "geometry": { "type": "Point", "coordinates": [ -0.172066940371565, 50.933493452099597 ] } },
{ "type": "Feature", "properties": { "max_height": 18.547004699707031, "mean_height": 6.7631077766418457, "std_height": 5.9581513404846191, "count_pixels": 43, "percent_cover": 0.34727830722015829, "percent_above_0.1m": 88.372093023255815, "low_level_<0.5": 9.3023255813953494, "mid_level_0.5-2": 6.9767441860465116, "tall_2+": 69.767441860465112 }, "geometry": { "type": "Point", "coordinates": [ -0.171869858363525, 50.93349036716068 ] } },
{ "type": "Feature", "properties": { "max_height": 16.449001312255859, "mean_height": 7.5962944030761719, "std_height": 4.5258512496948242, "count_pixels": 42, "percent_cover": 0.33920206751736393, "percent_above_0.1m": 97.61904761904762, "low_level_<0.5": 2.3809523809523809, "mid_level_0.5-2": 9.5238095238095237, "tall_2+": 85.714285714285708 }, "geometry": { "type": "Point", "coordinates": [ -0.17167277639001, 50.933487281889271 ] } },
{ "type": "Feature", "properties": { "max_height": 15.54150390625, "mean_height": 11.136641502380371, "std_height": 3.0505032539367676, "count_pixels": 38, "percent_cover": 0.30689710870618642, "percent_above_0.1m": 100.0, "low_level_<0.5": 0.0, "mid_level_0.5-2": 2.6315789473684208, "tall_2+": 97.368421052631575 }, "geometry": { "type": "Point", "coordinates": [ -0.171475694451027, 50.933484196285363 ] } },
{ "type": "Feature", "properties": { "max_height": 15.668251037597656, "mean_height": 7.7133922576904297, "std_height": 5.0448718070983887, "count_pixels": 43, "percent_cover": 0.34727830722015829, "percent_above_0.1m": 83.720930232558146, "low_level_<0.5": 2.3255813953488373, "mid_level_0.5-2": 2.3255813953488373, "tall_2+": 79.069767441860463 }, "geometry": { "type": "Point", "coordinates": [ -0.171278612546577, 50.933481110348978 ] } },
{ "type": "Feature", "properties": { "max_height": 8.2864990234375, "mean_height": 4.0199241638183594, "std_height": 2.5917637348175049, "count_pixels": 38, "percent_cover": 0.30689710870618642, "percent_above_0.1m": 92.10526315789474, "low_level_<0.5": 10.526315789473683, "mid_level_0.5-2": 10.526315789473683, "tall_2+": 71.05263157894737 }, "geometry": { "type": "Point", "coordinates": [ -0.168716550932909, 50.933440962919185 ] } },
{ "type": "Feature", "properties": { "max_height": 15.214752197265625, "mean_height": 6.355405330657959, "std_height": 4.3778691291809082, "count_pixels": 41, "percent_cover": 0.33112582781456956, "percent_above_0.1m": 95.121951219512198, "low_level_<0.5": 2.4390243902439024, "mid_level_0.5-2": 7.3170731707317067, "tall_2+": 85.365853658536579 }, "geometry": { "type": "Point", "coordinates": [ -0.171964170220218, 50.93359976515989 ] } },
{ "type": "Feature", "properties": { "max_height": 16.296504974365234, "mean_height": 7.2923808097839355, "std_height": 4.8760209083557129, "count_pixels": 41, "percent_cover": 0.33112582781456956, "percent_above_0.1m": 85.365853658536579, "low_level_<0.5": 2.4390243902439024, "mid_level_0.5-2": 2.4390243902439024, "tall_2+": 80.487804878048792 }, "geometry": { "type": "Point", "coordinates": [ -0.17176708777751, 50.933596680042626 ] } },
{ "type": "Feature", "properties": { "max_height": 17.60400390625, "mean_height": 12.08258056640625, "std_height": 5.2735586166381836, "count_pixels": 42, "percent_cover": 0.33920206751736393, "percent_above_0.1m": 92.857142857142861, "low_level_<0.5": 0.0, "mid_level_0.5-2": 2.3809523809523809, "tall_2+": 90.476190476190482 }, "geometry": { "type": "Point", "coordinates": [ -0.171570005369326, 50.933593594592864 ] } },
{ "type": "Feature", "properties": { "max_height": 16.401008605957031, "mean_height": 9.1748285293579102, "std_height": 5.211026668548584, "count_pixels": 43, "percent_cover": 0.34727830722015829, "percent_above_0.1m": 88.372093023255815, "low_level_<0.5": 2.3255813953488373, "mid_level_0.5-2": 4.6511627906976747, "tall_2+": 81.395348837209298 }, "geometry": { "type": "Point", "coordinates": [ -0.171861399599667, 50.933706078122697 ] } }
]
}
