{
"type": "FeatureCollection",
"name": "MILKE_180_cycling",
"crs": { "type": "name", "properties": { "name": "urn:ogc:def:crs:OGC:1.3:CRS84" } },
"features": [
{"type":"Feature","properties":{"highway":"cycleway","name":"Railway Walk","category":"Dedicated cycleway"},"geometry":{"type":"MultiLineString","coordinates":[[[-0.7363671,52.0822599],[-0.7370765,52.0820046],[-0.7372908,52.0819326],[-0.7379164,52.0817005],[-0.7387242,52.081384],[-0.7390732,52.0812537],[-0.740518,52.0807141],[-0.7415132,52.0803817],[-0.7420031,52.0802254],[-0.7423511,52.0801069],[-0.7425017,52.0800512],[-0.7433717,52.0797784],[-0.7436509,52.0796486],[-0.7442946,52.0793638],[-0.7448943,52.0790438],[-0.7450757,52.078947],[-0.7456679,52.0785039],[-0.7464404,52.0779817],[-0.7467065,52.0778357],[-0.7468875,52.0777588],[-0.7469983,52.0776863],[-0.7472874,52.0775435],[-0.7474789,52.0774489],[-0.7481358,52.077173],[-0.7485089,52.0770164],[-0.7487761,52.0769205],[-0.749224,52.0767674],[-0.7501889,52.0764918],[-0.7505909,52.0763832],[-0.7506117,52.0763781],[-0.7509685,52.0763106],[-0.751616,52.0761882],[-0.7518286,52.0761638],[-0.7519739,52.0761454],[-0.752162,52.0761186],[-0.752397,52.0760985],[-0.7530816,52.0759726],[-0.7536587,52.0758664],[-0.7543762,52.0757361],[-0.7546289,52.0756814],[-0.7546544,52.0756765],[-0.7564826,52.0752439],[-0.7566798,52.075199],[-0.7572987,52.0750582],[-0.7588944,52.0746952],[-0.7592201,52.0746178],[-0.7597973,52.0744849],[-0.7603364,52.0743523],[-0.7610573,52.0741624],[-0.7613742,52.0740594],[-0.76195,52.0738723],[-0.7629799,52.0734924],[-0.7637181,52.0731864],[-0.764451,52.0727768],[-0.7647434,52.0726031],[-0.7648358,52.0725262],[-0.7649617,52.0724535]]]}},
{"type":"Feature","properties":{"highway":"path","name":null,"category":"Shared path"},"geometry":{"type":"MultiLineString","coordinates":[[[-0.7194853,52.0856855],[-0.7195391,52.0856812],[-0.7196325,52.0856596],[-0.7198095,52.0856442]]]}},
{"type":"Feature","properties":{"highway":"path","name":null,"category":"Shared path"},"geometry":{"type":"MultiLineString","coordinates":[[[-0.7204991,52.0858655],[-0.7205646,52.086]]]}},
{"type":"Feature","properties":{"highway":"cycleway","name":null,"category":"Dedicated cycleway"},"geometry":{"type":"MultiLineString","coordinates":[[[-0.7195286,52.0806495],[-0.7198256,52.0805023]]]}},
{"type":"Feature","properties":{"highway":"cycleway","name":null,"category":"Dedicated cycleway"},"geometry":{"type":"MultiLineString","coordinates":[[[-0.7194839,52.0821886],[-0.7194839,52.0821454],[-0.7194918,52.0818553],[-0.7194205,52.0816009],[-0.7193831,52.0808163],[-0.7193941,52.0807851],[-0.7194153,52.0807541],[-0.7194803,52.0806765],[-0.7195286,52.0806495]]]}},
{"type":"Feature","properties":{"highway":"cycleway","name":null,"category":"Dedicated cycleway"},"geometry":{"type":"MultiLineString","coordinates":[[[-0.719757,52.0843059],[-0.7195793,52.0843145],[-0.7189729,52.0846912],[-0.718657,52.0849193],[-0.7183706,52.0851621]]]}},
{"type":"Feature","properties":{"highway":"cycleway","name":null,"category":"Dedicated cycleway"},"geometry":{"type":"MultiLineString","coordinates":[[[-0.7365209,52.0772822],[-0.736421,52.0771955],[-0.7363777,52.0771242]]]}},
{"type":"Feature","properties":{"highway":"cycleway","name":null,"category":"Dedicated cycleway"},"geometry":{"type":"MultiLineString","coordinates":[[[-0.7367736,52.0768684],[-0.7363777,52.0771242],[-0.7361177,52.0770419],[-0.7359621,52.0769971],[-0.7356553,52.0769737],[-0.7348535,52.0769706],[-0.733754,52.0769407],[-0.7327938,52.076904],[-0.7322633,52.0769155],[-0.7321988,52.0769578],[-0.7321268,52.0770082]]]}},
{"type":"Feature","properties":{"highway":"path","name":null,"category":"Shared path"},"geometry":{"type":"MultiLineString","coordinates":[[[-0.7204217,52.0870957],[-0.7202054,52.0871473],[-0.7202014,52.0871486],[-0.7195714,52.0873433],[-0.7194319,52.0871119],[-0.7203845,52.0867784],[-0.7204089,52.0868063],[-0.7205504,52.0870077],[-0.7204217,52.0870957],[-0.7206461,52.0872171]]]}},
{"type":"Feature","properties":{"highway":"cycleway","name":null,"category":"Dedicated cycleway"},"geometry":{"type":"MultiLineString","coordinates":[[[-0.7294367,52.0774731],[-0.7293501,52.077464],[-0.7289934,52.0773161]]]}},
{"type":"Feature","properties":{"highway":"cycleway","name":null,"category":"Dedicated cycleway"},"geometry":{"type":"MultiLineString","coordinates":[[[-0.7285109,52.0776848],[-0.7282626,52.0769949],[-0.7280282,52.0767766],[-0.7276622,52.0765711],[-0.7271647,52.0764022],[-0.7270135,52.0763631],[-0.7269153,52.0763957],[-0.72661,52.0763216],[-0.7263908,52.0762857],[-0.7258994,52.0762244],[-0.7257916,52.0761834],[-0.7257558,52.0761698],[-0.7254343,52.0760027],[-0.7251721,52.0759402],[-0.7249871,52.075845]]]}},
{"type":"Feature","properties":{"highway":"cycleway","name":null,"category":"Dedicated cycleway"},"geometry":{"type":"MultiLineString","coordinates":[[[-0.7406368,52.0790714],[-0.7397162,52.0796399],[-0.7398219,52.0798942]]]}},
{"type":"Feature","properties":{"highway":"cycleway","name":null,"category":"Dedicated cycleway"},"geometry":{"type":"MultiLineString","coordinates":[[[-0.724939,52.0793515],[-0.7249716,52.0793237],[-0.7254213,52.0791236],[-0.7254662,52.0790816],[-0.7259919,52.0789129],[-0.726799,52.078863],[-0.7268935,52.0788311],[-0.7272826,52.0787023],[-0.7273139,52.0786919],[-0.7278363,52.078248],[-0.7280948,52.0780611],[-0.7282058,52.0780351],[-0.7282994,52.0780126],[-0.7284861,52.0777929],[-0.7285042,52.0777173],[-0.7285109,52.0776848],[-0.7289934,52.0773161],[-0.7290742,52.0772523],[-0.7292057,52.0771897],[-0.7298752,52.077096],[-0.7309864,52.077],[-0.7311365,52.076987],[-0.7316544,52.0769106],[-0.7320042,52.0770197],[-0.7320501,52.0769785]]]}},
{"type":"Feature","properties":{"highway":"cycleway","name":null,"category":"Dedicated cycleway"},"geometry":{"type":"MultiLineString","coordinates":[[[-0.7292057,52.0771897],[-0.7291683,52.0769585],[-0.7292032,52.0768678],[-0.7293028,52.0767182],[-0.7296207,52.0763644],[-0.7299331,52.0759352],[-0.7300302,52.0757782],[-0.7300221,52.0757392],[-0.7297684,52.0755184],[-0.7296589,52.0753754],[-0.7293887,52.0752509],[-0.7292819,52.0751547],[-0.7291885,52.0750156],[-0.7289731,52.0748569],[-0.728924,52.0747958],[-0.7288624,52.074719],[-0.728784,52.0746214],[-0.7285724,52.0744248],[-0.7285564,52.0744099]]]}},
{"type":"Feature","properties":{"highway":"path","name":null,"category":"Shared path"},"geometry":{"type":"MultiLineString","coordinates":[[[-0.7376766,52.0891559],[-0.7375787,52.089193],[-0.7372764,52.0892198],[-0.7370295,52.0891893],[-0.7366083,52.0890885],[-0.736443,52.0890713],[-0.7361015,52.0890366],[-0.7354383,52.0888963],[-0.7345424,52.0887579],[-0.7340435,52.0886887],[-0.7339322,52.0886686],[-0.7334213,52.0885766],[-0.7329458,52.0885211],[-0.7322357,52.0884382],[-0.7311253,52.088303],[-0.7302402,52.0882173],[-0.729811,52.0881679],[-0.72924,52.0881449],[-0.7291563,52.0881415]]]}},
{"type":"Feature","properties":{"highway":"path","name":null,"category":"Shared path"},"geometry":{"type":"MultiLineString","coordinates":[[[-0.7313837,52.0890814],[-0.7307507,52.0890089],[-0.7299489,52.0889507],[-0.7292058,52.0888968],[-0.7287332,52.0889237],[-0.7286264,52.0889298],[-0.7282616,52.0889232],[-0.7279308,52.0888634],[-0.7273246,52.0887085],[-0.7270276,52.0886401],[-0.7263939,52.0884942],[-0.7260899,52.08842],[-0.7255724,52.0883134],[-0.7252254,52.0881519],[-0.7248606,52.0879673],[-0.7244207,52.0878487]]]}},
{"type":"Feature","properties":{"highway":"path","name":null,"category":"Shared path"},"geometry":{"type":"MultiLineString","coordinates":[[[-0.7204089,52.0868063],[-0.7204391,52.0867963],[-0.7205608,52.0867353],[-0.7208035,52.0865952],[-0.7209142,52.0865265],[-0.7209306,52.0864633]]]}},
{"type":"Feature","properties":{"highway":"cycleway","name":null,"category":"Dedicated cycleway"},"geometry":{"type":"MultiLineString","coordinates":[[[-0.7224829,52.079175],[-0.7225215,52.0791132],[-0.722716,52.078911],[-0.7227414,52.0788267],[-0.7227602,52.0786764],[-0.7227173,52.0785297],[-0.7228594,52.0785127],[-0.7230581,52.07847],[-0.723097,52.0782414],[-0.7234488,52.0779018]]]}},
{"type":"Feature","properties":{"highway":"path","name":null,"category":"Shared path"},"geometry":{"type":"MultiLineString","coordinates":[[[-0.7275526,52.0902013],[-0.726334,52.0887172],[-0.7260899,52.08842]]]}},
{"type":"Feature","properties":{"highway":"path","name":null,"category":"Shared path"},"geometry":{"type":"MultiLineString","coordinates":[[[-0.7251604,52.0900119],[-0.7251154,52.0898196],[-0.7250902,52.089656],[-0.7250108,52.0893583],[-0.7249882,52.0892332],[-0.7249436,52.0887175],[-0.7248606,52.0879673],[-0.7248521,52.0876759]]]}},
{"type":"Feature","properties":{"highway":"path","name":null,"category":"Shared path"},"geometry":{"type":"MultiLineString","coordinates":[[[-0.7362215,52.0903103],[-0.7358684,52.0902548],[-0.734133,52.0900125],[-0.7335298,52.0898752],[-0.7330118,52.0897456],[-0.7313837,52.0890814],[-0.7300104,52.0885936],[-0.7290448,52.0882837],[-0.7287766,52.0882046],[-0.7286201,52.0881003]]]}},
{"type":"Feature","properties":{"highway":"path","name":null,"category":"Shared path"},"geometry":{"type":"MultiLineString","coordinates":[[[-0.7253796,52.0873778],[-0.7253702,52.0873114],[-0.7254006,52.0872438],[-0.725506,52.0871691],[-0.7255222,52.0871576]]]}},
{"type":"Feature","properties":{"highway":"path","name":null,"category":"Shared path"},"geometry":{"type":"MultiLineString","coordinates":[[[-0.7297737,52.0942394],[-0.7299201,52.0940816],[-0.7300641,52.0939264],[-0.7306542,52.0932936],[-0.7318665,52.0920412],[-0.7320657,52.0918221],[-0.7325317,52.0913095],[-0.733508,52.0901625],[-0.7335298,52.0898752],[-0.7335483,52.0896681],[-0.7335381,52.0893996],[-0.7333203,52.0891111],[-0.7330252,52.0886661],[-0.7329458,52.0885211],[-0.7323869,52.0878124],[-0.7322313,52.0877036]]]}},
{"type":"Feature","properties":{"highway":"path","name":null,"category":"Shared path"},"geometry":{"type":"MultiLineString","coordinates":[[[-0.7312872,52.087374],[-0.7306005,52.0870971],[-0.7301429,52.0868727]]]}},
{"type":"Feature","properties":{"highway":"cycleway","name":null,"category":"Dedicated cycleway"},"geometry":{"type":"MultiLineString","coordinates":[[[-0.7322372,52.0842665],[-0.7322099,52.0842095],[-0.7321438,52.0840216],[-0.7319604,52.0839458],[-0.731373,52.0833986],[-0.7312827,52.0833147]]]}},
{"type":"Feature","properties":{"highway":"cycleway","name":null,"category":"Dedicated cycleway"},"geometry":{"type":"MultiLineString","coordinates":[[[-0.7353769,52.0818249],[-0.7353791,52.0818683],[-0.7357309,52.082237],[-0.7359355,52.0822344],[-0.7361601,52.0822007],[-0.7363038,52.0822828]]]}},
{"type":"Feature","properties":{"highway":"path","name":null,"category":"Shared path"},"geometry":{"type":"MultiLineString","coordinates":[[[-0.7203845,52.0867784],[-0.720377,52.08676],[-0.7202081,52.0866298],[-0.7200659,52.086521],[-0.7200391,52.0864633],[-0.7200603,52.0863826]]]}},
{"type":"Feature","properties":{"highway":"cycleway","name":null,"category":"Dedicated cycleway"},"geometry":{"type":"MultiLineString","coordinates":[[[-0.7280948,52.0780611],[-0.7284087,52.0782461],[-0.7287885,52.0784773],[-0.7293339,52.0787908],[-0.7296955,52.0789253],[-0.7298581,52.0789855],[-0.7300136,52.0790274],[-0.7302958,52.0791925]]]}},
{"type":"Feature","properties":{"highway":"cycleway","name":null,"category":"Dedicated cycleway"},"geometry":{"type":"MultiLineString","coordinates":[[[-0.7268214,52.0816273],[-0.7269064,52.0815811],[-0.727298,52.0813982],[-0.7275681,52.081264],[-0.7276051,52.0812198],[-0.727711,52.0810932],[-0.7278431,52.0809084],[-0.7278559,52.0807537],[-0.7278486,52.0806811],[-0.7278156,52.0803515],[-0.7277649,52.0800717],[-0.7277579,52.0800401],[-0.7277378,52.0799493],[-0.7277539,52.0798603],[-0.7278505,52.0797795],[-0.727931,52.0797251],[-0.7283372,52.0794885],[-0.7288877,52.079168],[-0.7287885,52.0784773]]]}},
{"type":"Feature","properties":{"highway":"cycleway","name":null,"category":"Dedicated cycleway"},"geometry":{"type":"MultiLineString","coordinates":[[[-0.7301792,52.0792491],[-0.7303738,52.0793741],[-0.7308117,52.0795092],[-0.7308577,52.0795467],[-0.7309858,52.0796198],[-0.7313535,52.0799147],[-0.7315546,52.0800812],[-0.7317504,52.0802262],[-0.7316803,52.0802873]]]}},
{"type":"Feature","properties":{"highway":"cycleway","name":null,"category":"Dedicated cycleway"},"geometry":{"type":"MultiLineString","coordinates":[[[-0.7381953,52.0819904],[-0.7382132,52.0819576],[-0.7382167,52.0818635],[-0.7381418,52.0818109],[-0.7380247,52.0817761],[-0.7379164,52.0817005]]]}},
{"type":"Feature","properties":{"highway":"cycleway","name":null,"category":"Dedicated cycleway"},"geometry":{"type":"MultiLineString","coordinates":[[[-0.7348535,52.0769706],[-0.7348505,52.0770929]]]}},
{"type":"Feature","properties":{"highway":"path","name":null,"category":"Shared path"},"geometry":{"type":"MultiLineString","coordinates":[[[-0.7242699,52.0864686],[-0.7242915,52.086685],[-0.7242845,52.0867042],[-0.724283,52.0867119]]]}},
{"type":"Feature","properties":{"highway":"cycleway","name":null,"category":"Dedicated cycleway"},"geometry":{"type":"MultiLineString","coordinates":[[[-0.7207404,52.0747914],[-0.7208046,52.0748504],[-0.7208195,52.0749015],[-0.7208423,52.0749588],[-0.7208597,52.0750113],[-0.7207403,52.0750282],[-0.7207499,52.0750829],[-0.720777,52.0751553],[-0.7211537,52.0751553],[-0.7213879,52.0752089],[-0.7215624,52.0753303],[-0.7216681,52.075463],[-0.7218931,52.0762732],[-0.7220171,52.0766768],[-0.7223295,52.0776225],[-0.7223524,52.0777551],[-0.7223249,52.0779019],[-0.7222436,52.0780709],[-0.7219875,52.0784866],[-0.7217698,52.0787891],[-0.7217244,52.0788426],[-0.7215656,52.0790298],[-0.7213178,52.0793385],[-0.7211906,52.0795957],[-0.7211902,52.0796034],[-0.7211839,52.0797377],[-0.7211906,52.0798838],[-0.7212239,52.0799595],[-0.7212497,52.0800181]]]}},
{"type":"Feature","properties":{"highway":"cycleway","name":null,"category":"Dedicated cycleway"},"geometry":{"type":"MultiLineString","coordinates":[[[-0.7248946,52.0757973],[-0.7248021,52.0757497]]]}},
{"type":"Feature","properties":{"highway":"cycleway","name":null,"category":"Dedicated cycleway"},"geometry":{"type":"MultiLineString","coordinates":[[[-0.7249871,52.075845],[-0.7248946,52.0757973]]]}},
{"type":"Feature","properties":{"highway":"cycleway","name":null,"category":"Dedicated cycleway"},"geometry":{"type":"MultiLineString","coordinates":[[[-0.7199071,52.0804621],[-0.7200035,52.0804666],[-0.7202127,52.0803492],[-0.7206504,52.0802332],[-0.7209194,52.0801096],[-0.7212497,52.0800181]]]}},
{"type":"Feature","properties":{"highway":"cycleway","name":null,"category":"Dedicated cycleway"},"geometry":{"type":"MultiLineString","coordinates":[[[-0.7198256,52.0805023],[-0.7199555,52.0805918],[-0.7199858,52.0805814],[-0.7199979,52.0805134],[-0.7200035,52.0804666]]]}},
{"type":"Feature","properties":{"highway":"cycleway","name":null,"category":"Dedicated cycleway"},"geometry":{"type":"MultiLineString","coordinates":[[[-0.7234488,52.0779018],[-0.7233271,52.0778113]]]}},
{"type":"Feature","properties":{"highway":"cycleway","name":null,"category":"Dedicated cycleway"},"geometry":{"type":"MultiLineString","coordinates":[[[-0.7193831,52.0808163],[-0.7193303,52.080814],[-0.7192187,52.0807771],[-0.7191155,52.0807515],[-0.7189146,52.080767],[-0.7181558,52.0807874],[-0.7175772,52.0808173],[-0.7173732,52.0808391],[-0.7171787,52.0808404],[-0.7169811,52.0808248],[-0.716634,52.0807624],[-0.7163125,52.0806964],[-0.7161667,52.0806346],[-0.7160777,52.080592],[-0.7159025,52.0804878],[-0.7157783,52.0804398],[-0.7156499,52.0804198],[-0.7152822,52.0803877],[-0.7149807,52.0803528],[-0.7141908,52.0802329],[-0.7140255,52.0801816],[-0.7138803,52.0800917],[-0.7138418,52.0800059],[-0.7138391,52.0799026],[-0.7138079,52.0798238],[-0.7137175,52.0797499],[-0.7136067,52.0797132],[-0.7135094,52.0797192],[-0.7131403,52.0797372],[-0.712759,52.0797307],[-0.7126031,52.0797048],[-0.7123396,52.0796088],[-0.7119283,52.0794675],[-0.7115923,52.079464],[-0.7111814,52.0795285],[-0.7110284,52.0798748],[-0.7109752,52.0800559]]]}},
{"type":"Feature","properties":{"highway":"cycleway","name":null,"category":"Dedicated cycleway"},"geometry":{"type":"MultiLineString","coordinates":[[[-0.7192187,52.0807771],[-0.7194153,52.0807541]]]}},
{"type":"Feature","properties":{"highway":"path","name":null,"category":"Shared path"},"geometry":{"type":"MultiLineString","coordinates":[[[-0.7270276,52.0886401],[-0.726334,52.0887172],[-0.7258499,52.0888016],[-0.7249436,52.0887175],[-0.7242432,52.0886648],[-0.7233586,52.0884815]]]}},
{"type":"Feature","properties":{"highway":"path","name":null,"category":"Shared path"},"geometry":{"type":"MultiLineString","coordinates":[[[-0.7287766,52.0882046],[-0.7288625,52.088409],[-0.7286264,52.0889298],[-0.7289278,52.0896987],[-0.7289336,52.0897227],[-0.7289825,52.0899257]]]}},
{"type":"Feature","properties":{"highway":"path","name":null,"category":"Shared path"},"geometry":{"type":"MultiLineString","coordinates":[[[-0.7287303,52.088931],[-0.7287332,52.0889237],[-0.7288625,52.0885941],[-0.7290448,52.0882837],[-0.7292204,52.0881589],[-0.72924,52.0881449],[-0.7294949,52.0878547],[-0.7295133,52.0877827]]]}},
{"type":"Feature","properties":{"highway":"cycleway","name":null,"category":"Dedicated cycleway"},"geometry":{"type":"MultiLineString","coordinates":[[[-0.7213075,52.0799533],[-0.7212239,52.0799595]]]}},
{"type":"Feature","properties":{"highway":"cycleway","name":"Railway Walk","category":"Dedicated cycleway"},"geometry":{"type":"MultiLineString","coordinates":[[[-0.7282534,52.0840748],[-0.728371,52.0840219],[-0.7288099,52.083734],[-0.7290972,52.0836612],[-0.7293694,52.0836175],[-0.7295673,52.0835684],[-0.7298548,52.0834948],[-0.7298992,52.0835309],[-0.7300451,52.0836499],[-0.7300799,52.0836682],[-0.7301846,52.0836944],[-0.7304436,52.0836282],[-0.730586,52.0835597],[-0.7307366,52.0835132],[-0.7309291,52.0834675],[-0.7309908,52.0834094],[-0.7311008,52.0833537],[-0.7312827,52.0833147],[-0.7314283,52.0832733],[-0.7317332,52.0832086],[-0.7326761,52.0830899],[-0.7336316,52.0829633],[-0.7341591,52.0828722],[-0.7343916,52.0828254],[-0.7348714,52.082722],[-0.7353253,52.0825919],[-0.7363038,52.0822828]]]}},
{"type":"Feature","properties":{"highway":"cycleway","name":"Railway Walk","category":"Dedicated cycleway"},"geometry":{"type":"MultiLineString","coordinates":[[[-0.7363038,52.0822828],[-0.7363671,52.0822599]]]}},
{"type":"Feature","properties":{"highway":"cycleway","name":null,"category":"Dedicated cycleway"},"geometry":{"type":"MultiLineString","coordinates":[[[-0.7351425,52.0811919],[-0.7350535,52.0812762],[-0.735016,52.0813002],[-0.7349209,52.081338],[-0.7352,52.0816303],[-0.7353769,52.0818249]]]}},
{"type":"Feature","properties":{"highway":"path","name":null,"category":"Shared path"},"geometry":{"type":"MultiLineString","coordinates":[[[-0.7385854,52.080568],[-0.7382973,52.0805689],[-0.738165,52.0806153]]]}},
{"type":"Feature","properties":{"highway":"path","name":null,"category":"Shared path"},"geometry":{"type":"MultiLineString","coordinates":[[[-0.7315192,52.0754831],[-0.7318293,52.0752591]]]}},
{"type":"Feature","properties":{"highway":"path","name":null,"category":"Shared path"},"geometry":{"type":"MultiLineString","coordinates":[[[-0.7309822,52.0749547],[-0.7311264,52.0749607],[-0.7315204,52.0749518]]]}},
{"type":"Feature","properties":{"highway":"path","name":null,"category":"Shared path"},"geometry":{"type":"MultiLineString","coordinates":[[[-0.7298031,52.0745484],[-0.7298747,52.0745752],[-0.7303795,52.0746516],[-0.7307105,52.0746321],[-0.731036,52.0747265],[-0.7311329,52.0748127]]]}},
{"type":"Feature","properties":{"highway":"path","name":null,"category":"Shared path"},"geometry":{"type":"MultiLineString","coordinates":[[[-0.7308947,52.0748196],[-0.7311329,52.0748127],[-0.7312905,52.0748382],[-0.7314284,52.074889],[-0.7315204,52.0749518],[-0.7318293,52.0752591],[-0.7319935,52.0753635],[-0.7324332,52.0755989],[-0.7325526,52.0756628],[-0.7327533,52.0756899],[-0.73288,52.0757583]]]}},
{"type":"Feature","properties":{"highway":"path","name":null,"category":"Shared path"},"geometry":{"type":"MultiLineString","coordinates":[[[-0.7287919,52.0748504],[-0.728924,52.0747958]]]}},
{"type":"Feature","properties":{"highway":"path","name":null,"category":"Shared path"},"geometry":{"type":"MultiLineString","coordinates":[[[-0.7283013,52.0748007],[-0.728424,52.0747467],[-0.7284715,52.07456],[-0.7285168,52.0744775],[-0.7285724,52.0744248]]]}},
{"type":"Feature","properties":{"highway":"path","name":null,"category":"Shared path"},"geometry":{"type":"MultiLineString","coordinates":[[[-0.7286383,52.076804],[-0.7282626,52.0769949]]]}},
{"type":"Feature","properties":{"highway":"path","name":null,"category":"Shared path"},"geometry":{"type":"MultiLineString","coordinates":[[[-0.7276068,52.0789206],[-0.7272997,52.079095],[-0.7273206,52.0791347]]]}},
{"type":"Feature","properties":{"highway":"path","name":null,"category":"Shared path"},"geometry":{"type":"MultiLineString","coordinates":[[[-0.7271831,52.085885],[-0.7271324,52.0860473],[-0.7270544,52.0864528],[-0.7271469,52.0865252]]]}},
{"type":"Feature","properties":{"highway":"path","name":null,"category":"Shared path"},"geometry":{"type":"MultiLineString","coordinates":[[[-0.7284582,52.085244],[-0.7287459,52.0855801]]]}},
{"type":"Feature","properties":{"highway":"cycleway","name":null,"category":"Dedicated cycleway"},"geometry":{"type":"MultiLineString","coordinates":[[[-0.7298548,52.0834948],[-0.729921,52.0834653]]]}},
{"type":"Feature","properties":{"highway":"path","name":null,"category":"Shared path"},"geometry":{"type":"MultiLineString","coordinates":[[[-0.7257126,52.0872697],[-0.7257555,52.087334],[-0.7258091,52.0874394],[-0.7258521,52.0875383],[-0.7258816,52.0876867],[-0.7258789,52.0878267],[-0.7258923,52.0880014],[-0.7259191,52.0881218],[-0.7259754,52.0882223],[-0.7260532,52.0883508],[-0.7260899,52.08842],[-0.725912,52.0886925],[-0.7258499,52.0888016],[-0.7255348,52.0893546],[-0.7254443,52.0895133],[-0.7252738,52.0898119],[-0.7251604,52.0900119],[-0.7251165,52.0900889]]]}}
]
}
