{
"type": "FeatureCollection",
"name": "MILKE_492_cycling",
"crs": { "type": "name", "properties": { "name": "urn:ogc:def:crs:OGC:1.3:CRS84" } },
"features": [
{"type":"Feature","properties":{"highway":"cycleway","name":null,"category":"Dedicated cycleway"},"geometry":{"type":"MultiLineString","coordinates":[[[-0.6688519,52.0278484],[-0.6686082,52.0272468],[-0.6685755,52.0271961],[-0.6684764,52.0269818],[-0.6684462,52.0268666]]]}},
{"type":"Feature","properties":{"highway":"cycleway","name":null,"category":"Dedicated cycleway"},"geometry":{"type":"MultiLineString","coordinates":[[[-0.6684462,52.0268666],[-0.6684099,52.0268372],[-0.6680348,52.0266616],[-0.6676921,52.0263691],[-0.6673005,52.0261625],[-0.6670671,52.0259886],[-0.6670348,52.0259646],[-0.6668925,52.0258034],[-0.6667411,52.0255773],[-0.6665705,52.0251569],[-0.6664724,52.0250003],[-0.6663302,52.0248294],[-0.6661464,52.0246771],[-0.6660357,52.0246266],[-0.6658459,52.0245773],[-0.6656157,52.024521],[-0.6653177,52.0244689],[-0.6650068,52.0244343],[-0.6638968,52.024312],[-0.6630353,52.0242064],[-0.6625982,52.0241205],[-0.6625201,52.0241052],[-0.662138,52.0240001],[-0.6616214,52.0237798],[-0.6610713,52.0234354],[-0.6607672,52.0231922],[-0.6604237,52.0229176],[-0.6598109,52.0224719],[-0.6589334,52.021737],[-0.658485,52.0213429],[-0.6580685,52.0208577],[-0.6567614,52.0194935],[-0.6566409,52.0193696],[-0.6565462,52.0192722],[-0.6562787,52.0191117],[-0.6555708,52.0188408],[-0.6550469,52.0186579],[-0.6545167,52.0184747],[-0.6539257,52.0182905]]]}},
{"type":"Feature","properties":{"highway":"track","name":"Phoebe Lane","category":"Track"},"geometry":{"type":"MultiLineString","coordinates":[[[-0.6726543,52.0214753],[-0.6728152,52.0219028],[-0.6729544,52.022285],[-0.6731199,52.0227031],[-0.6733789,52.0231189]]]}},
{"type":"Feature","properties":{"highway":"cycleway","name":null,"category":"Dedicated cycleway"},"geometry":{"type":"MultiLineString","coordinates":[[[-0.6745152,52.0175858],[-0.6744962,52.0176529],[-0.6745035,52.0177377],[-0.6745471,52.0178862],[-0.6746025,52.0179998],[-0.6747029,52.0182056],[-0.6749172,52.0184435],[-0.6749527,52.0185292],[-0.6749724,52.0186433],[-0.6749786,52.0187043],[-0.674974,52.0187492],[-0.6750563,52.0188643],[-0.6751773,52.0190402],[-0.6752342,52.019108],[-0.6752594,52.019182],[-0.6752557,52.0192681],[-0.6754023,52.0196674],[-0.675535,52.0198797],[-0.675562,52.0200562],[-0.6757289,52.0205089],[-0.6757661,52.0205606],[-0.6763216,52.0211343],[-0.6764377,52.0212647],[-0.6768024,52.0216742],[-0.6772332,52.0220455],[-0.677233,52.022181],[-0.6773973,52.0225102],[-0.6772275,52.0227267],[-0.6781098,52.0236956]]]}},
{"type":"Feature","properties":{"highway":"bridleway","name":null,"category":"Bridleway"},"geometry":{"type":"MultiLineString","coordinates":[[[-0.6749118,52.0187395],[-0.6749926,52.018831],[-0.6751152,52.0190108],[-0.6751934,52.019237],[-0.6753081,52.0196816],[-0.6754307,52.0200122],[-0.6756289,52.0204808],[-0.6760018,52.0209381],[-0.6760279,52.0209959],[-0.6762183,52.0211885],[-0.6763424,52.0212983],[-0.6765808,52.0215094],[-0.676792,52.0217148],[-0.6769276,52.0218496],[-0.6770371,52.0219138],[-0.6771519,52.0220069],[-0.6770736,52.0221433],[-0.6770814,52.0223487],[-0.6769797,52.0224514],[-0.6770449,52.0226007],[-0.6771649,52.0226745],[-0.6780343,52.0237058]]]}},
{"type":"Feature","properties":{"highway":"cycleway","name":null,"category":"Dedicated cycleway"},"geometry":{"type":"MultiLineString","coordinates":[[[-0.6735036,52.0292415],[-0.6733797,52.0292342],[-0.6732915,52.0292382],[-0.6727307,52.0289483],[-0.6721389,52.0287373],[-0.6714243,52.0285973],[-0.6706999,52.0285204],[-0.6702597,52.0284737],[-0.669723,52.0283754],[-0.6691969,52.028162],[-0.6690186,52.0280235],[-0.6689198,52.0279467]]]}},
{"type":"Feature","properties":{"highway":"cycleway","name":null,"category":"Dedicated cycleway"},"geometry":{"type":"MultiLineString","coordinates":[[[-0.6786475,52.0321769],[-0.6783962,52.0322718],[-0.6782025,52.0323298]]]}},
{"type":"Feature","properties":{"highway":"cycleway","name":null,"category":"Dedicated cycleway"},"geometry":{"type":"MultiLineString","coordinates":[[[-0.6807027,52.0303053],[-0.6806393,52.030358],[-0.6806975,52.0304326],[-0.6807197,52.0305168],[-0.6795274,52.0316687],[-0.6793667,52.0318239],[-0.6792859,52.031926],[-0.6792289,52.0320503],[-0.6791519,52.0321],[-0.6790051,52.0321415],[-0.6787912,52.0321507],[-0.6786475,52.0321769]]]}},
{"type":"Feature","properties":{"highway":"cycleway","name":null,"category":"Dedicated cycleway"},"geometry":{"type":"MultiLineString","coordinates":[[[-0.6782025,52.0323298],[-0.6776495,52.0324546]]]}},
{"type":"Feature","properties":{"highway":"cycleway","name":null,"category":"Dedicated cycleway"},"geometry":{"type":"MultiLineString","coordinates":[[[-0.6667957,52.0286052],[-0.6667239,52.0286293],[-0.6664843,52.0287554],[-0.6664164,52.0288736],[-0.6663184,52.0289672],[-0.6663157,52.0290299],[-0.6662664,52.0290963],[-0.6661672,52.0291384],[-0.6660169,52.0291417],[-0.6646142,52.0300642],[-0.6644157,52.0301648],[-0.6642038,52.0302325],[-0.6624483,52.0305534],[-0.6621291,52.0306013],[-0.6618739,52.030634],[-0.661251,52.0307361],[-0.66087,52.0307918],[-0.6607425,52.0308431],[-0.6605989,52.0308501],[-0.6605413,52.030839],[-0.6603548,52.0308567],[-0.6602712,52.0308392],[-0.66026,52.0308118],[-0.6602422,52.0307681]]]}},
{"type":"Feature","properties":{"highway":"cycleway","name":null,"category":"Dedicated cycleway"},"geometry":{"type":"MultiLineString","coordinates":[[[-0.6776495,52.0324546],[-0.6775675,52.0324654],[-0.6774362,52.0324546],[-0.6773823,52.0326176],[-0.6772554,52.0327634],[-0.6770585,52.0328836],[-0.676806,52.0329729],[-0.6763946,52.0330422],[-0.6761456,52.0331075],[-0.6754127,52.033211],[-0.6741736,52.033386],[-0.6736639,52.0334503],[-0.6732965,52.0334784],[-0.6722504,52.0336318],[-0.6720063,52.0336846],[-0.6712687,52.0337853],[-0.6706679,52.0338629],[-0.6704372,52.033829],[-0.6702521,52.0338463],[-0.6701144,52.03391],[-0.6699571,52.0339684],[-0.6692115,52.0340526],[-0.6685141,52.0341681],[-0.6677631,52.0342539],[-0.6669638,52.0343925],[-0.6660947,52.0345163],[-0.6656173,52.0345625],[-0.6648529,52.0345674],[-0.6647,52.0345806],[-0.6644915,52.034661]]]}},
{"type":"Feature","properties":{"highway":"cycleway","name":null,"category":"Dedicated cycleway"},"geometry":{"type":"MultiLineString","coordinates":[[[-0.6638893,52.0343843],[-0.6639352,52.0343783],[-0.6668047,52.0339959],[-0.6669638,52.0343925]]]}},
{"type":"Feature","properties":{"highway":"path","name":null,"category":"Shared path"},"geometry":{"type":"MultiLineString","coordinates":[[[-0.6668047,52.0339959],[-0.6668634,52.0339883],[-0.6676952,52.0338804],[-0.668007,52.0337644],[-0.6683121,52.033712],[-0.6696371,52.0335074]]]}},
{"type":"Feature","properties":{"highway":"path","name":null,"category":"Shared path"},"geometry":{"type":"MultiLineString","coordinates":[[[-0.6698905,52.0336809],[-0.6700099,52.0336229],[-0.6700555,52.0335305],[-0.6701333,52.0334678],[-0.6712169,52.033288],[-0.6720484,52.0331675],[-0.6721134,52.0331602],[-0.6727216,52.0330916],[-0.6728021,52.033113],[-0.6731776,52.033349],[-0.6732742,52.0333523],[-0.6734727,52.0333028],[-0.6756715,52.0326871],[-0.6760594,52.032573],[-0.6762181,52.0325291],[-0.676323,52.0324742],[-0.6763295,52.032371],[-0.6762427,52.0322332],[-0.6762194,52.03212],[-0.6762453,52.0320348],[-0.6763243,52.0319734],[-0.6765004,52.0319221],[-0.6766918,52.0318814],[-0.6768473,52.0318883],[-0.6769735,52.0318056]]]}},
{"type":"Feature","properties":{"highway":"cycleway","name":null,"category":"Dedicated cycleway"},"geometry":{"type":"MultiLineString","coordinates":[[[-0.6732965,52.0334784],[-0.6732742,52.0333523],[-0.6731785,52.0332462],[-0.672904,52.0330685],[-0.6725094,52.0328432],[-0.6724795,52.0328261],[-0.6720833,52.0325999],[-0.6720404,52.0325603],[-0.6720189,52.0324778],[-0.6720285,52.032347],[-0.6720449,52.0321239],[-0.6720672,52.031821],[-0.6720028,52.0317187],[-0.6719289,52.0316397]]]}},
{"type":"Feature","properties":{"highway":"cycleway","name":null,"category":"Dedicated cycleway"},"geometry":{"type":"MultiLineString","coordinates":[[[-0.6774362,52.0324546],[-0.6774397,52.0323846],[-0.6774308,52.0323372],[-0.6773943,52.0322551],[-0.6769735,52.0318056],[-0.6767433,52.0315971],[-0.6765786,52.0314679],[-0.6759644,52.0310592],[-0.6757046,52.030894],[-0.6754468,52.0307088],[-0.675328,52.0306442],[-0.6751032,52.0305565],[-0.67482,52.0304432],[-0.6746005,52.0303713],[-0.674478,52.0303163],[-0.674386,52.0302434],[-0.6743078,52.0301514],[-0.6742103,52.0300729],[-0.673833,52.0298904],[-0.6734732,52.0296762],[-0.6734129,52.0296394]]]}},
{"type":"Feature","properties":{"highway":"cycleway","name":null,"category":"Dedicated cycleway"},"geometry":{"type":"MultiLineString","coordinates":[[[-0.6851177,52.0277172],[-0.6849327,52.0278005],[-0.6849354,52.0278594],[-0.6849135,52.0278964],[-0.684867,52.0279301],[-0.6847987,52.027952],[-0.6847194,52.0279553],[-0.6846483,52.0279587],[-0.6845772,52.0279806],[-0.6843666,52.0280782],[-0.6843338,52.0281051],[-0.6842326,52.0281892],[-0.6841675,52.0282189],[-0.6839151,52.0283571],[-0.6837568,52.0284281],[-0.6828093,52.0290285],[-0.6825851,52.0291821],[-0.6815244,52.0299086],[-0.6813102,52.0300776],[-0.6811402,52.0302117],[-0.6807774,52.0302409],[-0.6807637,52.0302527],[-0.6807027,52.0303053]]]}},
{"type":"Feature","properties":{"highway":"cycleway","name":null,"category":"Dedicated cycleway"},"geometry":{"type":"MultiLineString","coordinates":[[[-0.6775933,52.0292866],[-0.6777161,52.0292823],[-0.6777858,52.0292783],[-0.6777938,52.0293146],[-0.6778421,52.0293509],[-0.6779333,52.0293938],[-0.6780165,52.0293971],[-0.6782605,52.0293806],[-0.6786582,52.0293349],[-0.6787058,52.0293294],[-0.6788186,52.0293576],[-0.6795243,52.0296673],[-0.6800336,52.0299021],[-0.680173,52.0298955],[-0.6802199,52.0299213],[-0.6802508,52.0299368],[-0.6802589,52.0300094],[-0.6807637,52.0302527]]]}},
{"type":"Feature","properties":{"highway":"cycleway","name":null,"category":"Dedicated cycleway"},"geometry":{"type":"MultiLineString","coordinates":[[[-0.6730625,52.0294876],[-0.6727549,52.0296862],[-0.6724307,52.0299488],[-0.6723339,52.0300588],[-0.6722915,52.0301295],[-0.6722253,52.0303212],[-0.6721734,52.0308877],[-0.672114,52.0313856],[-0.6720858,52.0315497],[-0.6720161,52.0316067],[-0.6719289,52.0316397],[-0.6718472,52.0316711],[-0.6706136,52.0316468],[-0.6698199,52.0316339],[-0.6691235,52.0317307],[-0.668462,52.0318089],[-0.6682131,52.0318448],[-0.6679218,52.0318891],[-0.6666401,52.0320861],[-0.6659157,52.032188],[-0.6654682,52.032251],[-0.6647074,52.0323627],[-0.6642467,52.0324362],[-0.6639916,52.0324944],[-0.6633679,52.0326672],[-0.6628673,52.0327739],[-0.6626139,52.0328362],[-0.6619849,52.0329927],[-0.6612033,52.0331943],[-0.6603861,52.0334608],[-0.6594327,52.0337846],[-0.6592405,52.0338454],[-0.6589843,52.0339264],[-0.6586743,52.0339702],[-0.6585211,52.0339805],[-0.6583064,52.0339787],[-0.658135,52.033982],[-0.6572523,52.0339694],[-0.6569117,52.0339694],[-0.6562882,52.0339265],[-0.6560773,52.0339127]]]}},
{"type":"Feature","properties":{"highway":"cycleway","name":null,"category":"Dedicated cycleway"},"geometry":{"type":"MultiLineString","coordinates":[[[-0.6806468,52.0250439],[-0.6809507,52.0250016],[-0.6810991,52.0250031],[-0.681257,52.0250164],[-0.6813263,52.0250281],[-0.6813799,52.024979],[-0.6814325,52.0249481],[-0.6815703,52.0250252],[-0.6821684,52.0258628],[-0.6824675,52.0262926],[-0.6827617,52.0266517],[-0.6833502,52.0273465],[-0.6835152,52.0273582],[-0.6837048,52.0272131],[-0.6837287,52.0271707]]]}},
{"type":"Feature","properties":{"highway":"cycleway","name":null,"category":"Dedicated cycleway"},"geometry":{"type":"MultiLineString","coordinates":[[[-0.6794802,52.0328469],[-0.6794958,52.0326475],[-0.6793933,52.0325304],[-0.6787504,52.0322495],[-0.6786475,52.0321769]]]}},
{"type":"Feature","properties":{"highway":"cycleway","name":null,"category":"Dedicated cycleway"},"geometry":{"type":"MultiLineString","coordinates":[[[-0.6786475,52.0321769],[-0.6785238,52.0320902],[-0.6783336,52.0320806],[-0.6780754,52.0321155],[-0.6779473,52.0321194],[-0.6777477,52.0320293],[-0.6774338,52.0317427],[-0.6770968,52.0314657],[-0.6770416,52.0314231],[-0.6764207,52.0309763],[-0.6761763,52.0308157]]]}},
{"type":"Feature","properties":{"highway":"cycleway","name":null,"category":"Dedicated cycleway"},"geometry":{"type":"MultiLineString","coordinates":[[[-0.6735036,52.0292415],[-0.6740017,52.0289928],[-0.6743316,52.0288872],[-0.6747186,52.0288359],[-0.67484,52.0288147],[-0.6749803,52.0288054],[-0.6753328,52.0287682],[-0.6753875,52.0287261],[-0.6754049,52.0286873],[-0.6753996,52.0286461],[-0.6754713,52.0286369]]]}},
{"type":"Feature","properties":{"highway":"cycleway","name":null,"category":"Dedicated cycleway"},"geometry":{"type":"MultiLineString","coordinates":[[[-0.6813102,52.0300776],[-0.680489,52.029683],[-0.6802508,52.0299368]]]}},
{"type":"Feature","properties":{"highway":"cycleway","name":null,"category":"Dedicated cycleway"},"geometry":{"type":"MultiLineString","coordinates":[[[-0.6690436,52.028444],[-0.6689376,52.0285513]]]}},
{"type":"Feature","properties":{"highway":"cycleway","name":null,"category":"Dedicated cycleway"},"geometry":{"type":"MultiLineString","coordinates":[[[-0.682904,52.0271585],[-0.6828576,52.0271015],[-0.6823994,52.0265398],[-0.6819096,52.0266764],[-0.6813359,52.026674],[-0.6811052,52.026631],[-0.6809255,52.0266294],[-0.6807217,52.0266574],[-0.680465,52.0268263],[-0.6804103,52.0269075],[-0.6801523,52.0269898],[-0.6799655,52.0270514],[-0.6797955,52.0271485],[-0.6796703,52.0272445],[-0.6795913,52.0273081],[-0.6791896,52.0274511]]]}},
{"type":"Feature","properties":{"highway":"cycleway","name":null,"category":"Dedicated cycleway"},"geometry":{"type":"MultiLineString","coordinates":[[[-0.6754713,52.0286369],[-0.6755431,52.0286263],[-0.6755936,52.0287832],[-0.6756035,52.0288183],[-0.6758353,52.0288073],[-0.6772844,52.0287358],[-0.6773974,52.0287335],[-0.6774767,52.0287625]]]}},
{"type":"Feature","properties":{"highway":"path","name":null,"category":"Shared path"},"geometry":{"type":"MultiLineString","coordinates":[[[-0.6824957,52.0277167],[-0.6826705,52.0276639],[-0.6825518,52.027194],[-0.6828576,52.0271015]]]}},
{"type":"Feature","properties":{"highway":"path","name":null,"category":"Shared path"},"geometry":{"type":"MultiLineString","coordinates":[[[-0.6688812,52.0296712],[-0.6682856,52.0295149]]]}},
{"type":"Feature","properties":{"highway":"path","name":null,"category":"Shared path"},"geometry":{"type":"MultiLineString","coordinates":[[[-0.6686149,52.0302478],[-0.6689318,52.0303188]]]}},
{"type":"Feature","properties":{"highway":"path","name":null,"category":"Shared path"},"geometry":{"type":"MultiLineString","coordinates":[[[-0.6762331,52.032812],[-0.6760731,52.0328454],[-0.6758918,52.0328677],[-0.6757325,52.0328948],[-0.6757053,52.0329259],[-0.6757247,52.0329689],[-0.6757662,52.0329992]]]}},
{"type":"Feature","properties":{"highway":"path","name":null,"category":"Shared path"},"geometry":{"type":"MultiLineString","coordinates":[[[-0.6763243,52.0319734],[-0.6762453,52.0319729]]]}},
{"type":"Feature","properties":{"highway":"path","name":null,"category":"Shared path"},"geometry":{"type":"MultiLineString","coordinates":[[[-0.6770831,52.0325156],[-0.6771453,52.0324901],[-0.6772437,52.0325005],[-0.6773499,52.0324789],[-0.6774362,52.0324546]]]}},
{"type":"Feature","properties":{"highway":"cycleway","name":null,"category":"Dedicated cycleway"},"geometry":{"type":"MultiLineString","coordinates":[[[-0.6687216,52.0280877],[-0.6686835,52.0280343],[-0.6686295,52.0279653],[-0.6686402,52.0279088],[-0.6687705,52.0278648],[-0.6688519,52.0278484]]]}},
{"type":"Feature","properties":{"highway":"cycleway","name":null,"category":"Dedicated cycleway"},"geometry":{"type":"MultiLineString","coordinates":[[[-0.668833,52.0281013],[-0.6689509,52.0280519],[-0.6690186,52.0280235]]]}},
{"type":"Feature","properties":{"highway":"cycleway","name":null,"category":"Dedicated cycleway"},"geometry":{"type":"MultiLineString","coordinates":[[[-0.6689198,52.0279467],[-0.6688519,52.0278484]]]}},
{"type":"Feature","properties":{"highway":"cycleway","name":null,"category":"Dedicated cycleway"},"geometry":{"type":"MultiLineString","coordinates":[[[-0.6734129,52.0296394],[-0.6732651,52.0296027]]]}},
{"type":"Feature","properties":{"highway":"cycleway","name":null,"category":"Dedicated cycleway"},"geometry":{"type":"MultiLineString","coordinates":[[[-0.6732651,52.0296027],[-0.6731437,52.0295371],[-0.6730625,52.0294876]]]}},
{"type":"Feature","properties":{"highway":"cycleway","name":null,"category":"Dedicated cycleway"},"geometry":{"type":"MultiLineString","coordinates":[[[-0.6734732,52.0296762],[-0.6736163,52.0295855],[-0.673656,52.029557],[-0.6735715,52.0295075],[-0.6736134,52.0294867],[-0.6737082,52.0294297]]]}},
{"type":"Feature","properties":{"highway":"cycleway","name":null,"category":"Dedicated cycleway"},"geometry":{"type":"MultiLineString","coordinates":[[[-0.6761763,52.0308157],[-0.675603,52.0304972],[-0.6747281,52.0300843],[-0.673764,52.0295311],[-0.6737082,52.0294297],[-0.6736792,52.0293586],[-0.6736285,52.0293222]]]}},
{"type":"Feature","properties":{"highway":"cycleway","name":null,"category":"Dedicated cycleway"},"geometry":{"type":"MultiLineString","coordinates":[[[-0.6736285,52.0293222],[-0.6735693,52.0292797],[-0.6735036,52.0292415]]]}},
{"type":"Feature","properties":{"highway":"cycleway","name":null,"category":"Dedicated cycleway"},"geometry":{"type":"MultiLineString","coordinates":[[[-0.6729556,52.0293434],[-0.6730593,52.0292847],[-0.6730789,52.0292679],[-0.6730929,52.0292559],[-0.6731787,52.0293037],[-0.6732256,52.0292765],[-0.6732915,52.0292382]]]}},
{"type":"Feature","properties":{"highway":"cycleway","name":null,"category":"Dedicated cycleway"},"geometry":{"type":"MultiLineString","coordinates":[[[-0.6774767,52.0287625],[-0.6774909,52.0288136],[-0.6775933,52.0292866]]]}},
{"type":"Feature","properties":{"highway":"cycleway","name":null,"category":"Dedicated cycleway"},"geometry":{"type":"MultiLineString","coordinates":[[[-0.6730625,52.0294876],[-0.6730455,52.0294134],[-0.6729556,52.0293434],[-0.672914,52.029311],[-0.6722877,52.0290057],[-0.6715246,52.0287936],[-0.6705255,52.0286649],[-0.6695036,52.0285774],[-0.6690436,52.028444],[-0.6689886,52.0284281],[-0.6689631,52.0283918],[-0.6689712,52.0281797],[-0.668833,52.0281013],[-0.6687216,52.0280877],[-0.6685467,52.0281241],[-0.6682232,52.0282112],[-0.6681315,52.028237],[-0.6679377,52.028321],[-0.667521,52.0284099],[-0.6672915,52.0284529],[-0.6669832,52.0285399],[-0.6668677,52.0285804]]]}},
{"type":"Feature","properties":{"highway":"cycleway","name":null,"category":"Dedicated cycleway"},"geometry":{"type":"MultiLineString","coordinates":[[[-0.6668677,52.0285804],[-0.6668298,52.028592],[-0.6667957,52.0286052]]]}}
]
}
