{
"type": "FeatureCollection",
"name": "WESBE_55_cycling",
"crs": { "type": "name", "properties": { "name": "urn:ogc:def:crs:OGC:1.3:CRS84" } },
"features": [
{"type":"Feature","properties":{"highway":"path","name":null,"category":"Shared path"},"geometry":{"type":"MultiLineString","coordinates":[[[-1.2697999,51.4520198],[-1.2694421,51.4522381],[-1.2690457,51.4525563],[-1.2686321,51.4528496],[-1.2683215,51.4531382],[-1.2679861,51.4534565],[-1.2675631,51.4539719],[-1.2673153,51.4542046],[-1.2672147,51.4543154],[-1.2669364,51.4546385]]]}},
{"type":"Feature","properties":{"highway":"track","name":null,"category":"Track"},"geometry":{"type":"MultiLineString","coordinates":[[[-1.2635371,51.4486193],[-1.2634255,51.448577],[-1.2629562,51.4483933],[-1.2624026,51.4482058],[-1.2616024,51.4477146],[-1.2613978,51.4474821],[-1.2613193,51.4474344],[-1.2608566,51.4471536],[-1.2604712,51.4469196],[-1.2601403,51.4466233],[-1.2597249,51.4464136],[-1.2596947,51.4463908],[-1.2594784,51.4462279],[-1.2594008,51.4461695],[-1.259346,51.4461283]]]}},
{"type":"Feature","properties":{"highway":"path","name":null,"category":"Shared path"},"geometry":{"type":"MultiLineString","coordinates":[[[-1.2600307,51.4572889],[-1.2591277,51.4568126],[-1.2584411,51.4563447],[-1.2574326,51.4556093],[-1.2583231,51.454787],[-1.2585936,51.454396],[-1.2597211,51.4533893],[-1.2604572,51.4527982],[-1.2612914,51.4520588],[-1.2614624,51.4519072],[-1.2618883,51.4516161],[-1.2623401,51.4513073],[-1.2634443,51.4506544],[-1.2643503,51.4502486],[-1.2651007,51.4499751],[-1.2657773,51.4498351]]]}},
{"type":"Feature","properties":{"highway":"path","name":null,"category":"Shared path"},"geometry":{"type":"MultiLineString","coordinates":[[[-1.2594806,51.4514269],[-1.260383,51.451063],[-1.2606298,51.4507755],[-1.2605761,51.4505214],[-1.2608765,51.4503409],[-1.2613379,51.4503008],[-1.2622176,51.45002],[-1.2626146,51.4496857],[-1.2630223,51.4492511],[-1.2632583,51.4490572],[-1.2634729,51.4490037],[-1.2637581,51.4488565]]]}},
{"type":"Feature","properties":{"highway":"path","name":null,"category":"Shared path"},"geometry":{"type":"MultiLineString","coordinates":[[[-1.2605402,51.4488262],[-1.260984,51.4488786],[-1.2611825,51.4489521],[-1.2612791,51.449126],[-1.2614615,51.4491962],[-1.2617619,51.4492062],[-1.2620569,51.449146],[-1.2622232,51.4491962],[-1.2624056,51.4492129],[-1.2626792,51.4491527],[-1.2632583,51.4490572]]]}},
{"type":"Feature","properties":{"highway":"bridleway","name":null,"category":"Bridleway"},"geometry":{"type":"MultiLineString","coordinates":[[[-1.2655538,51.4450532],[-1.2651847,51.4451816],[-1.2646955,51.44531],[-1.2641119,51.4454063],[-1.2637685,51.4456523],[-1.2635625,51.4460215],[-1.2634726,51.446158],[-1.2634252,51.4462301],[-1.2638715,51.4463852],[-1.264438,51.4467062],[-1.26485,51.446872],[-1.2655538,51.4470325],[-1.2661632,51.4470806],[-1.2663703,51.4471861],[-1.2665774,51.4472915]]]}},
{"type":"Feature","properties":{"highway":"path","name":null,"category":"Shared path"},"geometry":{"type":"MultiLineString","coordinates":[[[-1.2721433,51.454056],[-1.272009,51.4541838],[-1.2718798,51.4542742],[-1.2716206,51.4543768],[-1.2714848,51.4544886],[-1.2713944,51.454624],[-1.271306,51.454741],[-1.2710844,51.4549615],[-1.2707893,51.455152],[-1.2707155,51.4552889],[-1.2706301,51.455464],[-1.2705538,51.4556304],[-1.2704923,51.45589]]]}},
{"type":"Feature","properties":{"highway":"path","name":null,"category":"Shared path"},"geometry":{"type":"MultiLineString","coordinates":[[[-1.2686355,51.4548414],[-1.2690134,51.4550346],[-1.2691008,51.4551068],[-1.2691913,51.4551727],[-1.2692224,51.4553112],[-1.269305,51.4554455],[-1.2699334,51.4556648],[-1.2703793,51.4558761]]]}},
{"type":"Feature","properties":{"highway":"path","name":null,"category":"Shared path"},"geometry":{"type":"MultiLineString","coordinates":[[[-1.2675631,51.4539719],[-1.267133,51.4537301],[-1.2667366,51.4535625],[-1.2662695,51.4533949],[-1.265774,51.4533596],[-1.265236,51.4533949],[-1.2645848,51.453386],[-1.2638487,51.4533243],[-1.2631125,51.4530773],[-1.2620224,51.4525038],[-1.2612914,51.4520588]]]}},
{"type":"Feature","properties":{"highway":"path","name":null,"category":"Shared path"},"geometry":{"type":"MultiLineString","coordinates":[[[-1.2618883,51.4516161],[-1.2611961,51.4510154],[-1.261028,51.4509165],[-1.2606298,51.4507755]]]}},
{"type":"Feature","properties":{"highway":"path","name":null,"category":"Shared path"},"geometry":{"type":"MultiLineString","coordinates":[[[-1.2759136,51.4594626],[-1.2758568,51.4593738],[-1.2757923,51.4592173],[-1.2756986,51.4590246],[-1.2753375,51.4585424],[-1.274715,51.4577574],[-1.2744453,51.457262],[-1.274313,51.4570002],[-1.2740527,51.4567585],[-1.2738103,51.4566457],[-1.2736317,51.4565248],[-1.2733714,51.4564294],[-1.2731413,51.4563885],[-1.2727973,51.4561925],[-1.2724477,51.4560462],[-1.2722716,51.4559906],[-1.2718837,51.4559365],[-1.271649,51.4558937],[-1.2715515,51.4558837],[-1.2713,51.4559058],[-1.2711308,51.4559367],[-1.2710776,51.4559452],[-1.2706491,51.4559135],[-1.2704923,51.45589],[-1.2703793,51.4558761],[-1.2700354,51.45586],[-1.2696492,51.4558761],[-1.2692458,51.4558872],[-1.2691042,51.4558921],[-1.2689582,51.4559055],[-1.2685162,51.4559002],[-1.2681214,51.4559145]]]}},
{"type":"Feature","properties":{"highway":"path","name":null,"category":"Shared path"},"geometry":{"type":"MultiLineString","coordinates":[[[-1.2715515,51.4558837],[-1.2713312,51.4558138],[-1.2710657,51.4557216],[-1.2708909,51.455558],[-1.2708011,51.4554257],[-1.2707155,51.4552889]]]}},
{"type":"Feature","properties":{"highway":"path","name":null,"category":"Shared path"},"geometry":{"type":"MultiLineString","coordinates":[[[-1.2711308,51.4559367],[-1.2716358,51.4560746],[-1.2723043,51.4562749],[-1.2728861,51.4564308],[-1.2731413,51.4563885],[-1.273286,51.4568405],[-1.2733968,51.4570892],[-1.273212,51.4572503],[-1.2731942,51.457408],[-1.2731599,51.4575818],[-1.2730917,51.4577612],[-1.2730903,51.4579809],[-1.2738716,51.458242],[-1.2740778,51.4583775],[-1.2747416,51.4589251],[-1.2749844,51.4591529],[-1.2751294,51.4593137],[-1.2758568,51.4593738]]]}},
{"type":"Feature","properties":{"highway":"path","name":null,"category":"Shared path"},"geometry":{"type":"MultiLineString","coordinates":[[[-1.267741,51.4568199],[-1.2680534,51.4568802],[-1.2683893,51.456945],[-1.2686329,51.4569985],[-1.2687271,51.4570415],[-1.2686822,51.4571369],[-1.2684439,51.4578433],[-1.2682737,51.4581861],[-1.2682492,51.4584168],[-1.2683043,51.4588505],[-1.2683067,51.4589049],[-1.2683702,51.4591269],[-1.2683883,51.4593383],[-1.2681249,51.4595429],[-1.2680887,51.4596711],[-1.2681934,51.45977],[-1.2687275,51.4598464],[-1.2689224,51.4598734],[-1.269136,51.4599183],[-1.2693097,51.4600019],[-1.2693823,51.4600915],[-1.2693997,51.4602021],[-1.2694677,51.4602562],[-1.2697657,51.4602133],[-1.2698751,51.4601747],[-1.2700965,51.4600332],[-1.2703497,51.4597185],[-1.2703971,51.4595767],[-1.2704962,51.4592736],[-1.2706573,51.4590615],[-1.2709557,51.4589523],[-1.2714227,51.4590967],[-1.2719471,51.4592045],[-1.2723136,51.4593463],[-1.2726859,51.4596335],[-1.2728052,51.4598504],[-1.2729041,51.460062],[-1.2730812,51.4602648],[-1.2732624,51.4604899],[-1.2735434,51.460566],[-1.2738221,51.4605304],[-1.2740185,51.4602655],[-1.2743123,51.4599438],[-1.2751294,51.4593137]]]}},
{"type":"Feature","properties":{"highway":"path","name":null,"category":"Shared path"},"geometry":{"type":"MultiLineString","coordinates":[[[-1.2692458,51.4558872],[-1.2692523,51.4562249],[-1.2691661,51.4565248],[-1.2689921,51.4567909],[-1.2687271,51.4570415]]]}},
{"type":"Feature","properties":{"highway":"path","name":null,"category":"Shared path"},"geometry":{"type":"MultiLineString","coordinates":[[[-1.2704923,51.45589],[-1.2702289,51.4562128],[-1.270001,51.456597],[-1.2699691,51.4569364],[-1.2700842,51.4572265],[-1.2702277,51.45747],[-1.270443,51.4576787],[-1.2706387,51.4578414]]]}}
]
}
