{
"type": "FeatureCollection",
"name": "WINMA_186_toilets",
"crs": { "type": "name", "properties": { "name": "urn:ogc:def:crs:OGC:1.3:CRS84" } },
"features": [
{ "type": "Feature", "properties": { "name": "Victoria street", "payment_info": "Free", "accessible": "True", "radar": "True", "women": "True", "men": "True", "baby_change": "Unknown", "Mon": "Closed", "Tue": "Closed", "Wed": "Closed", "Thu": "Closed", "Fri": "Closed", "Sat": "Closed", "Sun": "Closed", "index_right": 32, "park_offical_id": "WINMA_186" }, "geometry": { "type": "Point", "coordinates": [ -0.6101594, 51.4796988 ] } }
]
}
