{
"type": "FeatureCollection",
"name": "REIBA_243_NACH",
"crs": { "type": "name", "properties": { "name": "urn:ogc:def:crs:OGC:1.3:CRS84" } },
"features": [
{ "type": "Feature", "properties": { "id": 47275, "nach": 0.40784863303227981 }, "geometry": { "type": "LineString", "coordinates": [ [ -0.2095389, 51.1876772 ], [ -0.2095223, 51.1874548 ], [ -0.2095349, 51.187271100000011 ], [ -0.2095783, 51.1870633 ], [ -0.2096222, 51.1869252 ], [ -0.2097064, 51.1866853 ], [ -0.2098586, 51.1863847 ], [ -0.2100191, 51.1860843 ], [ -0.2101353, 51.1857923 ], [ -0.2102623, 51.185379 ], [ -0.2103865, 51.184962100000014 ], [ -0.2104745, 51.184595 ] ] } },
{ "type": "Feature", "properties": { "id": 3636, "nach": 0.37301393487186391 }, "geometry": { "type": "LineString", "coordinates": [ [ -0.2136492, 51.1834403 ], [ -0.2134636, 51.1836468 ], [ -0.2133117, 51.1838643 ], [ -0.2131559, 51.1840929 ], [ -0.213042, 51.184211 ], [ -0.2128725, 51.1843432 ], [ -0.212638, 51.1844752 ], [ -0.212449, 51.184552099999983 ], [ -0.21226, 51.1846061 ], [ -0.2119536, 51.18467660000001 ], [ -0.2116663, 51.1847277 ], [ -0.2114016, 51.1847314 ], [ -0.2111389, 51.1847003 ], [ -0.2104745, 51.184595 ] ] } },
{ "type": "Feature", "properties": { "id": 38964, "nach": 0.41935289495207806 }, "geometry": { "type": "LineString", "coordinates": [ [ -0.2105247, 51.184093 ], [ -0.2105065, 51.1843466 ], [ -0.2104745, 51.184595 ] ] } },
{ "type": "Feature", "properties": { "id": 38961, "nach": 0.39498175280810366 }, "geometry": { "type": "LineString", "coordinates": [ [ -0.2102802, 51.1845971 ], [ -0.2103516, 51.1846057 ], [ -0.2104745, 51.184595 ] ] } },
{ "type": "Feature", "properties": { "id": 47276, "nach": 0.42310969301707535 }, "geometry": { "type": "LineString", "coordinates": [ [ -0.2095389, 51.1876772 ], [ -0.2095898, 51.187899900000012 ], [ -0.2096699, 51.1883412 ], [ -0.2096935, 51.1885416 ], [ -0.209671, 51.1887296 ], [ -0.2095916, 51.1890044 ] ] } },
{ "type": "Feature", "properties": { "id": 47376, "nach": 0.40665466830311842 }, "geometry": { "type": "LineString", "coordinates": [ [ -0.2094022, 51.1877019 ], [ -0.2095389, 51.1876772 ] ] } },
{ "type": "Feature", "properties": { "id": 47304, "nach": 0.32158643060097275 }, "geometry": { "type": "LineString", "coordinates": [ [ -0.2100738, 51.1844366 ], [ -0.2100931, 51.1844779 ], [ -0.2101658, 51.1845307 ], [ -0.2102802, 51.1845971 ] ] } },
{ "type": "Feature", "properties": { "id": 47306, "nach": 0.32158629543232614 }, "geometry": { "type": "LineString", "coordinates": [ [ -0.2098127, 51.1845809 ], [ -0.2100514, 51.1846137 ], [ -0.2101362, 51.18461760000001 ], [ -0.210204, 51.184607 ], [ -0.2102802, 51.1845971 ] ] } },
{ "type": "Feature", "properties": { "id": 47609, "nach": 0.43674914834175887 }, "geometry": { "type": "LineString", "coordinates": [ [ -0.2099735, 51.190207500000014 ], [ -0.2098826, 51.1900269 ], [ -0.2097272, 51.189732200000016 ], [ -0.2095665, 51.1893027 ], [ -0.2095553, 51.1891373 ], [ -0.2095916, 51.1890044 ] ] } },
{ "type": "Feature", "properties": { "id": 8278, "nach": 0.4490020723456426 }, "geometry": { "type": "LineString", "coordinates": [ [ -0.2068562, 51.1891667 ], [ -0.2079355, 51.1891455 ], [ -0.2086827, 51.1890962 ], [ -0.2093411, 51.1890221 ], [ -0.2095916, 51.1890044 ] ] } },
{ "type": "Feature", "properties": { "id": 47614, "nach": 0.42831932206530454 }, "geometry": { "type": "LineString", "coordinates": [ [ -0.2102516, 51.1906713 ], [ -0.2101484, 51.1905307 ], [ -0.2100051, 51.1902703 ], [ -0.2099735, 51.190207500000014 ] ] } },
{ "type": "Feature", "properties": { "id": 47612, "nach": 0.32536979609543404 }, "geometry": { "type": "LineString", "coordinates": [ [ -0.2095536, 51.1901871 ], [ -0.2096398, 51.1901671 ], [ -0.2097455, 51.1901629 ], [ -0.2098572, 51.1902115 ], [ -0.2099735, 51.190207500000014 ] ] } },
{ "type": "Feature", "properties": { "id": 47379, "nach": 0.46023952227115178 }, "geometry": { "type": "LineString", "coordinates": [ [ -0.2066916, 51.1891845 ], [ -0.2068562, 51.1891667 ] ] } },
{ "type": "Feature", "properties": { "id": 36306, "nach": 0.33586588165081188 }, "geometry": { "type": "LineString", "coordinates": [ [ -0.2056242, 51.1856208 ], [ -0.2059354, 51.186015 ], [ -0.2064908, 51.1862161 ], [ -0.2067914, 51.1864211 ], [ -0.2069482, 51.1866818 ], [ -0.2069414, 51.1871215 ], [ -0.2069806, 51.18775990000001 ], [ -0.2070818, 51.188201 ], [ -0.2070355, 51.1884481 ], [ -0.2069382, 51.1886807 ], [ -0.2069003, 51.18882450000001 ], [ -0.2068505, 51.1891014 ], [ -0.2068562, 51.1891667 ] ] } },
{ "type": "Feature", "properties": { "id": 47380, "nach": 0.46229047800897072 }, "geometry": { "type": "LineString", "coordinates": [ [ -0.2066916, 51.1891845 ], [ -0.2065283, 51.1892022 ] ] } },
{ "type": "Feature", "properties": { "id": 47382, "nach": 0.33669190390268794 }, "geometry": { "type": "LineString", "coordinates": [ [ -0.2067326, 51.1889659 ], [ -0.2066783, 51.1891483 ], [ -0.2066916, 51.1891845 ] ] } },
{ "type": "Feature", "properties": { "id": 45702, "nach": 0.33992171454658932 }, "geometry": { "type": "LineString", "coordinates": [ [ -0.204105, 51.183947 ], [ -0.2042341, 51.1840026 ], [ -0.2043873, 51.1841141 ], [ -0.2045383, 51.1842988 ], [ -0.2046487, 51.1844956 ], [ -0.2048008, 51.184700299999989 ], [ -0.2053067, 51.1852188 ], [ -0.2056242, 51.1856208 ] ] } },
{ "type": "Feature", "properties": { "id": 36309, "nach": 0.30367653594070393 }, "geometry": { "type": "LineString", "coordinates": [ [ -0.2066389, 51.1849686 ], [ -0.2068187, 51.1851787 ], [ -0.2068332, 51.185235100000014 ], [ -0.2068284, 51.185286800000014 ], [ -0.2067531, 51.185328 ], [ -0.2066146, 51.1853386 ], [ -0.2064931, 51.1853341 ], [ -0.2063187, 51.185371600000011 ], [ -0.2061554, 51.185433 ], [ -0.2056242, 51.1856208 ] ] } },
{ "type": "Feature", "properties": { "id": 47619, "nach": 0.46758057176739948 }, "geometry": { "type": "LineString", "coordinates": [ [ -0.2053309, 51.1899665 ], [ -0.2054358, 51.1899376 ], [ -0.2055581, 51.1898883 ], [ -0.2056245, 51.1898609 ] ] } },
{ "type": "Feature", "properties": { "id": 34554, "nach": 0.43221918097803241 }, "geometry": { "type": "LineString", "coordinates": [ [ -0.2059211, 51.1898098 ], [ -0.2057132, 51.189847 ], [ -0.2056245, 51.1898609 ] ] } },
{ "type": "Feature", "properties": { "id": 47384, "nach": 0.41563431567002795 }, "geometry": { "type": "LineString", "coordinates": [ [ -0.2055853, 51.1895799 ], [ -0.2055907, 51.1896405 ], [ -0.2055809, 51.1897082 ], [ -0.2056165, 51.189820700000013 ], [ -0.2056245, 51.1898609 ] ] } },
{ "type": "Feature", "properties": { "id": 47618, "nach": 0.46548857134960053 }, "geometry": { "type": "LineString", "coordinates": [ [ -0.2053309, 51.1899665 ], [ -0.2052686, 51.1899837 ], [ -0.205053, 51.1900321 ], [ -0.204541, 51.190141700000012 ], [ -0.2043703, 51.190182 ], [ -0.2042021, 51.1902401 ], [ -0.2039824, 51.1903358 ], [ -0.2038294, 51.1904191 ], [ -0.2037357, 51.1904736 ] ] } },
{ "type": "Feature", "properties": { "id": 47621, "nach": 0.32367144977045847 }, "geometry": { "type": "LineString", "coordinates": [ [ -0.2053309, 51.1899665 ], [ -0.2052958, 51.190071 ], [ -0.2051473, 51.190196099999987 ], [ -0.2049684, 51.190238 ] ] } },
{ "type": "Feature", "properties": { "id": 47622, "nach": 0.32367144977045847 }, "geometry": { "type": "LineString", "coordinates": [ [ -0.2058335, 51.19022180000001 ], [ -0.2056724, 51.1902338 ], [ -0.2055587, 51.1901763 ], [ -0.2054153, 51.1900583 ], [ -0.2053309, 51.1899665 ] ] } },
{ "type": "Feature", "properties": { "id": 34553, "nach": 0.42630221415725511 }, "geometry": { "type": "LineString", "coordinates": [ [ -0.2059211, 51.1898098 ], [ -0.2059851, 51.189783899999988 ], [ -0.2063408, 51.189667 ], [ -0.2064952, 51.1896124 ], [ -0.2065574, 51.1895689 ], [ -0.2065778, 51.189506 ], [ -0.2065546, 51.1894052 ], [ -0.2065283, 51.1892022 ] ] } },
{ "type": "Feature", "properties": { "id": 34556, "nach": 0.31300207223767318 }, "geometry": { "type": "LineString", "coordinates": [ [ -0.2066902, 51.1906675 ], [ -0.2065026, 51.1906494 ], [ -0.206457, 51.190626699999989 ], [ -0.2064328, 51.1905101 ], [ -0.20635, 51.1901473 ], [ -0.206305, 51.18995730000001 ], [ -0.2062683, 51.1899026 ], [ -0.2062052, 51.1898692 ], [ -0.2060342, 51.1898268 ], [ -0.2059211, 51.1898098 ] ] } },
{ "type": "Feature", "properties": { "id": 47385, "nach": 0.41758688331429128 }, "geometry": { "type": "LineString", "coordinates": [ [ -0.2055853, 51.1895799 ], [ -0.205583, 51.189553600000018 ], [ -0.2055149, 51.1893628 ], [ -0.2055174, 51.1893279 ] ] } },
{ "type": "Feature", "properties": { "id": 47387, "nach": 0.33112794631116743 }, "geometry": { "type": "LineString", "coordinates": [ [ -0.2056465, 51.1894486 ], [ -0.205688, 51.189567 ], [ -0.2055853, 51.1895799 ] ] } },
{ "type": "Feature", "properties": { "id": 35572, "nach": 0.38809622033097513 }, "geometry": { "type": "LineString", "coordinates": [ [ -0.2121538, 51.1927797 ], [ -0.2125625, 51.193078300000018 ], [ -0.2129647, 51.1933891 ], [ -0.2131844, 51.1935738 ] ] } },
{ "type": "Feature", "properties": { "id": 10621, "nach": 0.0 }, "geometry": { "type": "LineString", "coordinates": [ [ -0.2111995, 51.1918011 ], [ -0.211269, 51.1917808 ], [ -0.212496, 51.1914368 ], [ -0.2161238, 51.1903995 ], [ -0.2163653, 51.1903381 ], [ -0.2171043, 51.1899661 ], [ -0.2177804, 51.1896597 ], [ -0.2200551, 51.1887275 ], [ -0.2209818, 51.1883671 ], [ -0.2229614, 51.1879479 ] ] } },
{ "type": "Feature", "properties": { "id": 47615, "nach": 0.41938050064226018 }, "geometry": { "type": "LineString", "coordinates": [ [ -0.2102516, 51.1906713 ], [ -0.2103265, 51.1907734 ], [ -0.210539, 51.1910333 ], [ -0.2107351, 51.1912574 ], [ -0.2109256, 51.1914724 ], [ -0.2111995, 51.1918011 ] ] } },
{ "type": "Feature", "properties": { "id": 11949, "nach": 0.41750691355170816 }, "geometry": { "type": "LineString", "coordinates": [ [ -0.2114853, 51.192168 ], [ -0.2113678, 51.192015 ], [ -0.2111995, 51.1918011 ] ] } },
{ "type": "Feature", "properties": { "id": 47616, "nach": 0.32291245732453283 }, "geometry": { "type": "LineString", "coordinates": [ [ -0.2102516, 51.1906713 ], [ -0.2101648, 51.190702 ], [ -0.2100133, 51.19077630000001 ], [ -0.209904, 51.190804900000025 ] ] } },
{ "type": "Feature", "properties": { "id": 35571, "nach": 0.39834133623854184 }, "geometry": { "type": "LineString", "coordinates": [ [ -0.2121538, 51.1927797 ], [ -0.2119714, 51.1926374 ], [ -0.2118175, 51.1925061 ], [ -0.2116567, 51.1923472 ], [ -0.2114853, 51.192168 ] ] } },
{ "type": "Feature", "properties": { "id": 39137, "nach": 0.40547447666758418 }, "geometry": { "type": "LineString", "coordinates": [ [ -0.2122928, 51.1916895 ], [ -0.2120984, 51.1917467 ], [ -0.2120419, 51.1917935 ], [ -0.211965, 51.191944 ], [ -0.211821, 51.1920439 ], [ -0.2116096, 51.1921191 ], [ -0.2114853, 51.192168 ] ] } },
{ "type": "Feature", "properties": { "id": 45169, "nach": 0.26563614199893371 }, "geometry": { "type": "LineString", "coordinates": [ [ -0.2120691, 51.1940746 ], [ -0.2119269, 51.1941384 ], [ -0.2117873, 51.1941622 ], [ -0.2116246, 51.1940245 ], [ -0.2114984, 51.193864 ], [ -0.2115442, 51.1937393 ], [ -0.2116016, 51.193640299999984 ], [ -0.2114172, 51.1934451 ], [ -0.2113744, 51.1933762 ], [ -0.2113902, 51.1933169 ], [ -0.2120618, 51.1928436 ], [ -0.2121538, 51.1927797 ] ] } },
{ "type": "Feature", "properties": { "id": 45205, "nach": 0.3785528084301451 }, "geometry": { "type": "LineString", "coordinates": [ [ -0.2132516, 51.1915943 ], [ -0.2132382, 51.1915507 ], [ -0.2131719, 51.1914801 ], [ -0.2131094, 51.19144630000001 ], [ -0.2130261, 51.1914283 ], [ -0.212916, 51.1914374 ], [ -0.2124451, 51.191582299999986 ], [ -0.2122928, 51.1916895 ] ] } },
{ "type": "Feature", "properties": { "id": 45210, "nach": 0.29696940244219572 }, "geometry": { "type": "LineString", "coordinates": [ [ -0.2125964, 51.1917786 ], [ -0.2125166, 51.1917866 ], [ -0.2122928, 51.1916895 ] ] } },
{ "type": "Feature", "properties": { "id": 45703, "nach": 0.36904438015451546 }, "geometry": { "type": "LineString", "coordinates": [ [ -0.204105, 51.183947 ], [ -0.2039471, 51.1838885 ], [ -0.2031743, 51.183635 ], [ -0.2028041, 51.183544500000018 ], [ -0.2026764, 51.1834972 ] ] } },
{ "type": "Feature", "properties": { "id": 45705, "nach": 0.26436830329532468 }, "geometry": { "type": "LineString", "coordinates": [ [ -0.2036137, 51.1862274 ], [ -0.2032823, 51.185998900000016 ], [ -0.2031936, 51.1859509 ], [ -0.2030581, 51.1858838 ], [ -0.2028386, 51.185780899999983 ], [ -0.2027951, 51.1857563 ], [ -0.2022062, 51.1854064 ], [ -0.2019334, 51.1852496 ], [ -0.2018824, 51.185181900000011 ], [ -0.2018651, 51.1851206 ], [ -0.2018856, 51.1850839 ], [ -0.2019361, 51.1850284 ], [ -0.2019773, 51.1849808 ], [ -0.2020425, 51.1849332 ], [ -0.2022199, 51.1848306 ], [ -0.203134, 51.1844201 ], [ -0.2035274, 51.184258 ], [ -0.2036115, 51.1842234 ], [ -0.204105, 51.183947 ] ] } },
{ "type": "Feature", "properties": { "id": 47496, "nach": 0.38941065276301612 }, "geometry": { "type": "LineString", "coordinates": [ [ -0.1978556, 51.1883943 ], [ -0.1984873, 51.1883811 ] ] } },
{ "type": "Feature", "properties": { "id": 47498, "nach": 0.46646214077527187 }, "geometry": { "type": "LineString", "coordinates": [ [ -0.1978556, 51.1883943 ], [ -0.197513, 51.1884014 ], [ -0.1972552, 51.1884255 ] ] } },
{ "type": "Feature", "properties": { "id": 47497, "nach": 0.3917864705499926 }, "geometry": { "type": "LineString", "coordinates": [ [ -0.1978556, 51.1883943 ], [ -0.1979083, 51.1885197 ] ] } },
{ "type": "Feature", "properties": { "id": 21377, "nach": 0.45936552447857715 }, "geometry": { "type": "LineString", "coordinates": [ [ -0.1973662, 51.1948576 ], [ -0.1976267, 51.1962787 ] ] } },
{ "type": "Feature", "properties": { "id": 48452, "nach": 0.39939399996235214 }, "geometry": { "type": "LineString", "coordinates": [ [ -0.1967868, 51.19651240000001 ], [ -0.1968751, 51.1964974 ], [ -0.1970136, 51.1964378 ], [ -0.1972563, 51.196346100000014 ], [ -0.1975261, 51.1962919 ], [ -0.1976267, 51.1962787 ] ] } },
{ "type": "Feature", "properties": { "id": 12529, "nach": 0.44058326884742205 }, "geometry": { "type": "LineString", "coordinates": [ [ -0.1978847, 51.197694 ], [ -0.1977495, 51.1969658 ], [ -0.1976267, 51.1962787 ] ] } },
{ "type": "Feature", "properties": { "id": 43675, "nach": 0.50088643000144084 }, "geometry": { "type": "LineString", "coordinates": [ [ -0.1970245, 51.1928958 ], [ -0.1973662, 51.1948576 ] ] } },
{ "type": "Feature", "properties": { "id": 48459, "nach": 0.47498700914451258 }, "geometry": { "type": "LineString", "coordinates": [ [ -0.1971139, 51.1948968 ], [ -0.1972285, 51.194873 ], [ -0.1973662, 51.1948576 ] ] } },
{ "type": "Feature", "properties": { "id": 43671, "nach": 0.5622029303635675 }, "geometry": { "type": "LineString", "coordinates": [ [ -0.1968203, 51.1917756 ], [ -0.196986, 51.1926894 ] ] } },
{ "type": "Feature", "properties": { "id": 47604, "nach": 0.53110464613105934 }, "geometry": { "type": "LineString", "coordinates": [ [ -0.1970137, 51.1928379 ], [ -0.196986, 51.1926894 ] ] } },
{ "type": "Feature", "properties": { "id": 47601, "nach": 0.53208977689205073 }, "geometry": { "type": "LineString", "coordinates": [ [ -0.1975535, 51.1925923 ], [ -0.1972462, 51.1926488 ], [ -0.1970563, 51.1926815 ], [ -0.196986, 51.1926894 ] ] } },
{ "type": "Feature", "properties": { "id": 43670, "nach": 0.56681706958359734 }, "geometry": { "type": "LineString", "coordinates": [ [ -0.1968203, 51.1917756 ], [ -0.1967034, 51.1911248 ] ] } },
{ "type": "Feature", "properties": { "id": 43673, "nach": 0.39076246104312695 }, "geometry": { "type": "LineString", "coordinates": [ [ -0.1963263, 51.1919255 ], [ -0.1964054, 51.191909 ], [ -0.1964738, 51.1918861 ], [ -0.1965433, 51.1918678 ], [ -0.1966968, 51.19180750000001 ], [ -0.1968203, 51.1917756 ] ] } },
{ "type": "Feature", "properties": { "id": 47605, "nach": 0.51719910662860291 }, "geometry": { "type": "LineString", "coordinates": [ [ -0.1970137, 51.1928379 ], [ -0.1970245, 51.1928958 ] ] } },
{ "type": "Feature", "properties": { "id": 47606, "nach": 0.39310005340250243 }, "geometry": { "type": "LineString", "coordinates": [ [ -0.1970137, 51.1928379 ], [ -0.1972394, 51.192824 ] ] } },
{ "type": "Feature", "properties": { "id": 47600, "nach": 0.39396308996530915 }, "geometry": { "type": "LineString", "coordinates": [ [ -0.1975535, 51.1925923 ], [ -0.1975916, 51.192696 ] ] } },
{ "type": "Feature", "properties": { "id": 47632, "nach": 0.52007147166438006 }, "geometry": { "type": "LineString", "coordinates": [ [ -0.1997179, 51.1922077 ], [ -0.1996956, 51.192213 ], [ -0.1993423, 51.19227870000001 ], [ -0.1988427, 51.1923673 ], [ -0.1982036, 51.1924814 ], [ -0.1976201, 51.1925801 ], [ -0.1975535, 51.1925923 ] ] } },
{ "type": "Feature", "properties": { "id": 48465, "nach": 0.38014281743153822 }, "geometry": { "type": "LineString", "coordinates": [ [ -0.1954206, 51.1929159 ], [ -0.1954422, 51.1929659 ], [ -0.1955195, 51.1930168 ], [ -0.1955998, 51.1930339 ], [ -0.1960766, 51.1929767 ], [ -0.196518, 51.1929145 ], [ -0.1968837, 51.1929044 ], [ -0.1970245, 51.1928958 ] ] } },
{ "type": "Feature", "properties": { "id": 48460, "nach": 0.36518401522038807 }, "geometry": { "type": "LineString", "coordinates": [ [ -0.1971139, 51.1948968 ], [ -0.1970507, 51.1949749 ], [ -0.1970238, 51.1950196 ], [ -0.1970619, 51.1951802 ] ] } },
{ "type": "Feature", "properties": { "id": 48462, "nach": 0.44045253888801439 }, "geometry": { "type": "LineString", "coordinates": [ [ -0.1970474, 51.1949107 ], [ -0.1971139, 51.1948968 ] ] } },
{ "type": "Feature", "properties": { "id": 43929, "nach": 0.38113134845349877 }, "geometry": { "type": "LineString", "coordinates": [ [ -0.1966298, 51.1903257 ], [ -0.196745, 51.19030630000001 ], [ -0.1969818, 51.1902334 ], [ -0.1971404, 51.1901846 ], [ -0.1974318, 51.190133900000014 ], [ -0.1978619, 51.190067799999987 ], [ -0.1982725, 51.190004699999989 ], [ -0.1985989, 51.1899414 ], [ -0.1994438, 51.1898718 ], [ -0.1997516, 51.1898609 ], [ -0.2003358, 51.189881 ], [ -0.2005114, 51.189901399999989 ], [ -0.2008707, 51.1899367 ], [ -0.2009979, 51.1898924 ], [ -0.2011453, 51.1898822 ], [ -0.2012628, 51.1898907 ], [ -0.201482, 51.1898323 ], [ -0.2016106, 51.189754 ], [ -0.2021669, 51.1894854 ], [ -0.2027443, 51.1892742 ], [ -0.2030393, 51.189153700000013 ], [ -0.2039537, 51.1889865 ], [ -0.2042332, 51.1889138 ], [ -0.204356, 51.1888807 ], [ -0.2044482, 51.188864700000018 ], [ -0.204724, 51.1889386 ], [ -0.2051462, 51.1890588 ], [ -0.2055925, 51.1891706 ], [ -0.2056719, 51.1892063 ], [ -0.2057503, 51.1892707 ] ] } },
{ "type": "Feature", "properties": { "id": 34247, "nach": 0.42014559473821167 }, "geometry": { "type": "LineString", "coordinates": [ [ -0.2055174, 51.1893279 ], [ -0.2055632, 51.1893031 ], [ -0.2057503, 51.1892707 ] ] } },
{ "type": "Feature", "properties": { "id": 47390, "nach": 0.41915935913988067 }, "geometry": { "type": "LineString", "coordinates": [ [ -0.2061106, 51.1892294 ], [ -0.2059453, 51.1892462 ], [ -0.2057503, 51.1892707 ] ] } },
{ "type": "Feature", "properties": { "id": 47499, "nach": 0.42920027047826537 }, "geometry": { "type": "LineString", "coordinates": [ [ -0.1965582, 51.1903366 ], [ -0.1966298, 51.1903257 ] ] } },
{ "type": "Feature", "properties": { "id": 43930, "nach": 0.45159932333768993 }, "geometry": { "type": "LineString", "coordinates": [ [ -0.1965397, 51.189970700000011 ], [ -0.1966298, 51.1903257 ] ] } },
{ "type": "Feature", "properties": { "id": 47383, "nach": 0.32252710240044574 }, "geometry": { "type": "LineString", "coordinates": [ [ -0.2050552, 51.1897034 ], [ -0.2049993, 51.1895406 ], [ -0.2050204, 51.189499 ], [ -0.2051633, 51.189448500000012 ], [ -0.2054438, 51.1893384 ], [ -0.2055174, 51.1893279 ] ] } },
{ "type": "Feature", "properties": { "id": 47391, "nach": 0.40633018386318143 }, "geometry": { "type": "LineString", "coordinates": [ [ -0.2061106, 51.1892294 ], [ -0.2062301, 51.189217200000016 ], [ -0.2065283, 51.1892022 ] ] } },
{ "type": "Feature", "properties": { "id": 47389, "nach": 0.34148863031638199 }, "geometry": { "type": "LineString", "coordinates": [ [ -0.2061106, 51.1892294 ], [ -0.2061553, 51.1893768 ], [ -0.2060835, 51.1893926 ] ] } },
{ "type": "Feature", "properties": { "id": 30253, "nach": 0.44226505700990931 }, "geometry": { "type": "LineString", "coordinates": [ [ -0.1954798, 51.1892422 ], [ -0.1956156, 51.1892263 ] ] } },
{ "type": "Feature", "properties": { "id": 43905, "nach": 0.49542235264460827 }, "geometry": { "type": "LineString", "coordinates": [ [ -0.1926138, 51.1889746 ], [ -0.192956, 51.1889862 ], [ -0.19364, 51.189005 ], [ -0.1940781, 51.1890267 ], [ -0.1944431, 51.189054 ], [ -0.1950314, 51.1891325 ], [ -0.1954798, 51.1892422 ] ] } },
{ "type": "Feature", "properties": { "id": 43986, "nach": 0.47233097973876809 }, "geometry": { "type": "LineString", "coordinates": [ [ -0.1955756, 51.1893054 ], [ -0.1954798, 51.1892422 ] ] } },
{ "type": "Feature", "properties": { "id": 43984, "nach": 0.34937770045247363 }, "geometry": { "type": "LineString", "coordinates": [ [ -0.1956156, 51.1892263 ], [ -0.1956072, 51.189151 ] ] } },
{ "type": "Feature", "properties": { "id": 43983, "nach": 0.47256633213794264 }, "geometry": { "type": "LineString", "coordinates": [ [ -0.1956156, 51.1892263 ], [ -0.195794, 51.1891939 ] ] } },
{ "type": "Feature", "properties": { "id": 43987, "nach": 0.41694061682838723 }, "geometry": { "type": "LineString", "coordinates": [ [ -0.1955756, 51.1893054 ], [ -0.1955975, 51.1892845 ], [ -0.1956105, 51.1892576 ], [ -0.1956156, 51.1892263 ] ] } },
{ "type": "Feature", "properties": { "id": 30255, "nach": 0.48241057022080663 }, "geometry": { "type": "LineString", "coordinates": [ [ -0.1957576, 51.1893487 ], [ -0.1955756, 51.1893054 ] ] } },
{ "type": "Feature", "properties": { "id": 30256, "nach": 0.41787751794464068 }, "geometry": { "type": "LineString", "coordinates": [ [ -0.1957576, 51.1893487 ], [ -0.195746, 51.1892956 ], [ -0.1957584, 51.1892426 ], [ -0.195794, 51.1891939 ] ] } },
{ "type": "Feature", "properties": { "id": 33053, "nach": 0.49746943727135473 }, "geometry": { "type": "LineString", "coordinates": [ [ -0.196069, 51.189486 ], [ -0.1959671, 51.18947940000001 ], [ -0.1958746, 51.189451800000015 ], [ -0.195802, 51.1894066 ], [ -0.1957576, 51.1893487 ] ] } },
{ "type": "Feature", "properties": { "id": 43990, "nach": 0.32564774323574408 }, "geometry": { "type": "LineString", "coordinates": [ [ -0.1961352, 51.189584299999986 ], [ -0.1960427, 51.189561599999983 ], [ -0.195922, 51.1895498 ], [ -0.1958241, 51.1895221 ], [ -0.195749, 51.1894868 ], [ -0.1956296, 51.1894086 ], [ -0.1955234, 51.1893609 ], [ -0.1955756, 51.1893054 ] ] } },
{ "type": "Feature", "properties": { "id": 30257, "nach": 0.4991323939259924 }, "geometry": { "type": "LineString", "coordinates": [ [ -0.195794, 51.1891939 ], [ -0.1958631, 51.1891465 ] ] } },
{ "type": "Feature", "properties": { "id": 30258, "nach": 0.49489710869072917 }, "geometry": { "type": "LineString", "coordinates": [ [ -0.1958631, 51.1891465 ], [ -0.1959451, 51.1890232 ] ] } },
{ "type": "Feature", "properties": { "id": 30259, "nach": 0.32982803771683422 }, "geometry": { "type": "LineString", "coordinates": [ [ -0.1958631, 51.1891465 ], [ -0.1959534, 51.1891163 ], [ -0.1960547, 51.1891067 ], [ -0.1961553, 51.1891187 ] ] } },
{ "type": "Feature", "properties": { "id": 33059, "nach": 0.50787737489031648 }, "geometry": { "type": "LineString", "coordinates": [ [ -0.1959451, 51.1890232 ], [ -0.1960516, 51.1889266 ] ] } },
{ "type": "Feature", "properties": { "id": 43943, "nach": 0.4178925766548886 }, "geometry": { "type": "LineString", "coordinates": [ [ -0.1958344, 51.188994900000012 ], [ -0.1959451, 51.1890232 ] ] } },
{ "type": "Feature", "properties": { "id": 43947, "nach": 0.40238397161779887 }, "geometry": { "type": "LineString", "coordinates": [ [ -0.1961014, 51.1890266 ], [ -0.1960328, 51.18903490000001 ], [ -0.1959912, 51.1890287 ], [ -0.1959451, 51.1890232 ] ] } },
{ "type": "Feature", "properties": { "id": 30260, "nach": 0.50784453867747981 }, "geometry": { "type": "LineString", "coordinates": [ [ -0.1961553, 51.1891187 ], [ -0.1962437, 51.189151 ], [ -0.1963099, 51.1892 ], [ -0.1963463, 51.18926 ], [ -0.1963487, 51.1893242 ] ] } },
{ "type": "Feature", "properties": { "id": 43946, "nach": 0.50948898819785227 }, "geometry": { "type": "LineString", "coordinates": [ [ -0.1961014, 51.1890266 ], [ -0.1961553, 51.1891187 ] ] } },
{ "type": "Feature", "properties": { "id": 30261, "nach": 0.49305239147973101 }, "geometry": { "type": "LineString", "coordinates": [ [ -0.1963487, 51.1893242 ], [ -0.1963897, 51.18948360000001 ] ] } },
{ "type": "Feature", "properties": { "id": 30262, "nach": 0.35895958305489228 }, "geometry": { "type": "LineString", "coordinates": [ [ -0.1963487, 51.1893242 ], [ -0.1963169, 51.1893852 ], [ -0.1962545, 51.1894361 ], [ -0.1961685, 51.189471 ], [ -0.196069, 51.189486 ] ] } },
{ "type": "Feature", "properties": { "id": 43939, "nach": 0.42797210268521679 }, "geometry": { "type": "LineString", "coordinates": [ [ -0.1963897, 51.18948360000001 ], [ -0.1963, 51.1895001 ], [ -0.1962526, 51.1895118 ], [ -0.1961981, 51.189543300000011 ] ] } },
{ "type": "Feature", "properties": { "id": 43941, "nach": 0.41872052898364559 }, "geometry": { "type": "LineString", "coordinates": [ [ -0.1964741, 51.18946960000001 ], [ -0.1963897, 51.18948360000001 ] ] } },
{ "type": "Feature", "properties": { "id": 43938, "nach": 0.48063941774819841 }, "geometry": { "type": "LineString", "coordinates": [ [ -0.1963897, 51.18948360000001 ], [ -0.1964008, 51.189527 ], [ -0.196358, 51.1896421 ] ] } },
{ "type": "Feature", "properties": { "id": 43934, "nach": 0.49974581842659549 }, "geometry": { "type": "LineString", "coordinates": [ [ -0.1961981, 51.189543300000011 ], [ -0.196069, 51.189486 ] ] } },
{ "type": "Feature", "properties": { "id": 43964, "nach": 0.40073333469806022 }, "geometry": { "type": "LineString", "coordinates": [ [ -0.1963609, 51.1899557 ], [ -0.196321, 51.189964099999976 ], [ -0.1941433, 51.1899927 ], [ -0.1940323, 51.1899353 ], [ -0.1936146, 51.189761 ], [ -0.1926478, 51.1894734 ], [ -0.1924077, 51.189382 ], [ -0.1916659, 51.1891613 ], [ -0.191351, 51.1890597 ], [ -0.191337, 51.188985 ] ] } },
{ "type": "Feature", "properties": { "id": 43962, "nach": 0.46074073592417736 }, "geometry": { "type": "LineString", "coordinates": [ [ -0.1963609, 51.1899557 ], [ -0.1964502, 51.189966700000014 ] ] } },
{ "type": "Feature", "properties": { "id": 43991, "nach": 0.37003118293319498 }, "geometry": { "type": "LineString", "coordinates": [ [ -0.1962921, 51.189802 ], [ -0.1963609, 51.1899557 ] ] } },
{ "type": "Feature", "properties": { "id": 47521, "nach": 0.58798238477957243 }, "geometry": { "type": "LineString", "coordinates": [ [ -0.1964202, 51.1898662 ], [ -0.1964502, 51.189966700000014 ] ] } },
{ "type": "Feature", "properties": { "id": 47500, "nach": 0.58745228195428567 }, "geometry": { "type": "LineString", "coordinates": [ [ -0.1965582, 51.1903366 ], [ -0.1964502, 51.189966700000014 ] ] } },
{ "type": "Feature", "properties": { "id": 43932, "nach": 0.39379563241930998 }, "geometry": { "type": "LineString", "coordinates": [ [ -0.1965397, 51.189970700000011 ], [ -0.1964502, 51.189966700000014 ] ] } },
{ "type": "Feature", "properties": { "id": 47520, "nach": 0.59100118507924848 }, "geometry": { "type": "LineString", "coordinates": [ [ -0.1964202, 51.1898662 ], [ -0.1964159, 51.1898308 ] ] } },
{ "type": "Feature", "properties": { "id": 47522, "nach": 0.33217117579657884 }, "geometry": { "type": "LineString", "coordinates": [ [ -0.1964202, 51.1898662 ], [ -0.1965213, 51.189854900000014 ] ] } },
{ "type": "Feature", "properties": { "id": 48476, "nach": 0.59157676283391236 }, "geometry": { "type": "LineString", "coordinates": [ [ -0.1965805, 51.1904727 ], [ -0.1965582, 51.1903366 ] ] } },
{ "type": "Feature", "properties": { "id": 47516, "nach": 0.45271274446433524 }, "geometry": { "type": "LineString", "coordinates": [ [ -0.1965213, 51.189854900000014 ], [ -0.1965397, 51.189970700000011 ] ] } },
{ "type": "Feature", "properties": { "id": 47523, "nach": 0.40252126427573942 }, "geometry": { "type": "LineString", "coordinates": [ [ -0.196701, 51.1900466 ], [ -0.1966658, 51.1899704 ], [ -0.1965397, 51.189970700000011 ] ] } },
{ "type": "Feature", "properties": { "id": 43949, "nach": 0.53191912133543418 }, "geometry": { "type": "LineString", "coordinates": [ [ -0.1963923, 51.1897524 ], [ -0.196358, 51.1896421 ] ] } },
{ "type": "Feature", "properties": { "id": 33052, "nach": 0.49474442156597964 }, "geometry": { "type": "LineString", "coordinates": [ [ -0.196358, 51.1896421 ], [ -0.1962434, 51.189576 ], [ -0.1961981, 51.189543300000011 ] ] } },
{ "type": "Feature", "properties": { "id": 43993, "nach": 0.59457327491231193 }, "geometry": { "type": "LineString", "coordinates": [ [ -0.1964159, 51.1898308 ], [ -0.1963923, 51.1897524 ] ] } },
{ "type": "Feature", "properties": { "id": 43952, "nach": 0.56365179841541235 }, "geometry": { "type": "LineString", "coordinates": [ [ -0.1964754, 51.1897003 ], [ -0.1963923, 51.1897524 ] ] } },
{ "type": "Feature", "properties": { "id": 43989, "nach": 0.37977116394280186 }, "geometry": { "type": "LineString", "coordinates": [ [ -0.1961352, 51.189584299999986 ], [ -0.1961981, 51.189543300000011 ] ] } },
{ "type": "Feature", "properties": { "id": 33057, "nach": 0.55427010455193204 }, "geometry": { "type": "LineString", "coordinates": [ [ -0.1960516, 51.1889266 ], [ -0.196158, 51.1886848 ] ] } },
{ "type": "Feature", "properties": { "id": 33058, "nach": 0.50414976001390488 }, "geometry": { "type": "LineString", "coordinates": [ [ -0.1960516, 51.1889266 ], [ -0.1960753, 51.188983 ], [ -0.1961014, 51.1890266 ] ] } },
{ "type": "Feature", "properties": { "id": 43958, "nach": 0.58524176693119978 }, "geometry": { "type": "LineString", "coordinates": [ [ -0.1962768, 51.18868 ], [ -0.1962784, 51.1887428 ], [ -0.1962988, 51.1888018 ], [ -0.1963533, 51.1890084 ] ] } },
{ "type": "Feature", "properties": { "id": 47492, "nach": 0.50288724554387421 }, "geometry": { "type": "LineString", "coordinates": [ [ -0.1972552, 51.1884255 ], [ -0.1967754, 51.1884703 ], [ -0.1966762, 51.1885846 ], [ -0.1965931, 51.1886569 ], [ -0.1964321, 51.1886788 ], [ -0.1962768, 51.18868 ] ] } },
{ "type": "Feature", "properties": { "id": 43955, "nach": 0.29642885845493461 }, "geometry": { "type": "LineString", "coordinates": [ [ -0.1963533, 51.1890084 ], [ -0.1961657, 51.1890197 ], [ -0.1961014, 51.1890266 ] ] } },
{ "type": "Feature", "properties": { "id": 43981, "nach": 0.498125740167705 }, "geometry": { "type": "LineString", "coordinates": [ [ -0.1956072, 51.189151 ], [ -0.1957002, 51.1891337 ], [ -0.195767, 51.1890887 ], [ -0.1958344, 51.188994900000012 ] ] } },
{ "type": "Feature", "properties": { "id": 34242, "nach": 0.39355226627253037 }, "geometry": { "type": "LineString", "coordinates": [ [ -0.2036665, 51.1904336 ], [ -0.2037357, 51.1904736 ] ] } },
{ "type": "Feature", "properties": { "id": 37101, "nach": 0.46564895017412938 }, "geometry": { "type": "LineString", "coordinates": [ [ -0.2024972, 51.1913535 ], [ -0.2025749, 51.191291200000023 ], [ -0.202659, 51.1912209 ], [ -0.2028189, 51.1910884 ], [ -0.2030197, 51.1909321 ], [ -0.2032278, 51.1907931 ], [ -0.2036214, 51.19056 ], [ -0.2037357, 51.1904736 ] ] } },
{ "type": "Feature", "properties": { "id": 34245, "nach": 0.31770074066121579 }, "geometry": { "type": "LineString", "coordinates": [ [ -0.2027283, 51.190042 ], [ -0.2028185, 51.190158 ], [ -0.202926, 51.1902846 ], [ -0.2029974, 51.190353199999983 ], [ -0.2030787, 51.1904073 ], [ -0.2031653, 51.190438 ], [ -0.2032873, 51.1904508 ], [ -0.2034264, 51.1904495 ], [ -0.2035429, 51.1904181 ], [ -0.2036133, 51.1904132 ], [ -0.2036665, 51.1904336 ] ] } },
{ "type": "Feature", "properties": { "id": 47607, "nach": 0.31337816271609614 }, "geometry": { "type": "LineString", "coordinates": [ [ -0.203705, 51.189721199999987 ], [ -0.2038447, 51.1896596 ], [ -0.2039505, 51.1896833 ], [ -0.2039803, 51.1897787 ], [ -0.2041166, 51.190029 ], [ -0.2041798, 51.1901212 ], [ -0.2041707, 51.190183 ], [ -0.2039976, 51.1902611 ], [ -0.2038299, 51.1903295 ], [ -0.2036732, 51.1903838 ], [ -0.2036665, 51.1904336 ] ] } },
{ "type": "Feature", "properties": { "id": 47628, "nach": 0.47143711192087567 }, "geometry": { "type": "LineString", "coordinates": [ [ -0.2011056, 51.1918476 ], [ -0.2013492, 51.1917849 ], [ -0.2017643, 51.1916716 ], [ -0.2021682, 51.1915611 ], [ -0.2023654, 51.191460500000019 ], [ -0.2024972, 51.1913535 ] ] } },
{ "type": "Feature", "properties": { "id": 37103, "nach": 0.39192681604751783 }, "geometry": { "type": "LineString", "coordinates": [ [ -0.2028045, 51.1904604 ], [ -0.2027168, 51.190575100000011 ], [ -0.2026142, 51.1907273 ], [ -0.2025457, 51.1908836 ], [ -0.2025134, 51.1910174 ], [ -0.202476, 51.1912353 ], [ -0.2024972, 51.1913535 ] ] } },
{ "type": "Feature", "properties": { "id": 34482, "nach": 0.39089670163598733 }, "geometry": { "type": "LineString", "coordinates": [ [ -0.1966455, 51.1907992 ], [ -0.1964037, 51.1908629 ], [ -0.1962005, 51.1908881 ], [ -0.1959514, 51.190918700000012 ], [ -0.1958396, 51.1909102 ], [ -0.1957632, 51.1908303 ] ] } },
{ "type": "Feature", "properties": { "id": 48473, "nach": 0.58144729606121182 }, "geometry": { "type": "LineString", "coordinates": [ [ -0.1966359, 51.19074280000001 ], [ -0.1966455, 51.1907992 ] ] } },
{ "type": "Feature", "properties": { "id": 43667, "nach": 0.57658587352992308 }, "geometry": { "type": "LineString", "coordinates": [ [ -0.1967034, 51.1911248 ], [ -0.1966455, 51.1907992 ] ] } },
{ "type": "Feature", "properties": { "id": 48474, "nach": 0.39651682139131006 }, "geometry": { "type": "LineString", "coordinates": [ [ -0.1966359, 51.19074280000001 ], [ -0.1964893, 51.1907675 ], [ -0.196252, 51.190794299999986 ] ] } },
{ "type": "Feature", "properties": { "id": 48477, "nach": 0.58633494631993965 }, "geometry": { "type": "LineString", "coordinates": [ [ -0.1965805, 51.1904727 ], [ -0.1966359, 51.19074280000001 ] ] } },
{ "type": "Feature", "properties": { "id": 48467, "nach": 0.45996060159841007 }, "geometry": { "type": "LineString", "coordinates": [ [ -0.1956688, 51.1911921 ], [ -0.195792, 51.1911812 ], [ -0.1962407, 51.1911455 ], [ -0.1965763, 51.1911322 ], [ -0.1967034, 51.1911248 ] ] } },
{ "type": "Feature", "properties": { "id": 47627, "nach": 0.49349884070149475 }, "geometry": { "type": "LineString", "coordinates": [ [ -0.2011056, 51.1918476 ], [ -0.201018, 51.19187010000001 ], [ -0.200694, 51.19195770000001 ], [ -0.2003494, 51.1920532 ], [ -0.2000225, 51.1921332 ], [ -0.199887, 51.1921673 ] ] } },
{ "type": "Feature", "properties": { "id": 47629, "nach": 0.43856563672983445 }, "geometry": { "type": "LineString", "coordinates": [ [ -0.2011056, 51.1918476 ], [ -0.2011577, 51.1919123 ], [ -0.2012528, 51.1920036 ] ] } },
{ "type": "Feature", "properties": { "id": 40988, "nach": 0.3132178724320771 }, "geometry": { "type": "LineString", "coordinates": [ [ -0.2026769, 51.1899068 ], [ -0.2026364, 51.1899756 ], [ -0.2026481, 51.1900256 ], [ -0.2026716, 51.1900623 ], [ -0.2027418, 51.1901757 ], [ -0.2028674, 51.1903298 ], [ -0.2028905, 51.1903782 ], [ -0.2028788, 51.1904175 ], [ -0.2028045, 51.1904604 ] ] } },
{ "type": "Feature", "properties": { "id": 47608, "nach": 0.31468821224096932 }, "geometry": { "type": "LineString", "coordinates": [ [ -0.2025431, 51.190089 ], [ -0.2026045, 51.1900912 ], [ -0.2026442, 51.1901084 ], [ -0.202676, 51.1902472 ], [ -0.2027553, 51.1903719 ], [ -0.2028045, 51.1904604 ] ] } },
{ "type": "Feature", "properties": { "id": 40116, "nach": 0.39779994393106144 }, "geometry": { "type": "LineString", "coordinates": [ [ -0.1975441, 51.1877837 ], [ -0.1975703, 51.1880575 ] ] } },
{ "type": "Feature", "properties": { "id": 47636, "nach": 0.50370522745056479 }, "geometry": { "type": "LineString", "coordinates": [ [ -0.1998388, 51.1921788 ], [ -0.199887, 51.1921673 ] ] } },
{ "type": "Feature", "properties": { "id": 40249, "nach": 0.36919757095497141 }, "geometry": { "type": "LineString", "coordinates": [ [ -0.1999903, 51.1917325 ], [ -0.1999178, 51.1919051 ], [ -0.1998743, 51.19208230000001 ], [ -0.199887, 51.1921673 ] ] } },
{ "type": "Feature", "properties": { "id": 47635, "nach": 0.51309405561883625 }, "geometry": { "type": "LineString", "coordinates": [ [ -0.1998388, 51.1921788 ], [ -0.1997179, 51.1922077 ] ] } },
{ "type": "Feature", "properties": { "id": 47637, "nach": 0.37517324328382295 }, "geometry": { "type": "LineString", "coordinates": [ [ -0.1998388, 51.1921788 ], [ -0.1998866, 51.1922448 ] ] } },
{ "type": "Feature", "properties": { "id": 47517, "nach": 0.46872397040981956 }, "geometry": { "type": "LineString", "coordinates": [ [ -0.1965213, 51.189854900000014 ], [ -0.1964754, 51.1897003 ] ] } },
{ "type": "Feature", "properties": { "id": 47519, "nach": 0.4013109215932294 }, "geometry": { "type": "LineString", "coordinates": [ [ -0.1965213, 51.189854900000014 ], [ -0.1966405, 51.189844800000017 ], [ -0.1966806, 51.1897624 ] ] } },
{ "type": "Feature", "properties": { "id": 43992, "nach": 0.36559540600775098 }, "geometry": { "type": "LineString", "coordinates": [ [ -0.1962921, 51.189802 ], [ -0.196221, 51.1896524 ], [ -0.1961352, 51.189584299999986 ] ] } },
{ "type": "Feature", "properties": { "id": 43953, "nach": 0.58429905553522721 }, "geometry": { "type": "LineString", "coordinates": [ [ -0.1963533, 51.1890084 ], [ -0.1964741, 51.18946960000001 ] ] } },
{ "type": "Feature", "properties": { "id": 43942, "nach": 0.57953532839341904 }, "geometry": { "type": "LineString", "coordinates": [ [ -0.1964741, 51.18946960000001 ], [ -0.1964866, 51.1895213 ], [ -0.1964754, 51.1897003 ] ] } },
{ "type": "Feature", "properties": { "id": 43995, "nach": 0.36135996539977439 }, "geometry": { "type": "LineString", "coordinates": [ [ -0.1964159, 51.1898308 ], [ -0.1962921, 51.189802 ] ] } },
{ "type": "Feature", "properties": { "id": 47494, "nach": 0.39351594222095682 }, "geometry": { "type": "LineString", "coordinates": [ [ -0.1972552, 51.1884255 ], [ -0.1972597, 51.188573900000016 ], [ -0.1972888, 51.188691 ] ] } },
{ "type": "Feature", "properties": { "id": 47377, "nach": 0.32709111084074971 }, "geometry": { "type": "LineString", "coordinates": [ [ -0.2094022, 51.1877019 ], [ -0.2091891, 51.1878502 ], [ -0.2089774, 51.188081 ], [ -0.2089086, 51.1881572 ], [ -0.2086763, 51.1882716 ], [ -0.2087075, 51.188321100000024 ] ] } },
{ "type": "Feature", "properties": { "id": 47378, "nach": 0.32582829380967415 }, "geometry": { "type": "LineString", "coordinates": [ [ -0.2094022, 51.1877019 ], [ -0.2093447, 51.1876728 ], [ -0.2092792, 51.1875971 ], [ -0.2092393, 51.187471400000014 ], [ -0.2092026, 51.1872824 ], [ -0.2091891, 51.1872511 ], [ -0.2090793, 51.1872403 ], [ -0.2089897, 51.1872542 ], [ -0.208957, 51.1872763 ], [ -0.2089671, 51.187328 ], [ -0.2089874, 51.187441600000021 ] ] } },
{ "type": "Feature", "properties": { "id": 48478, "nach": 0.39936733340392705 }, "geometry": { "type": "LineString", "coordinates": [ [ -0.1965805, 51.1904727 ], [ -0.1963619, 51.190517900000017 ], [ -0.1963533, 51.1906046 ] ] } },
{ "type": "Feature", "properties": { "id": 47638, "nach": 0.36775010232636257 }, "geometry": { "type": "LineString", "coordinates": [ [ -0.2004893, 51.193099900000014 ], [ -0.2004248, 51.1930285 ], [ -0.2004319, 51.1929747 ], [ -0.200319, 51.1927782 ], [ -0.2002041, 51.1926182 ], [ -0.2000913, 51.1925515 ], [ -0.1999857, 51.1924605 ], [ -0.199846, 51.1923609 ], [ -0.1997441, 51.1922525 ], [ -0.1997179, 51.1922077 ] ] } },
{ "type": "Feature", "properties": { "id": 47626, "nach": 0.36349121428467673 }, "geometry": { "type": "LineString", "coordinates": [ [ -0.2012528, 51.1920036 ], [ -0.201203, 51.1920479 ], [ -0.2011903, 51.1920983 ] ] } },
{ "type": "Feature", "properties": { "id": 47630, "nach": 0.36204468039825644 }, "geometry": { "type": "LineString", "coordinates": [ [ -0.2015037, 51.1922348 ], [ -0.2012528, 51.1920036 ] ] } },
{ "type": "Feature", "properties": { "id": 48464, "nach": 0.36483380070251087 }, "geometry": { "type": "LineString", "coordinates": [ [ -0.1970474, 51.1949107 ], [ -0.1968869, 51.1949441 ], [ -0.1966868, 51.1949594 ], [ -0.1964723, 51.1949701 ], [ -0.1964615, 51.1950214 ] ] } },
{ "type": "Feature", "properties": { "id": 48463, "nach": 0.3655484934509875 }, "geometry": { "type": "LineString", "coordinates": [ [ -0.1970474, 51.1949107 ], [ -0.1969796, 51.1948219 ] ] } }
]
}
