{
"type": "FeatureCollection",
"name": "d0bd8b463b52_visibility",
"crs": { "type": "name", "properties": { "name": "urn:ogc:def:crs:OGC:1.3:CRS84" } },
"features": [
{ "type": "Feature", "properties": { "visible_points": 0, "total_points": 61, "visibility_pct": 0.0 }, "geometry": { "type": "Point", "coordinates": [ 0.274792732836262, 51.209263369644219 ] } },
{ "type": "Feature", "properties": { "visible_points": 1, "total_points": 63, "visibility_pct": 1.5873015873015872 }, "geometry": { "type": "Point", "coordinates": [ 0.274990935482234, 51.209259515957427 ] } },
{ "type": "Feature", "properties": { "visible_points": 0, "total_points": 62, "visibility_pct": 0.0 }, "geometry": { "type": "Point", "coordinates": [ 0.274500740686933, 51.209376969010556 ] } },
{ "type": "Feature", "properties": { "visible_points": 0, "total_points": 68, "visibility_pct": 0.0 }, "geometry": { "type": "Point", "coordinates": [ 0.274698943853506, 51.209373115797533 ] } },
{ "type": "Feature", "properties": { "visible_points": 0, "total_points": 71, "visibility_pct": 0.0 }, "geometry": { "type": "Point", "coordinates": [ 0.274897146976722, 51.20936926224995 ] } },
{ "type": "Feature", "properties": { "visible_points": 1, "total_points": 71, "visibility_pct": 1.4084507042253522 }, "geometry": { "type": "Point", "coordinates": [ 0.27509535005658, 51.209365408367802 ] } },
{ "type": "Feature", "properties": { "visible_points": 0, "total_points": 66, "visibility_pct": 0.0 }, "geometry": { "type": "Point", "coordinates": [ 0.274406950793061, 51.209486714965927 ] } },
{ "type": "Feature", "properties": { "visible_points": 0, "total_points": 74, "visibility_pct": 0.0 }, "geometry": { "type": "Point", "coordinates": [ 0.274605154436875, 51.209482861892155 ] } },
{ "type": "Feature", "properties": { "visible_points": 0, "total_points": 79, "visibility_pct": 0.0 }, "geometry": { "type": "Point", "coordinates": [ 0.27480335803734, 51.209479008483783 ] } },
{ "type": "Feature", "properties": { "visible_points": 0, "total_points": 80, "visibility_pct": 0.0 }, "geometry": { "type": "Point", "coordinates": [ 0.275001561594441, 51.209475154740879 ] } },
{ "type": "Feature", "properties": { "visible_points": 0, "total_points": 80, "visibility_pct": 0.0 }, "geometry": { "type": "Point", "coordinates": [ 0.275199765108185, 51.209471300663388 ] } },
{ "type": "Feature", "properties": { "visible_points": 0, "total_points": 75, "visibility_pct": 0.0 }, "geometry": { "type": "Point", "coordinates": [ 0.275397968578562, 51.209467446251338 ] } },
{ "type": "Feature", "properties": { "visible_points": 0, "total_points": 41, "visibility_pct": 0.0 }, "geometry": { "type": "Point", "coordinates": [ 0.278569218203743, 51.209405730157705 ] } },
{ "type": "Feature", "properties": { "visible_points": 0, "total_points": 78, "visibility_pct": 0.0 }, "geometry": { "type": "Point", "coordinates": [ 0.274511364586369, 51.209592607928066 ] } },
{ "type": "Feature", "properties": { "visible_points": 0, "total_points": 87, "visibility_pct": 0.0 }, "geometry": { "type": "Point", "coordinates": [ 0.274709568664081, 51.209588754658938 ] } },
{ "type": "Feature", "properties": { "visible_points": 0, "total_points": 89, "visibility_pct": 0.0 }, "geometry": { "type": "Point", "coordinates": [ 0.274907772698431, 51.209584901055258 ] } },
{ "type": "Feature", "properties": { "visible_points": 0, "total_points": 90, "visibility_pct": 0.0 }, "geometry": { "type": "Point", "coordinates": [ 0.275105976689426, 51.209581047116991 ] } },
{ "type": "Feature", "properties": { "visible_points": 0, "total_points": 88, "visibility_pct": 0.0 }, "geometry": { "type": "Point", "coordinates": [ 0.275304180637055, 51.209577192844158 ] } },
{ "type": "Feature", "properties": { "visible_points": 0, "total_points": 80, "visibility_pct": 0.0 }, "geometry": { "type": "Point", "coordinates": [ 0.275502384541314, 51.209573338236773 ] } },
{ "type": "Feature", "properties": { "visible_points": 0, "total_points": 44, "visibility_pct": 0.0 }, "geometry": { "type": "Point", "coordinates": [ 0.278673641108341, 51.209511619017526 ] } },
{ "type": "Feature", "properties": { "visible_points": 0, "total_points": 90, "visibility_pct": 0.0 }, "geometry": { "type": "Point", "coordinates": [ 0.274615778856941, 51.209698500775403 ] } },
{ "type": "Feature", "properties": { "visible_points": 0, "total_points": 98, "visibility_pct": 0.0 }, "geometry": { "type": "Point", "coordinates": [ 0.274813983368547, 51.209694647310933 ] } },
{ "type": "Feature", "properties": { "visible_points": 0, "total_points": 100, "visibility_pct": 0.0 }, "geometry": { "type": "Point", "coordinates": [ 0.275012187836792, 51.209690793511911 ] } },
{ "type": "Feature", "properties": { "visible_points": 0, "total_points": 98, "visibility_pct": 0.0 }, "geometry": { "type": "Point", "coordinates": [ 0.275210392261677, 51.209686939378315 ] } },
{ "type": "Feature", "properties": { "visible_points": 0, "total_points": 92, "visibility_pct": 0.0 }, "geometry": { "type": "Point", "coordinates": [ 0.275408596643192, 51.209683084910139 ] } },
{ "type": "Feature", "properties": { "visible_points": 0, "total_points": 56, "visibility_pct": 0.0 }, "geometry": { "type": "Point", "coordinates": [ 0.278381657159387, 51.209625227739537 ] } },
{ "type": "Feature", "properties": { "visible_points": 0, "total_points": 50, "visibility_pct": 0.0 }, "geometry": { "type": "Point", "coordinates": [ 0.278579860846524, 51.209621367918309 ] } },
{ "type": "Feature", "properties": { "visible_points": 2, "total_points": 45, "visibility_pct": 4.4444444444444446 }, "geometry": { "type": "Point", "coordinates": [ 0.278778064490235, 51.209617507762509 ] } },
{ "type": "Feature", "properties": { "visible_points": 0, "total_points": 87, "visibility_pct": 0.0 }, "geometry": { "type": "Point", "coordinates": [ 0.27452198861592, 51.20980824683317 ] } },
{ "type": "Feature", "properties": { "visible_points": 0, "total_points": 99, "visibility_pct": 0.0 }, "geometry": { "type": "Point", "coordinates": [ 0.274720193604778, 51.20980439350793 ] } },
{ "type": "Feature", "properties": { "visible_points": 0, "total_points": 107, "visibility_pct": 0.0 }, "geometry": { "type": "Point", "coordinates": [ 0.274918398550282, 51.209800539848118 ] } },
{ "type": "Feature", "properties": { "visible_points": 0, "total_points": 106, "visibility_pct": 0.0 }, "geometry": { "type": "Point", "coordinates": [ 0.275116603452423, 51.209796685853753 ] } },
{ "type": "Feature", "properties": { "visible_points": 0, "total_points": 103, "visibility_pct": 0.0 }, "geometry": { "type": "Point", "coordinates": [ 0.275314808311196, 51.209792831524815 ] } },
{ "type": "Feature", "properties": { "visible_points": 0, "total_points": 96, "visibility_pct": 0.0 }, "geometry": { "type": "Point", "coordinates": [ 0.275513013126601, 51.209788976861319 ] } },
{ "type": "Feature", "properties": { "visible_points": 0, "total_points": 67, "visibility_pct": 0.0 }, "geometry": { "type": "Point", "coordinates": [ 0.278089671778603, 51.209738835789906 ] } },
{ "type": "Feature", "properties": { "visible_points": 0, "total_points": 62, "visibility_pct": 0.0 }, "geometry": { "type": "Point", "coordinates": [ 0.278287875986446, 51.209734976442448 ] } },
{ "type": "Feature", "properties": { "visible_points": 0, "total_points": 56, "visibility_pct": 0.0 }, "geometry": { "type": "Point", "coordinates": [ 0.278486080150871, 51.209731116760416 ] } },
{ "type": "Feature", "properties": { "visible_points": 0, "total_points": 50, "visibility_pct": 0.0 }, "geometry": { "type": "Point", "coordinates": [ 0.278684284271865, 51.209727256743811 ] } },
{ "type": "Feature", "properties": { "visible_points": 0, "total_points": 90, "visibility_pct": 0.0 }, "geometry": { "type": "Point", "coordinates": [ 0.274626403407126, 51.209914139646266 ] } },
{ "type": "Feature", "properties": { "visible_points": 0, "total_points": 100, "visibility_pct": 0.0 }, "geometry": { "type": "Point", "coordinates": [ 0.274824608829889, 51.209910286125691 ] } },
{ "type": "Feature", "properties": { "visible_points": 0, "total_points": 105, "visibility_pct": 0.0 }, "geometry": { "type": "Point", "coordinates": [ 0.275022814209285, 51.209906432270536 ] } },
{ "type": "Feature", "properties": { "visible_points": 0, "total_points": 105, "visibility_pct": 0.0 }, "geometry": { "type": "Point", "coordinates": [ 0.27522101954532, 51.209902578080822 ] } },
{ "type": "Feature", "properties": { "visible_points": 0, "total_points": 100, "visibility_pct": 0.0 }, "geometry": { "type": "Point", "coordinates": [ 0.275419224837989, 51.20989872355652 ] } },
{ "type": "Feature", "properties": { "visible_points": 0, "total_points": 73, "visibility_pct": 0.0 }, "geometry": { "type": "Point", "coordinates": [ 0.277797684965984, 51.209852443168622 ] } },
{ "type": "Feature", "properties": { "visible_points": 0, "total_points": 70, "visibility_pct": 0.0 }, "geometry": { "type": "Point", "coordinates": [ 0.277995889694534, 51.209848584294932 ] } },
{ "type": "Feature", "properties": { "visible_points": 0, "total_points": 66, "visibility_pct": 0.0 }, "geometry": { "type": "Point", "coordinates": [ 0.278194094379668, 51.209844725086697 ] } },
{ "type": "Feature", "properties": { "visible_points": 0, "total_points": 61, "visibility_pct": 0.0 }, "geometry": { "type": "Point", "coordinates": [ 0.278392299021372, 51.209840865543882 ] } },
{ "type": "Feature", "properties": { "visible_points": 0, "total_points": 55, "visibility_pct": 0.0 }, "geometry": { "type": "Point", "coordinates": [ 0.278590503619656, 51.209837005666472 ] } },
{ "type": "Feature", "properties": { "visible_points": 0, "total_points": 78, "visibility_pct": 0.0 }, "geometry": { "type": "Point", "coordinates": [ 0.274532612775586, 51.210023885725867 ] } },
{ "type": "Feature", "properties": { "visible_points": 0, "total_points": 88, "visibility_pct": 0.0 }, "geometry": { "type": "Point", "coordinates": [ 0.274730818675605, 51.210020032344516 ] } },
{ "type": "Feature", "properties": { "visible_points": 0, "total_points": 97, "visibility_pct": 0.0 }, "geometry": { "type": "Point", "coordinates": [ 0.274929024532268, 51.210016178628628 ] } },
{ "type": "Feature", "properties": { "visible_points": 0, "total_points": 101, "visibility_pct": 0.0 }, "geometry": { "type": "Point", "coordinates": [ 0.275127230345565, 51.21001232457813 ] } },
{ "type": "Feature", "properties": { "visible_points": 0, "total_points": 99, "visibility_pct": 0.0 }, "geometry": { "type": "Point", "coordinates": [ 0.275325436115499, 51.210008470193074 ] } },
{ "type": "Feature", "properties": { "visible_points": 3, "total_points": 94, "visibility_pct": 3.1914893617021276 }, "geometry": { "type": "Point", "coordinates": [ 0.275523641842061, 51.210004615473437 ] } },
{ "type": "Feature", "properties": { "visible_points": 2, "total_points": 69, "visibility_pct": 2.8985507246376812 }, "geometry": { "type": "Point", "coordinates": [ 0.27710928609281, 51.209973765671812 ] } },
{ "type": "Feature", "properties": { "visible_points": 2, "total_points": 70, "visibility_pct": 2.8571428571428572 }, "geometry": { "type": "Point", "coordinates": [ 0.277307491428873, 51.209969907941051 ] } },
{ "type": "Feature", "properties": { "visible_points": 2, "total_points": 71, "visibility_pct": 2.8169014084507045 }, "geometry": { "type": "Point", "coordinates": [ 0.277505696721537, 51.209966049875696 ] } },
{ "type": "Feature", "properties": { "visible_points": 0, "total_points": 71, "visibility_pct": 0.0 }, "geometry": { "type": "Point", "coordinates": [ 0.277703901970785, 51.209962191475789 ] } },
{ "type": "Feature", "properties": { "visible_points": 0, "total_points": 71, "visibility_pct": 0.0 }, "geometry": { "type": "Point", "coordinates": [ 0.277902107176622, 51.209958332741316 ] } },
{ "type": "Feature", "properties": { "visible_points": 0, "total_points": 68, "visibility_pct": 0.0 }, "geometry": { "type": "Point", "coordinates": [ 0.278100312339037, 51.209954473672262 ] } },
{ "type": "Feature", "properties": { "visible_points": 4, "total_points": 63, "visibility_pct": 6.3492063492063489 }, "geometry": { "type": "Point", "coordinates": [ 0.278298517458032, 51.209950614268649 ] } },
{ "type": "Feature", "properties": { "visible_points": 4, "total_points": 57, "visibility_pct": 7.0175438596491224 }, "geometry": { "type": "Point", "coordinates": [ 0.278496722533602, 51.209946754530456 ] } },
{ "type": "Feature", "properties": { "visible_points": 0, "total_points": 76, "visibility_pct": 0.0 }, "geometry": { "type": "Point", "coordinates": [ 0.274637028087436, 51.210129778504687 ] } },
{ "type": "Feature", "properties": { "visible_points": 3, "total_points": 85, "visibility_pct": 3.5294117647058822 }, "geometry": { "type": "Point", "coordinates": [ 0.274835234421361, 51.210125924928008 ] } },
{ "type": "Feature", "properties": { "visible_points": 10, "total_points": 93, "visibility_pct": 10.75268817204301 }, "geometry": { "type": "Point", "coordinates": [ 0.275033440711923, 51.210122071016748 ] } },
{ "type": "Feature", "properties": { "visible_points": 5, "total_points": 94, "visibility_pct": 5.3191489361702127 }, "geometry": { "type": "Point", "coordinates": [ 0.275231646959122, 51.21011821677093 ] } },
{ "type": "Feature", "properties": { "visible_points": 0, "total_points": 91, "visibility_pct": 0.0 }, "geometry": { "type": "Point", "coordinates": [ 0.275429853162956, 51.210114362190524 ] } },
{ "type": "Feature", "properties": { "visible_points": 0, "total_points": 87, "visibility_pct": 0.0 }, "geometry": { "type": "Point", "coordinates": [ 0.275628059323416, 51.21011050727553 ] } },
{ "type": "Feature", "properties": { "visible_points": 0, "total_points": 83, "visibility_pct": 0.0 }, "geometry": { "type": "Point", "coordinates": [ 0.275826265440496, 51.210106652025992 ] } },
{ "type": "Feature", "properties": { "visible_points": 0, "total_points": 79, "visibility_pct": 0.0 }, "geometry": { "type": "Point", "coordinates": [ 0.276024471514202, 51.210102796441873 ] } },
{ "type": "Feature", "properties": { "visible_points": 0, "total_points": 75, "visibility_pct": 0.0 }, "geometry": { "type": "Point", "coordinates": [ 0.276222677544522, 51.210098940523174 ] } },
{ "type": "Feature", "properties": { "visible_points": 0, "total_points": 72, "visibility_pct": 0.0 }, "geometry": { "type": "Point", "coordinates": [ 0.276420883531458, 51.210095084269888 ] } },
{ "type": "Feature", "properties": { "visible_points": 0, "total_points": 70, "visibility_pct": 0.0 }, "geometry": { "type": "Point", "coordinates": [ 0.276619089475002, 51.210091227682064 ] } },
{ "type": "Feature", "properties": { "visible_points": 0, "total_points": 68, "visibility_pct": 0.0 }, "geometry": { "type": "Point", "coordinates": [ 0.276817295375152, 51.210087370759638 ] } },
{ "type": "Feature", "properties": { "visible_points": 0, "total_points": 69, "visibility_pct": 0.0 }, "geometry": { "type": "Point", "coordinates": [ 0.277015501231903, 51.21008351350266 ] } },
{ "type": "Feature", "properties": { "visible_points": 2, "total_points": 69, "visibility_pct": 2.8985507246376812 }, "geometry": { "type": "Point", "coordinates": [ 0.277213707045251, 51.210079655911109 ] } },
{ "type": "Feature", "properties": { "visible_points": 0, "total_points": 70, "visibility_pct": 0.0 }, "geometry": { "type": "Point", "coordinates": [ 0.277411912815197, 51.210075797984977 ] } },
{ "type": "Feature", "properties": { "visible_points": 0, "total_points": 70, "visibility_pct": 0.0 }, "geometry": { "type": "Point", "coordinates": [ 0.277610118541727, 51.210071939724273 ] } },
{ "type": "Feature", "properties": { "visible_points": 4, "total_points": 69, "visibility_pct": 5.7971014492753623 }, "geometry": { "type": "Point", "coordinates": [ 0.277808324224855, 51.210068081129016 ] } },
{ "type": "Feature", "properties": { "visible_points": 4, "total_points": 67, "visibility_pct": 5.9701492537313428 }, "geometry": { "type": "Point", "coordinates": [ 0.278006529864555, 51.210064222199172 ] } },
{ "type": "Feature", "properties": { "visible_points": 5, "total_points": 63, "visibility_pct": 7.9365079365079358 }, "geometry": { "type": "Point", "coordinates": [ 0.278204735460839, 51.210060362934769 ] } },
{ "type": "Feature", "properties": { "visible_points": 3, "total_points": 55, "visibility_pct": 5.4545454545454541 }, "geometry": { "type": "Point", "coordinates": [ 0.274345030210825, 51.210243377709027 ] } },
{ "type": "Feature", "properties": { "visible_points": 0, "total_points": 64, "visibility_pct": 0.0 }, "geometry": { "type": "Point", "coordinates": [ 0.274543237065372, 51.210239524606145 ] } },
{ "type": "Feature", "properties": { "visible_points": 0, "total_points": 73, "visibility_pct": 0.0 }, "geometry": { "type": "Point", "coordinates": [ 0.274741443876562, 51.210235671168711 ] } },
{ "type": "Feature", "properties": { "visible_points": 9, "total_points": 81, "visibility_pct": 11.111111111111111 }, "geometry": { "type": "Point", "coordinates": [ 0.274939650644397, 51.210231817396696 ] } },
{ "type": "Feature", "properties": { "visible_points": 16, "total_points": 87, "visibility_pct": 18.390804597701148 }, "geometry": { "type": "Point", "coordinates": [ 0.275137857368859, 51.210227963290102 ] } },
{ "type": "Feature", "properties": { "visible_points": 15, "total_points": 85, "visibility_pct": 17.647058823529413 }, "geometry": { "type": "Point", "coordinates": [ 0.275336064049965, 51.210224108848905 ] } },
{ "type": "Feature", "properties": { "visible_points": 14, "total_points": 82, "visibility_pct": 17.073170731707318 }, "geometry": { "type": "Point", "coordinates": [ 0.275534270687698, 51.210220254073164 ] } },
{ "type": "Feature", "properties": { "visible_points": 14, "total_points": 79, "visibility_pct": 17.721518987341771 }, "geometry": { "type": "Point", "coordinates": [ 0.275732477282052, 51.210216398962842 ] } },
{ "type": "Feature", "properties": { "visible_points": 13, "total_points": 76, "visibility_pct": 17.105263157894736 }, "geometry": { "type": "Point", "coordinates": [ 0.275930683833033, 51.21021254351794 ] } },
{ "type": "Feature", "properties": { "visible_points": 10, "total_points": 73, "visibility_pct": 13.698630136986301 }, "geometry": { "type": "Point", "coordinates": [ 0.276128890340629, 51.210208687738465 ] } },
{ "type": "Feature", "properties": { "visible_points": 0, "total_points": 70, "visibility_pct": 0.0 }, "geometry": { "type": "Point", "coordinates": [ 0.276327096804842, 51.210204831624409 ] } },
{ "type": "Feature", "properties": { "visible_points": 0, "total_points": 69, "visibility_pct": 0.0 }, "geometry": { "type": "Point", "coordinates": [ 0.276525303225666, 51.210200975175781 ] } },
{ "type": "Feature", "properties": { "visible_points": 3, "total_points": 67, "visibility_pct": 4.4776119402985071 }, "geometry": { "type": "Point", "coordinates": [ 0.276723509603094, 51.210197118392614 ] } },
{ "type": "Feature", "properties": { "visible_points": 0, "total_points": 67, "visibility_pct": 0.0 }, "geometry": { "type": "Point", "coordinates": [ 0.276921715937131, 51.210193261274831 ] } },
{ "type": "Feature", "properties": { "visible_points": 3, "total_points": 67, "visibility_pct": 4.4776119402985071 }, "geometry": { "type": "Point", "coordinates": [ 0.277119922227766, 51.21018940382249 ] } },
{ "type": "Feature", "properties": { "visible_points": 4, "total_points": 67, "visibility_pct": 5.9701492537313428 }, "geometry": { "type": "Point", "coordinates": [ 0.277318128474994, 51.210185546035568 ] } },
{ "type": "Feature", "properties": { "visible_points": 4, "total_points": 67, "visibility_pct": 5.9701492537313428 }, "geometry": { "type": "Point", "coordinates": [ 0.277516334678814, 51.210181687914087 ] } },
{ "type": "Feature", "properties": { "visible_points": 6, "total_points": 66, "visibility_pct": 9.0909090909090917 }, "geometry": { "type": "Point", "coordinates": [ 0.277714540839226, 51.21017782945804 ] } },
{ "type": "Feature", "properties": { "visible_points": 9, "total_points": 53, "visibility_pct": 16.981132075471699 }, "geometry": { "type": "Point", "coordinates": [ 0.27444944560941, 51.21034927064894 ] } },
{ "type": "Feature", "properties": { "visible_points": 7, "total_points": 61, "visibility_pct": 11.475409836065573 }, "geometry": { "type": "Point", "coordinates": [ 0.274647652897871, 51.21034541735073 ] } },
{ "type": "Feature", "properties": { "visible_points": 7, "total_points": 68, "visibility_pct": 10.294117647058822 }, "geometry": { "type": "Point", "coordinates": [ 0.274845860142971, 51.21034156371794 ] } },
{ "type": "Feature", "properties": { "visible_points": 9, "total_points": 75, "visibility_pct": 12.0 }, "geometry": { "type": "Point", "coordinates": [ 0.27504406734471, 51.210337709750569 ] } },
{ "type": "Feature", "properties": { "visible_points": 12, "total_points": 76, "visibility_pct": 15.789473684210526 }, "geometry": { "type": "Point", "coordinates": [ 0.275242274503086, 51.210333855448631 ] } },
{ "type": "Feature", "properties": { "visible_points": 13, "total_points": 75, "visibility_pct": 17.333333333333336 }, "geometry": { "type": "Point", "coordinates": [ 0.275440481618088, 51.2103300008121 ] } },
{ "type": "Feature", "properties": { "visible_points": 11, "total_points": 73, "visibility_pct": 15.068493150684931 }, "geometry": { "type": "Point", "coordinates": [ 0.275638688689726, 51.210326145840995 ] } },
{ "type": "Feature", "properties": { "visible_points": 12, "total_points": 71, "visibility_pct": 16.901408450704224 }, "geometry": { "type": "Point", "coordinates": [ 0.275836895717983, 51.210322290535331 ] } },
{ "type": "Feature", "properties": { "visible_points": 11, "total_points": 69, "visibility_pct": 15.942028985507244 }, "geometry": { "type": "Point", "coordinates": [ 0.276035102702856, 51.210318434895079 ] } },
{ "type": "Feature", "properties": { "visible_points": 10, "total_points": 67, "visibility_pct": 14.925373134328357 }, "geometry": { "type": "Point", "coordinates": [ 0.27623330964435, 51.210314578920247 ] } },
{ "type": "Feature", "properties": { "visible_points": 4, "total_points": 65, "visibility_pct": 6.1538461538461542 }, "geometry": { "type": "Point", "coordinates": [ 0.276431516542454, 51.210310722610849 ] } },
{ "type": "Feature", "properties": { "visible_points": 4, "total_points": 64, "visibility_pct": 6.25 }, "geometry": { "type": "Point", "coordinates": [ 0.27662972339717, 51.210306865966871 ] } },
{ "type": "Feature", "properties": { "visible_points": 3, "total_points": 64, "visibility_pct": 4.6875 }, "geometry": { "type": "Point", "coordinates": [ 0.276827930208484, 51.210303008988326 ] } }
]
}
