{
"type": "FeatureCollection",
"name": "a28298fc148e_visibility",
"crs": { "type": "name", "properties": { "name": "urn:ogc:def:crs:OGC:1.3:CRS84" } },
"features": [
{ "type": "Feature", "properties": { "visible_points": 0, "total_points": 67, "visibility_pct": 0.0 }, "geometry": { "type": "Point", "coordinates": [ 0.269631985843575, 50.855312420177981 ] } },
{ "type": "Feature", "properties": { "visible_points": 12, "total_points": 70, "visibility_pct": 17.142857142857142 }, "geometry": { "type": "Point", "coordinates": [ 0.269828684847172, 50.855308593524924 ] } },
{ "type": "Feature", "properties": { "visible_points": 18, "total_points": 71, "visibility_pct": 25.352112676056336 }, "geometry": { "type": "Point", "coordinates": [ 0.270025383807062, 50.855304766540741 ] } },
{ "type": "Feature", "properties": { "visible_points": 15, "total_points": 70, "visibility_pct": 21.428571428571427 }, "geometry": { "type": "Point", "coordinates": [ 0.27022208272324, 50.855300939225437 ] } },
{ "type": "Feature", "properties": { "visible_points": 0, "total_points": 67, "visibility_pct": 0.0 }, "geometry": { "type": "Point", "coordinates": [ 0.270418781595692, 50.855297111578999 ] } },
{ "type": "Feature", "properties": { "visible_points": 8, "total_points": 76, "visibility_pct": 10.526315789473683 }, "geometry": { "type": "Point", "coordinates": [ 0.269538870322958, 50.855422158016296 ] } },
{ "type": "Feature", "properties": { "visible_points": 14, "total_points": 80, "visibility_pct": 17.5 }, "geometry": { "type": "Point", "coordinates": [ 0.269735569812539, 50.855418331511494 ] } },
{ "type": "Feature", "properties": { "visible_points": 8, "total_points": 82, "visibility_pct": 9.7560975609756095 }, "geometry": { "type": "Point", "coordinates": [ 0.269932269258411, 50.855414504675544 ] } },
{ "type": "Feature", "properties": { "visible_points": 8, "total_points": 82, "visibility_pct": 9.7560975609756095 }, "geometry": { "type": "Point", "coordinates": [ 0.270128968660572, 50.855410677508473 ] } },
{ "type": "Feature", "properties": { "visible_points": 10, "total_points": 80, "visibility_pct": 12.5 }, "geometry": { "type": "Point", "coordinates": [ 0.270325668019013, 50.855406850010247 ] } },
{ "type": "Feature", "properties": { "visible_points": 15, "total_points": 76, "visibility_pct": 19.736842105263158 }, "geometry": { "type": "Point", "coordinates": [ 0.270522367333732, 50.855403022180916 ] } },
{ "type": "Feature", "properties": { "visible_points": 0, "total_points": 71, "visibility_pct": 0.0 }, "geometry": { "type": "Point", "coordinates": [ 0.269249054340811, 50.855535721812061 ] } },
{ "type": "Feature", "properties": { "visible_points": 4, "total_points": 81, "visibility_pct": 4.9382716049382713 }, "geometry": { "type": "Point", "coordinates": [ 0.269445754360082, 50.85553189578664 ] } },
{ "type": "Feature", "properties": { "visible_points": 17, "total_points": 89, "visibility_pct": 19.101123595505616 }, "geometry": { "type": "Point", "coordinates": [ 0.269642454335644, 50.855528069430051 ] } },
{ "type": "Feature", "properties": { "visible_points": 21, "total_points": 93, "visibility_pct": 22.58064516129032 }, "geometry": { "type": "Point", "coordinates": [ 0.269839154267501, 50.855524242742341 ] } },
{ "type": "Feature", "properties": { "visible_points": 7, "total_points": 94, "visibility_pct": 7.4468085106382977 }, "geometry": { "type": "Point", "coordinates": [ 0.270035854155647, 50.85552041572349 ] } },
{ "type": "Feature", "properties": { "visible_points": 5, "total_points": 93, "visibility_pct": 5.376344086021505 }, "geometry": { "type": "Point", "coordinates": [ 0.270232554000076, 50.855516588373519 ] } },
{ "type": "Feature", "properties": { "visible_points": 18, "total_points": 89, "visibility_pct": 20.224719101123593 }, "geometry": { "type": "Point", "coordinates": [ 0.270429253800788, 50.855512760692399 ] } },
{ "type": "Feature", "properties": { "visible_points": 15, "total_points": 83, "visibility_pct": 18.072289156626507 }, "geometry": { "type": "Point", "coordinates": [ 0.270625953557774, 50.855508932680145 ] } },
{ "type": "Feature", "properties": { "visible_points": 0, "total_points": 73, "visibility_pct": 0.0 }, "geometry": { "type": "Point", "coordinates": [ 0.269155937449683, 50.855645459366187 ] } },
{ "type": "Feature", "properties": { "visible_points": 16, "total_points": 84, "visibility_pct": 19.047619047619047 }, "geometry": { "type": "Point", "coordinates": [ 0.269352637954937, 50.855641633488979 ] } },
{ "type": "Feature", "properties": { "visible_points": 34, "total_points": 94, "visibility_pct": 36.170212765957451 }, "geometry": { "type": "Point", "coordinates": [ 0.269549338416487, 50.855637807280651 ] } },
{ "type": "Feature", "properties": { "visible_points": 20, "total_points": 102, "visibility_pct": 19.607843137254903 }, "geometry": { "type": "Point", "coordinates": [ 0.269746038834328, 50.855633980741175 ] } },
{ "type": "Feature", "properties": { "visible_points": 9, "total_points": 105, "visibility_pct": 8.5714285714285712 }, "geometry": { "type": "Point", "coordinates": [ 0.269942739208464, 50.855630153870557 ] } },
{ "type": "Feature", "properties": { "visible_points": 24, "total_points": 105, "visibility_pct": 22.857142857142858 }, "geometry": { "type": "Point", "coordinates": [ 0.270139439538881, 50.855626326668805 ] } },
{ "type": "Feature", "properties": { "visible_points": 20, "total_points": 102, "visibility_pct": 19.607843137254903 }, "geometry": { "type": "Point", "coordinates": [ 0.270336139825586, 50.855622499135926 ] } },
{ "type": "Feature", "properties": { "visible_points": 15, "total_points": 96, "visibility_pct": 15.625 }, "geometry": { "type": "Point", "coordinates": [ 0.270532840068569, 50.855618671271912 ] } },
{ "type": "Feature", "properties": { "visible_points": 17, "total_points": 85, "visibility_pct": 20.0 }, "geometry": { "type": "Point", "coordinates": [ 0.270729540267822, 50.855614843076758 ] } },
{ "type": "Feature", "properties": { "visible_points": 1, "total_points": 73, "visibility_pct": 1.3698630136986301 }, "geometry": { "type": "Point", "coordinates": [ 0.270926240423351, 50.855611014550476 ] } },
{ "type": "Feature", "properties": { "visible_points": 5, "total_points": 68, "visibility_pct": 7.3529411764705888 }, "geometry": { "type": "Point", "coordinates": [ 0.269062820116283, 50.855755196852321 ] } },
{ "type": "Feature", "properties": { "visible_points": 20, "total_points": 79, "visibility_pct": 25.316455696202532 }, "geometry": { "type": "Point", "coordinates": [ 0.269259521107518, 50.855751371123333 ] } },
{ "type": "Feature", "properties": { "visible_points": 21, "total_points": 91, "visibility_pct": 23.076923076923077 }, "geometry": { "type": "Point", "coordinates": [ 0.269456222055059, 50.855747545063252 ] } },
{ "type": "Feature", "properties": { "visible_points": 20, "total_points": 101, "visibility_pct": 19.801980198019802 }, "geometry": { "type": "Point", "coordinates": [ 0.269652922958892, 50.855743718672009 ] } },
{ "type": "Feature", "properties": { "visible_points": 12, "total_points": 108, "visibility_pct": 11.111111111111111 }, "geometry": { "type": "Point", "coordinates": [ 0.269849623819013, 50.855739891949632 ] } },
{ "type": "Feature", "properties": { "visible_points": 31, "total_points": 112, "visibility_pct": 27.678571428571431 }, "geometry": { "type": "Point", "coordinates": [ 0.270046324635428, 50.855736064896114 ] } },
{ "type": "Feature", "properties": { "visible_points": 15, "total_points": 109, "visibility_pct": 13.761467889908257 }, "geometry": { "type": "Point", "coordinates": [ 0.270243025408124, 50.855732237511461 ] } },
{ "type": "Feature", "properties": { "visible_points": 38, "total_points": 102, "visibility_pct": 37.254901960784316 }, "geometry": { "type": "Point", "coordinates": [ 0.270439726137101, 50.855728409795688 ] } },
{ "type": "Feature", "properties": { "visible_points": 26, "total_points": 91, "visibility_pct": 28.571428571428569 }, "geometry": { "type": "Point", "coordinates": [ 0.270636426822353, 50.855724581748767 ] } },
{ "type": "Feature", "properties": { "visible_points": 9, "total_points": 79, "visibility_pct": 11.39240506329114 }, "geometry": { "type": "Point", "coordinates": [ 0.27083312746388, 50.855720753370704 ] } },
{ "type": "Feature", "properties": { "visible_points": 7, "total_points": 67, "visibility_pct": 10.44776119402985 }, "geometry": { "type": "Point", "coordinates": [ 0.271029828061677, 50.8557169246615 ] } },
{ "type": "Feature", "properties": { "visible_points": 0, "total_points": 61, "visibility_pct": 0.0 }, "geometry": { "type": "Point", "coordinates": [ 0.268969702340602, 50.855864934270457 ] } },
{ "type": "Feature", "properties": { "visible_points": 17, "total_points": 72, "visibility_pct": 23.611111111111111 }, "geometry": { "type": "Point", "coordinates": [ 0.269166403817831, 50.85586110868973 ] } },
{ "type": "Feature", "properties": { "visible_points": 21, "total_points": 83, "visibility_pct": 25.301204819277107 }, "geometry": { "type": "Point", "coordinates": [ 0.269363105251357, 50.855857282777869 ] } },
{ "type": "Feature", "properties": { "visible_points": 21, "total_points": 94, "visibility_pct": 22.340425531914892 }, "geometry": { "type": "Point", "coordinates": [ 0.269559806641183, 50.855853456534867 ] } },
{ "type": "Feature", "properties": { "visible_points": 20, "total_points": 103, "visibility_pct": 19.417475728155338 }, "geometry": { "type": "Point", "coordinates": [ 0.269756507987298, 50.855849629960737 ] } },
{ "type": "Feature", "properties": { "visible_points": 17, "total_points": 107, "visibility_pct": 15.887850467289718 }, "geometry": { "type": "Point", "coordinates": [ 0.269953209289706, 50.855845803055445 ] } },
{ "type": "Feature", "properties": { "visible_points": 19, "total_points": 107, "visibility_pct": 17.75700934579439 }, "geometry": { "type": "Point", "coordinates": [ 0.270149910548402, 50.855841975819025 ] } },
{ "type": "Feature", "properties": { "visible_points": 26, "total_points": 102, "visibility_pct": 25.490196078431371 }, "geometry": { "type": "Point", "coordinates": [ 0.270346611763371, 50.855838148251479 ] } },
{ "type": "Feature", "properties": { "visible_points": 12, "total_points": 93, "visibility_pct": 12.903225806451612 }, "geometry": { "type": "Point", "coordinates": [ 0.270543312934627, 50.855834320352791 ] } },
{ "type": "Feature", "properties": { "visible_points": 8, "total_points": 82, "visibility_pct": 9.7560975609756095 }, "geometry": { "type": "Point", "coordinates": [ 0.270740014062152, 50.855830492122955 ] } },
{ "type": "Feature", "properties": { "visible_points": 9, "total_points": 71, "visibility_pct": 12.676056338028168 }, "geometry": { "type": "Point", "coordinates": [ 0.270936715145951, 50.855826663561984 ] } },
{ "type": "Feature", "properties": { "visible_points": 9, "total_points": 60, "visibility_pct": 15.0 }, "geometry": { "type": "Point", "coordinates": [ 0.271133416186014, 50.855822834669873 ] } },
{ "type": "Feature", "properties": { "visible_points": 0, "total_points": 54, "visibility_pct": 0.0 }, "geometry": { "type": "Point", "coordinates": [ 0.268876584122642, 50.855974671620615 ] } },
{ "type": "Feature", "properties": { "visible_points": 12, "total_points": 64, "visibility_pct": 18.75 }, "geometry": { "type": "Point", "coordinates": [ 0.26907328608586, 50.855970846188136 ] } },
{ "type": "Feature", "properties": { "visible_points": 17, "total_points": 74, "visibility_pct": 22.972972972972975 }, "geometry": { "type": "Point", "coordinates": [ 0.269269988005382, 50.855967020424515 ] } },
{ "type": "Feature", "properties": { "visible_points": 22, "total_points": 84, "visibility_pct": 26.190476190476193 }, "geometry": { "type": "Point", "coordinates": [ 0.269466689881198, 50.855963194329753 ] } },
{ "type": "Feature", "properties": { "visible_points": 20, "total_points": 94, "visibility_pct": 21.276595744680851 }, "geometry": { "type": "Point", "coordinates": [ 0.269663391713312, 50.855959367903836 ] } },
{ "type": "Feature", "properties": { "visible_points": 20, "total_points": 98, "visibility_pct": 20.408163265306122 }, "geometry": { "type": "Point", "coordinates": [ 0.269860093501719, 50.855955541146798 ] } },
{ "type": "Feature", "properties": { "visible_points": 19, "total_points": 98, "visibility_pct": 19.387755102040817 }, "geometry": { "type": "Point", "coordinates": [ 0.270056795246405, 50.855951714058612 ] } },
{ "type": "Feature", "properties": { "visible_points": 24, "total_points": 97, "visibility_pct": 24.742268041237114 }, "geometry": { "type": "Point", "coordinates": [ 0.270253496947383, 50.855947886639299 ] } },
{ "type": "Feature", "properties": { "visible_points": 18, "total_points": 93, "visibility_pct": 19.35483870967742 }, "geometry": { "type": "Point", "coordinates": [ 0.270450198604635, 50.855944058888845 ] } },
{ "type": "Feature", "properties": { "visible_points": 11, "total_points": 83, "visibility_pct": 13.253012048192772 }, "geometry": { "type": "Point", "coordinates": [ 0.270646900218163, 50.855940230807242 ] } },
{ "type": "Feature", "properties": { "visible_points": 0, "total_points": 73, "visibility_pct": 0.0 }, "geometry": { "type": "Point", "coordinates": [ 0.270843601787969, 50.855936402394491 ] } },
{ "type": "Feature", "properties": { "visible_points": 7, "total_points": 63, "visibility_pct": 11.111111111111111 }, "geometry": { "type": "Point", "coordinates": [ 0.271040303314038, 50.855932573650612 ] } },
{ "type": "Feature", "properties": { "visible_points": 11, "total_points": 53, "visibility_pct": 20.754716981132077 }, "geometry": { "type": "Point", "coordinates": [ 0.27123700479637, 50.855928744575593 ] } },
{ "type": "Feature", "properties": { "visible_points": 5, "total_points": 55, "visibility_pct": 9.0909090909090917 }, "geometry": { "type": "Point", "coordinates": [ 0.268980167911613, 50.856080583618535 ] } },
{ "type": "Feature", "properties": { "visible_points": 13, "total_points": 64, "visibility_pct": 20.3125 }, "geometry": { "type": "Point", "coordinates": [ 0.269176870317124, 50.856076758003155 ] } },
{ "type": "Feature", "properties": { "visible_points": 16, "total_points": 73, "visibility_pct": 21.917808219178081 }, "geometry": { "type": "Point", "coordinates": [ 0.269373572678938, 50.856072932056627 ] } },
{ "type": "Feature", "properties": { "visible_points": 17, "total_points": 82, "visibility_pct": 20.73170731707317 }, "geometry": { "type": "Point", "coordinates": [ 0.269570274997051, 50.856069105778971 ] } },
{ "type": "Feature", "properties": { "visible_points": 13, "total_points": 88, "visibility_pct": 14.772727272727273 }, "geometry": { "type": "Point", "coordinates": [ 0.269766977271451, 50.856065279170167 ] } },
{ "type": "Feature", "properties": { "visible_points": 0, "total_points": 88, "visibility_pct": 0.0 }, "geometry": { "type": "Point", "coordinates": [ 0.269963679502145, 50.856061452230215 ] } },
{ "type": "Feature", "properties": { "visible_points": 0, "total_points": 87, "visibility_pct": 0.0 }, "geometry": { "type": "Point", "coordinates": [ 0.270160381689123, 50.856057624959135 ] } },
{ "type": "Feature", "properties": { "visible_points": 10, "total_points": 85, "visibility_pct": 11.76470588235294 }, "geometry": { "type": "Point", "coordinates": [ 0.270357083832378, 50.856053797356907 ] } },
{ "type": "Feature", "properties": { "visible_points": 0, "total_points": 81, "visibility_pct": 0.0 }, "geometry": { "type": "Point", "coordinates": [ 0.270553785931913, 50.856049969423545 ] } },
{ "type": "Feature", "properties": { "visible_points": 5, "total_points": 72, "visibility_pct": 6.9444444444444446 }, "geometry": { "type": "Point", "coordinates": [ 0.270750487987722, 50.856046141159034 ] } },
{ "type": "Feature", "properties": { "visible_points": 4, "total_points": 63, "visibility_pct": 6.3492063492063489 }, "geometry": { "type": "Point", "coordinates": [ 0.2709471899998, 50.856042312563382 ] } },
{ "type": "Feature", "properties": { "visible_points": 3, "total_points": 54, "visibility_pct": 5.5555555555555554 }, "geometry": { "type": "Point", "coordinates": [ 0.269083752186585, 50.856186495513818 ] } },
{ "type": "Feature", "properties": { "visible_points": 0, "total_points": 62, "visibility_pct": 0.0 }, "geometry": { "type": "Point", "coordinates": [ 0.2692804550344, 50.856182669715537 ] } },
{ "type": "Feature", "properties": { "visible_points": 11, "total_points": 70, "visibility_pct": 15.714285714285714 }, "geometry": { "type": "Point", "coordinates": [ 0.269477157838506, 50.856178843586108 ] } },
{ "type": "Feature", "properties": { "visible_points": 2, "total_points": 75, "visibility_pct": 2.666666666666667 }, "geometry": { "type": "Point", "coordinates": [ 0.269673860598913, 50.856175017125551 ] } },
{ "type": "Feature", "properties": { "visible_points": 4, "total_points": 77, "visibility_pct": 5.1948051948051948 }, "geometry": { "type": "Point", "coordinates": [ 0.269870563315605, 50.856171190333832 ] } },
{ "type": "Feature", "properties": { "visible_points": 4, "total_points": 76, "visibility_pct": 5.2631578947368416 }, "geometry": { "type": "Point", "coordinates": [ 0.270067265988589, 50.856167363210986 ] } },
{ "type": "Feature", "properties": { "visible_points": 8, "total_points": 75, "visibility_pct": 10.666666666666668 }, "geometry": { "type": "Point", "coordinates": [ 0.270263968617851, 50.856163535756998 ] } },
{ "type": "Feature", "properties": { "visible_points": 9, "total_points": 73, "visibility_pct": 12.328767123287671 }, "geometry": { "type": "Point", "coordinates": [ 0.270460671203395, 50.856159707971862 ] } }
]
}
