{
"type": "FeatureCollection",
"name": "07d15d8f4dcc_foliage",
"crs": { "type": "name", "properties": { "name": "urn:ogc:def:crs:OGC:1.3:CRS84" } },
"features": [
{ "type": "Feature", "properties": { "max_height": 0.032001495361328125, "mean_height": 0.0027104332111775875, "std_height": 0.0071911639533936977, "count_pixels": 42, "percent_cover": 0.55962691538974019, "percent_above_0.1m": 0.0, "low_level_<0.5": 0.0, "mid_level_0.5-2": 0.0, "tall_2+": 0.0 }, "geometry": { "type": "Point", "coordinates": [ -0.370084074932514, 51.109029895487055 ] } },
{ "type": "Feature", "properties": { "max_height": 5.0147514343261719, "mean_height": 0.16534087061882019, "std_height": 0.7916867733001709, "count_pixels": 42, "percent_cover": 0.55962691538974019, "percent_above_0.1m": 9.5238095238095237, "low_level_<0.5": 4.7619047619047619, "mid_level_0.5-2": 2.3809523809523809, "tall_2+": 2.3809523809523809 }, "geometry": { "type": "Point", "coordinates": [ -0.369886221784253, 51.109027138539226 ] } },
{ "type": "Feature", "properties": { "max_height": 4.6072502136230469, "mean_height": 0.67581290006637573, "std_height": 1.1710594892501831, "count_pixels": 41, "percent_cover": 0.54630246502331781, "percent_above_0.1m": 36.585365853658537, "low_level_<0.5": 7.3170731707317067, "mid_level_0.5-2": 14.634146341463413, "tall_2+": 14.634146341463413 }, "geometry": { "type": "Point", "coordinates": [ -0.369688368667468, 51.109024381256738 ] } },
{ "type": "Feature", "properties": { "max_height": 6.6337509155273438, "mean_height": 0.42290025949478149, "std_height": 1.2877293825149536, "count_pixels": 42, "percent_cover": 0.55962691538974019, "percent_above_0.1m": 19.047619047619047, "low_level_<0.5": 0.0, "mid_level_0.5-2": 14.285714285714285, "tall_2+": 4.7619047619047619 }, "geometry": { "type": "Point", "coordinates": [ -0.369490515582155, 51.109021623639592 ] } },
{ "type": "Feature", "properties": { "max_height": 0.02300262451171875, "mean_height": 0.0021419969853013754, "std_height": 0.0056035527959465981, "count_pixels": 43, "percent_cover": 0.57295136575616257, "percent_above_0.1m": 0.0, "low_level_<0.5": 0.0, "mid_level_0.5-2": 0.0, "tall_2+": 0.0 }, "geometry": { "type": "Point", "coordinates": [ -0.369094809505969, 51.109016107401366 ] } },
{ "type": "Feature", "properties": { "max_height": 5.0382537841796875, "mean_height": 1.2369550466537476, "std_height": 1.4713579416275024, "count_pixels": 43, "percent_cover": 0.57295136575616257, "percent_above_0.1m": 53.488372093023251, "low_level_<0.5": 2.3255813953488373, "mid_level_0.5-2": 20.930232558139537, "tall_2+": 30.232558139534881 }, "geometry": { "type": "Point", "coordinates": [ -0.37037706278419, 51.109141891526761 ] } },
{ "type": "Feature", "properties": { "max_height": 10.618503570556641, "mean_height": 1.6559544801712036, "std_height": 2.9889461994171143, "count_pixels": 42, "percent_cover": 0.55962691538974019, "percent_above_0.1m": 38.095238095238095, "low_level_<0.5": 4.7619047619047619, "mid_level_0.5-2": 9.5238095238095237, "tall_2+": 23.809523809523807 }, "geometry": { "type": "Point", "coordinates": [ -0.370179209124351, 51.109139135069782 ] } },
{ "type": "Feature", "properties": { "max_height": 0.0227508544921875, "mean_height": 0.00082417536759749055, "std_height": 0.0037725719157606363, "count_pixels": 38, "percent_cover": 0.50632911392405067, "percent_above_0.1m": 0.0, "low_level_<0.5": 0.0, "mid_level_0.5-2": 0.0, "tall_2+": 0.0 }, "geometry": { "type": "Point", "coordinates": [ -0.369981355495976, 51.109136378278144 ] } },
{ "type": "Feature", "properties": { "max_height": 0.0110015869140625, "mean_height": 0.00031761894933879375, "std_height": 0.0017267720540985465, "count_pixels": 42, "percent_cover": 0.55962691538974019, "percent_above_0.1m": 0.0, "low_level_<0.5": 0.0, "mid_level_0.5-2": 0.0, "tall_2+": 0.0 }, "geometry": { "type": "Point", "coordinates": [ -0.369783501899073, 51.109133621151862 ] } },
{ "type": "Feature", "properties": { "max_height": 0.000255584716796875, "mean_height": 8.1743510236265138e-06, "std_height": 0.00020092676277272403, "count_pixels": 42, "percent_cover": 0.55962691538974019, "percent_above_0.1m": 0.0, "low_level_<0.5": 0.0, "mid_level_0.5-2": 0.0, "tall_2+": 0.0 }, "geometry": { "type": "Point", "coordinates": [ -0.369585648333641, 51.109130863690936 ] } },
{ "type": "Feature", "properties": { "max_height": 0.0122528076171875, "mean_height": 0.0011032649781554937, "std_height": 0.0029521407559514046, "count_pixels": 42, "percent_cover": 0.55962691538974019, "percent_above_0.1m": 0.0, "low_level_<0.5": 0.0, "mid_level_0.5-2": 0.0, "tall_2+": 0.0 }, "geometry": { "type": "Point", "coordinates": [ -0.369387794799688, 51.109128105895351 ] } },
{ "type": "Feature", "properties": { "max_height": 7.9840049743652344, "mean_height": 0.727367103099823, "std_height": 1.9073696136474609, "count_pixels": 41, "percent_cover": 0.54630246502331781, "percent_above_0.1m": 24.390243902439025, "low_level_<0.5": 4.8780487804878048, "mid_level_0.5-2": 4.8780487804878048, "tall_2+": 12.195121951219512 }, "geometry": { "type": "Point", "coordinates": [ -0.369189941297216, 51.109125347765129 ] } },
{ "type": "Feature", "properties": { "max_height": 0.76325225830078125, "mean_height": 0.034856099635362625, "std_height": 0.14318835735321045, "count_pixels": 41, "percent_cover": 0.54630246502331781, "percent_above_0.1m": 4.8780487804878048, "low_level_<0.5": 0.0, "mid_level_0.5-2": 4.8780487804878048, "tall_2+": 0.0 }, "geometry": { "type": "Point", "coordinates": [ -0.370274343764823, 51.109248374577724 ] } },
{ "type": "Feature", "properties": { "max_height": 7.5342521667480469, "mean_height": 0.51776403188705444, "std_height": 1.7313406467437744, "count_pixels": 42, "percent_cover": 0.55962691538974019, "percent_above_0.1m": 9.5238095238095237, "low_level_<0.5": 0.0, "mid_level_0.5-2": 2.3809523809523809, "tall_2+": 7.1428571428571423 }, "geometry": { "type": "Point", "coordinates": [ -0.370076489656332, 51.109245617942307 ] } },
{ "type": "Feature", "properties": { "max_height": 0.0989990234375, "mean_height": 0.0037101563066244125, "std_height": 0.015638167038559914, "count_pixels": 42, "percent_cover": 0.55962691538974019, "percent_above_0.1m": 0.0, "low_level_<0.5": 0.0, "mid_level_0.5-2": 0.0, "tall_2+": 0.0 }, "geometry": { "type": "Point", "coordinates": [ -0.369878635579309, 51.109242860972245 ] } },
{ "type": "Feature", "properties": { "max_height": 0.3795013427734375, "mean_height": 0.016581093892455101, "std_height": 0.070193968713283539, "count_pixels": 41, "percent_cover": 0.54630246502331781, "percent_above_0.1m": 4.8780487804878048, "low_level_<0.5": 4.8780487804878048, "mid_level_0.5-2": 0.0, "tall_2+": 0.0 }, "geometry": { "type": "Point", "coordinates": [ -0.369680781533759, 51.10924010366751 ] } },
{ "type": "Feature", "properties": { "max_height": 0.017253875732421875, "mean_height": 0.0004425048828125, "std_height": 0.0027582822367548943, "count_pixels": 42, "percent_cover": 0.55962691538974019, "percent_above_0.1m": 0.0, "low_level_<0.5": 0.0, "mid_level_0.5-2": 0.0, "tall_2+": 0.0 }, "geometry": { "type": "Point", "coordinates": [ -0.36948292751968, 51.109237346028138 ] } },
{ "type": "Feature", "properties": { "max_height": 9.5940017700195312, "mean_height": 2.3633887767791748, "std_height": 3.045508861541748, "count_pixels": 42, "percent_cover": 0.55962691538974019, "percent_above_0.1m": 50.0, "low_level_<0.5": 0.0, "mid_level_0.5-2": 11.904761904761903, "tall_2+": 38.095238095238095 }, "geometry": { "type": "Point", "coordinates": [ -0.369285073537084, 51.109234588054115 ] } },
{ "type": "Feature", "properties": { "max_height": 4.0057525634765625, "mean_height": 0.42962992191314697, "std_height": 0.95235955715179443, "count_pixels": 43, "percent_cover": 0.57295136575616257, "percent_above_0.1m": 23.255813953488371, "low_level_<0.5": 2.3255813953488373, "mid_level_0.5-2": 11.627906976744185, "tall_2+": 9.3023255813953494 }, "geometry": { "type": "Point", "coordinates": [ -0.370369478853939, 51.109357614010904 ] } },
{ "type": "Feature", "properties": { "max_height": 0.017749786376953125, "mean_height": 0.00019200642418581992, "std_height": 0.003810567781329155, "count_pixels": 42, "percent_cover": 0.55962691538974019, "percent_above_0.1m": 0.0, "low_level_<0.5": 0.0, "mid_level_0.5-2": 0.0, "tall_2+": 0.0 }, "geometry": { "type": "Point", "coordinates": [ -0.370171624265327, 51.109354857531692 ] } },
{ "type": "Feature", "properties": { "max_height": 0.30699920654296875, "mean_height": 0.011528216302394867, "std_height": 0.052921507507562637, "count_pixels": 38, "percent_cover": 0.50632911392405067, "percent_above_0.1m": 5.2631578947368416, "low_level_<0.5": 2.6315789473684208, "mid_level_0.5-2": 0.0, "tall_2+": 0.0 }, "geometry": { "type": "Point", "coordinates": [ -0.369973769708184, 51.109352100717835 ] } },
{ "type": "Feature", "properties": { "max_height": 0.92925262451171875, "mean_height": 0.058668047189712524, "std_height": 0.16652780771255493, "count_pixels": 42, "percent_cover": 0.55962691538974019, "percent_above_0.1m": 16.666666666666664, "low_level_<0.5": 7.1428571428571423, "mid_level_0.5-2": 2.3809523809523809, "tall_2+": 0.0 }, "geometry": { "type": "Point", "coordinates": [ -0.369775915182505, 51.10934934356932 ] } },
{ "type": "Feature", "properties": { "max_height": 1.6642532348632812, "mean_height": 0.082775935530662537, "std_height": 0.2738359272480011, "count_pixels": 42, "percent_cover": 0.55962691538974019, "percent_above_0.1m": 19.047619047619047, "low_level_<0.5": 4.7619047619047619, "mid_level_0.5-2": 4.7619047619047619, "tall_2+": 0.0 }, "geometry": { "type": "Point", "coordinates": [ -0.369578060688307, 51.109346586086161 ] } },
{ "type": "Feature", "properties": { "max_height": 0.16700363159179688, "mean_height": 0.0063296728767454624, "std_height": 0.030774297192692757, "count_pixels": 42, "percent_cover": 0.55962691538974019, "percent_above_0.1m": 4.7619047619047619, "low_level_<0.5": 2.3809523809523809, "mid_level_0.5-2": 0.0, "tall_2+": 0.0 }, "geometry": { "type": "Point", "coordinates": [ -0.369380206225586, 51.109343828268358 ] } },
{ "type": "Feature", "properties": { "max_height": 6.7587509155273438, "mean_height": 0.77953225374221802, "std_height": 1.7721458673477173, "count_pixels": 41, "percent_cover": 0.54630246502331781, "percent_above_0.1m": 21.951219512195124, "low_level_<0.5": 2.4390243902439024, "mid_level_0.5-2": 2.4390243902439024, "tall_2+": 17.073170731707318 }, "geometry": { "type": "Point", "coordinates": [ -0.370464614391696, 51.109466853369305 ] } },
{ "type": "Feature", "properties": { "max_height": 10.292251586914062, "mean_height": 1.425721287727356, "std_height": 2.9033920764923096, "count_pixels": 41, "percent_cover": 0.54630246502331781, "percent_above_0.1m": 34.146341463414636, "low_level_<0.5": 4.8780487804878048, "mid_level_0.5-2": 9.7560975609756095, "tall_2+": 19.512195121951219 }, "geometry": { "type": "Point", "coordinates": [ -0.370266759322965, 51.109464097046313 ] } },
{ "type": "Feature", "properties": { "max_height": 0.01200103759765625, "mean_height": 0.00026993523351848125, "std_height": 0.0019503798102959991, "count_pixels": 42, "percent_cover": 0.55962691538974019, "percent_above_0.1m": 0.0, "low_level_<0.5": 0.0, "mid_level_0.5-2": 0.0, "tall_2+": 0.0 }, "geometry": { "type": "Point", "coordinates": [ -0.370068904285693, 51.109461340388677 ] } },
{ "type": "Feature", "properties": { "max_height": 0.545501708984375, "mean_height": 0.08191245049238205, "std_height": 0.1482066810131073, "count_pixels": 42, "percent_cover": 0.55962691538974019, "percent_above_0.1m": 28.571428571428569, "low_level_<0.5": 19.047619047619047, "mid_level_0.5-2": 4.7619047619047619, "tall_2+": 0.0 }, "geometry": { "type": "Point", "coordinates": [ -0.369871049279895, 51.109458583396375 ] } },
{ "type": "Feature", "properties": { "max_height": 9.5712509155273438, "mean_height": 2.0587153434753418, "std_height": 3.0835058689117432, "count_pixels": 41, "percent_cover": 0.54630246502331781, "percent_above_0.1m": 63.414634146341463, "low_level_<0.5": 21.951219512195124, "mid_level_0.5-2": 14.634146341463413, "tall_2+": 26.829268292682929 }, "geometry": { "type": "Point", "coordinates": [ -0.36967319430557, 51.109455826069421 ] } },
{ "type": "Feature", "properties": { "max_height": 12.113754272460938, "mean_height": 5.220365047454834, "std_height": 4.1418876647949219, "count_pixels": 42, "percent_cover": 0.55962691538974019, "percent_above_0.1m": 71.428571428571431, "low_level_<0.5": 0.0, "mid_level_0.5-2": 7.1428571428571423, "tall_2+": 64.285714285714292 }, "geometry": { "type": "Point", "coordinates": [ -0.369475339362715, 51.109453068407824 ] } },
{ "type": "Feature", "properties": { "max_height": 10.727252960205078, "mean_height": 1.6430540084838867, "std_height": 2.5605132579803467, "count_pixels": 43, "percent_cover": 0.57295136575616257, "percent_above_0.1m": 44.186046511627907, "low_level_<0.5": 0.0, "mid_level_0.5-2": 11.627906976744185, "tall_2+": 27.906976744186046 }, "geometry": { "type": "Point", "coordinates": [ -0.370361894829243, 51.109573336486164 ] } },
{ "type": "Feature", "properties": { "max_height": 8.4415016174316406, "mean_height": 1.6397697925567627, "std_height": 2.2688820362091064, "count_pixels": 42, "percent_cover": 0.55962691538974019, "percent_above_0.1m": 42.857142857142854, "low_level_<0.5": 0.0, "mid_level_0.5-2": 7.1428571428571423, "tall_2+": 35.714285714285715 }, "geometry": { "type": "Point", "coordinates": [ -0.370164039311853, 51.109570579984741 ] } },
{ "type": "Feature", "properties": { "max_height": 0.03150177001953125, "mean_height": 0.00081815215526148677, "std_height": 0.0050453166477382183, "count_pixels": 38, "percent_cover": 0.50632911392405067, "percent_above_0.1m": 0.0, "low_level_<0.5": 0.0, "mid_level_0.5-2": 0.0, "tall_2+": 0.0 }, "geometry": { "type": "Point", "coordinates": [ -0.369966183825924, 51.109567823148652 ] } },
{ "type": "Feature", "properties": { "max_height": 6.2127532958984375, "mean_height": 1.1326566934585571, "std_height": 1.5137859582901001, "count_pixels": 42, "percent_cover": 0.55962691538974019, "percent_above_0.1m": 61.904761904761905, "low_level_<0.5": 9.5238095238095237, "mid_level_0.5-2": 28.571428571428569, "tall_2+": 21.428571428571427 }, "geometry": { "type": "Point", "coordinates": [ -0.36976832837147, 51.109565065977918 ] } },
{ "type": "Feature", "properties": { "max_height": 9.6775054931640625, "mean_height": 3.7148714065551758, "std_height": 3.2038826942443848, "count_pixels": 42, "percent_cover": 0.55962691538974019, "percent_above_0.1m": 85.714285714285708, "low_level_<0.5": 9.5238095238095237, "mid_level_0.5-2": 14.285714285714285, "tall_2+": 61.904761904761905 }, "geometry": { "type": "Point", "coordinates": [ -0.369570472948485, 51.109562308472512 ] } },
{ "type": "Feature", "properties": { "max_height": 10.713253021240234, "mean_height": 2.0763740539550781, "std_height": 2.6420168876647949, "count_pixels": 41, "percent_cover": 0.54630246502331781, "percent_above_0.1m": 63.414634146341463, "low_level_<0.5": 4.8780487804878048, "mid_level_0.5-2": 17.073170731707318, "tall_2+": 41.463414634146339 }, "geometry": { "type": "Point", "coordinates": [ -0.370259174786657, 51.109679819506027 ] } },
{ "type": "Feature", "properties": { "max_height": 7.0622520446777344, "mean_height": 0.62465637922286987, "std_height": 1.5695792436599731, "count_pixels": 42, "percent_cover": 0.55962691538974019, "percent_above_0.1m": 23.809523809523807, "low_level_<0.5": 4.7619047619047619, "mid_level_0.5-2": 7.1428571428571423, "tall_2+": 11.904761904761903 }, "geometry": { "type": "Point", "coordinates": [ -0.370061318820597, 51.109677062826165 ] } },
{ "type": "Feature", "properties": { "max_height": 9.3232498168945312, "mean_height": 3.4267044067382812, "std_height": 3.5277142524719238, "count_pixels": 42, "percent_cover": 0.55962691538974019, "percent_above_0.1m": 61.904761904761905, "low_level_<0.5": 2.3809523809523809, "mid_level_0.5-2": 7.1428571428571423, "tall_2+": 50.0 }, "geometry": { "type": "Point", "coordinates": [ -0.369863462886011, 51.109674305811637 ] } },
{ "type": "Feature", "properties": { "max_height": 6.0495033264160156, "mean_height": 0.60132580995559692, "std_height": 1.5505192279815674, "count_pixels": 41, "percent_cover": 0.54630246502331781, "percent_above_0.1m": 21.951219512195124, "low_level_<0.5": 2.4390243902439024, "mid_level_0.5-2": 7.3170731707317067, "tall_2+": 9.7560975609756095 }, "geometry": { "type": "Point", "coordinates": [ -0.369665606982895, 51.109671548462458 ] } },
{ "type": "Feature", "properties": { "max_height": 6.7020034790039062, "mean_height": 2.2079367637634277, "std_height": 1.3572171926498413, "count_pixels": 42, "percent_cover": 0.55962691538974019, "percent_above_0.1m": 95.238095238095227, "low_level_<0.5": 7.1428571428571423, "mid_level_0.5-2": 30.952380952380953, "tall_2+": 57.142857142857139 }, "geometry": { "type": "Point", "coordinates": [ -0.369467751111256, 51.10966879077862 ] } },
{ "type": "Feature", "properties": { "max_height": 7.3850021362304688, "mean_height": 0.90462732315063477, "std_height": 1.6752409934997559, "count_pixels": 42, "percent_cover": 0.55962691538974019, "percent_above_0.1m": 73.80952380952381, "low_level_<0.5": 26.190476190476193, "mid_level_0.5-2": 23.809523809523807, "tall_2+": 11.904761904761903 }, "geometry": { "type": "Point", "coordinates": [ -0.370156454263922, 51.109786302428901 ] } },
{ "type": "Feature", "properties": { "max_height": 6.57550048828125, "mean_height": 1.2306272983551025, "std_height": 1.6360411643981934, "count_pixels": 38, "percent_cover": 0.50632911392405067, "percent_above_0.1m": 60.526315789473685, "low_level_<0.5": 13.157894736842104, "mid_level_0.5-2": 13.157894736842104, "tall_2+": 28.947368421052634 }, "geometry": { "type": "Point", "coordinates": [ -0.3699585978492, 51.109783545570593 ] } },
{ "type": "Feature", "properties": { "max_height": 7.3742523193359375, "mean_height": 1.4721740484237671, "std_height": 2.1228809356689453, "count_pixels": 42, "percent_cover": 0.55962691538974019, "percent_above_0.1m": 61.904761904761905, "low_level_<0.5": 11.904761904761903, "mid_level_0.5-2": 23.809523809523807, "tall_2+": 23.809523809523807 }, "geometry": { "type": "Point", "coordinates": [ -0.369760741465952, 51.109780788377634 ] } },
{ "type": "Feature", "properties": { "max_height": 3.1007499694824219, "mean_height": 0.39226341247558594, "std_height": 0.82497721910476685, "count_pixels": 42, "percent_cover": 0.55962691538974019, "percent_above_0.1m": 21.428571428571427, "low_level_<0.5": 0.0, "mid_level_0.5-2": 11.904761904761903, "tall_2+": 9.5238095238095237 }, "geometry": { "type": "Point", "coordinates": [ -0.369562885114173, 51.109778030850009 ] } },
{ "type": "Feature", "properties": { "max_height": 6.3177490234375, "mean_height": 1.302436351776123, "std_height": 1.6578165292739868, "count_pixels": 42, "percent_cover": 0.55962691538974019, "percent_above_0.1m": 66.666666666666657, "low_level_<0.5": 14.285714285714285, "mid_level_0.5-2": 28.571428571428569, "tall_2+": 23.809523809523807 }, "geometry": { "type": "Point", "coordinates": [ -0.36936502879388, 51.109775272987726 ] } },
{ "type": "Feature", "properties": { "max_height": 13.572250366210938, "mean_height": 4.0000672340393066, "std_height": 4.0259366035461426, "count_pixels": 42, "percent_cover": 0.55962691538974019, "percent_above_0.1m": 85.714285714285708, "low_level_<0.5": 9.5238095238095237, "mid_level_0.5-2": 14.285714285714285, "tall_2+": 59.523809523809526 }, "geometry": { "type": "Point", "coordinates": [ -0.37005373326104, 51.109892785254779 ] } },
{ "type": "Feature", "properties": { "max_height": 12.345504760742188, "mean_height": 6.765984058380127, "std_height": 2.635242223739624, "count_pixels": 42, "percent_cover": 0.55962691538974019, "percent_above_0.1m": 97.61904761904762, "low_level_<0.5": 0.0, "mid_level_0.5-2": 0.0, "tall_2+": 97.61904761904762 }, "geometry": { "type": "Point", "coordinates": [ -0.36985587639765, 51.109890028218032 ] } },
{ "type": "Feature", "properties": { "max_height": 5.6195030212402344, "mean_height": 0.69509345293045044, "std_height": 1.3483166694641113, "count_pixels": 41, "percent_cover": 0.54630246502331781, "percent_above_0.1m": 34.146341463414636, "low_level_<0.5": 7.3170731707317067, "mid_level_0.5-2": 9.7560975609756095, "tall_2+": 14.634146341463413 }, "geometry": { "type": "Point", "coordinates": [ -0.369658019565741, 51.10988727084662 ] } },
{ "type": "Feature", "properties": { "max_height": 2.0560035705566406, "mean_height": 0.41285860538482666, "std_height": 0.57424783706665039, "count_pixels": 42, "percent_cover": 0.55962691538974019, "percent_above_0.1m": 47.619047619047613, "low_level_<0.5": 9.5238095238095237, "mid_level_0.5-2": 30.952380952380953, "tall_2+": 2.3809523809523809 }, "geometry": { "type": "Point", "coordinates": [ -0.3694601627653, 51.109884513140557 ] } },
{ "type": "Feature", "properties": { "max_height": 4.9900016784667969, "mean_height": 2.0407216548919678, "std_height": 1.7360960245132446, "count_pixels": 42, "percent_cover": 0.55962691538974019, "percent_above_0.1m": 76.19047619047619, "low_level_<0.5": 9.5238095238095237, "mid_level_0.5-2": 14.285714285714285, "tall_2+": 52.380952380952387 }, "geometry": { "type": "Point", "coordinates": [ -0.369262305996346, 51.109881755099835 ] } },
{ "type": "Feature", "properties": { "max_height": 0.96325302124023438, "mean_height": 0.096507929265499115, "std_height": 0.23713624477386475, "count_pixels": 38, "percent_cover": 0.50632911392405067, "percent_above_0.1m": 18.421052631578945, "low_level_<0.5": 5.2631578947368416, "mid_level_0.5-2": 7.8947368421052628, "tall_2+": 0.0 }, "geometry": { "type": "Point", "coordinates": [ -0.369951011778008, 51.109999267983653 ] } },
{ "type": "Feature", "properties": { "max_height": 5.459503173828125, "mean_height": 1.2109009027481079, "std_height": 1.6272537708282471, "count_pixels": 42, "percent_cover": 0.55962691538974019, "percent_above_0.1m": 54.761904761904766, "low_level_<0.5": 4.7619047619047619, "mid_level_0.5-2": 26.190476190476193, "tall_2+": 23.809523809523807 }, "geometry": { "type": "Point", "coordinates": [ -0.369753154465953, 51.109996510768468 ] } },
{ "type": "Feature", "properties": { "max_height": 5.1690025329589844, "mean_height": 0.93240636587142944, "std_height": 1.40381920337677, "count_pixels": 42, "percent_cover": 0.55962691538974019, "percent_above_0.1m": 47.619047619047613, "low_level_<0.5": 7.1428571428571423, "mid_level_0.5-2": 11.904761904761903, "tall_2+": 23.809523809523807 }, "geometry": { "type": "Point", "coordinates": [ -0.369555297185373, 51.10999375321861 ] } },
{ "type": "Feature", "properties": { "max_height": 7.9265022277832031, "mean_height": 2.29766845703125, "std_height": 2.3647308349609375, "count_pixels": 42, "percent_cover": 0.55962691538974019, "percent_above_0.1m": 78.571428571428569, "low_level_<0.5": 7.1428571428571423, "mid_level_0.5-2": 23.809523809523807, "tall_2+": 47.619047619047613 }, "geometry": { "type": "Point", "coordinates": [ -0.369357439936271, 51.109990995334115 ] } },
{ "type": "Feature", "properties": { "max_height": 11.965000152587891, "mean_height": 2.9223806858062744, "std_height": 2.8052763938903809, "count_pixels": 41, "percent_cover": 0.54630246502331781, "percent_above_0.1m": 90.243902439024396, "low_level_<0.5": 12.195121951219512, "mid_level_0.5-2": 19.512195121951219, "tall_2+": 56.09756097560976 }, "geometry": { "type": "Point", "coordinates": [ -0.369159582718656, 51.109988237114941 ] } },
{ "type": "Feature", "properties": { "max_height": 6.2752494812011719, "mean_height": 2.390556812286377, "std_height": 1.9153960943222046, "count_pixels": 41, "percent_cover": 0.54630246502331781, "percent_above_0.1m": 87.804878048780495, "low_level_<0.5": 12.195121951219512, "mid_level_0.5-2": 24.390243902439025, "tall_2+": 48.780487804878049 }, "geometry": { "type": "Point", "coordinates": [ -0.368961725532523, 51.109985478561114 ] } },
{ "type": "Feature", "properties": { "max_height": 12.377250671386719, "mean_height": 1.7609543800354004, "std_height": 2.5286269187927246, "count_pixels": 42, "percent_cover": 0.55962691538974019, "percent_above_0.1m": 52.380952380952387, "low_level_<0.5": 4.7619047619047619, "mid_level_0.5-2": 11.904761904761903, "tall_2+": 35.714285714285715 }, "geometry": { "type": "Point", "coordinates": [ -0.36945257432485, 51.110100235493618 ] } },
{ "type": "Feature", "properties": { "max_height": 13.823753356933594, "mean_height": 6.4584240913391113, "std_height": 3.7662227153778076, "count_pixels": 42, "percent_cover": 0.55962691538974019, "percent_above_0.1m": 97.61904761904762, "low_level_<0.5": 2.3809523809523809, "mid_level_0.5-2": 9.5238095238095237, "tall_2+": 85.714285714285708 }, "geometry": { "type": "Point", "coordinates": [ -0.369254716627082, 51.110097477430656 ] } },
{ "type": "Feature", "properties": { "max_height": 7.8310012817382812, "mean_height": 1.2378042936325073, "std_height": 1.4725000858306885, "count_pixels": 43, "percent_cover": 0.57295136575616257, "percent_above_0.1m": 76.744186046511629, "low_level_<0.5": 6.9767441860465116, "mid_level_0.5-2": 44.186046511627907, "tall_2+": 18.604651162790699 }, "geometry": { "type": "Point", "coordinates": [ -0.3690568589608, 51.11009471903305 ] } },
{ "type": "Feature", "properties": { "max_height": 4.3317527770996094, "mean_height": 0.98909133672714233, "std_height": 1.1736913919448853, "count_pixels": 42, "percent_cover": 0.55962691538974019, "percent_above_0.1m": 66.666666666666657, "low_level_<0.5": 19.047619047619047, "mid_level_0.5-2": 30.952380952380953, "tall_2+": 16.666666666666664 }, "geometry": { "type": "Point", "coordinates": [ -0.368859001326009, 51.110091960300771 ] } },
{ "type": "Feature", "properties": { "max_height": 14.311752319335938, "mean_height": 4.0188250541687012, "std_height": 3.6092658042907715, "count_pixels": 41, "percent_cover": 0.54630246502331781, "percent_above_0.1m": 80.487804878048792, "low_level_<0.5": 0.0, "mid_level_0.5-2": 12.195121951219512, "tall_2+": 68.292682926829272 }, "geometry": { "type": "Point", "coordinates": [ -0.36915199283773, 51.110203959430208 ] } },
{ "type": "Feature", "properties": { "max_height": 10.351753234863281, "mean_height": 3.2926363945007324, "std_height": 3.1600630283355713, "count_pixels": 41, "percent_cover": 0.54630246502331781, "percent_above_0.1m": 82.926829268292678, "low_level_<0.5": 2.4390243902439024, "mid_level_0.5-2": 24.390243902439025, "tall_2+": 56.09756097560976 }, "geometry": { "type": "Point", "coordinates": [ -0.368954134722785, 51.110201200854135 ] } },
{ "type": "Feature", "properties": { "max_height": 7.4182548522949219, "mean_height": 1.2778469324111938, "std_height": 1.8620517253875732, "count_pixels": 42, "percent_cover": 0.55962691538974019, "percent_above_0.1m": 59.523809523809526, "low_level_<0.5": 4.7619047619047619, "mid_level_0.5-2": 26.190476190476193, "tall_2+": 23.809523809523807 }, "geometry": { "type": "Point", "coordinates": [ -0.368756276639331, 51.110198441943403 ] } },
{ "type": "Feature", "properties": { "max_height": 6.4720039367675781, "mean_height": 0.62537378072738647, "std_height": 1.5936043262481689, "count_pixels": 43, "percent_cover": 0.57295136575616257, "percent_above_0.1m": 23.255813953488371, "low_level_<0.5": 2.3255813953488373, "mid_level_0.5-2": 6.9767441860465116, "tall_2+": 11.627906976744185 }, "geometry": { "type": "Point", "coordinates": [ -0.369049268568209, 51.11031044133275 ] } },
{ "type": "Feature", "properties": { "max_height": 3.32025146484375, "mean_height": 0.31096604466438293, "std_height": 0.74485725164413452, "count_pixels": 42, "percent_cover": 0.55962691538974019, "percent_above_0.1m": 26.190476190476193, "low_level_<0.5": 11.904761904761903, "mid_level_0.5-2": 9.5238095238095237, "tall_2+": 4.7619047619047619 }, "geometry": { "type": "Point", "coordinates": [ -0.368851410004595, 51.110307682578231 ] } },
{ "type": "Feature", "properties": { "max_height": 2.532501220703125, "mean_height": 0.14058113098144531, "std_height": 0.47601336240768433, "count_pixels": 38, "percent_cover": 0.50632911392405067, "percent_above_0.1m": 10.526315789473683, "low_level_<0.5": 0.0, "mid_level_0.5-2": 7.8947368421052628, "tall_2+": 2.6315789473684208 }, "geometry": { "type": "Point", "coordinates": [ -0.368653551472481, 51.110304923489061 ] } }
]
}
