{
"type": "FeatureCollection",
"name": "5bbfd9ea92d2_foliage",
"crs": { "type": "name", "properties": { "name": "urn:ogc:def:crs:OGC:1.3:CRS84" } },
"features": [
{ "type": "Feature", "properties": { "max_height": 3.4000015258789062, "mean_height": 0.51275098323822021, "std_height": 0.83235388994216919, "count_pixels": 36, "percent_cover": 0.12277470841006752, "percent_above_0.1m": 44.444444444444443, "low_level_<0.5": 11.111111111111111, "mid_level_0.5-2": 25.0, "tall_2+": 8.3333333333333321 }, "geometry": { "type": "Point", "coordinates": [ -0.285565668073412, 50.93249378806015 ] } },
{ "type": "Feature", "properties": { "max_height": 6.1382503509521484, "mean_height": 0.50221055746078491, "std_height": 1.4554810523986816, "count_pixels": 43, "percent_cover": 0.14664756837869175, "percent_above_0.1m": 16.279069767441861, "low_level_<0.5": 2.3255813953488373, "mid_level_0.5-2": 4.6511627906976747, "tall_2+": 9.3023255813953494 }, "geometry": { "type": "Point", "coordinates": [ -0.285660248965536, 50.932603096702998 ] } },
{ "type": "Feature", "properties": { "max_height": 16.218252182006836, "mean_height": 7.9701385498046875, "std_height": 4.3553709983825684, "count_pixels": 44, "percent_cover": 0.15005797694563811, "percent_above_0.1m": 95.454545454545453, "low_level_<0.5": 2.2727272727272729, "mid_level_0.5-2": 6.8181818181818175, "tall_2+": 84.090909090909093 }, "geometry": { "type": "Point", "coordinates": [ -0.285463154972957, 50.932600203822155 ] } },
{ "type": "Feature", "properties": { "max_height": 0.041500091552734375, "mean_height": 0.0020255576819181442, "std_height": 0.0078008384443819523, "count_pixels": 41, "percent_cover": 0.13982675124479912, "percent_above_0.1m": 0.0, "low_level_<0.5": 0.0, "mid_level_0.5-2": 0.0, "tall_2+": 0.0 }, "geometry": { "type": "Point", "coordinates": [ -0.285754830299747, 50.932712405270685 ] } },
{ "type": "Feature", "properties": { "max_height": 15.546501159667969, "mean_height": 5.8595013618469238, "std_height": 4.3436474800109863, "count_pixels": 36, "percent_cover": 0.12277470841006752, "percent_above_0.1m": 86.111111111111114, "low_level_<0.5": 5.5555555555555554, "mid_level_0.5-2": 8.3333333333333321, "tall_2+": 72.222222222222214 }, "geometry": { "type": "Point", "coordinates": [ -0.285557735832344, 50.932709512545941 ] } },
{ "type": "Feature", "properties": { "max_height": 0.92049980163574219, "mean_height": 0.10198672115802765, "std_height": 0.23204907774925232, "count_pixels": 41, "percent_cover": 0.13982675124479912, "percent_above_0.1m": 19.512195121951219, "low_level_<0.5": 7.3170731707317067, "mid_level_0.5-2": 9.7560975609756095, "tall_2+": 0.0 }, "geometry": { "type": "Point", "coordinates": [ -0.289200031096989, 50.93287083654198 ] } },
{ "type": "Feature", "properties": { "max_height": 8.3422508239746094, "mean_height": 1.7720069885253906, "std_height": 2.8510727882385254, "count_pixels": 42, "percent_cover": 0.14323715981174545, "percent_above_0.1m": 42.857142857142854, "low_level_<0.5": 4.7619047619047619, "mid_level_0.5-2": 7.1428571428571423, "tall_2+": 26.190476190476193 }, "geometry": { "type": "Point", "coordinates": [ -0.289002935599026, 50.9328679496276 ] } },
{ "type": "Feature", "properties": { "max_height": 7.5287532806396484, "mean_height": 1.1739373207092285, "std_height": 1.9293527603149414, "count_pixels": 43, "percent_cover": 0.14664756837869175, "percent_above_0.1m": 53.488372093023251, "low_level_<0.5": 11.627906976744185, "mid_level_0.5-2": 23.255813953488371, "tall_2+": 18.604651162790699 }, "geometry": { "type": "Point", "coordinates": [ -0.285849412076042, 50.932821713763282 ] } },
{ "type": "Feature", "properties": { "max_height": 8.1365032196044922, "mean_height": 2.5541470050811768, "std_height": 2.6582753658294678, "count_pixels": 43, "percent_cover": 0.14664756837869175, "percent_above_0.1m": 58.139534883720934, "low_level_<0.5": 6.9767441860465116, "mid_level_0.5-2": 0.0, "tall_2+": 51.162790697674424 }, "geometry": { "type": "Point", "coordinates": [ -0.285652317133819, 50.932818821194623 ] } },
{ "type": "Feature", "properties": { "max_height": 2.3107490539550781, "mean_height": 0.23658871650695801, "std_height": 0.56983977556228638, "count_pixels": 43, "percent_cover": 0.14664756837869175, "percent_above_0.1m": 20.930232558139537, "low_level_<0.5": 4.6511627906976747, "mid_level_0.5-2": 11.627906976744185, "tall_2+": 4.6511627906976747 }, "geometry": { "type": "Point", "coordinates": [ -0.289294621387094, 50.932980142305681 ] } },
{ "type": "Feature", "properties": { "max_height": 8.1847515106201172, "mean_height": 1.9669772386550903, "std_height": 2.8950815200805664, "count_pixels": 42, "percent_cover": 0.14323715981174545, "percent_above_0.1m": 40.476190476190474, "low_level_<0.5": 4.7619047619047619, "mid_level_0.5-2": 2.3809523809523809, "tall_2+": 33.333333333333329 }, "geometry": { "type": "Point", "coordinates": [ -0.289097525414338, 50.932977255547421 ] } },
{ "type": "Feature", "properties": { "max_height": 4.5725021362304688, "mean_height": 0.5611720085144043, "std_height": 1.1577184200286865, "count_pixels": 41, "percent_cover": 0.13982675124479912, "percent_above_0.1m": 24.390243902439025, "low_level_<0.5": 2.4390243902439024, "mid_level_0.5-2": 7.3170731707317067, "tall_2+": 14.634146341463413 }, "geometry": { "type": "Point", "coordinates": [ -0.285746898877384, 50.932928129768172 ] } },
{ "type": "Feature", "properties": { "max_height": 12.059751510620117, "mean_height": 6.8350009918212891, "std_height": 2.7313094139099121, "count_pixels": 36, "percent_cover": 0.12277470841006752, "percent_above_0.1m": 100.0, "low_level_<0.5": 0.0, "mid_level_0.5-2": 2.7777777777777777, "tall_2+": 97.222222222222214 }, "geometry": { "type": "Point", "coordinates": [ -0.285549803493065, 50.932925237023007 ] } },
{ "type": "Feature", "properties": { "max_height": 1.0372505187988281, "mean_height": 0.17713998258113861, "std_height": 0.29778343439102173, "count_pixels": 41, "percent_cover": 0.13982675124479912, "percent_above_0.1m": 31.707317073170731, "low_level_<0.5": 12.195121951219512, "mid_level_0.5-2": 14.634146341463413, "tall_2+": 0.0 }, "geometry": { "type": "Point", "coordinates": [ -0.289192115671774, 50.933086561392095 ] } },
{ "type": "Feature", "properties": { "max_height": 0.94550132751464844, "mean_height": 0.035251084715127945, "std_height": 0.15795141458511353, "count_pixels": 43, "percent_cover": 0.14664756837869175, "percent_above_0.1m": 4.6511627906976747, "low_level_<0.5": 2.3255813953488373, "mid_level_0.5-2": 2.3255813953488373, "tall_2+": 0.0 }, "geometry": { "type": "Point", "coordinates": [ -0.285841481063038, 50.933037438266595 ] } },
{ "type": "Feature", "properties": { "max_height": 14.090749740600586, "mean_height": 5.2356810569763184, "std_height": 4.4749965667724609, "count_pixels": 43, "percent_cover": 0.14664756837869175, "percent_above_0.1m": 76.744186046511629, "low_level_<0.5": 2.3255813953488373, "mid_level_0.5-2": 13.953488372093023, "tall_2+": 60.465116279069761 }, "geometry": { "type": "Point", "coordinates": [ -0.285644385203894, 50.933034545677508 ] } },
{ "type": "Feature", "properties": { "max_height": 5.1459503173828125, "mean_height": 0.73174875974655151, "std_height": 1.4093818664550781, "count_pixels": 43, "percent_cover": 0.14664756837869175, "percent_above_0.1m": 41.860465116279073, "low_level_<0.5": 13.953488372093023, "mid_level_0.5-2": 9.3023255813953494, "tall_2+": 16.279069767441861 }, "geometry": { "type": "Point", "coordinates": [ -0.289286706371345, 50.933195867161615 ] } },
{ "type": "Feature", "properties": { "max_height": 3.3975009918212891, "mean_height": 0.53356045484542847, "std_height": 0.80095088481903076, "count_pixels": 42, "percent_cover": 0.14323715981174545, "percent_above_0.1m": 57.142857142857139, "low_level_<0.5": 21.428571428571427, "mid_level_0.5-2": 23.809523809523807, "tall_2+": 7.1428571428571423 }, "geometry": { "type": "Point", "coordinates": [ -0.289089609481648, 50.933192980382969 ] } },
{ "type": "Feature", "properties": { "max_height": 0.65800094604492188, "mean_height": 0.055726911872625351, "std_height": 0.16183425486087799, "count_pixels": 41, "percent_cover": 0.13982675124479912, "percent_above_0.1m": 12.195121951219512, "low_level_<0.5": 2.4390243902439024, "mid_level_0.5-2": 7.3170731707317067, "tall_2+": 0.0 }, "geometry": { "type": "Point", "coordinates": [ -0.285936063690782, 50.933146746689893 ] } },
{ "type": "Feature", "properties": { "max_height": 12.802249908447266, "mean_height": 3.0865805149078369, "std_height": 3.7932078838348389, "count_pixels": 41, "percent_cover": 0.13982675124479912, "percent_above_0.1m": 65.853658536585371, "low_level_<0.5": 12.195121951219512, "mid_level_0.5-2": 9.7560975609756095, "tall_2+": 43.902439024390247 }, "geometry": { "type": "Point", "coordinates": [ -0.285738967356814, 50.933143854256905 ] } },
{ "type": "Feature", "properties": { "max_height": 2.4722499847412109, "mean_height": 0.70314735174179077, "std_height": 0.81808274984359741, "count_pixels": 41, "percent_cover": 0.13982675124479912, "percent_above_0.1m": 65.853658536585371, "low_level_<0.5": 14.634146341463413, "mid_level_0.5-2": 29.268292682926827, "tall_2+": 12.195121951219512 }, "geometry": { "type": "Point", "coordinates": [ -0.289184200148551, 50.933302286233463 ] } },
{ "type": "Feature", "properties": { "max_height": 7.0467510223388672, "mean_height": 1.5079532861709595, "std_height": 2.4192535877227783, "count_pixels": 42, "percent_cover": 0.14323715981174545, "percent_above_0.1m": 45.238095238095241, "low_level_<0.5": 4.7619047619047619, "mid_level_0.5-2": 14.285714285714285, "tall_2+": 23.809523809523807 }, "geometry": { "type": "Point", "coordinates": [ -0.288987102816711, 50.933299399278347 ] } },
{ "type": "Feature", "properties": { "max_height": 6.8402519226074219, "mean_height": 0.7728729248046875, "std_height": 1.826772928237915, "count_pixels": 43, "percent_cover": 0.14664756837869175, "percent_above_0.1m": 20.930232558139537, "low_level_<0.5": 0.0, "mid_level_0.5-2": 6.9767441860465116, "tall_2+": 13.953488372093023 }, "geometry": { "type": "Point", "coordinates": [ -0.287804519511701, 50.93328207056269 ] } },
{ "type": "Feature", "properties": { "max_height": 0.043752670288085938, "mean_height": 0.0020127978641539812, "std_height": 0.0068904999643564224, "count_pixels": 42, "percent_cover": 0.14323715981174545, "percent_above_0.1m": 0.0, "low_level_<0.5": 0.0, "mid_level_0.5-2": 0.0, "tall_2+": 0.0 }, "geometry": { "type": "Point", "coordinates": [ -0.287607422408573, 50.933279181279282 ] } },
{ "type": "Feature", "properties": { "max_height": 0.094501495361328125, "mean_height": 0.011280695907771587, "std_height": 0.020696450024843216, "count_pixels": 42, "percent_cover": 0.14323715981174545, "percent_above_0.1m": 0.0, "low_level_<0.5": 0.0, "mid_level_0.5-2": 0.0, "tall_2+": 0.0 }, "geometry": { "type": "Point", "coordinates": [ -0.287410325338134, 50.933276291663262 ] } },
{ "type": "Feature", "properties": { "max_height": 1.0462493896484375, "mean_height": 0.089726567268371582, "std_height": 0.21593856811523438, "count_pixels": 41, "percent_cover": 0.13982675124479912, "percent_above_0.1m": 12.195121951219512, "low_level_<0.5": 2.4390243902439024, "mid_level_0.5-2": 9.7560975609756095, "tall_2+": 0.0 }, "geometry": { "type": "Point", "coordinates": [ -0.287213228300381, 50.933273401714629 ] } },
{ "type": "Feature", "properties": { "max_height": 7.8640022277832031, "mean_height": 1.9772276878356934, "std_height": 2.7877585887908936, "count_pixels": 42, "percent_cover": 0.14323715981174545, "percent_above_0.1m": 52.380952380952387, "low_level_<0.5": 7.1428571428571423, "mid_level_0.5-2": 11.904761904761903, "tall_2+": 30.952380952380953 }, "geometry": { "type": "Point", "coordinates": [ -0.286227743602146, 50.933258946982342 ] } },
{ "type": "Feature", "properties": { "max_height": 0.00875091552734375, "mean_height": 0.0014538083923980594, "std_height": 0.0029139784164726734, "count_pixels": 42, "percent_cover": 0.14323715981174545, "percent_above_0.1m": 0.0, "low_level_<0.5": 0.0, "mid_level_0.5-2": 0.0, "tall_2+": 0.0 }, "geometry": { "type": "Point", "coordinates": [ -0.28603064676063, 50.933256055038065 ] } },
{ "type": "Feature", "properties": { "max_height": 9.7757492065429688, "mean_height": 2.055408239364624, "std_height": 3.171372652053833, "count_pixels": 43, "percent_cover": 0.14664756837869175, "percent_above_0.1m": 46.511627906976742, "low_level_<0.5": 4.6511627906976747, "mid_level_0.5-2": 6.9767441860465116, "tall_2+": 32.558139534883722 }, "geometry": { "type": "Point", "coordinates": [ -0.28583354995183, 50.933253162761176 ] } },
{ "type": "Feature", "properties": { "max_height": 4.9367523193359375, "mean_height": 1.292017936706543, "std_height": 1.32262122631073, "count_pixels": 43, "percent_cover": 0.14664756837869175, "percent_above_0.1m": 86.04651162790698, "low_level_<0.5": 18.604651162790699, "mid_level_0.5-2": 30.232558139534881, "tall_2+": 27.906976744186046 }, "geometry": { "type": "Point", "coordinates": [ -0.289475889096889, 50.933414478475221 ] } },
{ "type": "Feature", "properties": { "max_height": 2.7547512054443359, "mean_height": 0.55249178409576416, "std_height": 0.78373247385025024, "count_pixels": 43, "percent_cover": 0.14664756837869175, "percent_above_0.1m": 60.465116279069761, "low_level_<0.5": 25.581395348837212, "mid_level_0.5-2": 23.255813953488371, "tall_2+": 9.3023255813953494 }, "geometry": { "type": "Point", "coordinates": [ -0.289278791257592, 50.93341159200881 ] } },
{ "type": "Feature", "properties": { "max_height": 0.53850173950195312, "mean_height": 0.059018723666667938, "std_height": 0.14347411692142487, "count_pixels": 42, "percent_cover": 0.14323715981174545, "percent_above_0.1m": 16.666666666666664, "low_level_<0.5": 11.904761904761903, "mid_level_0.5-2": 2.3809523809523809, "tall_2+": 0.0 }, "geometry": { "type": "Point", "coordinates": [ -0.289081693450945, 50.933408705209793 ] } },
{ "type": "Feature", "properties": { "max_height": 1.0337505340576172, "mean_height": 0.056756656616926193, "std_height": 0.19441206753253937, "count_pixels": 42, "percent_cover": 0.14323715981174545, "percent_above_0.1m": 9.5238095238095237, "low_level_<0.5": 2.3809523809523809, "mid_level_0.5-2": 4.7619047619047619, "tall_2+": 0.0 }, "geometry": { "type": "Point", "coordinates": [ -0.288884595676957, 50.933405818078164 ] } },
{ "type": "Feature", "properties": { "max_height": 7.9357509613037109, "mean_height": 1.1173361539840698, "std_height": 1.9519153833389282, "count_pixels": 41, "percent_cover": 0.13982675124479912, "percent_above_0.1m": 41.463414634146339, "low_level_<0.5": 2.4390243902439024, "mid_level_0.5-2": 17.073170731707318, "tall_2+": 21.951219512195124 }, "geometry": { "type": "Point", "coordinates": [ -0.288687497935636, 50.933402930613909 ] } },
{ "type": "Feature", "properties": { "max_height": 9.3577499389648438, "mean_height": 1.9495253562927246, "std_height": 3.2388525009155273, "count_pixels": 41, "percent_cover": 0.13982675124479912, "percent_above_0.1m": 41.463414634146339, "low_level_<0.5": 2.4390243902439024, "mid_level_0.5-2": 14.634146341463413, "tall_2+": 24.390243902439025 }, "geometry": { "type": "Point", "coordinates": [ -0.288490400226985, 50.933400042817048 ] } },
{ "type": "Feature", "properties": { "max_height": 5.5287494659423828, "mean_height": 0.50335514545440674, "std_height": 1.2873005867004395, "count_pixels": 36, "percent_cover": 0.12277470841006752, "percent_above_0.1m": 19.444444444444446, "low_level_<0.5": 2.7777777777777777, "mid_level_0.5-2": 5.5555555555555554, "tall_2+": 11.111111111111111 }, "geometry": { "type": "Point", "coordinates": [ -0.288293302550998, 50.933397154687597 ] } },
{ "type": "Feature", "properties": { "max_height": 0.65650177001953125, "mean_height": 0.026132296770811081, "std_height": 0.1023782342672348, "count_pixels": 40, "percent_cover": 0.13641634267785283, "percent_above_0.1m": 2.5, "low_level_<0.5": 0.0, "mid_level_0.5-2": 2.5, "tall_2+": 0.0 }, "geometry": { "type": "Point", "coordinates": [ -0.288096204907692, 50.933394266225513 ] } },
{ "type": "Feature", "properties": { "max_height": 0.12050056457519531, "mean_height": 0.027129150927066803, "std_height": 0.035392500460147858, "count_pixels": 41, "percent_cover": 0.13982675124479912, "percent_above_0.1m": 7.3170731707317067, "low_level_<0.5": 0.0, "mid_level_0.5-2": 0.0, "tall_2+": 0.0 }, "geometry": { "type": "Point", "coordinates": [ -0.287899107297064, 50.933391377430809 ] } },
{ "type": "Feature", "properties": { "max_height": 0.1614990234375, "mean_height": 0.01789739727973938, "std_height": 0.034371595829725266, "count_pixels": 41, "percent_cover": 0.13982675124479912, "percent_above_0.1m": 4.8780487804878048, "low_level_<0.5": 2.4390243902439024, "mid_level_0.5-2": 0.0, "tall_2+": 0.0 }, "geometry": { "type": "Point", "coordinates": [ -0.287702009719116, 50.933388488303521 ] } },
{ "type": "Feature", "properties": { "max_height": 0.006252288818359375, "mean_height": 0.0010425930377095938, "std_height": 0.0023496574722230434, "count_pixels": 42, "percent_cover": 0.14323715981174545, "percent_above_0.1m": 0.0, "low_level_<0.5": 0.0, "mid_level_0.5-2": 0.0, "tall_2+": 0.0 }, "geometry": { "type": "Point", "coordinates": [ -0.28750491217386, 50.9333855988436 ] } },
{ "type": "Feature", "properties": { "max_height": 0.29600143432617188, "mean_height": 0.01251874677836895, "std_height": 0.051975343376398087, "count_pixels": 42, "percent_cover": 0.14323715981174545, "percent_above_0.1m": 4.7619047619047619, "low_level_<0.5": 4.7619047619047619, "mid_level_0.5-2": 0.0, "tall_2+": 0.0 }, "geometry": { "type": "Point", "coordinates": [ -0.287307814661289, 50.933382709051074 ] } },
{ "type": "Feature", "properties": { "max_height": 1.8605022430419922, "mean_height": 0.081960543990135193, "std_height": 0.29685580730438232, "count_pixels": 43, "percent_cover": 0.14664756837869175, "percent_above_0.1m": 11.627906976744185, "low_level_<0.5": 4.6511627906976747, "mid_level_0.5-2": 4.6511627906976747, "tall_2+": 0.0 }, "geometry": { "type": "Point", "coordinates": [ -0.287110717181411, 50.933379818925943 ] } },
{ "type": "Feature", "properties": { "max_height": 0.49200057983398438, "mean_height": 0.022535150870680809, "std_height": 0.096014335751533508, "count_pixels": 44, "percent_cover": 0.15005797694563811, "percent_above_0.1m": 4.5454545454545459, "low_level_<0.5": 4.5454545454545459, "mid_level_0.5-2": 0.0, "tall_2+": 0.0 }, "geometry": { "type": "Point", "coordinates": [ -0.286913619734239, 50.933376928468206 ] } },
{ "type": "Feature", "properties": { "max_height": 0.93600273132324219, "mean_height": 0.02676285058259964, "std_height": 0.14059808850288391, "count_pixels": 43, "percent_cover": 0.14664756837869175, "percent_above_0.1m": 2.3255813953488373, "low_level_<0.5": 0.0, "mid_level_0.5-2": 2.3255813953488373, "tall_2+": 0.0 }, "geometry": { "type": "Point", "coordinates": [ -0.286716522319761, 50.933374037677837 ] } },
{ "type": "Feature", "properties": { "max_height": 0.84150123596191406, "mean_height": 0.038535982370376587, "std_height": 0.14874318242073059, "count_pixels": 43, "percent_cover": 0.14664756837869175, "percent_above_0.1m": 4.6511627906976747, "low_level_<0.5": 0.0, "mid_level_0.5-2": 4.6511627906976747, "tall_2+": 0.0 }, "geometry": { "type": "Point", "coordinates": [ -0.286519424937988, 50.933371146554876 ] } },
{ "type": "Feature", "properties": { "max_height": 0.59725189208984375, "mean_height": 0.036417778581380844, "std_height": 0.10648331046104431, "count_pixels": 42, "percent_cover": 0.14323715981174545, "percent_above_0.1m": 9.5238095238095237, "low_level_<0.5": 7.1428571428571423, "mid_level_0.5-2": 2.3809523809523809, "tall_2+": 0.0 }, "geometry": { "type": "Point", "coordinates": [ -0.28632232758893, 50.933368255099296 ] } },
{ "type": "Feature", "properties": { "max_height": 0.15674972534179688, "mean_height": 0.013995079323649406, "std_height": 0.034712564200162888, "count_pixels": 42, "percent_cover": 0.14323715981174545, "percent_above_0.1m": 4.7619047619047619, "low_level_<0.5": 2.3809523809523809, "mid_level_0.5-2": 0.0, "tall_2+": 0.0 }, "geometry": { "type": "Point", "coordinates": [ -0.286125230272577, 50.933365363311097 ] } },
{ "type": "Feature", "properties": { "max_height": 2.2530021667480469, "mean_height": 0.26316606998443604, "std_height": 0.62975329160690308, "count_pixels": 41, "percent_cover": 0.13982675124479912, "percent_above_0.1m": 19.512195121951219, "low_level_<0.5": 4.8780487804878048, "mid_level_0.5-2": 9.7560975609756095, "tall_2+": 4.8780487804878048 }, "geometry": { "type": "Point", "coordinates": [ -0.285928132988946, 50.9333624711903 ] } },
{ "type": "Feature", "properties": { "max_height": 13.465753555297852, "mean_height": 8.3212881088256836, "std_height": 3.5261666774749756, "count_pixels": 41, "percent_cover": 0.13982675124479912, "percent_above_0.1m": 100.0, "low_level_<0.5": 0.0, "mid_level_0.5-2": 2.4390243902439024, "tall_2+": 97.560975609756099 }, "geometry": { "type": "Point", "coordinates": [ -0.285731035738035, 50.933359578736905 ] } },
{ "type": "Feature", "properties": { "max_height": 5.62109375, "mean_height": 1.13275146484375, "std_height": 1.7406165599822998, "count_pixels": 36, "percent_cover": 0.12277470841006752, "percent_above_0.1m": 52.777777777777779, "low_level_<0.5": 16.666666666666664, "mid_level_0.5-2": 11.111111111111111, "tall_2+": 25.0 }, "geometry": { "type": "Point", "coordinates": [ -0.289570481122876, 50.933523784019293 ] } },
{ "type": "Feature", "properties": { "max_height": 2.4537525177001953, "mean_height": 0.58448976278305054, "std_height": 0.75617122650146484, "count_pixels": 41, "percent_cover": 0.13982675124479912, "percent_above_0.1m": 48.780487804878049, "low_level_<0.5": 2.4390243902439024, "mid_level_0.5-2": 36.585365853658537, "tall_2+": 9.7560975609756095 }, "geometry": { "type": "Point", "coordinates": [ -0.289373382808771, 50.933520897709009 ] } },
{ "type": "Feature", "properties": { "max_height": 0.90999984741210938, "mean_height": 0.090921401977539062, "std_height": 0.19718968868255615, "count_pixels": 41, "percent_cover": 0.13982675124479912, "percent_above_0.1m": 21.951219512195124, "low_level_<0.5": 14.634146341463413, "mid_level_0.5-2": 4.8780487804878048, "tall_2+": 0.0 }, "geometry": { "type": "Point", "coordinates": [ -0.289176284527317, 50.933518011066091 ] } },
{ "type": "Feature", "properties": { "max_height": 0.54399871826171875, "mean_height": 0.049852054566144943, "std_height": 0.13893534243106842, "count_pixels": 42, "percent_cover": 0.14323715981174545, "percent_above_0.1m": 11.904761904761903, "low_level_<0.5": 7.1428571428571423, "mid_level_0.5-2": 4.7619047619047619, "tall_2+": 0.0 }, "geometry": { "type": "Point", "coordinates": [ -0.288979186278517, 50.933515124090583 ] } },
{ "type": "Feature", "properties": { "max_height": 0.007999420166015625, "mean_height": 0.0020067577715963125, "std_height": 0.0028549646958708763, "count_pixels": 42, "percent_cover": 0.14323715981174545, "percent_above_0.1m": 0.0, "low_level_<0.5": 0.0, "mid_level_0.5-2": 0.0, "tall_2+": 0.0 }, "geometry": { "type": "Point", "coordinates": [ -0.288782088062388, 50.933512236782455 ] } },
{ "type": "Feature", "properties": { "max_height": 0.007251739501953125, "mean_height": 0.0017741890624165535, "std_height": 0.0022451395634561777, "count_pixels": 43, "percent_cover": 0.14664756837869175, "percent_above_0.1m": 0.0, "low_level_<0.5": 0.0, "mid_level_0.5-2": 0.0, "tall_2+": 0.0 }, "geometry": { "type": "Point", "coordinates": [ -0.288584989878922, 50.933509349141715 ] } },
{ "type": "Feature", "properties": { "max_height": 0.024251937866210938, "mean_height": 0.0029370062984526157, "std_height": 0.0055051795206964016, "count_pixels": 43, "percent_cover": 0.14664756837869175, "percent_above_0.1m": 0.0, "low_level_<0.5": 0.0, "mid_level_0.5-2": 0.0, "tall_2+": 0.0 }, "geometry": { "type": "Point", "coordinates": [ -0.288387891728123, 50.933506461168356 ] } },
{ "type": "Feature", "properties": { "max_height": 0.012248992919921875, "mean_height": 0.0015406175516545773, "std_height": 0.0029002137016505003, "count_pixels": 44, "percent_cover": 0.15005797694563811, "percent_above_0.1m": 0.0, "low_level_<0.5": 0.0, "mid_level_0.5-2": 0.0, "tall_2+": 0.0 }, "geometry": { "type": "Point", "coordinates": [ -0.288190793609998, 50.933503572862392 ] } },
{ "type": "Feature", "properties": { "max_height": 0.062000274658203125, "mean_height": 0.0030823198612779379, "std_height": 0.0094775250181555748, "count_pixels": 43, "percent_cover": 0.14664756837869175, "percent_above_0.1m": 0.0, "low_level_<0.5": 0.0, "mid_level_0.5-2": 0.0, "tall_2+": 0.0 }, "geometry": { "type": "Point", "coordinates": [ -0.287993695524552, 50.933500684223809 ] } },
{ "type": "Feature", "properties": { "max_height": 0.015501022338867188, "mean_height": 0.0019426123471930623, "std_height": 0.0036257861647754908, "count_pixels": 43, "percent_cover": 0.14664756837869175, "percent_above_0.1m": 0.0, "low_level_<0.5": 0.0, "mid_level_0.5-2": 0.0, "tall_2+": 0.0 }, "geometry": { "type": "Point", "coordinates": [ -0.287796597471789, 50.933497795252627 ] } },
{ "type": "Feature", "properties": { "max_height": 0.90300178527832031, "mean_height": 0.10565562546253204, "std_height": 0.21724723279476166, "count_pixels": 42, "percent_cover": 0.14323715981174545, "percent_above_0.1m": 26.190476190476193, "low_level_<0.5": 11.904761904761903, "mid_level_0.5-2": 9.5238095238095237, "tall_2+": 0.0 }, "geometry": { "type": "Point", "coordinates": [ -0.287599499451704, 50.933494905948805 ] } },
{ "type": "Feature", "properties": { "max_height": 1.0115013122558594, "mean_height": 0.12982836365699768, "std_height": 0.23490072786808014, "count_pixels": 42, "percent_cover": 0.14323715981174545, "percent_above_0.1m": 28.571428571428569, "low_level_<0.5": 16.666666666666664, "mid_level_0.5-2": 11.904761904761903, "tall_2+": 0.0 }, "geometry": { "type": "Point", "coordinates": [ -0.287402401464317, 50.9334920163124 ] } },
{ "type": "Feature", "properties": { "max_height": 2.4270000457763672, "mean_height": 0.20205605030059814, "std_height": 0.51556843519210815, "count_pixels": 41, "percent_cover": 0.13982675124479912, "percent_above_0.1m": 17.073170731707318, "low_level_<0.5": 2.4390243902439024, "mid_level_0.5-2": 12.195121951219512, "tall_2+": 2.4390243902439024 }, "geometry": { "type": "Point", "coordinates": [ -0.287205303509611, 50.93348912634336 ] } },
{ "type": "Feature", "properties": { "max_height": 2.1792507171630859, "mean_height": 0.09273228794336319, "std_height": 0.35144710540771484, "count_pixels": 40, "percent_cover": 0.13641634267785283, "percent_above_0.1m": 12.5, "low_level_<0.5": 7.5, "mid_level_0.5-2": 2.5, "tall_2+": 2.5 }, "geometry": { "type": "Point", "coordinates": [ -0.287008205587612, 50.933486236041709 ] } },
{ "type": "Feature", "properties": { "max_height": 0.019500732421875, "mean_height": 0.0015286869602277875, "std_height": 0.0045322314836084843, "count_pixels": 36, "percent_cover": 0.12277470841006752, "percent_above_0.1m": 0.0, "low_level_<0.5": 0.0, "mid_level_0.5-2": 0.0, "tall_2+": 0.0 }, "geometry": { "type": "Point", "coordinates": [ -0.286811107698309, 50.933483345407453 ] } },
{ "type": "Feature", "properties": { "max_height": 0.04325103759765625, "mean_height": 0.005257211159914732, "std_height": 0.01051059179008007, "count_pixels": 41, "percent_cover": 0.13982675124479912, "percent_above_0.1m": 0.0, "low_level_<0.5": 0.0, "mid_level_0.5-2": 0.0, "tall_2+": 0.0 }, "geometry": { "type": "Point", "coordinates": [ -0.286614009841709, 50.933480454440577 ] } },
{ "type": "Feature", "properties": { "max_height": 0.007251739501953125, "mean_height": 0.0012084216577932239, "std_height": 0.0017223736504092813, "count_pixels": 41, "percent_cover": 0.13982675124479912, "percent_above_0.1m": 0.0, "low_level_<0.5": 0.0, "mid_level_0.5-2": 0.0, "tall_2+": 0.0 }, "geometry": { "type": "Point", "coordinates": [ -0.286416912017815, 50.933477563141118 ] } },
{ "type": "Feature", "properties": { "max_height": 0.00875091552734375, "mean_height": 0.0012926828349009156, "std_height": 0.0025506413076072931, "count_pixels": 42, "percent_cover": 0.14323715981174545, "percent_above_0.1m": 0.0, "low_level_<0.5": 0.0, "mid_level_0.5-2": 0.0, "tall_2+": 0.0 }, "geometry": { "type": "Point", "coordinates": [ -0.286219814226635, 50.933474671509011 ] } },
{ "type": "Feature", "properties": { "max_height": 0.44700050354003906, "mean_height": 0.017519133165478706, "std_height": 0.075216591358184814, "count_pixels": 42, "percent_cover": 0.14323715981174545, "percent_above_0.1m": 4.7619047619047619, "low_level_<0.5": 4.7619047619047619, "mid_level_0.5-2": 0.0, "tall_2+": 0.0 }, "geometry": { "type": "Point", "coordinates": [ -0.286022716468168, 50.933471779544327 ] } },
{ "type": "Feature", "properties": { "max_height": 11.211753845214844, "mean_height": 3.3727278709411621, "std_height": 3.1092886924743652, "count_pixels": 43, "percent_cover": 0.14664756837869175, "percent_above_0.1m": 86.04651162790698, "low_level_<0.5": 4.6511627906976747, "mid_level_0.5-2": 23.255813953488371, "tall_2+": 55.813953488372093 }, "geometry": { "type": "Point", "coordinates": [ -0.285825618742422, 50.933468887246995 ] } },
{ "type": "Feature", "properties": { "max_height": 5.2282505035400391, "mean_height": 1.515871524810791, "std_height": 1.7946727275848389, "count_pixels": 44, "percent_cover": 0.15005797694563811, "percent_above_0.1m": 77.272727272727266, "low_level_<0.5": 22.727272727272727, "mid_level_0.5-2": 20.454545454545457, "tall_2+": 29.545454545454547 }, "geometry": { "type": "Point", "coordinates": [ -0.289665073591009, 50.933633089488211 ] } },
{ "type": "Feature", "properties": { "max_height": 0.28780174255371094, "mean_height": 0.038928519934415817, "std_height": 0.071039497852325439, "count_pixels": 43, "percent_cover": 0.14664756837869175, "percent_above_0.1m": 11.627906976744185, "low_level_<0.5": 11.627906976744185, "mid_level_0.5-2": 0.0, "tall_2+": 0.0 }, "geometry": { "type": "Point", "coordinates": [ -0.289467974802092, 50.933630203334047 ] } },
{ "type": "Feature", "properties": { "max_height": 0.475250244140625, "mean_height": 0.068029977381229401, "std_height": 0.12731768190860748, "count_pixels": 43, "percent_cover": 0.14664756837869175, "percent_above_0.1m": 23.255813953488371, "low_level_<0.5": 20.930232558139537, "mid_level_0.5-2": 0.0, "tall_2+": 0.0 }, "geometry": { "type": "Point", "coordinates": [ -0.289270876045827, 50.933627316847264 ] } },
{ "type": "Feature", "properties": { "max_height": 0.19950103759765625, "mean_height": 0.0065245400182902813, "std_height": 0.030313700437545776, "count_pixels": 42, "percent_cover": 0.14323715981174545, "percent_above_0.1m": 2.3809523809523809, "low_level_<0.5": 2.3809523809523809, "mid_level_0.5-2": 0.0, "tall_2+": 0.0 }, "geometry": { "type": "Point", "coordinates": [ -0.289073777322222, 50.933624430027876 ] } },
{ "type": "Feature", "properties": { "max_height": 0.27800178527832031, "mean_height": 0.0071971984580159187, "std_height": 0.042380258440971375, "count_pixels": 42, "percent_cover": 0.14323715981174545, "percent_above_0.1m": 2.3809523809523809, "low_level_<0.5": 2.3809523809523809, "mid_level_0.5-2": 0.0, "tall_2+": 0.0 }, "geometry": { "type": "Point", "coordinates": [ -0.288876678631273, 50.933621542875848 ] } },
{ "type": "Feature", "properties": { "max_height": 0.011501312255859375, "mean_height": 0.0015801686095073819, "std_height": 0.003663589246571064, "count_pixels": 41, "percent_cover": 0.13982675124479912, "percent_above_0.1m": 0.0, "low_level_<0.5": 0.0, "mid_level_0.5-2": 0.0, "tall_2+": 0.0 }, "geometry": { "type": "Point", "coordinates": [ -0.288679579972994, 50.933618655391221 ] } },
{ "type": "Feature", "properties": { "max_height": 0.11275100708007812, "mean_height": 0.005147282499819994, "std_height": 0.017608588561415672, "count_pixels": 41, "percent_cover": 0.13982675124479912, "percent_above_0.1m": 2.4390243902439024, "low_level_<0.5": 0.0, "mid_level_0.5-2": 0.0, "tall_2+": 0.0 }, "geometry": { "type": "Point", "coordinates": [ -0.288482481347377, 50.933615767573976 ] } },
{ "type": "Feature", "properties": { "max_height": 0.44050025939941406, "mean_height": 0.01759788766503334, "std_height": 0.072704069316387177, "count_pixels": 36, "percent_cover": 0.12277470841006752, "percent_above_0.1m": 2.7777777777777777, "low_level_<0.5": 2.7777777777777777, "mid_level_0.5-2": 0.0, "tall_2+": 0.0 }, "geometry": { "type": "Point", "coordinates": [ -0.288285382754434, 50.933612879424139 ] } },
{ "type": "Feature", "properties": { "max_height": 0.011751174926757812, "mean_height": 0.002113390015438199, "std_height": 0.0030118925496935844, "count_pixels": 40, "percent_cover": 0.13641634267785283, "percent_above_0.1m": 0.0, "low_level_<0.5": 0.0, "mid_level_0.5-2": 0.0, "tall_2+": 0.0 }, "geometry": { "type": "Point", "coordinates": [ -0.288088284194169, 50.933609990941662 ] } },
{ "type": "Feature", "properties": { "max_height": 0.0095005035400390625, "mean_height": 0.0023850230500102043, "std_height": 0.002882892731577158, "count_pixels": 41, "percent_cover": 0.13982675124479912, "percent_above_0.1m": 0.0, "low_level_<0.5": 0.0, "mid_level_0.5-2": 0.0, "tall_2+": 0.0 }, "geometry": { "type": "Point", "coordinates": [ -0.287891185666581, 50.933607102126579 ] } },
{ "type": "Feature", "properties": { "max_height": 0.022249221801757812, "mean_height": 0.0023912105243653059, "std_height": 0.0038366822991520166, "count_pixels": 41, "percent_cover": 0.13982675124479912, "percent_above_0.1m": 0.0, "low_level_<0.5": 0.0, "mid_level_0.5-2": 0.0, "tall_2+": 0.0 }, "geometry": { "type": "Point", "coordinates": [ -0.28769408717168, 50.933604212978878 ] } },
{ "type": "Feature", "properties": { "max_height": 1.6777515411376953, "mean_height": 0.48845353722572327, "std_height": 0.5410807728767395, "count_pixels": 42, "percent_cover": 0.14323715981174545, "percent_above_0.1m": 57.142857142857139, "low_level_<0.5": 19.047619047619047, "mid_level_0.5-2": 38.095238095238095, "tall_2+": 0.0 }, "geometry": { "type": "Point", "coordinates": [ -0.287496988709463, 50.933601323498571 ] } },
{ "type": "Feature", "properties": { "max_height": 2.6162509918212891, "mean_height": 1.3776440620422363, "std_height": 0.76675146818161011, "count_pixels": 42, "percent_cover": 0.14323715981174545, "percent_above_0.1m": 97.61904761904762, "low_level_<0.5": 19.047619047619047, "mid_level_0.5-2": 57.142857142857139, "tall_2+": 21.428571428571427 }, "geometry": { "type": "Point", "coordinates": [ -0.287299890279936, 50.933598433685653 ] } },
{ "type": "Feature", "properties": { "max_height": 2.3072509765625, "mean_height": 0.54219871759414673, "std_height": 0.70264792442321777, "count_pixels": 43, "percent_cover": 0.14664756837869175, "percent_above_0.1m": 51.162790697674424, "low_level_<0.5": 13.953488372093023, "mid_level_0.5-2": 32.558139534883722, "tall_2+": 4.6511627906976747 }, "geometry": { "type": "Point", "coordinates": [ -0.287102791883103, 50.9335955435401 ] } },
{ "type": "Feature", "properties": { "max_height": 2.3345012664794922, "mean_height": 0.64808648824691772, "std_height": 0.66988205909729004, "count_pixels": 44, "percent_cover": 0.15005797694563811, "percent_above_0.1m": 70.454545454545453, "low_level_<0.5": 15.909090909090908, "mid_level_0.5-2": 43.18181818181818, "tall_2+": 6.8181818181818175 }, "geometry": { "type": "Point", "coordinates": [ -0.286905693518971, 50.93359265306195 ] } },
{ "type": "Feature", "properties": { "max_height": 1.9745025634765625, "mean_height": 0.28803017735481262, "std_height": 0.51653945446014404, "count_pixels": 43, "percent_cover": 0.14664756837869175, "percent_above_0.1m": 34.883720930232556, "low_level_<0.5": 9.3023255813953494, "mid_level_0.5-2": 23.255813953488371, "tall_2+": 0.0 }, "geometry": { "type": "Point", "coordinates": [ -0.28670859518754, 50.933589762251181 ] } },
{ "type": "Feature", "properties": { "max_height": 0.60950088500976562, "mean_height": 0.056541752070188522, "std_height": 0.13691134750843048, "count_pixels": 43, "percent_cover": 0.14664756837869175, "percent_above_0.1m": 13.953488372093023, "low_level_<0.5": 11.627906976744185, "mid_level_0.5-2": 2.3255813953488373, "tall_2+": 0.0 }, "geometry": { "type": "Point", "coordinates": [ -0.286511496888815, 50.933586871107792 ] } },
{ "type": "Feature", "properties": { "max_height": 0.65100288391113281, "mean_height": 0.096608251333236694, "std_height": 0.15626028180122375, "count_pixels": 42, "percent_cover": 0.14323715981174545, "percent_above_0.1m": 30.952380952380953, "low_level_<0.5": 16.666666666666664, "mid_level_0.5-2": 4.7619047619047619, "tall_2+": 0.0 }, "geometry": { "type": "Point", "coordinates": [ -0.2863143986228, 50.933583979631806 ] } },
{ "type": "Feature", "properties": { "max_height": 1.0592517852783203, "mean_height": 0.091703459620475769, "std_height": 0.23121874034404755, "count_pixels": 42, "percent_cover": 0.14323715981174545, "percent_above_0.1m": 14.285714285714285, "low_level_<0.5": 4.7619047619047619, "mid_level_0.5-2": 9.5238095238095237, "tall_2+": 0.0 }, "geometry": { "type": "Point", "coordinates": [ -0.286117300389497, 50.9335810878232 ] } },
{ "type": "Feature", "properties": { "max_height": 10.200000762939453, "mean_height": 1.3342630863189697, "std_height": 2.821946382522583, "count_pixels": 41, "percent_cover": 0.13982675124479912, "percent_above_0.1m": 36.585365853658537, "low_level_<0.5": 12.195121951219512, "mid_level_0.5-2": 7.3170731707317067, "tall_2+": 17.073170731707318 }, "geometry": { "type": "Point", "coordinates": [ -0.285920202188909, 50.933578195681967 ] } },
{ "type": "Feature", "properties": { "max_height": 1.9435005187988281, "mean_height": 0.84199446439743042, "std_height": 0.66656064987182617, "count_pixels": 40, "percent_cover": 0.13641634267785283, "percent_above_0.1m": 87.5, "low_level_<0.5": 22.5, "mid_level_0.5-2": 60.0, "tall_2+": 0.0 }, "geometry": { "type": "Point", "coordinates": [ -0.289759666501292, 50.933742394882003 ] } },
{ "type": "Feature", "properties": { "max_height": 0.44425010681152344, "mean_height": 0.070813365280628204, "std_height": 0.12926426529884338, "count_pixels": 36, "percent_cover": 0.12277470841006752, "percent_above_0.1m": 25.0, "low_level_<0.5": 16.666666666666664, "mid_level_0.5-2": 0.0, "tall_2+": 0.0 }, "geometry": { "type": "Point", "coordinates": [ -0.289562567237566, 50.933739508883946 ] } },
{ "type": "Feature", "properties": { "max_height": 0.68025016784667969, "mean_height": 0.059579964727163315, "std_height": 0.1425996720790863, "count_pixels": 41, "percent_cover": 0.13982675124479912, "percent_above_0.1m": 17.073170731707318, "low_level_<0.5": 14.634146341463413, "mid_level_0.5-2": 2.4390243902439024, "tall_2+": 0.0 }, "geometry": { "type": "Point", "coordinates": [ -0.289365468006484, 50.933736622553276 ] } },
{ "type": "Feature", "properties": { "max_height": 9.5677509307861328, "mean_height": 2.1622629165649414, "std_height": 3.3704907894134521, "count_pixels": 43, "percent_cover": 0.14664756837869175, "percent_above_0.1m": 48.837209302325576, "low_level_<0.5": 11.627906976744185, "mid_level_0.5-2": 9.3023255813953494, "tall_2+": 27.906976744186046 }, "geometry": { "type": "Point", "coordinates": [ -0.287985774303506, 50.933716408925399 ] } },
{ "type": "Feature", "properties": { "max_height": 7.48175048828125, "mean_height": 0.99043715000152588, "std_height": 2.1142072677612305, "count_pixels": 43, "percent_cover": 0.14664756837869175, "percent_above_0.1m": 23.255813953488371, "low_level_<0.5": 2.3255813953488373, "mid_level_0.5-2": 2.3255813953488373, "tall_2+": 18.604651162790699 }, "geometry": { "type": "Point", "coordinates": [ -0.287788675333781, 50.933713519933804 ] } },
{ "type": "Feature", "properties": { "max_height": 0.51325035095214844, "mean_height": 0.038899786770343781, "std_height": 0.10737921297550201, "count_pixels": 42, "percent_cover": 0.14323715981174545, "percent_above_0.1m": 11.904761904761903, "low_level_<0.5": 4.7619047619047619, "mid_level_0.5-2": 2.3809523809523809, "tall_2+": 0.0 }, "geometry": { "type": "Point", "coordinates": [ -0.287591576396735, 50.933710630609582 ] } },
{ "type": "Feature", "properties": { "max_height": 1.7227497100830078, "mean_height": 0.3487926721572876, "std_height": 0.50024509429931641, "count_pixels": 42, "percent_cover": 0.14323715981174545, "percent_above_0.1m": 47.619047619047613, "low_level_<0.5": 19.047619047619047, "mid_level_0.5-2": 26.190476190476193, "tall_2+": 0.0 }, "geometry": { "type": "Point", "coordinates": [ -0.287394477492381, 50.933707740952777 ] } },
{ "type": "Feature", "properties": { "max_height": 1.0157508850097656, "mean_height": 0.1636168360710144, "std_height": 0.30650287866592407, "count_pixels": 41, "percent_cover": 0.13982675124479912, "percent_above_0.1m": 29.268292682926827, "low_level_<0.5": 12.195121951219512, "mid_level_0.5-2": 14.634146341463413, "tall_2+": 0.0 }, "geometry": { "type": "Point", "coordinates": [ -0.287197378620721, 50.933704850963352 ] } },
{ "type": "Feature", "properties": { "max_height": 2.8860015869140625, "mean_height": 0.53867596387863159, "std_height": 0.81416887044906616, "count_pixels": 40, "percent_cover": 0.13641634267785283, "percent_above_0.1m": 37.5, "low_level_<0.5": 7.5, "mid_level_0.5-2": 25.0, "tall_2+": 5.0 }, "geometry": { "type": "Point", "coordinates": [ -0.287000279781754, 50.933701960641294 ] } },
{ "type": "Feature", "properties": { "max_height": 2.9225006103515625, "mean_height": 1.0974178314208984, "std_height": 0.98195451498031616, "count_pixels": 36, "percent_cover": 0.12277470841006752, "percent_above_0.1m": 80.555555555555557, "low_level_<0.5": 19.444444444444446, "mid_level_0.5-2": 33.333333333333329, "tall_2+": 19.444444444444446 }, "geometry": { "type": "Point", "coordinates": [ -0.286803180975493, 50.933699069986616 ] } },
{ "type": "Feature", "properties": { "max_height": 0.04650115966796875, "mean_height": 0.0042634825222194195, "std_height": 0.0091207288205623627, "count_pixels": 41, "percent_cover": 0.13982675124479912, "percent_above_0.1m": 0.0, "low_level_<0.5": 0.0, "mid_level_0.5-2": 0.0, "tall_2+": 0.0 }, "geometry": { "type": "Point", "coordinates": [ -0.286606082201929, 50.933696178999348 ] } },
{ "type": "Feature", "properties": { "max_height": 0.100250244140625, "mean_height": 0.0094525404274463654, "std_height": 0.02080562524497509, "count_pixels": 41, "percent_cover": 0.13982675124479912, "percent_above_0.1m": 2.4390243902439024, "low_level_<0.5": 0.0, "mid_level_0.5-2": 0.0, "tall_2+": 0.0 }, "geometry": { "type": "Point", "coordinates": [ -0.286408983461077, 50.933693287679461 ] } },
{ "type": "Feature", "properties": { "max_height": 1.40875244140625, "mean_height": 0.26761418581008911, "std_height": 0.36103335022926331, "count_pixels": 42, "percent_cover": 0.14323715981174545, "percent_above_0.1m": 42.857142857142854, "low_level_<0.5": 19.047619047619047, "mid_level_0.5-2": 21.428571428571427, "tall_2+": 0.0 }, "geometry": { "type": "Point", "coordinates": [ -0.28621188475294, 50.933690396026961 ] } },
{ "type": "Feature", "properties": { "max_height": 2.4380035400390625, "mean_height": 0.46528679132461548, "std_height": 0.75922930240631104, "count_pixels": 42, "percent_cover": 0.14323715981174545, "percent_above_0.1m": 47.619047619047613, "low_level_<0.5": 16.666666666666664, "mid_level_0.5-2": 14.285714285714285, "tall_2+": 11.904761904761903 }, "geometry": { "type": "Point", "coordinates": [ -0.286014786077512, 50.933687504041821 ] } },
{ "type": "Feature", "properties": { "max_height": 15.115253448486328, "mean_height": 8.8400716781616211, "std_height": 3.7135844230651855, "count_pixels": 43, "percent_cover": 0.14664756837869175, "percent_above_0.1m": 100.0, "low_level_<0.5": 0.0, "mid_level_0.5-2": 4.6511627906976747, "tall_2+": 95.348837209302332 }, "geometry": { "type": "Point", "coordinates": [ -0.285817687434806, 50.933684611724104 ] } },
{ "type": "Feature", "properties": { "max_height": 2.2192516326904297, "mean_height": 0.62960511445999146, "std_height": 0.7467803955078125, "count_pixels": 43, "percent_cover": 0.14664756837869175, "percent_above_0.1m": 62.790697674418603, "low_level_<0.5": 18.604651162790699, "mid_level_0.5-2": 32.558139534883722, "tall_2+": 6.9767441860465116 }, "geometry": { "type": "Point", "coordinates": [ -0.289854259854843, 50.933851700201195 ] } },
{ "type": "Feature", "properties": { "max_height": 0.75699996948242188, "mean_height": 0.16235853731632233, "std_height": 0.25933551788330078, "count_pixels": 44, "percent_cover": 0.15005797694563811, "percent_above_0.1m": 29.545454545454547, "low_level_<0.5": 9.0909090909090917, "mid_level_0.5-2": 20.454545454545457, "tall_2+": 0.0 }, "geometry": { "type": "Point", "coordinates": [ -0.289657160116217, 50.933848814359131 ] } },
{ "type": "Feature", "properties": { "max_height": 0.83150100708007812, "mean_height": 0.085570625960826874, "std_height": 0.19627420604228973, "count_pixels": 43, "percent_cover": 0.14664756837869175, "percent_above_0.1m": 20.930232558139537, "low_level_<0.5": 11.627906976744185, "mid_level_0.5-2": 6.9767441860465116, "tall_2+": 0.0 }, "geometry": { "type": "Point", "coordinates": [ -0.289460060410221, 50.933845928184439 ] } },
{ "type": "Feature", "properties": { "max_height": 5.7132511138916016, "mean_height": 0.7264372706413269, "std_height": 1.3979552984237671, "count_pixels": 43, "percent_cover": 0.14664756837869175, "percent_above_0.1m": 48.837209302325576, "low_level_<0.5": 13.953488372093023, "mid_level_0.5-2": 16.279069767441861, "tall_2+": 11.627906976744185 }, "geometry": { "type": "Point", "coordinates": [ -0.287094866486662, 50.933811268145504 ] } },
{ "type": "Feature", "properties": { "max_height": 2.2007522583007812, "mean_height": 0.4123251736164093, "std_height": 0.52417737245559692, "count_pixels": 44, "percent_cover": 0.15005797694563811, "percent_above_0.1m": 59.090909090909093, "low_level_<0.5": 29.545454545454547, "mid_level_0.5-2": 25.0, "tall_2+": 4.5454545454545459 }, "geometry": { "type": "Point", "coordinates": [ -0.286897767205562, 50.933808377646947 ] } },
{ "type": "Feature", "properties": { "max_height": 1.0015010833740234, "mean_height": 0.098681338131427765, "std_height": 0.18537618219852448, "count_pixels": 43, "percent_cover": 0.14664756837869175, "percent_above_0.1m": 23.255813953488371, "low_level_<0.5": 16.279069767441861, "mid_level_0.5-2": 4.6511627906976747, "tall_2+": 0.0 }, "geometry": { "type": "Point", "coordinates": [ -0.286700667957165, 50.933805486815778 ] } },
{ "type": "Feature", "properties": { "max_height": 1.0677509307861328, "mean_height": 0.090652376413345337, "std_height": 0.20579464733600616, "count_pixels": 43, "percent_cover": 0.14664756837869175, "percent_above_0.1m": 13.953488372093023, "low_level_<0.5": 4.6511627906976747, "mid_level_0.5-2": 6.9767441860465116, "tall_2+": 0.0 }, "geometry": { "type": "Point", "coordinates": [ -0.286503568741475, 50.933802595651983 ] } },
{ "type": "Feature", "properties": { "max_height": 0.71550178527832031, "mean_height": 0.048650015145540237, "std_height": 0.11892173439264297, "count_pixels": 42, "percent_cover": 0.14323715981174545, "percent_above_0.1m": 14.285714285714285, "low_level_<0.5": 11.904761904761903, "mid_level_0.5-2": 2.3809523809523809, "tall_2+": 0.0 }, "geometry": { "type": "Point", "coordinates": [ -0.286306469558492, 50.933799704155568 ] } },
{ "type": "Feature", "properties": { "max_height": 2.4327507019042969, "mean_height": 0.27027487754821777, "std_height": 0.40378284454345703, "count_pixels": 42, "percent_cover": 0.14323715981174545, "percent_above_0.1m": 61.904761904761905, "low_level_<0.5": 47.619047619047613, "mid_level_0.5-2": 9.5238095238095237, "tall_2+": 2.3809523809523809 }, "geometry": { "type": "Point", "coordinates": [ -0.286109370408222, 50.933796812326534 ] } },
{ "type": "Feature", "properties": { "max_height": 12.608249664306641, "mean_height": 5.8674221038818359, "std_height": 3.6053776741027832, "count_pixels": 41, "percent_cover": 0.13982675124479912, "percent_above_0.1m": 100.0, "low_level_<0.5": 0.0, "mid_level_0.5-2": 14.634146341463413, "tall_2+": 85.365853658536579 }, "geometry": { "type": "Point", "coordinates": [ -0.285912271290676, 50.933793920164923 ] } },
{ "type": "Feature", "properties": { "max_height": 3.6522502899169922, "mean_height": 0.33146342635154724, "std_height": 0.59778958559036255, "count_pixels": 40, "percent_cover": 0.13641634267785283, "percent_above_0.1m": 50.0, "low_level_<0.5": 17.5, "mid_level_0.5-2": 27.5, "tall_2+": 2.5 }, "geometry": { "type": "Point", "coordinates": [ -0.289751753490656, 50.933958119764071 ] } },
{ "type": "Feature", "properties": { "max_height": 0.011751174926757812, "mean_height": 0.0023342769127339125, "std_height": 0.0036746496334671974, "count_pixels": 36, "percent_cover": 0.12277470841006752, "percent_above_0.1m": 0.0, "low_level_<0.5": 0.0, "mid_level_0.5-2": 0.0, "tall_2+": 0.0 }, "geometry": { "type": "Point", "coordinates": [ -0.289554653310516, 50.933955233744733 ] } },
{ "type": "Feature", "properties": { "max_height": 7.7445011138916016, "mean_height": 1.8129522800445557, "std_height": 2.5808584690093994, "count_pixels": 36, "percent_cover": 0.12277470841006752, "percent_above_0.1m": 47.222222222222221, "low_level_<0.5": 8.3333333333333321, "mid_level_0.5-2": 5.5555555555555554, "tall_2+": 33.333333333333329 }, "geometry": { "type": "Point", "coordinates": [ -0.286795254203805, 50.933914794554326 ] } },
{ "type": "Feature", "properties": { "max_height": 3.3245010375976562, "mean_height": 0.55816590785980225, "std_height": 0.89182496070861816, "count_pixels": 41, "percent_cover": 0.13982675124479912, "percent_above_0.1m": 46.341463414634148, "low_level_<0.5": 17.073170731707318, "mid_level_0.5-2": 17.073170731707318, "tall_2+": 12.195121951219512 }, "geometry": { "type": "Point", "coordinates": [ -0.286598154512043, 50.933911903546374 ] } },
{ "type": "Feature", "properties": { "max_height": 1.9092521667480469, "mean_height": 0.19027584791183472, "std_height": 0.43584436178207397, "count_pixels": 41, "percent_cover": 0.13982675124479912, "percent_above_0.1m": 31.707317073170731, "low_level_<0.5": 9.7560975609756095, "mid_level_0.5-2": 12.195121951219512, "tall_2+": 0.0 }, "geometry": { "type": "Point", "coordinates": [ -0.286401054852811, 50.933909012205831 ] } },
{ "type": "Feature", "properties": { "max_height": 0.82175064086914062, "mean_height": 0.24247133731842041, "std_height": 0.19736374914646149, "count_pixels": 42, "percent_cover": 0.14323715981174545, "percent_above_0.1m": 69.047619047619051, "low_level_<0.5": 54.761904761904766, "mid_level_0.5-2": 9.5238095238095237, "tall_2+": 0.0 }, "geometry": { "type": "Point", "coordinates": [ -0.286203955226122, 50.933906120532718 ] } },
{ "type": "Feature", "properties": { "max_height": 13.288002014160156, "mean_height": 4.4357037544250488, "std_height": 4.3654336929321289, "count_pixels": 42, "percent_cover": 0.14323715981174545, "percent_above_0.1m": 71.428571428571431, "low_level_<0.5": 9.5238095238095237, "mid_level_0.5-2": 7.1428571428571423, "tall_2+": 54.761904761904766 }, "geometry": { "type": "Point", "coordinates": [ -0.286006855631974, 50.933903228527022 ] } },
{ "type": "Feature", "properties": { "max_height": 2.3432521820068359, "mean_height": 0.73793691396713257, "std_height": 0.84804946184158325, "count_pixels": 43, "percent_cover": 0.14664756837869175, "percent_above_0.1m": 60.465116279069761, "low_level_<0.5": 9.3023255813953494, "mid_level_0.5-2": 30.232558139534881, "tall_2+": 13.953488372093023 }, "geometry": { "type": "Point", "coordinates": [ -0.289846347353671, 50.934067425100089 ] } },
{ "type": "Feature", "properties": { "max_height": 0.015750885009765625, "mean_height": 0.002733664121478796, "std_height": 0.0036646572407335043, "count_pixels": 44, "percent_cover": 0.15005797694563811, "percent_above_0.1m": 0.0, "low_level_<0.5": 0.0, "mid_level_0.5-2": 0.0, "tall_2+": 0.0 }, "geometry": { "type": "Point", "coordinates": [ -0.289649246705094, 50.934064539235536 ] } },
{ "type": "Feature", "properties": { "max_height": 2.1602516174316406, "mean_height": 1.404417872428894, "std_height": 0.84642958641052246, "count_pixels": 42, "percent_cover": 0.14323715981174545, "percent_above_0.1m": 80.952380952380949, "low_level_<0.5": 7.1428571428571423, "mid_level_0.5-2": 26.190476190476193, "tall_2+": 47.619047619047613 }, "geometry": { "type": "Point", "coordinates": [ -0.286298540625054, 50.934015428658128 ] } },
{ "type": "Feature", "properties": { "max_height": 10.042003631591797, "mean_height": 1.492655873298645, "std_height": 2.8511865139007568, "count_pixels": 42, "percent_cover": 0.14323715981174545, "percent_above_0.1m": 35.714285714285715, "low_level_<0.5": 2.3809523809523809, "mid_level_0.5-2": 4.7619047619047619, "tall_2+": 23.809523809523807 }, "geometry": { "type": "Point", "coordinates": [ -0.286101440558543, 50.934012536807685 ] } },
{ "type": "Feature", "properties": { "max_height": 7.4122524261474609, "mean_height": 2.3824517726898193, "std_height": 2.6457469463348389, "count_pixels": 41, "percent_cover": 0.13982675124479912, "percent_above_0.1m": 65.853658536585371, "low_level_<0.5": 4.8780487804878048, "mid_level_0.5-2": 17.073170731707318, "tall_2+": 41.463414634146339 }, "geometry": { "type": "Point", "coordinates": [ -0.289940941653443, 50.934176730362601 ] } },
{ "type": "Feature", "properties": { "max_height": 1.1167507171630859, "mean_height": 0.18778185546398163, "std_height": 0.26704522967338562, "count_pixels": 40, "percent_cover": 0.13641634267785283, "percent_above_0.1m": 47.5, "low_level_<0.5": 22.5, "mid_level_0.5-2": 10.0, "tall_2+": 0.0 }, "geometry": { "type": "Point", "coordinates": [ -0.289743840536643, 50.934173844652868 ] } },
{ "type": "Feature", "properties": { "max_height": 0.13525009155273438, "mean_height": 0.007667329628020525, "std_height": 0.022185023874044418, "count_pixels": 36, "percent_cover": 0.12277470841006752, "percent_above_0.1m": 2.7777777777777777, "low_level_<0.5": 0.0, "mid_level_0.5-2": 0.0, "tall_2+": 0.0 }, "geometry": { "type": "Point", "coordinates": [ -0.28954673945215, 50.934170958610565 ] } },
{ "type": "Feature", "properties": { "max_height": 7.9045028686523438, "mean_height": 1.3502695560455322, "std_height": 2.5127487182617188, "count_pixels": 41, "percent_cover": 0.13982675124479912, "percent_above_0.1m": 36.585365853658537, "low_level_<0.5": 7.3170731707317067, "mid_level_0.5-2": 9.7560975609756095, "tall_2+": 19.512195121951219 }, "geometry": { "type": "Point", "coordinates": [ -0.289349638399963, 50.934168072235742 ] } },
{ "type": "Feature", "properties": { "max_height": 0.64475250244140625, "mean_height": 0.056584674865007401, "std_height": 0.14026243984699249, "count_pixels": 42, "percent_cover": 0.14323715981174545, "percent_above_0.1m": 11.904761904761903, "low_level_<0.5": 4.7619047619047619, "mid_level_0.5-2": 4.7619047619047619, "tall_2+": 0.0 }, "geometry": { "type": "Point", "coordinates": [ -0.286196025961828, 50.934121845011305 ] } },
{ "type": "Feature", "properties": { "max_height": 9.6344985961914062, "mean_height": 2.8133580684661865, "std_height": 2.7344663143157959, "count_pixels": 42, "percent_cover": 0.14323715981174545, "percent_above_0.1m": 83.333333333333343, "low_level_<0.5": 7.1428571428571423, "mid_level_0.5-2": 26.190476190476193, "tall_2+": 47.619047619047613 }, "geometry": { "type": "Point", "coordinates": [ -0.285998925459442, 50.934118952983077 ] } },
{ "type": "Feature", "properties": { "max_height": 6.9870014190673828, "mean_height": 1.7236520051956177, "std_height": 2.1780464649200439, "count_pixels": 43, "percent_cover": 0.14664756837869175, "percent_above_0.1m": 58.139534883720934, "low_level_<0.5": 4.6511627906976747, "mid_level_0.5-2": 16.279069767441861, "tall_2+": 34.883720930232556 }, "geometry": { "type": "Point", "coordinates": [ -0.289838434804102, 50.934283149996268 ] } },
{ "type": "Feature", "properties": { "max_height": 0.72025108337402344, "mean_height": 0.038387123495340347, "std_height": 0.13975973427295685, "count_pixels": 44, "percent_cover": 0.15005797694563811, "percent_above_0.1m": 6.8181818181818175, "low_level_<0.5": 2.2727272727272729, "mid_level_0.5-2": 4.5454545454545459, "tall_2+": 0.0 }, "geometry": { "type": "Point", "coordinates": [ -0.289641333251379, 50.9342802641088 ] } },
{ "type": "Feature", "properties": { "max_height": 0.4355010986328125, "mean_height": 0.047611281275749207, "std_height": 0.093887776136398315, "count_pixels": 43, "percent_cover": 0.14664756837869175, "percent_above_0.1m": 13.953488372093023, "low_level_<0.5": 13.953488372093023, "mid_level_0.5-2": 0.0, "tall_2+": 0.0 }, "geometry": { "type": "Point", "coordinates": [ -0.289444231730969, 50.934277377888755 ] } },
{ "type": "Feature", "properties": { "max_height": 0.425750732421875, "mean_height": 0.057477440685033798, "std_height": 0.11502030491828918, "count_pixels": 43, "percent_cover": 0.14664756837869175, "percent_above_0.1m": 18.604651162790699, "low_level_<0.5": 13.953488372093023, "mid_level_0.5-2": 0.0, "tall_2+": 0.0 }, "geometry": { "type": "Point", "coordinates": [ -0.28924713024286, 50.934274491336168 ] } },
{ "type": "Feature", "properties": { "max_height": 0.33675003051757812, "mean_height": 0.027417454868555069, "std_height": 0.070189036428928375, "count_pixels": 42, "percent_cover": 0.14323715981174545, "percent_above_0.1m": 7.1428571428571423, "low_level_<0.5": 7.1428571428571423, "mid_level_0.5-2": 0.0, "tall_2+": 0.0 }, "geometry": { "type": "Point", "coordinates": [ -0.289050028787072, 50.934271604451027 ] } },
{ "type": "Feature", "properties": { "max_height": 5.3127498626708984, "mean_height": 0.19895307719707489, "std_height": 0.84201127290725708, "count_pixels": 42, "percent_cover": 0.14323715981174545, "percent_above_0.1m": 11.904761904761903, "low_level_<0.5": 4.7619047619047619, "mid_level_0.5-2": 4.7619047619047619, "tall_2+": 2.3809523809523809 }, "geometry": { "type": "Point", "coordinates": [ -0.288852927363601, 50.934268717233337 ] } },
{ "type": "Feature", "properties": { "max_height": 3.3225021362304688, "mean_height": 0.10690958797931671, "std_height": 0.53066903352737427, "count_pixels": 41, "percent_cover": 0.13982675124479912, "percent_above_0.1m": 4.8780487804878048, "low_level_<0.5": 0.0, "mid_level_0.5-2": 2.4390243902439024, "tall_2+": 2.4390243902439024 }, "geometry": { "type": "Point", "coordinates": [ -0.288655825972445, 50.934265829683085 ] } },
{ "type": "Feature", "properties": { "max_height": 2.7035026550292969, "mean_height": 0.67936742305755615, "std_height": 0.88195633888244629, "count_pixels": 43, "percent_cover": 0.14664756837869175, "percent_above_0.1m": 58.139534883720934, "low_level_<0.5": 13.953488372093023, "mid_level_0.5-2": 25.581395348837212, "tall_2+": 13.953488372093023 }, "geometry": { "type": "Point", "coordinates": [ -0.286487712804002, 50.934234044681894 ] } },
{ "type": "Feature", "properties": { "max_height": 2.6247501373291016, "mean_height": 1.3672269582748413, "std_height": 0.93444037437438965, "count_pixels": 42, "percent_cover": 0.14323715981174545, "percent_above_0.1m": 80.952380952380949, "low_level_<0.5": 9.5238095238095237, "mid_level_0.5-2": 35.714285714285715, "tall_2+": 35.714285714285715 }, "geometry": { "type": "Point", "coordinates": [ -0.286290611800986, 50.934231153141027 ] } },
{ "type": "Feature", "properties": { "max_height": 11.530752182006836, "mean_height": 6.097811222076416, "std_height": 3.4490904808044434, "count_pixels": 42, "percent_cover": 0.14323715981174545, "percent_above_0.1m": 88.095238095238088, "low_level_<0.5": 0.0, "mid_level_0.5-2": 7.1428571428571423, "tall_2+": 78.571428571428569 }, "geometry": { "type": "Point", "coordinates": [ -0.28609351083034, 50.934228261267606 ] } },
{ "type": "Feature", "properties": { "max_height": 7.6510009765625, "mean_height": 4.0397019386291504, "std_height": 2.2032570838928223, "count_pixels": 41, "percent_cover": 0.13982675124479912, "percent_above_0.1m": 87.804878048780495, "low_level_<0.5": 2.4390243902439024, "mid_level_0.5-2": 9.7560975609756095, "tall_2+": 75.609756097560975 }, "geometry": { "type": "Point", "coordinates": [ -0.289933029507471, 50.934392455265773 ] } },
{ "type": "Feature", "properties": { "max_height": 5.1590023040771484, "mean_height": 1.9929071664810181, "std_height": 1.9739639759063721, "count_pixels": 40, "percent_cover": 0.13641634267785283, "percent_above_0.1m": 65.0, "low_level_<0.5": 5.0, "mid_level_0.5-2": 17.5, "tall_2+": 40.0 }, "geometry": { "type": "Point", "coordinates": [ -0.289735927486526, 50.934389569533096 ] } },
{ "type": "Feature", "properties": { "max_height": 4.8777503967285156, "mean_height": 1.0689244270324707, "std_height": 1.6052985191345215, "count_pixels": 36, "percent_cover": 0.12277470841006752, "percent_above_0.1m": 55.555555555555557, "low_level_<0.5": 19.444444444444446, "mid_level_0.5-2": 8.3333333333333321, "tall_2+": 25.0 }, "geometry": { "type": "Point", "coordinates": [ -0.289538825497884, 50.934386683467864 ] } },
{ "type": "Feature", "properties": { "max_height": 1.2165012359619141, "mean_height": 0.075866676867008209, "std_height": 0.22993403673171997, "count_pixels": 41, "percent_cover": 0.13982675124479912, "percent_above_0.1m": 14.634146341463413, "low_level_<0.5": 9.7560975609756095, "mid_level_0.5-2": 4.8780487804878048, "tall_2+": 0.0 }, "geometry": { "type": "Point", "coordinates": [ -0.289341723541544, 50.93438379707009 ] } },
{ "type": "Feature", "properties": { "max_height": 0.02375030517578125, "mean_height": 0.00057997356634587049, "std_height": 0.0072711389511823654, "count_pixels": 41, "percent_cover": 0.13982675124479912, "percent_above_0.1m": 0.0, "low_level_<0.5": 0.0, "mid_level_0.5-2": 0.0, "tall_2+": 0.0 }, "geometry": { "type": "Point", "coordinates": [ -0.289144621617527, 50.934380910339748 ] } },
{ "type": "Feature", "properties": { "max_height": 0.14300155639648438, "mean_height": 0.0078579587861895561, "std_height": 0.02258940227329731, "count_pixels": 42, "percent_cover": 0.14323715981174545, "percent_above_0.1m": 2.3809523809523809, "low_level_<0.5": 0.0, "mid_level_0.5-2": 0.0, "tall_2+": 0.0 }, "geometry": { "type": "Point", "coordinates": [ -0.288947519725817, 50.934378023276871 ] } },
{ "type": "Feature", "properties": { "max_height": 0.40525054931640625, "mean_height": 0.036976926028728485, "std_height": 0.093896076083183289, "count_pixels": 42, "percent_cover": 0.14323715981174545, "percent_above_0.1m": 14.285714285714285, "low_level_<0.5": 11.904761904761903, "mid_level_0.5-2": 0.0, "tall_2+": 0.0 }, "geometry": { "type": "Point", "coordinates": [ -0.288750417866428, 50.934375135881425 ] } },
{ "type": "Feature", "properties": { "max_height": 0.009502410888671875, "mean_height": 0.00095438404241576791, "std_height": 0.0030767291318625212, "count_pixels": 43, "percent_cover": 0.14664756837869175, "percent_above_0.1m": 0.0, "low_level_<0.5": 0.0, "mid_level_0.5-2": 0.0, "tall_2+": 0.0 }, "geometry": { "type": "Point", "coordinates": [ -0.288553316039361, 50.934372248153423 ] } },
{ "type": "Feature", "properties": { "max_height": 1.2280006408691406, "mean_height": 0.071954637765884399, "std_height": 0.24661903083324432, "count_pixels": 43, "percent_cover": 0.14664756837869175, "percent_above_0.1m": 9.3023255813953494, "low_level_<0.5": 2.3255813953488373, "mid_level_0.5-2": 6.9767441860465116, "tall_2+": 0.0 }, "geometry": { "type": "Point", "coordinates": [ -0.288356214244628, 50.934369360092866 ] } },
{ "type": "Feature", "properties": { "max_height": 0.70850181579589844, "mean_height": 0.14542128145694733, "std_height": 0.1832650899887085, "count_pixels": 41, "percent_cover": 0.13982675124479912, "percent_above_0.1m": 46.341463414634148, "low_level_<0.5": 39.024390243902438, "mid_level_0.5-2": 4.8780487804878048, "tall_2+": 0.0 }, "geometry": { "type": "Point", "coordinates": [ -0.286582299547289, 50.934343352582964 ] } },
{ "type": "Feature", "properties": { "max_height": 1.4622516632080078, "mean_height": 0.67607402801513672, "std_height": 0.42817994952201843, "count_pixels": 41, "percent_cover": 0.13982675124479912, "percent_above_0.1m": 82.926829268292678, "low_level_<0.5": 21.951219512195124, "mid_level_0.5-2": 60.975609756097562, "tall_2+": 0.0 }, "geometry": { "type": "Point", "coordinates": [ -0.28638519807602, 50.934340461196861 ] } },
{ "type": "Feature", "properties": { "max_height": 9.5035018920898438, "mean_height": 1.9399116039276123, "std_height": 2.9280891418457031, "count_pixels": 42, "percent_cover": 0.14323715981174545, "percent_above_0.1m": 45.238095238095241, "low_level_<0.5": 7.1428571428571423, "mid_level_0.5-2": 9.5238095238095237, "tall_2+": 28.571428571428569 }, "geometry": { "type": "Point", "coordinates": [ -0.28618809663712, 50.934337569478231 ] } },
{ "type": "Feature", "properties": { "max_height": 5.5750007629394531, "mean_height": 2.0288498401641846, "std_height": 2.151076078414917, "count_pixels": 43, "percent_cover": 0.14664756837869175, "percent_above_0.1m": 55.813953488372093, "low_level_<0.5": 0.0, "mid_level_0.5-2": 13.953488372093023, "tall_2+": 41.860465116279073 }, "geometry": { "type": "Point", "coordinates": [ -0.289436317276144, 50.934493102730109 ] } },
{ "type": "Feature", "properties": { "max_height": 5.8690004348754883, "mean_height": 2.356564998626709, "std_height": 2.0939993858337402, "count_pixels": 43, "percent_cover": 0.14664756837869175, "percent_above_0.1m": 76.744186046511629, "low_level_<0.5": 9.3023255813953494, "mid_level_0.5-2": 23.255813953488371, "tall_2+": 44.186046511627907 }, "geometry": { "type": "Point", "coordinates": [ -0.289239214883884, 50.934490216154586 ] } },
{ "type": "Feature", "properties": { "max_height": 5.2327499389648438, "mean_height": 1.9664949178695679, "std_height": 1.8868136405944824, "count_pixels": 42, "percent_cover": 0.14323715981174545, "percent_above_0.1m": 71.428571428571431, "low_level_<0.5": 7.1428571428571423, "mid_level_0.5-2": 21.428571428571427, "tall_2+": 42.857142857142854 }, "geometry": { "type": "Point", "coordinates": [ -0.289042112523941, 50.934487329246494 ] } },
{ "type": "Feature", "properties": { "max_height": 11.460502624511719, "mean_height": 3.822441577911377, "std_height": 4.1617875099182129, "count_pixels": 42, "percent_cover": 0.14323715981174545, "percent_above_0.1m": 66.666666666666657, "low_level_<0.5": 7.1428571428571423, "mid_level_0.5-2": 11.904761904761903, "tall_2+": 45.238095238095241 }, "geometry": { "type": "Point", "coordinates": [ -0.288845010196316, 50.934484442005854 ] } },
{ "type": "Feature", "properties": { "max_height": 3.670501708984375, "mean_height": 0.2406289130449295, "std_height": 0.72612357139587402, "count_pixels": 41, "percent_cover": 0.13982675124479912, "percent_above_0.1m": 12.195121951219512, "low_level_<0.5": 0.0, "mid_level_0.5-2": 7.3170731707317067, "tall_2+": 4.8780487804878048 }, "geometry": { "type": "Point", "coordinates": [ -0.288647907901008, 50.934481554432651 ] } },
{ "type": "Feature", "properties": { "max_height": 0.070001602172851562, "mean_height": 0.0058120167814195156, "std_height": 0.012321783229708672, "count_pixels": 41, "percent_cover": 0.13982675124479912, "percent_above_0.1m": 0.0, "low_level_<0.5": 0.0, "mid_level_0.5-2": 0.0, "tall_2+": 0.0 }, "geometry": { "type": "Point", "coordinates": [ -0.288450805638034, 50.934478666526907 ] } },
{ "type": "Feature", "properties": { "max_height": 0.71325111389160156, "mean_height": 0.023431513458490372, "std_height": 0.11669602245092392, "count_pixels": 36, "percent_cover": 0.12277470841006752, "percent_above_0.1m": 2.7777777777777777, "low_level_<0.5": 0.0, "mid_level_0.5-2": 2.7777777777777777, "tall_2+": 0.0 }, "geometry": { "type": "Point", "coordinates": [ -0.28825370340738, 50.934475778288594 ] } },
{ "type": "Feature", "properties": { "max_height": 1.2370014190673828, "mean_height": 0.079200699925422668, "std_height": 0.23294390738010406, "count_pixels": 40, "percent_cover": 0.13641634267785283, "percent_above_0.1m": 17.5, "low_level_<0.5": 7.5, "mid_level_0.5-2": 5.0, "tall_2+": 0.0 }, "geometry": { "type": "Point", "coordinates": [ -0.288056601209063, 50.934472889717732 ] } },
{ "type": "Feature", "properties": { "max_height": 0.88100051879882812, "mean_height": 0.13358618319034576, "std_height": 0.18338280916213989, "count_pixels": 41, "percent_cover": 0.13982675124479912, "percent_above_0.1m": 41.463414634146339, "low_level_<0.5": 29.268292682926827, "mid_level_0.5-2": 4.8780487804878048, "tall_2+": 0.0 }, "geometry": { "type": "Point", "coordinates": [ -0.287859499043081, 50.934470000814315 ] } },
{ "type": "Feature", "properties": { "max_height": 6.7550029754638672, "mean_height": 0.92030441761016846, "std_height": 1.6563032865524292, "count_pixels": 42, "percent_cover": 0.14323715981174545, "percent_above_0.1m": 57.142857142857139, "low_level_<0.5": 19.047619047619047, "mid_level_0.5-2": 16.666666666666664, "tall_2+": 14.285714285714285 }, "geometry": { "type": "Point", "coordinates": [ -0.286282682879774, 50.934446877614988 ] } },
{ "type": "Feature", "properties": { "max_height": 12.111001968383789, "mean_height": 8.2795791625976562, "std_height": 2.1085026264190674, "count_pixels": 42, "percent_cover": 0.14323715981174545, "percent_above_0.1m": 100.0, "low_level_<0.5": 0.0, "mid_level_0.5-2": 0.0, "tall_2+": 100.0 }, "geometry": { "type": "Point", "coordinates": [ -0.286085581004983, 50.934443985718552 ] } },
{ "type": "Feature", "properties": { "max_height": 11.016500473022461, "mean_height": 2.7886078357696533, "std_height": 3.8224718570709229, "count_pixels": 42, "percent_cover": 0.14323715981174545, "percent_above_0.1m": 45.238095238095241, "low_level_<0.5": 0.0, "mid_level_0.5-2": 2.3809523809523809, "tall_2+": 40.476190476190474 }, "geometry": { "type": "Point", "coordinates": [ -0.288742500198566, 50.934590860638004 ] } },
{ "type": "Feature", "properties": { "max_height": 6.4222507476806641, "mean_height": 1.5450940132141113, "std_height": 1.7949204444885254, "count_pixels": 43, "percent_cover": 0.14664756837869175, "percent_above_0.1m": 55.813953488372093, "low_level_<0.5": 9.3023255813953494, "mid_level_0.5-2": 9.3023255813953494, "tall_2+": 37.209302325581397 }, "geometry": { "type": "Point", "coordinates": [ -0.288545397467342, 50.934587972887037 ] } },
{ "type": "Feature", "properties": { "max_height": 11.350000381469727, "mean_height": 6.1515240669250488, "std_height": 3.7825384140014648, "count_pixels": 43, "percent_cover": 0.14664756837869175, "percent_above_0.1m": 86.04651162790698, "low_level_<0.5": 0.0, "mid_level_0.5-2": 6.9767441860465116, "tall_2+": 79.069767441860463 }, "geometry": { "type": "Point", "coordinates": [ -0.288348294768448, 50.934585084803523 ] } },
{ "type": "Feature", "properties": { "max_height": 11.667751312255859, "mean_height": 3.4200348854064941, "std_height": 4.3102960586547852, "count_pixels": 44, "percent_cover": 0.15005797694563811, "percent_above_0.1m": 52.272727272727273, "low_level_<0.5": 2.2727272727272729, "mid_level_0.5-2": 9.0909090909090917, "tall_2+": 40.909090909090914 }, "geometry": { "type": "Point", "coordinates": [ -0.288151192101882, 50.934582196387453 ] } },
{ "type": "Feature", "properties": { "max_height": 9.1180019378662109, "mean_height": 1.4216170310974121, "std_height": 2.4691858291625977, "count_pixels": 43, "percent_cover": 0.14664756837869175, "percent_above_0.1m": 58.139534883720934, "low_level_<0.5": 20.930232558139537, "mid_level_0.5-2": 16.279069767441861, "tall_2+": 20.930232558139537 }, "geometry": { "type": "Point", "coordinates": [ -0.287954089467654, 50.934579307638835 ] } },
{ "type": "Feature", "properties": { "max_height": 7.3742504119873047, "mean_height": 0.46325644850730896, "std_height": 1.458559513092041, "count_pixels": 43, "percent_cover": 0.14664756837869175, "percent_above_0.1m": 25.581395348837212, "low_level_<0.5": 11.627906976744185, "mid_level_0.5-2": 2.3255813953488373, "tall_2+": 6.9767441860465116 }, "geometry": { "type": "Point", "coordinates": [ -0.287756986865764, 50.934576418557647 ] } },
{ "type": "Feature", "properties": { "max_height": 0.96275138854980469, "mean_height": 0.096875779330730438, "std_height": 0.16911345720291138, "count_pixels": 42, "percent_cover": 0.14323715981174545, "percent_above_0.1m": 28.571428571428569, "low_level_<0.5": 21.428571428571427, "mid_level_0.5-2": 2.3809523809523809, "tall_2+": 0.0 }, "geometry": { "type": "Point", "coordinates": [ -0.287559884296215, 50.934573529143911 ] } },
{ "type": "Feature", "properties": { "max_height": 1.4085006713867188, "mean_height": 0.15685194730758667, "std_height": 0.30634847283363342, "count_pixels": 42, "percent_cover": 0.14323715981174545, "percent_above_0.1m": 28.571428571428569, "low_level_<0.5": 14.285714285714285, "mid_level_0.5-2": 11.904761904761903, "tall_2+": 0.0 }, "geometry": { "type": "Point", "coordinates": [ -0.28736278175901, 50.934570639397627 ] } },
{ "type": "Feature", "properties": { "max_height": 7.9260005950927734, "mean_height": 0.88159847259521484, "std_height": 2.0137863159179688, "count_pixels": 41, "percent_cover": 0.13982675124479912, "percent_above_0.1m": 39.024390243902438, "low_level_<0.5": 9.7560975609756095, "mid_level_0.5-2": 7.3170731707317067, "tall_2+": 14.634146341463413 }, "geometry": { "type": "Point", "coordinates": [ -0.287165679254153, 50.934567749318774 ] } },
{ "type": "Feature", "properties": { "max_height": 3.7574996948242188, "mean_height": 2.3027446269989014, "std_height": 1.1569571495056152, "count_pixels": 41, "percent_cover": 0.13982675124479912, "percent_above_0.1m": 90.243902439024396, "low_level_<0.5": 4.8780487804878048, "mid_level_0.5-2": 12.195121951219512, "tall_2+": 73.170731707317074 }, "geometry": { "type": "Point", "coordinates": [ -0.286574371933727, 50.934559077086909 ] } },
{ "type": "Feature", "properties": { "max_height": 3.614501953125, "mean_height": 1.8518788814544678, "std_height": 1.2487844228744507, "count_pixels": 41, "percent_cover": 0.13982675124479912, "percent_above_0.1m": 78.048780487804876, "low_level_<0.5": 0.0, "mid_level_0.5-2": 7.3170731707317067, "tall_2+": 65.853658536585371 }, "geometry": { "type": "Point", "coordinates": [ -0.286377269558307, 50.934556185677842 ] } },
{ "type": "Feature", "properties": { "max_height": 12.178501129150391, "mean_height": 4.7723164558410645, "std_height": 3.6712229251861572, "count_pixels": 42, "percent_cover": 0.14323715981174545, "percent_above_0.1m": 78.571428571428569, "low_level_<0.5": 2.3809523809523809, "mid_level_0.5-2": 7.1428571428571423, "tall_2+": 69.047619047619051 }, "geometry": { "type": "Point", "coordinates": [ -0.286180167215254, 50.934553293936197 ] } },
{ "type": "Feature", "properties": { "max_height": 13.855751037597656, "mean_height": 5.4013948440551758, "std_height": 4.8651633262634277, "count_pixels": 40, "percent_cover": 0.13641634267785283, "percent_above_0.1m": 67.5, "low_level_<0.5": 0.0, "mid_level_0.5-2": 5.0, "tall_2+": 62.5 }, "geometry": { "type": "Point", "coordinates": [ -0.288048680328126, 50.934688614389479 ] } },
{ "type": "Feature", "properties": { "max_height": 15.43475341796875, "mean_height": 11.134958267211914, "std_height": 2.1962528228759766, "count_pixels": 41, "percent_cover": 0.13982675124479912, "percent_above_0.1m": 100.0, "low_level_<0.5": 0.0, "mid_level_0.5-2": 0.0, "tall_2+": 100.0 }, "geometry": { "type": "Point", "coordinates": [ -0.287851577257986, 50.93468572546309 ] } },
{ "type": "Feature", "properties": { "max_height": 10.383501052856445, "mean_height": 2.0754218101501465, "std_height": 3.2360045909881592, "count_pixels": 41, "percent_cover": 0.13982675124479912, "percent_above_0.1m": 58.536585365853654, "low_level_<0.5": 14.634146341463413, "mid_level_0.5-2": 9.7560975609756095, "tall_2+": 31.707317073170731 }, "geometry": { "type": "Point", "coordinates": [ -0.287654474220184, 50.934682836204146 ] } },
{ "type": "Feature", "properties": { "max_height": 1.0285015106201172, "mean_height": 0.15795925259590149, "std_height": 0.24420022964477539, "count_pixels": 42, "percent_cover": 0.14323715981174545, "percent_above_0.1m": 40.476190476190474, "low_level_<0.5": 23.809523809523807, "mid_level_0.5-2": 9.5238095238095237, "tall_2+": 0.0 }, "geometry": { "type": "Point", "coordinates": [ -0.287457371214724, 50.934679946612647 ] } },
{ "type": "Feature", "properties": { "max_height": 0.927001953125, "mean_height": 0.23944142460823059, "std_height": 0.28810027241706848, "count_pixels": 42, "percent_cover": 0.14323715981174545, "percent_above_0.1m": 47.619047619047613, "low_level_<0.5": 26.190476190476193, "mid_level_0.5-2": 19.047619047619047, "tall_2+": 0.0 }, "geometry": { "type": "Point", "coordinates": [ -0.287260268241617, 50.934677056688599 ] } },
{ "type": "Feature", "properties": { "max_height": 1.7357501983642578, "mean_height": 0.28726822137832642, "std_height": 0.43761613965034485, "count_pixels": 43, "percent_cover": 0.14664756837869175, "percent_above_0.1m": 46.511627906976742, "low_level_<0.5": 18.604651162790699, "mid_level_0.5-2": 20.930232558139537, "tall_2+": 0.0 }, "geometry": { "type": "Point", "coordinates": [ -0.287063165300855, 50.934674166431982 ] } },
{ "type": "Feature", "properties": { "max_height": 1.4377498626708984, "mean_height": 0.13099527359008789, "std_height": 0.30708843469619751, "count_pixels": 44, "percent_cover": 0.15005797694563811, "percent_above_0.1m": 29.545454545454547, "low_level_<0.5": 15.909090909090908, "mid_level_0.5-2": 6.8181818181818175, "tall_2+": 0.0 }, "geometry": { "type": "Point", "coordinates": [ -0.286866062392453, 50.93467127584281 ] } },
{ "type": "Feature", "properties": { "max_height": 0.83175086975097656, "mean_height": 0.065780065953731537, "std_height": 0.17050603032112122, "count_pixels": 43, "percent_cover": 0.14664756837869175, "percent_above_0.1m": 11.627906976744185, "low_level_<0.5": 2.3255813953488373, "mid_level_0.5-2": 4.6511627906976747, "tall_2+": 0.0 }, "geometry": { "type": "Point", "coordinates": [ -0.286668959516406, 50.934668384921082 ] } },
{ "type": "Feature", "properties": { "max_height": 2.3597507476806641, "mean_height": 0.3998323380947113, "std_height": 0.6007314920425415, "count_pixels": 43, "percent_cover": 0.14664756837869175, "percent_above_0.1m": 44.186046511627907, "low_level_<0.5": 13.953488372093023, "mid_level_0.5-2": 23.255813953488371, "tall_2+": 2.3255813953488373 }, "geometry": { "type": "Point", "coordinates": [ -0.286471856672725, 50.934665493666792 ] } },
{ "type": "Feature", "properties": { "max_height": 11.095251083374023, "mean_height": 2.2583522796630859, "std_height": 3.4193978309631348, "count_pixels": 42, "percent_cover": 0.14323715981174545, "percent_above_0.1m": 45.238095238095241, "low_level_<0.5": 7.1428571428571423, "mid_level_0.5-2": 4.7619047619047619, "tall_2+": 33.333333333333329 }, "geometry": { "type": "Point", "coordinates": [ -0.286274753861409, 50.93466260207996 ] } },
{ "type": "Feature", "properties": { "max_height": 10.775001525878906, "mean_height": 5.0528521537780762, "std_height": 3.5614855289459229, "count_pixels": 42, "percent_cover": 0.14323715981174545, "percent_above_0.1m": 85.714285714285708, "low_level_<0.5": 0.0, "mid_level_0.5-2": 16.666666666666664, "tall_2+": 69.047619047619051 }, "geometry": { "type": "Point", "coordinates": [ -0.287551961106341, 50.934789253753792 ] } },
{ "type": "Feature", "properties": { "max_height": 10.563251495361328, "mean_height": 2.9332091808319092, "std_height": 3.572263240814209, "count_pixels": 42, "percent_cover": 0.14323715981174545, "percent_above_0.1m": 64.285714285714292, "low_level_<0.5": 11.904761904761903, "mid_level_0.5-2": 7.1428571428571423, "tall_2+": 42.857142857142854 }, "geometry": { "type": "Point", "coordinates": [ -0.287354857664971, 50.934786363984529 ] } },
{ "type": "Feature", "properties": { "max_height": 1.9055004119873047, "mean_height": 0.17355570197105408, "std_height": 0.3397229015827179, "count_pixels": 41, "percent_cover": 0.13982675124479912, "percent_above_0.1m": 36.585365853658537, "low_level_<0.5": 21.951219512195124, "mid_level_0.5-2": 7.3170731707317067, "tall_2+": 0.0 }, "geometry": { "type": "Point", "coordinates": [ -0.287157754255953, 50.934783473882703 ] } },
{ "type": "Feature", "properties": { "max_height": 2.6392498016357422, "mean_height": 0.72444474697113037, "std_height": 0.76015758514404297, "count_pixels": 40, "percent_cover": 0.13641634267785283, "percent_above_0.1m": 82.5, "low_level_<0.5": 30.0, "mid_level_0.5-2": 35.0, "tall_2+": 12.5 }, "geometry": { "type": "Point", "coordinates": [ -0.286960650879286, 50.93478058344833 ] } },
{ "type": "Feature", "properties": { "max_height": 2.0879993438720703, "mean_height": 0.28929248452186584, "std_height": 0.53392910957336426, "count_pixels": 36, "percent_cover": 0.12277470841006752, "percent_above_0.1m": 33.333333333333329, "low_level_<0.5": 13.888888888888889, "mid_level_0.5-2": 16.666666666666664, "tall_2+": 2.7777777777777777 }, "geometry": { "type": "Point", "coordinates": [ -0.286763547534979, 50.934777692681394 ] } },
{ "type": "Feature", "properties": { "max_height": 0.94550132751464844, "mean_height": 0.043952059000730515, "std_height": 0.15729616582393646, "count_pixels": 41, "percent_cover": 0.13982675124479912, "percent_above_0.1m": 9.7560975609756095, "low_level_<0.5": 2.4390243902439024, "mid_level_0.5-2": 2.4390243902439024, "tall_2+": 0.0 }, "geometry": { "type": "Point", "coordinates": [ -0.28656644422303, 50.934774801581895 ] } },
{ "type": "Feature", "properties": { "max_height": 2.1017494201660156, "mean_height": 0.59105581045150757, "std_height": 0.62446916103363037, "count_pixels": 41, "percent_cover": 0.13982675124479912, "percent_above_0.1m": 65.853658536585371, "low_level_<0.5": 19.512195121951219, "mid_level_0.5-2": 39.024390243902438, "tall_2+": 2.4390243902439024 }, "geometry": { "type": "Point", "coordinates": [ -0.286369340943452, 50.934771910149848 ] } },
{ "type": "Feature", "properties": { "max_height": 7.7465019226074219, "mean_height": 3.7484893798828125, "std_height": 2.1793365478515625, "count_pixels": 42, "percent_cover": 0.14323715981174545, "percent_above_0.1m": 95.238095238095227, "low_level_<0.5": 4.7619047619047619, "mid_level_0.5-2": 9.5238095238095237, "tall_2+": 80.952380952380949 }, "geometry": { "type": "Point", "coordinates": [ -0.286172237696236, 50.934769018385225 ] } },
{ "type": "Feature", "properties": { "max_height": 6.1892518997192383, "mean_height": 2.3612446784973145, "std_height": 2.4181149005889893, "count_pixels": 42, "percent_cover": 0.14323715981174545, "percent_above_0.1m": 59.523809523809526, "low_level_<0.5": 4.7619047619047619, "mid_level_0.5-2": 7.1428571428571423, "tall_2+": 47.619047619047613 }, "geometry": { "type": "Point", "coordinates": [ -0.287252343646945, 50.934892781259542 ] } },
{ "type": "Feature", "properties": { "max_height": 7.9950008392333984, "mean_height": 4.789029598236084, "std_height": 2.3575420379638672, "count_pixels": 43, "percent_cover": 0.14664756837869175, "percent_above_0.1m": 100.0, "low_level_<0.5": 4.6511627906976747, "mid_level_0.5-2": 13.953488372093023, "tall_2+": 81.395348837209298 }, "geometry": { "type": "Point", "coordinates": [ -0.287055239802019, 50.934889890979946 ] } },
{ "type": "Feature", "properties": { "max_height": 8.4302511215209961, "mean_height": 3.1931943893432617, "std_height": 2.8015882968902588, "count_pixels": 44, "percent_cover": 0.15005797694563811, "percent_above_0.1m": 90.909090909090907, "low_level_<0.5": 9.0909090909090917, "mid_level_0.5-2": 27.27272727272727, "tall_2+": 54.54545454545454 }, "geometry": { "type": "Point", "coordinates": [ -0.286858135989442, 50.934887000367809 ] } },
{ "type": "Feature", "properties": { "max_height": 6.4637508392333984, "mean_height": 0.91871023178100586, "std_height": 1.1641218662261963, "count_pixels": 43, "percent_cover": 0.14664756837869175, "percent_above_0.1m": 67.441860465116278, "low_level_<0.5": 11.627906976744185, "mid_level_0.5-2": 39.534883720930232, "tall_2+": 9.3023255813953494 }, "geometry": { "type": "Point", "coordinates": [ -0.286661032209232, 50.934884109423095 ] } },
{ "type": "Feature", "properties": { "max_height": 1.2940006256103516, "mean_height": 0.30211097002029419, "std_height": 0.33277937769889832, "count_pixels": 43, "percent_cover": 0.14664756837869175, "percent_above_0.1m": 65.116279069767444, "low_level_<0.5": 30.232558139534881, "mid_level_0.5-2": 23.255813953488371, "tall_2+": 0.0 }, "geometry": { "type": "Point", "coordinates": [ -0.286463928461379, 50.934881218145854 ] } },
{ "type": "Feature", "properties": { "max_height": 10.096002578735352, "mean_height": 4.1293821334838867, "std_height": 3.9678819179534912, "count_pixels": 42, "percent_cover": 0.14323715981174545, "percent_above_0.1m": 76.19047619047619, "low_level_<0.5": 7.1428571428571423, "mid_level_0.5-2": 9.5238095238095237, "tall_2+": 52.380952380952387 }, "geometry": { "type": "Point", "coordinates": [ -0.286266824745896, 50.934878326536023 ] } },
{ "type": "Feature", "properties": { "max_height": 9.1847515106201172, "mean_height": 3.8465006351470947, "std_height": 2.7509124279022217, "count_pixels": 41, "percent_cover": 0.13982675124479912, "percent_above_0.1m": 87.804878048780495, "low_level_<0.5": 9.7560975609756095, "mid_level_0.5-2": 7.3170731707317067, "tall_2+": 70.731707317073173 }, "geometry": { "type": "Point", "coordinates": [ -0.286558516415204, 50.934990526067963 ] } },
{ "type": "Feature", "properties": { "max_height": 9.0377521514892578, "mean_height": 3.2138605117797852, "std_height": 3.0416367053985596, "count_pixels": 41, "percent_cover": 0.13982675124479912, "percent_above_0.1m": 75.609756097560975, "low_level_<0.5": 12.195121951219512, "mid_level_0.5-2": 9.7560975609756095, "tall_2+": 51.219512195121951 }, "geometry": { "type": "Point", "coordinates": [ -0.286361412231449, 50.934987634612924 ] } }
]
}
