{
"type": "FeatureCollection",
"name": "86e27c822cc6_foliage",
"crs": { "type": "name", "properties": { "name": "urn:ogc:def:crs:OGC:1.3:CRS84" } },
"features": [
{ "type": "Feature", "properties": { "max_height": 5.9450016021728516, "mean_height": 1.0090361833572388, "std_height": 1.8596005439758301, "count_pixels": 43, "percent_cover": 0.80751173708920176, "percent_above_0.1m": 30.232558139534881, "low_level_<0.5": 0.0, "mid_level_0.5-2": 9.3023255813953494, "tall_2+": 20.930232558139537 }, "geometry": { "type": "Point", "coordinates": [ -0.385048177768706, 50.996164956972542 ] } },
{ "type": "Feature", "properties": { "max_height": 16.861751556396484, "mean_height": 10.503936767578125, "std_height": 4.7644891738891602, "count_pixels": 42, "percent_cover": 0.78873239436619713, "percent_above_0.1m": 97.61904761904762, "low_level_<0.5": 0.0, "mid_level_0.5-2": 2.3809523809523809, "tall_2+": 95.238095238095227 }, "geometry": { "type": "Point", "coordinates": [ -0.384850807504272, 50.996162229745032 ] } },
{ "type": "Feature", "properties": { "max_height": 12.260002136230469, "mean_height": 2.6582989692687988, "std_height": 3.6939811706542969, "count_pixels": 42, "percent_cover": 0.78873239436619713, "percent_above_0.1m": 59.523809523809526, "low_level_<0.5": 14.285714285714285, "mid_level_0.5-2": 7.1428571428571423, "tall_2+": 38.095238095238095 }, "geometry": { "type": "Point", "coordinates": [ -0.3846534361158, 50.996159501570531 ] } },
{ "type": "Feature", "properties": { "max_height": 5.3170013427734375, "mean_height": 1.4296841621398926, "std_height": 1.6062009334564209, "count_pixels": 41, "percent_cover": 0.7699530516431925, "percent_above_0.1m": 60.975609756097562, "low_level_<0.5": 7.3170731707317067, "mid_level_0.5-2": 12.195121951219512, "tall_2+": 39.024390243902438 }, "geometry": { "type": "Point", "coordinates": [ -0.384456064355202, 50.996156772982403 ] } },
{ "type": "Feature", "properties": { "max_height": 11.22175407409668, "mean_height": 3.5245993137359619, "std_height": 3.3120288848876953, "count_pixels": 41, "percent_cover": 0.7699530516431925, "percent_above_0.1m": 78.048780487804876, "low_level_<0.5": 7.3170731707317067, "mid_level_0.5-2": 9.7560975609756095, "tall_2+": 60.975609756097562 }, "geometry": { "type": "Point", "coordinates": [ -0.384258692625462, 50.996154044060972 ] } },
{ "type": "Feature", "properties": { "max_height": 13.878753662109375, "mean_height": 4.3168768882751465, "std_height": 4.7523336410522461, "count_pixels": 38, "percent_cover": 0.71361502347417838, "percent_above_0.1m": 65.789473684210535, "low_level_<0.5": 0.0, "mid_level_0.5-2": 13.157894736842104, "tall_2+": 52.631578947368418 }, "geometry": { "type": "Point", "coordinates": [ -0.384061320926576, 50.996151314806205 ] } },
{ "type": "Feature", "properties": { "max_height": 7.6022510528564453, "mean_height": 1.6717327833175659, "std_height": 2.442579984664917, "count_pixels": 41, "percent_cover": 0.7699530516431925, "percent_above_0.1m": 48.780487804878049, "low_level_<0.5": 4.8780487804878048, "mid_level_0.5-2": 7.3170731707317067, "tall_2+": 34.146341463414636 }, "geometry": { "type": "Point", "coordinates": [ -0.385143118110265, 50.996274185709218 ] } },
{ "type": "Feature", "properties": { "max_height": 12.009252548217773, "mean_height": 6.616117000579834, "std_height": 3.4704339504241943, "count_pixels": 41, "percent_cover": 0.7699530516431925, "percent_above_0.1m": 92.682926829268297, "low_level_<0.5": 0.0, "mid_level_0.5-2": 9.7560975609756095, "tall_2+": 82.926829268292678 }, "geometry": { "type": "Point", "coordinates": [ -0.384945747828398, 50.996271458756844 ] } },
{ "type": "Feature", "properties": { "max_height": 11.543003082275391, "mean_height": 5.0074243545532227, "std_height": 4.3060469627380371, "count_pixels": 42, "percent_cover": 0.78873239436619713, "percent_above_0.1m": 85.714285714285708, "low_level_<0.5": 14.285714285714285, "mid_level_0.5-2": 9.5238095238095237, "tall_2+": 61.904761904761905 }, "geometry": { "type": "Point", "coordinates": [ -0.384748376504871, 50.996268731011988 ] } },
{ "type": "Feature", "properties": { "max_height": 9.0237522125244141, "mean_height": 0.44437617063522339, "std_height": 1.4886794090270996, "count_pixels": 42, "percent_cover": 0.78873239436619713, "percent_above_0.1m": 19.047619047619047, "low_level_<0.5": 2.3809523809523809, "mid_level_0.5-2": 11.904761904761903, "tall_2+": 4.7619047619047619 }, "geometry": { "type": "Point", "coordinates": [ -0.384551004270444, 50.996266002579496 ] } },
{ "type": "Feature", "properties": { "max_height": 2.9892501831054688, "mean_height": 0.10480348765850067, "std_height": 0.47245329618453979, "count_pixels": 43, "percent_cover": 0.80751173708920176, "percent_above_0.1m": 6.9767441860465116, "low_level_<0.5": 0.0, "mid_level_0.5-2": 4.6511627906976747, "tall_2+": 2.3255813953488373 }, "geometry": { "type": "Point", "coordinates": [ -0.384353632066874, 50.996263273813696 ] } },
{ "type": "Feature", "properties": { "max_height": 2.5062522888183594, "mean_height": 0.20865626633167267, "std_height": 0.51946902275085449, "count_pixels": 42, "percent_cover": 0.78873239436619713, "percent_above_0.1m": 23.809523809523807, "low_level_<0.5": 9.5238095238095237, "mid_level_0.5-2": 9.5238095238095237, "tall_2+": 2.3809523809523809 }, "geometry": { "type": "Point", "coordinates": [ -0.384156259894166, 50.996260544714552 ] } },
{ "type": "Feature", "properties": { "max_height": 10.023252487182617, "mean_height": 6.6444425582885742, "std_height": 3.0791969299316406, "count_pixels": 42, "percent_cover": 0.78873239436619713, "percent_above_0.1m": 92.857142857142861, "low_level_<0.5": 2.3809523809523809, "mid_level_0.5-2": 7.1428571428571423, "tall_2+": 83.333333333333343 }, "geometry": { "type": "Point", "coordinates": [ -0.383958887752314, 50.996257815282092 ] } },
{ "type": "Feature", "properties": { "max_height": 15.080501556396484, "mean_height": 3.9148437976837158, "std_height": 5.0579485893249512, "count_pixels": 43, "percent_cover": 0.80751173708920176, "percent_above_0.1m": 69.767441860465112, "low_level_<0.5": 13.953488372093023, "mid_level_0.5-2": 11.627906976744185, "tall_2+": 39.534883720930232 }, "geometry": { "type": "Point", "coordinates": [ -0.385040688222449, 50.996380687590118 ] } },
{ "type": "Feature", "properties": { "max_height": 4.2947521209716797, "mean_height": 0.11449518799781799, "std_height": 0.65760928392410278, "count_pixels": 42, "percent_cover": 0.78873239436619713, "percent_above_0.1m": 4.7619047619047619, "low_level_<0.5": 0.0, "mid_level_0.5-2": 2.3809523809523809, "tall_2+": 2.3809523809523809 }, "geometry": { "type": "Point", "coordinates": [ -0.384843316975106, 50.996377960306944 ] } },
{ "type": "Feature", "properties": { "max_height": 11.951501846313477, "mean_height": 2.3932812213897705, "std_height": 4.0442867279052734, "count_pixels": 42, "percent_cover": 0.78873239436619713, "percent_above_0.1m": 40.476190476190474, "low_level_<0.5": 9.5238095238095237, "mid_level_0.5-2": 2.3809523809523809, "tall_2+": 28.571428571428569 }, "geometry": { "type": "Point", "coordinates": [ -0.384645944628653, 50.996375232102089 ] } },
{ "type": "Feature", "properties": { "max_height": 0.00099945068359375, "mean_height": -5.3498803026741371e-05, "std_height": 0.00039600051240995526, "count_pixels": 41, "percent_cover": 0.7699530516431925, "percent_above_0.1m": 0.0, "low_level_<0.5": 0.0, "mid_level_0.5-2": 0.0, "tall_2+": 0.0 }, "geometry": { "type": "Point", "coordinates": [ -0.384448571951256, 50.996372503491912 ] } },
{ "type": "Feature", "properties": { "max_height": 0.14225387573242188, "mean_height": 0.0034221555106341839, "std_height": 0.02195470780134201, "count_pixels": 41, "percent_cover": 0.7699530516431925, "percent_above_0.1m": 2.4390243902439024, "low_level_<0.5": 0.0, "mid_level_0.5-2": 0.0, "tall_2+": 0.0 }, "geometry": { "type": "Point", "coordinates": [ -0.384251199304713, 50.996369774548384 ] } },
{ "type": "Feature", "properties": { "max_height": 7.5079994201660156, "mean_height": 1.0987840890884399, "std_height": 2.0538234710693359, "count_pixels": 38, "percent_cover": 0.71361502347417838, "percent_above_0.1m": 42.105263157894733, "low_level_<0.5": 13.157894736842104, "mid_level_0.5-2": 10.526315789473683, "tall_2+": 18.421052631578945 }, "geometry": { "type": "Point", "coordinates": [ -0.384053826689027, 50.996367045271562 ] } },
{ "type": "Feature", "properties": { "max_height": 0.41150283813476562, "mean_height": 0.01018435787409544, "std_height": 0.063468262553215027, "count_pixels": 41, "percent_cover": 0.7699530516431925, "percent_above_0.1m": 2.4390243902439024, "low_level_<0.5": 2.4390243902439024, "mid_level_0.5-2": 0.0, "tall_2+": 0.0 }, "geometry": { "type": "Point", "coordinates": [ -0.385135628990125, 50.996489916338668 ] } },
{ "type": "Feature", "properties": { "max_height": 6.6067523956298828, "mean_height": 0.69501930475234985, "std_height": 1.6790188550949097, "count_pixels": 41, "percent_cover": 0.7699530516431925, "percent_above_0.1m": 26.829268292682929, "low_level_<0.5": 7.3170731707317067, "mid_level_0.5-2": 4.8780487804878048, "tall_2+": 14.634146341463413 }, "geometry": { "type": "Point", "coordinates": [ -0.384938257727185, 50.996487189345849 ] } },
{ "type": "Feature", "properties": { "max_height": 0.0010013580322265625, "mean_height": -9.9863325885962695e-05, "std_height": 0.00053478451445698738, "count_pixels": 42, "percent_cover": 0.78873239436619713, "percent_above_0.1m": 0.0, "low_level_<0.5": 0.0, "mid_level_0.5-2": 0.0, "tall_2+": 0.0 }, "geometry": { "type": "Point", "coordinates": [ -0.384740885429832, 50.99648446155016 ] } },
{ "type": "Feature", "properties": { "max_height": 0.0010013580322265625, "mean_height": 5.4995220125420019e-05, "std_height": 0.00044841686030849814, "count_pixels": 42, "percent_cover": 0.78873239436619713, "percent_above_0.1m": 0.0, "low_level_<0.5": 0.0, "mid_level_0.5-2": 0.0, "tall_2+": 0.0 }, "geometry": { "type": "Point", "coordinates": [ -0.384543512278601, 50.9964817330956 ] } },
{ "type": "Feature", "properties": { "max_height": 2.3237514495849609, "mean_height": 0.10632102191448212, "std_height": 0.40204432606697083, "count_pixels": 43, "percent_cover": 0.80751173708920176, "percent_above_0.1m": 9.3023255813953494, "low_level_<0.5": 2.3255813953488373, "mid_level_0.5-2": 4.6511627906976747, "tall_2+": 2.3255813953488373 }, "geometry": { "type": "Point", "coordinates": [ -0.384346139158226, 50.996479004307716 ] } },
{ "type": "Feature", "properties": { "max_height": 10.739749908447266, "mean_height": 2.8904955387115479, "std_height": 3.6263396739959717, "count_pixels": 42, "percent_cover": 0.78873239436619713, "percent_above_0.1m": 54.761904761904766, "low_level_<0.5": 2.3809523809523809, "mid_level_0.5-2": 7.1428571428571423, "tall_2+": 42.857142857142854 }, "geometry": { "type": "Point", "coordinates": [ -0.384148766068708, 50.996476275186517 ] } },
{ "type": "Feature", "properties": { "max_height": 3.3920021057128906, "mean_height": 0.7497754693031311, "std_height": 1.0504127740859985, "count_pixels": 42, "percent_cover": 0.78873239436619713, "percent_above_0.1m": 50.0, "low_level_<0.5": 9.5238095238095237, "mid_level_0.5-2": 21.428571428571427, "tall_2+": 14.285714285714285 }, "geometry": { "type": "Point", "coordinates": [ -0.383951393010049, 50.996473545731973 ] } },
{ "type": "Feature", "properties": { "max_height": 6.5255012512207031, "mean_height": 1.4450371265411377, "std_height": 2.1842935085296631, "count_pixels": 42, "percent_cover": 0.78873239436619713, "percent_above_0.1m": 50.0, "low_level_<0.5": 4.7619047619047619, "mid_level_0.5-2": 14.285714285714285, "tall_2+": 26.190476190476193 }, "geometry": { "type": "Point", "coordinates": [ -0.383754019982262, 50.996470815944136 ] } },
{ "type": "Feature", "properties": { "max_height": 5.0320014953613281, "mean_height": 0.19592565298080444, "std_height": 0.79056954383850098, "count_pixels": 43, "percent_cover": 0.80751173708920176, "percent_above_0.1m": 9.3023255813953494, "low_level_<0.5": 0.0, "mid_level_0.5-2": 6.9767441860465116, "tall_2+": 2.3255813953488373 }, "geometry": { "type": "Point", "coordinates": [ -0.385033198581318, 50.99659641819796 ] } },
{ "type": "Feature", "properties": { "max_height": 6.5612545013427734, "mean_height": 1.6504952907562256, "std_height": 2.2970962524414062, "count_pixels": 42, "percent_cover": 0.78873239436619713, "percent_above_0.1m": 45.238095238095241, "low_level_<0.5": 2.3809523809523809, "mid_level_0.5-2": 14.285714285714285, "tall_2+": 28.571428571428569 }, "geometry": { "type": "Point", "coordinates": [ -0.384835826352324, 50.996593690859783 ] } },
{ "type": "Feature", "properties": { "max_height": 6.6255035400390625, "mean_height": 1.2297155857086182, "std_height": 2.1122691631317139, "count_pixels": 42, "percent_cover": 0.78873239436619713, "percent_above_0.1m": 35.714285714285715, "low_level_<0.5": 2.3809523809523809, "mid_level_0.5-2": 7.1428571428571423, "tall_2+": 26.190476190476193 }, "geometry": { "type": "Point", "coordinates": [ -0.384638453048922, 50.996590962624794 ] } },
{ "type": "Feature", "properties": { "max_height": 3.4637508392333984, "mean_height": 0.85320878028869629, "std_height": 1.191534161567688, "count_pixels": 41, "percent_cover": 0.7699530516431925, "percent_above_0.1m": 51.219512195121951, "low_level_<0.5": 9.7560975609756095, "mid_level_0.5-2": 17.073170731707318, "tall_2+": 21.951219512195124 }, "geometry": { "type": "Point", "coordinates": [ -0.384441079454705, 50.996588233992512 ] } },
{ "type": "Feature", "properties": { "max_height": 3.4967517852783203, "mean_height": 0.8731415867805481, "std_height": 1.1481937170028687, "count_pixels": 41, "percent_cover": 0.7699530516431925, "percent_above_0.1m": 48.780487804878049, "low_level_<0.5": 7.3170731707317067, "mid_level_0.5-2": 19.512195121951219, "tall_2+": 21.951219512195124 }, "geometry": { "type": "Point", "coordinates": [ -0.384243705891348, 50.996585505026943 ] } },
{ "type": "Feature", "properties": { "max_height": 3.3920021057128906, "mean_height": 0.58691585063934326, "std_height": 1.0746657848358154, "count_pixels": 38, "percent_cover": 0.71361502347417838, "percent_above_0.1m": 28.947368421052634, "low_level_<0.5": 0.0, "mid_level_0.5-2": 10.526315789473683, "tall_2+": 15.789473684210526 }, "geometry": { "type": "Point", "coordinates": [ -0.384046332358858, 50.996582775728044 ] } },
{ "type": "Feature", "properties": { "max_height": 0.99650001525878906, "mean_height": 0.039620082825422287, "std_height": 0.16582603752613068, "count_pixels": 42, "percent_cover": 0.78873239436619713, "percent_above_0.1m": 7.1428571428571423, "low_level_<0.5": 4.7619047619047619, "mid_level_0.5-2": 2.3809523809523809, "tall_2+": 0.0 }, "geometry": { "type": "Point", "coordinates": [ -0.383848958857226, 50.996580046095815 ] } },
{ "type": "Feature", "properties": { "max_height": 2.8745021820068359, "mean_height": 1.091909646987915, "std_height": 0.98294389247894287, "count_pixels": 41, "percent_cover": 0.7699530516431925, "percent_above_0.1m": 78.048780487804876, "low_level_<0.5": 17.073170731707318, "mid_level_0.5-2": 31.707317073170731, "tall_2+": 24.390243902439025 }, "geometry": { "type": "Point", "coordinates": [ -0.383651585386461, 50.996577316130264 ] } },
{ "type": "Feature", "properties": { "max_height": 0.41675186157226562, "mean_height": 0.013062220998108387, "std_height": 0.064395681023597717, "count_pixels": 41, "percent_cover": 0.7699530516431925, "percent_above_0.1m": 2.4390243902439024, "low_level_<0.5": 2.4390243902439024, "mid_level_0.5-2": 0.0, "tall_2+": 0.0 }, "geometry": { "type": "Point", "coordinates": [ -0.384930767532119, 50.996702919925319 ] } },
{ "type": "Feature", "properties": { "max_height": 0.87000083923339844, "mean_height": 0.037721361964941025, "std_height": 0.16687038540840149, "count_pixels": 42, "percent_cover": 0.78873239436619713, "percent_above_0.1m": 4.7619047619047619, "low_level_<0.5": 0.0, "mid_level_0.5-2": 4.7619047619047619, "tall_2+": 0.0 }, "geometry": { "type": "Point", "coordinates": [ -0.384733394262208, 50.996700192079444 ] } },
{ "type": "Feature", "properties": { "max_height": 3.3835010528564453, "mean_height": 0.64816778898239136, "std_height": 1.0005713701248169, "count_pixels": 42, "percent_cover": 0.78873239436619713, "percent_above_0.1m": 52.380952380952387, "low_level_<0.5": 14.285714285714285, "mid_level_0.5-2": 14.285714285714285, "tall_2+": 14.285714285714285 }, "geometry": { "type": "Point", "coordinates": [ -0.384536020194159, 50.996697463602807 ] } },
{ "type": "Feature", "properties": { "max_height": 3.4617500305175781, "mean_height": 0.643943190574646, "std_height": 1.1075880527496338, "count_pixels": 43, "percent_cover": 0.80751173708920176, "percent_above_0.1m": 32.558139534883722, "low_level_<0.5": 4.6511627906976747, "mid_level_0.5-2": 11.627906976744185, "tall_2+": 16.279069767441861 }, "geometry": { "type": "Point", "coordinates": [ -0.384338646156963, 50.996694734792868 ] } },
{ "type": "Feature", "properties": { "max_height": 0.0007495880126953125, "mean_height": 7.8655422839801759e-05, "std_height": 0.00031552970176562667, "count_pixels": 42, "percent_cover": 0.78873239436619713, "percent_above_0.1m": 0.0, "low_level_<0.5": 0.0, "mid_level_0.5-2": 0.0, "tall_2+": 0.0 }, "geometry": { "type": "Point", "coordinates": [ -0.384141272150631, 50.996692005649599 ] } },
{ "type": "Feature", "properties": { "max_height": 9.4955024719238281, "mean_height": 3.8700077533721924, "std_height": 2.905670166015625, "count_pixels": 42, "percent_cover": 0.78873239436619713, "percent_above_0.1m": 85.714285714285708, "low_level_<0.5": 0.0, "mid_level_0.5-2": 19.047619047619047, "tall_2+": 66.666666666666657 }, "geometry": { "type": "Point", "coordinates": [ -0.383943898175156, 50.996689276172994 ] } },
{ "type": "Feature", "properties": { "max_height": 3.5722522735595703, "mean_height": 0.82452493906021118, "std_height": 1.1999980211257935, "count_pixels": 42, "percent_cover": 0.78873239436619713, "percent_above_0.1m": 47.619047619047613, "low_level_<0.5": 7.1428571428571423, "mid_level_0.5-2": 14.285714285714285, "tall_2+": 21.428571428571427 }, "geometry": { "type": "Point", "coordinates": [ -0.383746524230549, 50.996686546363065 ] } },
{ "type": "Feature", "properties": { "max_height": 10.310003280639648, "mean_height": 3.0887036323547363, "std_height": 2.4812304973602295, "count_pixels": 42, "percent_cover": 0.78873239436619713, "percent_above_0.1m": 83.333333333333343, "low_level_<0.5": 0.0, "mid_level_0.5-2": 19.047619047619047, "tall_2+": 61.904761904761905 }, "geometry": { "type": "Point", "coordinates": [ -0.38354915031681, 50.996683816219814 ] } },
{ "type": "Feature", "properties": { "max_height": 0.1867523193359375, "mean_height": 0.013281231746077538, "std_height": 0.039106674492359161, "count_pixels": 42, "percent_cover": 0.78873239436619713, "percent_above_0.1m": 4.7619047619047619, "low_level_<0.5": 4.7619047619047619, "mid_level_0.5-2": 0.0, "tall_2+": 0.0 }, "geometry": { "type": "Point", "coordinates": [ -0.384828335635938, 50.996809421403547 ] } },
{ "type": "Feature", "properties": { "max_height": 0.70300102233886719, "mean_height": 0.0330367311835289, "std_height": 0.1285853236913681, "count_pixels": 42, "percent_cover": 0.78873239436619713, "percent_above_0.1m": 7.1428571428571423, "low_level_<0.5": 4.7619047619047619, "mid_level_0.5-2": 2.3809523809523809, "tall_2+": 0.0 }, "geometry": { "type": "Point", "coordinates": [ -0.384630961376589, 50.996806693138602 ] } },
{ "type": "Feature", "properties": { "max_height": 3.2507514953613281, "mean_height": 0.20567777752876282, "std_height": 0.5761110782623291, "count_pixels": 41, "percent_cover": 0.7699530516431925, "percent_above_0.1m": 19.512195121951219, "low_level_<0.5": 9.7560975609756095, "mid_level_0.5-2": 7.3170731707317067, "tall_2+": 2.4390243902439024 }, "geometry": { "type": "Point", "coordinates": [ -0.38443358686555, 50.996803964484293 ] } },
{ "type": "Feature", "properties": { "max_height": 3.3045024871826172, "mean_height": 0.38444659113883972, "std_height": 0.88526451587677002, "count_pixels": 41, "percent_cover": 0.7699530516431925, "percent_above_0.1m": 19.512195121951219, "low_level_<0.5": 2.4390243902439024, "mid_level_0.5-2": 7.3170731707317067, "tall_2+": 9.7560975609756095 }, "geometry": { "type": "Point", "coordinates": [ -0.384236212385375, 50.996801235496648 ] } },
{ "type": "Feature", "properties": { "max_height": 3.4017524719238281, "mean_height": 0.6899421215057373, "std_height": 0.99515879154205322, "count_pixels": 38, "percent_cover": 0.71361502347417838, "percent_above_0.1m": 44.736842105263158, "low_level_<0.5": 5.2631578947368416, "mid_level_0.5-2": 21.052631578947366, "tall_2+": 15.789473684210526 }, "geometry": { "type": "Point", "coordinates": [ -0.384038837936057, 50.996798506175665 ] } },
{ "type": "Feature", "properties": { "max_height": 10.868251800537109, "mean_height": 2.1369540691375732, "std_height": 2.0347177982330322, "count_pixels": 42, "percent_cover": 0.78873239436619713, "percent_above_0.1m": 88.095238095238088, "low_level_<0.5": 11.904761904761903, "mid_level_0.5-2": 26.190476190476193, "tall_2+": 50.0 }, "geometry": { "type": "Point", "coordinates": [ -0.383841463517602, 50.99679577652136 ] } },
{ "type": "Feature", "properties": { "max_height": 16.399749755859375, "mean_height": 8.6865320205688477, "std_height": 5.5060243606567383, "count_pixels": 41, "percent_cover": 0.7699530516431925, "percent_above_0.1m": 85.365853658536579, "low_level_<0.5": 2.4390243902439024, "mid_level_0.5-2": 4.8780487804878048, "tall_2+": 78.048780487804876 }, "geometry": { "type": "Point", "coordinates": [ -0.383644089130015, 50.996793046533739 ] } },
{ "type": "Feature", "properties": { "max_height": 0.14825057983398438, "mean_height": 0.0059773582033813, "std_height": 0.023461615666747093, "count_pixels": 42, "percent_cover": 0.78873239436619713, "percent_above_0.1m": 2.3809523809523809, "low_level_<0.5": 0.0, "mid_level_0.5-2": 0.0, "tall_2+": 0.0 }, "geometry": { "type": "Point", "coordinates": [ -0.384725903001997, 50.996915922599875 ] } },
{ "type": "Feature", "properties": { "max_height": 1.1730003356933594, "mean_height": 0.14916779100894928, "std_height": 0.29903149604797363, "count_pixels": 42, "percent_cover": 0.78873239436619713, "percent_above_0.1m": 28.571428571428569, "low_level_<0.5": 14.285714285714285, "mid_level_0.5-2": 11.904761904761903, "tall_2+": 0.0 }, "geometry": { "type": "Point", "coordinates": [ -0.384528528017119, 50.996913194101175 ] } },
{ "type": "Feature", "properties": { "max_height": 15.294252395629883, "mean_height": 3.7871639728546143, "std_height": 4.6483216285705566, "count_pixels": 43, "percent_cover": 0.80751173708920176, "percent_above_0.1m": 79.069767441860463, "low_level_<0.5": 11.627906976744185, "mid_level_0.5-2": 18.604651162790699, "tall_2+": 46.511627906976742 }, "geometry": { "type": "Point", "coordinates": [ -0.384331153063095, 50.996910465269167 ] } },
{ "type": "Feature", "properties": { "max_height": 16.366249084472656, "mean_height": 9.9046134948730469, "std_height": 3.8617980480194092, "count_pixels": 42, "percent_cover": 0.78873239436619713, "percent_above_0.1m": 100.0, "low_level_<0.5": 2.3809523809523809, "mid_level_0.5-2": 4.7619047619047619, "tall_2+": 92.857142857142861 }, "geometry": { "type": "Point", "coordinates": [ -0.384133778139928, 50.996907736103829 ] } },
{ "type": "Feature", "properties": { "max_height": 13.395751953125, "mean_height": 2.1128463745117188, "std_height": 4.0953793525695801, "count_pixels": 42, "percent_cover": 0.78873239436619713, "percent_above_0.1m": 38.095238095238095, "low_level_<0.5": 7.1428571428571423, "mid_level_0.5-2": 7.1428571428571423, "tall_2+": 21.428571428571427 }, "geometry": { "type": "Point", "coordinates": [ -0.384623469611662, 50.997022423643564 ] } },
{ "type": "Feature", "properties": { "max_height": 15.405002593994141, "mean_height": 12.50924015045166, "std_height": 2.4997773170471191, "count_pixels": 41, "percent_cover": 0.7699530516431925, "percent_above_0.1m": 100.0, "low_level_<0.5": 0.0, "mid_level_0.5-2": 2.4390243902439024, "tall_2+": 97.560975609756099 }, "geometry": { "type": "Point", "coordinates": [ -0.384426094183795, 50.997019694967179 ] } }
]
}
