{
"type": "FeatureCollection",
"name": "a12ead12dece_foliage",
"crs": { "type": "name", "properties": { "name": "urn:ogc:def:crs:OGC:1.3:CRS84" } },
"features": [
{ "type": "Feature", "properties": { "max_height": 0.40350341796875, "mean_height": 0.012636584229767323, "std_height": 0.062684498727321625, "count_pixels": 43, "percent_cover": 0.93174431202600227, "percent_above_0.1m": 4.6511627906976747, "low_level_<0.5": 2.3255813953488373, "mid_level_0.5-2": 0.0, "tall_2+": 0.0 }, "geometry": { "type": "Point", "coordinates": [ -0.409969156730262, 50.91657973656303 ] } },
{ "type": "Feature", "properties": { "max_height": 2.66925048828125, "mean_height": 0.3765663206577301, "std_height": 0.73244762420654297, "count_pixels": 43, "percent_cover": 0.93174431202600227, "percent_above_0.1m": 37.209302325581397, "low_level_<0.5": 13.953488372093023, "mid_level_0.5-2": 9.3023255813953494, "tall_2+": 9.3023255813953494 }, "geometry": { "type": "Point", "coordinates": [ -0.409772117995791, 50.916577054557827 ] } },
{ "type": "Feature", "properties": { "max_height": 8.3520011901855469, "mean_height": 2.3368661403656006, "std_height": 3.0133991241455078, "count_pixels": 42, "percent_cover": 0.91007583965330452, "percent_above_0.1m": 54.761904761904766, "low_level_<0.5": 9.5238095238095237, "mid_level_0.5-2": 4.7619047619047619, "tall_2+": 40.476190476190474 }, "geometry": { "type": "Point", "coordinates": [ -0.409575079291644, 50.916574372220168 ] } },
{ "type": "Feature", "properties": { "max_height": 8.4032554626464844, "mean_height": 1.6729298830032349, "std_height": 2.2505557537078857, "count_pixels": 41, "percent_cover": 0.88840736728060676, "percent_above_0.1m": 48.780487804878049, "low_level_<0.5": 0.0, "mid_level_0.5-2": 14.634146341463413, "tall_2+": 34.146341463414636 }, "geometry": { "type": "Point", "coordinates": [ -0.409378040617832, 50.916571689550054 ] } },
{ "type": "Feature", "properties": { "max_height": 3.14300537109375, "mean_height": 0.4597649872303009, "std_height": 0.88569319248199463, "count_pixels": 41, "percent_cover": 0.88840736728060676, "percent_above_0.1m": 26.829268292682929, "low_level_<0.5": 2.4390243902439024, "mid_level_0.5-2": 12.195121951219512, "tall_2+": 12.195121951219512 }, "geometry": { "type": "Point", "coordinates": [ -0.410064000811488, 50.916688946883042 ] } },
{ "type": "Feature", "properties": { "max_height": 2.60150146484375, "mean_height": 0.39003315567970276, "std_height": 0.73767966032028198, "count_pixels": 41, "percent_cover": 0.88840736728060676, "percent_above_0.1m": 31.707317073170731, "low_level_<0.5": 4.8780487804878048, "mid_level_0.5-2": 14.634146341463413, "tall_2+": 7.3170731707317067 }, "geometry": { "type": "Point", "coordinates": [ -0.409866961603731, 50.916686265034556 ] } },
{ "type": "Feature", "properties": { "max_height": 5.6090049743652344, "mean_height": 1.2744665145874023, "std_height": 1.4778386354446411, "count_pixels": 41, "percent_cover": 0.88840736728060676, "percent_above_0.1m": 68.292682926829272, "low_level_<0.5": 12.195121951219512, "mid_level_0.5-2": 21.951219512195124, "tall_2+": 29.268292682926827 }, "geometry": { "type": "Point", "coordinates": [ -0.409669922426302, 50.91668358285358 ] } },
{ "type": "Feature", "properties": { "max_height": 3.1837539672851562, "mean_height": 0.27788969874382019, "std_height": 0.74068731069564819, "count_pixels": 42, "percent_cover": 0.91007583965330452, "percent_above_0.1m": 23.809523809523807, "low_level_<0.5": 9.5238095238095237, "mid_level_0.5-2": 4.7619047619047619, "tall_2+": 7.1428571428571423 }, "geometry": { "type": "Point", "coordinates": [ -0.409472883279199, 50.916680900340175 ] } },
{ "type": "Feature", "properties": { "max_height": 15.772010803222656, "mean_height": 5.1318354606628418, "std_height": 4.4887161254882812, "count_pixels": 43, "percent_cover": 0.93174431202600227, "percent_above_0.1m": 83.720930232558146, "low_level_<0.5": 4.6511627906976747, "mid_level_0.5-2": 16.279069767441861, "tall_2+": 62.790697674418603 }, "geometry": { "type": "Point", "coordinates": [ -0.409275844162434, 50.916678217494294 ] } },
{ "type": "Feature", "properties": { "max_height": 15.576751708984375, "mean_height": 6.022247314453125, "std_height": 4.9559879302978516, "count_pixels": 43, "percent_cover": 0.93174431202600227, "percent_above_0.1m": 69.767441860465112, "low_level_<0.5": 0.0, "mid_level_0.5-2": 4.6511627906976747, "tall_2+": 65.116279069767444 }, "geometry": { "type": "Point", "coordinates": [ -0.409078805076009, 50.916675534315956 ] } },
{ "type": "Feature", "properties": { "max_height": 3.196502685546875, "mean_height": 0.30513656139373779, "std_height": 0.76676261425018311, "count_pixels": 43, "percent_cover": 0.93174431202600227, "percent_above_0.1m": 18.604651162790699, "low_level_<0.5": 2.3255813953488373, "mid_level_0.5-2": 9.3023255813953494, "tall_2+": 6.9767441860465116 }, "geometry": { "type": "Point", "coordinates": [ -0.410158845335659, 50.91679815712731 ] } },
{ "type": "Feature", "properties": { "max_height": 3.6512527465820312, "mean_height": 1.6105320453643799, "std_height": 1.3789519071578979, "count_pixels": 43, "percent_cover": 0.93174431202600227, "percent_above_0.1m": 86.04651162790698, "low_level_<0.5": 16.279069767441861, "mid_level_0.5-2": 23.255813953488371, "tall_2+": 41.860465116279073 }, "geometry": { "type": "Point", "coordinates": [ -0.409961805654617, 50.916795475435521 ] } },
{ "type": "Feature", "properties": { "max_height": 11.949501037597656, "mean_height": 2.246415376663208, "std_height": 3.2342178821563721, "count_pixels": 43, "percent_cover": 0.93174431202600227, "percent_above_0.1m": 60.465116279069761, "low_level_<0.5": 6.9767441860465116, "mid_level_0.5-2": 13.953488372093023, "tall_2+": 34.883720930232556 }, "geometry": { "type": "Point", "coordinates": [ -0.409764766003901, 50.916792793411275 ] } },
{ "type": "Feature", "properties": { "max_height": 8.4885063171386719, "mean_height": 1.5302114486694336, "std_height": 2.432431697845459, "count_pixels": 42, "percent_cover": 0.91007583965330452, "percent_above_0.1m": 66.666666666666657, "low_level_<0.5": 16.666666666666664, "mid_level_0.5-2": 16.666666666666664, "tall_2+": 21.428571428571427 }, "geometry": { "type": "Point", "coordinates": [ -0.409567726383508, 50.916790111054553 ] } },
{ "type": "Feature", "properties": { "max_height": 7.2402572631835938, "mean_height": 4.2455639839172363, "std_height": 2.4745781421661377, "count_pixels": 41, "percent_cover": 0.88840736728060676, "percent_above_0.1m": 92.682926829268297, "low_level_<0.5": 2.4390243902439024, "mid_level_0.5-2": 17.073170731707318, "tall_2+": 73.170731707317074 }, "geometry": { "type": "Point", "coordinates": [ -0.409370686793455, 50.916787428365382 ] } },
{ "type": "Feature", "properties": { "max_height": 13.759502410888672, "mean_height": 8.0675220489501953, "std_height": 4.3242945671081543, "count_pixels": 41, "percent_cover": 0.88840736728060676, "percent_above_0.1m": 95.121951219512198, "low_level_<0.5": 0.0, "mid_level_0.5-2": 9.7560975609756095, "tall_2+": 85.365853658536579 }, "geometry": { "type": "Point", "coordinates": [ -0.409173647233736, 50.916784745343733 ] } },
{ "type": "Feature", "properties": { "max_height": 1.8585014343261719, "mean_height": 0.10464159399271011, "std_height": 0.34791630506515503, "count_pixels": 36, "percent_cover": 0.7800650054171181, "percent_above_0.1m": 11.111111111111111, "low_level_<0.5": 2.7777777777777777, "mid_level_0.5-2": 8.3333333333333321, "tall_2+": 0.0 }, "geometry": { "type": "Point", "coordinates": [ -0.40897660770436, 50.916782061989622 ] } },
{ "type": "Feature", "properties": { "max_height": 8.6547508239746094, "mean_height": 1.9200022220611572, "std_height": 2.1106522083282471, "count_pixels": 41, "percent_cover": 0.88840736728060676, "percent_above_0.1m": 63.414634146341463, "low_level_<0.5": 4.8780487804878048, "mid_level_0.5-2": 12.195121951219512, "tall_2+": 46.341463414634148 }, "geometry": { "type": "Point", "coordinates": [ -0.409859610024449, 50.916902003893206 ] } },
{ "type": "Feature", "properties": { "max_height": 10.036003112792969, "mean_height": 1.9633496999740601, "std_height": 2.9732213020324707, "count_pixels": 41, "percent_cover": 0.88840736728060676, "percent_above_0.1m": 46.341463414634148, "low_level_<0.5": 4.8780487804878048, "mid_level_0.5-2": 4.8780487804878048, "tall_2+": 34.146341463414636 }, "geometry": { "type": "Point", "coordinates": [ -0.409662569930767, 50.916899321693194 ] } },
{ "type": "Feature", "properties": { "max_height": 6.8050041198730469, "mean_height": 0.90981829166412354, "std_height": 1.7804851531982422, "count_pixels": 42, "percent_cover": 0.91007583965330452, "percent_above_0.1m": 35.714285714285715, "low_level_<0.5": 2.3809523809523809, "mid_level_0.5-2": 16.666666666666664, "tall_2+": 14.285714285714285 }, "geometry": { "type": "Point", "coordinates": [ -0.409465529867421, 50.916896639160711 ] } },
{ "type": "Feature", "properties": { "max_height": 9.1832542419433594, "mean_height": 1.2959445714950562, "std_height": 2.1147651672363281, "count_pixels": 43, "percent_cover": 0.93174431202600227, "percent_above_0.1m": 62.790697674418603, "low_level_<0.5": 11.627906976744185, "mid_level_0.5-2": 37.209302325581397, "tall_2+": 13.953488372093023 }, "geometry": { "type": "Point", "coordinates": [ -0.409268489834408, 50.91689395629578 ] } },
{ "type": "Feature", "properties": { "max_height": 0.18775177001953125, "mean_height": 0.011026160791516304, "std_height": 0.039071574807167053, "count_pixels": 43, "percent_cover": 0.93174431202600227, "percent_above_0.1m": 6.9767441860465116, "low_level_<0.5": 2.3255813953488373, "mid_level_0.5-2": 0.0, "tall_2+": 0.0 }, "geometry": { "type": "Point", "coordinates": [ -0.409071449831731, 50.916891273098379 ] } },
{ "type": "Feature", "properties": { "max_height": 8.4577522277832031, "mean_height": 2.2022409439086914, "std_height": 2.9683136940002441, "count_pixels": 43, "percent_cover": 0.93174431202600227, "percent_above_0.1m": 46.511627906976742, "low_level_<0.5": 2.3255813953488373, "mid_level_0.5-2": 6.9767441860465116, "tall_2+": 37.209302325581397 }, "geometry": { "type": "Point", "coordinates": [ -0.409757413920978, 50.917008532256084 ] } },
{ "type": "Feature", "properties": { "max_height": 6.9562492370605469, "mean_height": 2.0273654460906982, "std_height": 1.8301197290420532, "count_pixels": 42, "percent_cover": 0.91007583965330452, "percent_above_0.1m": 80.952380952380949, "low_level_<0.5": 11.904761904761903, "mid_level_0.5-2": 19.047619047619047, "tall_2+": 47.619047619047613 }, "geometry": { "type": "Point", "coordinates": [ -0.40956037338433, 50.917005849880312 ] } },
{ "type": "Feature", "properties": { "max_height": 11.614002227783203, "mean_height": 2.1864783763885498, "std_height": 3.4517333507537842, "count_pixels": 41, "percent_cover": 0.88840736728060676, "percent_above_0.1m": 53.658536585365859, "low_level_<0.5": 9.7560975609756095, "mid_level_0.5-2": 9.7560975609756095, "tall_2+": 29.268292682926827 }, "geometry": { "type": "Point", "coordinates": [ -0.409363332878025, 50.917003167172084 ] } },
{ "type": "Feature", "properties": { "max_height": 2.3347511291503906, "mean_height": 0.74974048137664795, "std_height": 0.66569674015045166, "count_pixels": 41, "percent_cover": 0.88840736728060676, "percent_above_0.1m": 80.487804878048792, "low_level_<0.5": 17.073170731707318, "mid_level_0.5-2": 51.219512195121951, "tall_2+": 4.8780487804878048 }, "geometry": { "type": "Point", "coordinates": [ -0.40916629240205, 50.917000484131364 ] } },
{ "type": "Feature", "properties": { "max_height": 15.659004211425781, "mean_height": 6.42828369140625, "std_height": 4.4293456077575684, "count_pixels": 42, "percent_cover": 0.91007583965330452, "percent_above_0.1m": 85.714285714285708, "low_level_<0.5": 0.0, "mid_level_0.5-2": 4.7619047619047619, "tall_2+": 80.952380952380949 }, "geometry": { "type": "Point", "coordinates": [ -0.409458176364592, 50.9171123779726 ] } },
{ "type": "Feature", "properties": { "max_height": 9.4662513732910156, "mean_height": 2.4864392280578613, "std_height": 2.8621439933776855, "count_pixels": 43, "percent_cover": 0.93174431202600227, "percent_above_0.1m": 62.790697674418603, "low_level_<0.5": 4.6511627906976747, "mid_level_0.5-2": 13.953488372093023, "tall_2+": 44.186046511627907 }, "geometry": { "type": "Point", "coordinates": [ -0.409261135415314, 50.917109695088605 ] } },
{ "type": "Feature", "properties": { "max_height": 9.3255081176757812, "mean_height": 1.4135380983352661, "std_height": 2.3828635215759277, "count_pixels": 43, "percent_cover": 0.93174431202600227, "percent_above_0.1m": 69.767441860465112, "low_level_<0.5": 23.255813953488371, "mid_level_0.5-2": 27.906976744186046, "tall_2+": 16.279069767441861 }, "geometry": { "type": "Point", "coordinates": [ -0.409064094496385, 50.917107011872147 ] } },
{ "type": "Feature", "properties": { "max_height": 0.10675048828125, "mean_height": 0.0015552431577816606, "std_height": 0.022379282861948013, "count_pixels": 43, "percent_cover": 0.93174431202600227, "percent_above_0.1m": 2.3255813953488373, "low_level_<0.5": 0.0, "mid_level_0.5-2": 0.0, "tall_2+": 0.0 }, "geometry": { "type": "Point", "coordinates": [ -0.408867053607794, 50.917104328323212 ] } },
{ "type": "Feature", "properties": { "max_height": 7.2397537231445312, "mean_height": 0.36980709433555603, "std_height": 1.2413285970687866, "count_pixels": 41, "percent_cover": 0.88840736728060676, "percent_above_0.1m": 17.073170731707318, "low_level_<0.5": 7.3170731707317067, "mid_level_0.5-2": 4.8780487804878048, "tall_2+": 4.8780487804878048 }, "geometry": { "type": "Point", "coordinates": [ -0.409158937455221, 50.917216222904941 ] } },
{ "type": "Feature", "properties": { "max_height": 8.042755126953125, "mean_height": 1.866370677947998, "std_height": 2.2250549793243408, "count_pixels": 36, "percent_cover": 0.7800650054171181, "percent_above_0.1m": 63.888888888888886, "low_level_<0.5": 8.3333333333333321, "mid_level_0.5-2": 22.222222222222221, "tall_2+": 33.333333333333329 }, "geometry": { "type": "Point", "coordinates": [ -0.408961896096669, 50.917213539513092 ] } },
{ "type": "Feature", "properties": { "max_height": 8.3847503662109375, "mean_height": 0.89741146564483643, "std_height": 2.07745361328125, "count_pixels": 41, "percent_cover": 0.88840736728060676, "percent_above_0.1m": 41.463414634146339, "low_level_<0.5": 19.512195121951219, "mid_level_0.5-2": 7.3170731707317067, "tall_2+": 12.195121951219512 }, "geometry": { "type": "Point", "coordinates": [ -0.40876485476836, 50.917210855788767 ] } },
{ "type": "Feature", "properties": { "max_height": 12.594001770019531, "mean_height": 1.5321594476699829, "std_height": 3.001603364944458, "count_pixels": 43, "percent_cover": 0.93174431202600227, "percent_above_0.1m": 34.883720930232556, "low_level_<0.5": 4.6511627906976747, "mid_level_0.5-2": 9.3023255813953494, "tall_2+": 20.930232558139537 }, "geometry": { "type": "Point", "coordinates": [ -0.408859697081819, 50.917320067045331 ] } },
{ "type": "Feature", "properties": { "max_height": 16.145503997802734, "mean_height": 2.3841311931610107, "std_height": 3.8464312553405762, "count_pixels": 43, "percent_cover": 0.93174431202600227, "percent_above_0.1m": 55.813953488372093, "low_level_<0.5": 11.627906976744185, "mid_level_0.5-2": 6.9767441860465116, "tall_2+": 34.883720930232556 }, "geometry": { "type": "Point", "coordinates": [ -0.408662655316454, 50.917317383145623 ] } }
]
}
