{
"type": "FeatureCollection",
"name": "bfa07a31414f_visibility",
"crs": { "type": "name", "properties": { "name": "urn:ogc:def:crs:OGC:1.3:CRS84" } },
"features": [
{ "type": "Feature", "properties": { "visible_points": 4, "total_points": 68, "visibility_pct": 5.8823529411764701 }, "geometry": { "type": "Point", "coordinates": [ -0.384321631366633, 51.039258771636348 ] } },
{ "type": "Feature", "properties": { "visible_points": 4, "total_points": 61, "visibility_pct": 6.557377049180328 }, "geometry": { "type": "Point", "coordinates": [ -0.384124076424025, 51.039256040833223 ] } },
{ "type": "Feature", "properties": { "visible_points": 0, "total_points": 52, "visibility_pct": 0.0 }, "geometry": { "type": "Point", "coordinates": [ -0.385206878400394, 51.039378920599873 ] } },
{ "type": "Feature", "properties": { "visible_points": 9, "total_points": 62, "visibility_pct": 14.516129032258066 }, "geometry": { "type": "Point", "coordinates": [ -0.385009323082017, 51.039376191224662 ] } },
{ "type": "Feature", "properties": { "visible_points": 9, "total_points": 72, "visibility_pct": 12.5 }, "geometry": { "type": "Point", "coordinates": [ -0.384811767709584, 51.039373461536428 ] } },
{ "type": "Feature", "properties": { "visible_points": 10, "total_points": 79, "visibility_pct": 12.658227848101266 }, "geometry": { "type": "Point", "coordinates": [ -0.384614212249719, 51.039370731553703 ] } },
{ "type": "Feature", "properties": { "visible_points": 7, "total_points": 78, "visibility_pct": 8.9743589743589745 }, "geometry": { "type": "Point", "coordinates": [ -0.384416656798507, 51.03936800124027 ] } },
{ "type": "Feature", "properties": { "visible_points": 0, "total_points": 71, "visibility_pct": 0.0 }, "geometry": { "type": "Point", "coordinates": [ -0.384219101378349, 51.039365270592981 ] } },
{ "type": "Feature", "properties": { "visible_points": 6, "total_points": 63, "visibility_pct": 9.5238095238095237 }, "geometry": { "type": "Point", "coordinates": [ -0.384021545989251, 51.039362539611894 ] } },
{ "type": "Feature", "properties": { "visible_points": 0, "total_points": 54, "visibility_pct": 0.0 }, "geometry": { "type": "Point", "coordinates": [ -0.383823990631214, 51.039359808296958 ] } },
{ "type": "Feature", "properties": { "visible_points": 6, "total_points": 49, "visibility_pct": 12.244897959183673 }, "geometry": { "type": "Point", "coordinates": [ -0.385301906070543, 51.039488149535998 ] } },
{ "type": "Feature", "properties": { "visible_points": 9, "total_points": 59, "visibility_pct": 15.254237288135593 }, "geometry": { "type": "Point", "coordinates": [ -0.385104350279104, 51.039485420316709 ] } },
{ "type": "Feature", "properties": { "visible_points": 11, "total_points": 69, "visibility_pct": 15.942028985507244 }, "geometry": { "type": "Point", "coordinates": [ -0.384906794488229, 51.03948269076777 ] } },
{ "type": "Feature", "properties": { "visible_points": 14, "total_points": 78, "visibility_pct": 17.948717948717949 }, "geometry": { "type": "Point", "coordinates": [ -0.384709238605631, 51.039479960927132 ] } },
{ "type": "Feature", "properties": { "visible_points": 13, "total_points": 80, "visibility_pct": 16.25 }, "geometry": { "type": "Point", "coordinates": [ -0.38451168267687, 51.039477230769542 ] } },
{ "type": "Feature", "properties": { "visible_points": 9, "total_points": 77, "visibility_pct": 11.688311688311687 }, "geometry": { "type": "Point", "coordinates": [ -0.384314126779158, 51.039474500278132 ] } },
{ "type": "Feature", "properties": { "visible_points": 8, "total_points": 70, "visibility_pct": 11.428571428571429 }, "geometry": { "type": "Point", "coordinates": [ -0.384116570912507, 51.039471769452895 ] } },
{ "type": "Feature", "properties": { "visible_points": 11, "total_points": 61, "visibility_pct": 18.032786885245901 }, "geometry": { "type": "Point", "coordinates": [ -0.383919015076917, 51.039469038293817 ] } },
{ "type": "Feature", "properties": { "visible_points": 0, "total_points": 52, "visibility_pct": 0.0 }, "geometry": { "type": "Point", "coordinates": [ -0.383721459272385, 51.039466306800932 ] } },
{ "type": "Feature", "properties": { "visible_points": 11, "total_points": 64, "visibility_pct": 17.1875 }, "geometry": { "type": "Point", "coordinates": [ -0.385001821684728, 51.039591919936882 ] } },
{ "type": "Feature", "properties": { "visible_points": 16, "total_points": 73, "visibility_pct": 21.917808219178081 }, "geometry": { "type": "Point", "coordinates": [ -0.384804265388718, 51.039589190228533 ] } },
{ "type": "Feature", "properties": { "visible_points": 18, "total_points": 80, "visibility_pct": 22.5 }, "geometry": { "type": "Point", "coordinates": [ -0.384606709001723, 51.039586460224207 ] } },
{ "type": "Feature", "properties": { "visible_points": 13, "total_points": 80, "visibility_pct": 16.25 }, "geometry": { "type": "Point", "coordinates": [ -0.384409152626459, 51.039583729888655 ] } },
{ "type": "Feature", "properties": { "visible_points": 5, "total_points": 74, "visibility_pct": 6.756756756756757 }, "geometry": { "type": "Point", "coordinates": [ -0.384211596282249, 51.039580999219282 ] } },
{ "type": "Feature", "properties": { "visible_points": 10, "total_points": 66, "visibility_pct": 15.151515151515152 }, "geometry": { "type": "Point", "coordinates": [ -0.384014039969101, 51.039578268216076 ] } },
{ "type": "Feature", "properties": { "visible_points": 4, "total_points": 57, "visibility_pct": 7.0175438596491224 }, "geometry": { "type": "Point", "coordinates": [ -0.383816483687012, 51.03957553687902 ] } },
{ "type": "Feature", "properties": { "visible_points": 10, "total_points": 58, "visibility_pct": 17.241379310344829 }, "geometry": { "type": "Point", "coordinates": [ -0.385096849293226, 51.039701149035501 ] } },
{ "type": "Feature", "properties": { "visible_points": 13, "total_points": 66, "visibility_pct": 19.696969696969695 }, "geometry": { "type": "Point", "coordinates": [ -0.384899292581864, 51.039698419465068 ] } },
{ "type": "Feature", "properties": { "visible_points": 15, "total_points": 73, "visibility_pct": 20.547945205479451 }, "geometry": { "type": "Point", "coordinates": [ -0.384701735773072, 51.039695689604237 ] } },
{ "type": "Feature", "properties": { "visible_points": 12, "total_points": 79, "visibility_pct": 15.18987341772152 }, "geometry": { "type": "Point", "coordinates": [ -0.384504178920248, 51.039692959424563 ] } },
{ "type": "Feature", "properties": { "visible_points": 0, "total_points": 77, "visibility_pct": 0.0 }, "geometry": { "type": "Point", "coordinates": [ -0.384306622098486, 51.039690228911041 ] } },
{ "type": "Feature", "properties": { "visible_points": 9, "total_points": 69, "visibility_pct": 13.043478260869565 }, "geometry": { "type": "Point", "coordinates": [ -0.384109065307773, 51.039687498063692 ] } },
{ "type": "Feature", "properties": { "visible_points": 0, "total_points": 61, "visibility_pct": 0.0 }, "geometry": { "type": "Point", "coordinates": [ -0.383911508548121, 51.039684766882509 ] } },
{ "type": "Feature", "properties": { "visible_points": 3, "total_points": 59, "visibility_pct": 5.0847457627118651 }, "geometry": { "type": "Point", "coordinates": [ -0.384994320194942, 51.039807648640242 ] } },
{ "type": "Feature", "properties": { "visible_points": 9, "total_points": 66, "visibility_pct": 13.636363636363635 }, "geometry": { "type": "Point", "coordinates": [ -0.384796762974967, 51.039804918911763 ] } },
{ "type": "Feature", "properties": { "visible_points": 13, "total_points": 72, "visibility_pct": 18.055555555555554 }, "geometry": { "type": "Point", "coordinates": [ -0.38459920566054, 51.039802188885851 ] } },
{ "type": "Feature", "properties": { "visible_points": 11, "total_points": 72, "visibility_pct": 15.277777777777779 }, "geometry": { "type": "Point", "coordinates": [ -0.384401648361213, 51.039799458528201 ] } },
{ "type": "Feature", "properties": { "visible_points": 1, "total_points": 67, "visibility_pct": 1.4925373134328357 }, "geometry": { "type": "Point", "coordinates": [ -0.384204091092939, 51.039796727836709 ] } },
{ "type": "Feature", "properties": { "visible_points": 3, "total_points": 62, "visibility_pct": 4.838709677419355 }, "geometry": { "type": "Point", "coordinates": [ -0.384496675070436, 51.039908688070703 ] } },
{ "type": "Feature", "properties": { "visible_points": 2, "total_points": 61, "visibility_pct": 3.278688524590164 }, "geometry": { "type": "Point", "coordinates": [ -0.384299117324602, 51.03990595753509 ] } }
]
}
