{
"type": "FeatureCollection",
"name": "CHERW_71_cycling",
"crs": { "type": "name", "properties": { "name": "urn:ogc:def:crs:OGC:1.3:CRS84" } },
"features": [
{"type":"Feature","properties":{"highway":"cycleway","name":null,"category":"Dedicated cycleway"},"geometry":{"type":"MultiLineString","coordinates":[[[-1.3448672,52.0772678],[-1.3451704,52.0770588],[-1.3454601,52.0769533]]]}},
{"type":"Feature","properties":{"highway":"path","name":null,"category":"Shared path"},"geometry":{"type":"MultiLineString","coordinates":[[[-1.3642527,52.0742876],[-1.364596,52.0742272]]]}},
{"type":"Feature","properties":{"highway":"path","name":null,"category":"Shared path"},"geometry":{"type":"MultiLineString","coordinates":[[[-1.364596,52.0742272],[-1.3645352,52.0741606],[-1.3643519,52.0739455],[-1.3642441,52.0738191]]]}},
{"type":"Feature","properties":{"highway":"path","name":null,"category":"Shared path"},"geometry":{"type":"MultiLineString","coordinates":[[[-1.3642441,52.0738191],[-1.3640847,52.0735838],[-1.3639609,52.0729747],[-1.3639801,52.0728773],[-1.3639497,52.0727601],[-1.3639323,52.0726663],[-1.363877,52.0726324],[-1.363668,52.071533],[-1.3635984,52.071321],[-1.3636082,52.0712677],[-1.3636375,52.0712316],[-1.3637009,52.0712041],[-1.3636773,52.0711506]]]}},
{"type":"Feature","properties":{"highway":"cycleway","name":null,"category":"Dedicated cycleway"},"geometry":{"type":"MultiLineString","coordinates":[[[-1.3475061,52.0757876],[-1.3489555,52.0749269],[-1.3490203,52.0748947],[-1.3491808,52.0748148],[-1.3493525,52.0747555],[-1.3495778,52.0746631]]]}},
{"type":"Feature","properties":{"highway":"path","name":null,"category":"Shared path"},"geometry":{"type":"MultiLineString","coordinates":[[[-1.3640863,52.0742636],[-1.3641385,52.0745199],[-1.3642816,52.0747083],[-1.3644518,52.0748407],[-1.3645162,52.0749611],[-1.3645108,52.075121],[-1.3645457,52.0752413],[-1.3645756,52.075314]]]}},
{"type":"Feature","properties":{"highway":"cycleway","name":null,"category":"Dedicated cycleway"},"geometry":{"type":"MultiLineString","coordinates":[[[-1.3496529,52.0778151],[-1.3494598,52.0779025],[-1.3492827,52.0779981],[-1.3490601,52.0780953],[-1.3488509,52.0781679],[-1.3486122,52.0782173],[-1.3484593,52.0782371],[-1.3482689,52.078242],[-1.3481213,52.0782552],[-1.3479497,52.0782899],[-1.3477351,52.0783673],[-1.3475288,52.0784585],[-1.3472677,52.0785769],[-1.3472282,52.0785948],[-1.3470023,52.0785909],[-1.3469044,52.0786154],[-1.3468544,52.0786871],[-1.3468033,52.0787362],[-1.3465013,52.0789123],[-1.3463962,52.0789736],[-1.3459952,52.0792053],[-1.3459276,52.0792682]]]}},
{"type":"Feature","properties":{"highway":"cycleway","name":null,"category":"Dedicated cycleway"},"geometry":{"type":"MultiLineString","coordinates":[[[-1.3494812,52.0778151],[-1.3494598,52.0779025]]]}},
{"type":"Feature","properties":{"highway":"cycleway","name":null,"category":"Dedicated cycleway"},"geometry":{"type":"MultiLineString","coordinates":[[[-1.3495778,52.0746631],[-1.349728,52.0745378]]]}},
{"type":"Feature","properties":{"highway":"cycleway","name":null,"category":"Dedicated cycleway"},"geometry":{"type":"MultiLineString","coordinates":[[[-1.3530561,52.0728577],[-1.353237,52.0727688],[-1.3536024,52.0726551],[-1.3543628,52.0725793],[-1.3549958,52.0725397],[-1.3556718,52.0725397],[-1.355898,52.0725511],[-1.3563262,52.0725727],[-1.3568734,52.0726386],[-1.3569215,52.0726463],[-1.3573669,52.0727178],[-1.3578068,52.0727969],[-1.3582574,52.0729684],[-1.359105,52.0732981],[-1.3598024,52.0735553],[-1.3602422,52.0737004],[-1.3608213,52.0738328],[-1.3620759,52.0739855],[-1.3629108,52.0740826],[-1.363869,52.0742334],[-1.3640863,52.0742636]]]}},
{"type":"Feature","properties":{"highway":"cycleway","name":null,"category":"Dedicated cycleway"},"geometry":{"type":"MultiLineString","coordinates":[[[-1.3475061,52.0757876],[-1.3467454,52.0761139],[-1.3455974,52.076615]]]}},
{"type":"Feature","properties":{"highway":"cycleway","name":null,"category":"Dedicated cycleway"},"geometry":{"type":"MultiLineString","coordinates":[[[-1.3508136,52.0737582],[-1.3513257,52.0736633],[-1.3514441,52.0736406],[-1.351642,52.0735537],[-1.3523842,52.0731741],[-1.352935,52.0729248],[-1.3530561,52.0728577]]]}},
{"type":"Feature","properties":{"highway":"cycleway","name":null,"category":"Dedicated cycleway"},"geometry":{"type":"MultiLineString","coordinates":[[[-1.3582574,52.0729684],[-1.3581179,52.0731332],[-1.3578738,52.0733132]]]}},
{"type":"Feature","properties":{"highway":"path","name":null,"category":"Shared path"},"geometry":{"type":"MultiLineString","coordinates":[[[-1.3498127,52.0701371],[-1.3492732,52.0703778],[-1.349108,52.0703664],[-1.3485757,52.0705292],[-1.3483705,52.0705919]]]}},
{"type":"Feature","properties":{"highway":"cycleway","name":null,"category":"Dedicated cycleway"},"geometry":{"type":"MultiLineString","coordinates":[[[-1.3446352,52.0788733],[-1.3446613,52.0788001],[-1.3446724,52.0784197],[-1.3447148,52.0782861],[-1.3447227,52.0782079],[-1.3447349,52.0780883],[-1.3447311,52.0778591],[-1.3447954,52.0777602],[-1.3448759,52.077625],[-1.344912,52.0775367],[-1.3449621,52.0773968],[-1.3451193,52.0773447],[-1.3454066,52.0772683],[-1.3457549,52.0771918],[-1.3459566,52.0771557],[-1.3462006,52.0771621],[-1.3467305,52.0772023],[-1.3470208,52.0771887],[-1.3476559,52.077154],[-1.3479277,52.0771445],[-1.3481395,52.0771572],[-1.3482218,52.0771816],[-1.3483505,52.0772377],[-1.3485168,52.0773465],[-1.3488615,52.0776366],[-1.349076,52.0777421],[-1.3494812,52.0778151],[-1.3496529,52.0778151]]]}},
{"type":"Feature","properties":{"highway":"cycleway","name":null,"category":"Dedicated cycleway"},"geometry":{"type":"MultiLineString","coordinates":[[[-1.3637897,52.0793525],[-1.3637276,52.0793048],[-1.3635479,52.0792026],[-1.3633816,52.079135],[-1.3630678,52.0790345],[-1.3629258,52.0789867],[-1.3628049,52.0792241],[-1.3626816,52.0793708],[-1.3625528,52.0794581],[-1.3624482,52.0794911],[-1.3621746,52.0795422],[-1.3619681,52.0795323],[-1.3616891,52.079468],[-1.3615658,52.0794021],[-1.3614343,52.0793114],[-1.3613512,52.0792603],[-1.3612546,52.0792339],[-1.3611232,52.0792339],[-1.3610347,52.079262],[-1.3609006,52.0793543],[-1.3608362,52.0794499],[-1.3608121,52.0795653],[-1.3608201,52.0796526],[-1.360804,52.0797367],[-1.3607778,52.0797836],[-1.3607477,52.0798373],[-1.360682,52.0799445],[-1.3606323,52.079984],[-1.3606055,52.0800713],[-1.3606297,52.0801422],[-1.3606967,52.0801999],[-1.3607776,52.0802443]]]}},
{"type":"Feature","properties":{"highway":"cycleway","name":null,"category":"Dedicated cycleway"},"geometry":{"type":"MultiLineString","coordinates":[[[-1.3496529,52.0778151],[-1.3498245,52.0777755],[-1.350082,52.0777228],[-1.3504683,52.0776503],[-1.350994,52.0776437],[-1.3513064,52.0776522],[-1.3516405,52.0776613],[-1.3518175,52.0776877],[-1.351957,52.0777272],[-1.3520482,52.0777297],[-1.3520521,52.07778],[-1.3520683,52.0778715],[-1.3521313,52.0779077],[-1.3522654,52.0779399]]]}},
{"type":"Feature","properties":{"highway":"cycleway","name":null,"category":"Dedicated cycleway"},"geometry":{"type":"MultiLineString","coordinates":[[[-1.3642502,52.0793814],[-1.3641347,52.0793836],[-1.3640577,52.0793754],[-1.3637897,52.0793525],[-1.3635999,52.0794093],[-1.3633596,52.0795265],[-1.3631745,52.0795632],[-1.3628713,52.0795574],[-1.3625116,52.0796223],[-1.3620476,52.0798077],[-1.3617308,52.0799309],[-1.3613513,52.080015],[-1.3610446,52.0800988],[-1.3607776,52.0802443],[-1.3606931,52.0802964],[-1.360454,52.0803663],[-1.3603483,52.0803972],[-1.3602847,52.0804252],[-1.3601795,52.0804873],[-1.3600423,52.0805682],[-1.3598559,52.0806174],[-1.3595754,52.0806473],[-1.3589709,52.080649],[-1.3588261,52.0806869],[-1.358691,52.080679],[-1.3585861,52.0806729],[-1.3581205,52.0806252],[-1.357403,52.0804719],[-1.3573164,52.0804505],[-1.3565822,52.0802691],[-1.3562013,52.0801455],[-1.3554986,52.0798373],[-1.3553363,52.0797944],[-1.3551848,52.079745],[-1.3550346,52.0796708],[-1.3549166,52.0796131],[-1.3547288,52.0795768],[-1.3545679,52.0795702],[-1.3543774,52.0795175],[-1.3541749,52.0794532],[-1.3539724,52.0794087],[-1.353735,52.0793048],[-1.3536245,52.079281],[-1.3534663,52.079245],[-1.3533538,52.0792202],[-1.3532553,52.0791868],[-1.3530202,52.079107],[-1.3524181,52.0788581],[-1.352111,52.0787707],[-1.3519058,52.0787378],[-1.3517502,52.0787081],[-1.3514766,52.0786455],[-1.3509536,52.0785515],[-1.3507202,52.0784905],[-1.3505058,52.0784366],[-1.3501811,52.0783998],[-1.3498673,52.0783949],[-1.3494408,52.0784213],[-1.3490948,52.0784889],[-1.3488266,52.0785713],[-1.3485329,52.0786949],[-1.3483653,52.0787905],[-1.3481614,52.0788664],[-1.3479079,52.0789554],[-1.3476491,52.0790856],[-1.3474614,52.0791993],[-1.3473514,52.0793016],[-1.3472656,52.0793477],[-1.3469491,52.0794993],[-1.3468257,52.0795587],[-1.3467452,52.0795702],[-1.3466931,52.079628],[-1.3466311,52.079681],[-1.346591,52.0797153],[-1.3465105,52.0798389],[-1.34644,52.0799363],[-1.346304,52.0801241],[-1.3461122,52.0803202],[-1.3460118,52.0803873]]]}},
{"type":"Feature","properties":{"highway":"cycleway","name":null,"category":"Dedicated cycleway"},"geometry":{"type":"MultiLineString","coordinates":[[[-1.3607778,52.0797836],[-1.3605572,52.0797515],[-1.3604151,52.0797433],[-1.3601522,52.079684]]]}},
{"type":"Feature","properties":{"highway":"cycleway","name":null,"category":"Dedicated cycleway"},"geometry":{"type":"MultiLineString","coordinates":[[[-1.3505058,52.0784366],[-1.3505005,52.0783904],[-1.3504683,52.078341],[-1.3504173,52.0783113],[-1.3502939,52.07828],[-1.3496287,52.078186],[-1.3495268,52.078158],[-1.3494383,52.0781135],[-1.3493337,52.0780475],[-1.3492827,52.0779981]]]}},
{"type":"Feature","properties":{"highway":"cycleway","name":null,"category":"Dedicated cycleway"},"geometry":{"type":"MultiLineString","coordinates":[[[-1.3479277,52.0771445],[-1.3479482,52.0774882],[-1.3478637,52.0776234],[-1.3475686,52.0779267],[-1.3473795,52.0781839],[-1.3472736,52.0784641],[-1.3472677,52.0785769]]]}},
{"type":"Feature","properties":{"highway":"path","name":null,"category":"Shared path"},"geometry":{"type":"MultiLineString","coordinates":[[[-1.3641385,52.0745199],[-1.3637315,52.0746473]]]}},
{"type":"Feature","properties":{"highway":"cycleway","name":null,"category":"Dedicated cycleway"},"geometry":{"type":"MultiLineString","coordinates":[[[-1.3455974,52.076615],[-1.3455008,52.0767205],[-1.3454579,52.0768194],[-1.3454586,52.0768619],[-1.3454601,52.0769533]]]}},
{"type":"Feature","properties":{"highway":"cycleway","name":null,"category":"Dedicated cycleway"},"geometry":{"type":"MultiLineString","coordinates":[[[-1.3573164,52.0804505],[-1.3573755,52.0803653]]]}},
{"type":"Feature","properties":{"highway":"cycleway","name":null,"category":"Dedicated cycleway"},"geometry":{"type":"MultiLineString","coordinates":[[[-1.3461628,52.0767778],[-1.346178,52.0768082]]]}},
{"type":"Feature","properties":{"highway":"path","name":null,"category":"Shared path"},"geometry":{"type":"MultiLineString","coordinates":[[[-1.3479514,52.06915],[-1.3479933,52.0691777],[-1.3481197,52.0692516],[-1.3481987,52.0693133],[-1.3482609,52.0693541]]]}},
{"type":"Feature","properties":{"highway":"path","name":null,"category":"Shared path"},"geometry":{"type":"MultiLineString","coordinates":[[[-1.3472874,52.0696641],[-1.3470633,52.069621],[-1.3465506,52.0699544],[-1.3457006,52.0704318],[-1.3454255,52.0705839],[-1.3452623,52.0706623],[-1.3444527,52.0710513],[-1.3443488,52.0711075],[-1.344256,52.0712063],[-1.3422605,52.0722458],[-1.3419319,52.0723711],[-1.3413807,52.0725418],[-1.3408986,52.0726367],[-1.3406404,52.0726646],[-1.3406739,52.072733]]]}},
{"type":"Feature","properties":{"highway":"path","name":null,"category":"Shared path"},"geometry":{"type":"MultiLineString","coordinates":[[[-1.3475836,52.0693176],[-1.3476046,52.0693427],[-1.3476909,52.0694458],[-1.3477631,52.0694975]]]}},
{"type":"Feature","properties":{"highway":"cycleway","name":null,"category":"Dedicated cycleway"},"geometry":{"type":"MultiLineString","coordinates":[[[-1.3462973,52.0697717],[-1.3464855,52.0697866],[-1.3465257,52.0697924],[-1.3465592,52.0698072],[-1.3465767,52.0698286],[-1.3465506,52.0699544]]]}},
{"type":"Feature","properties":{"highway":"path","name":null,"category":"Shared path"},"geometry":{"type":"MultiLineString","coordinates":[[[-1.3472874,52.0696641],[-1.3473906,52.069736]]]}},
{"type":"Feature","properties":{"highway":"path","name":null,"category":"Shared path"},"geometry":{"type":"MultiLineString","coordinates":[[[-1.3465506,52.0699544],[-1.346591,52.0700075],[-1.3466588,52.0700515],[-1.3467753,52.0701195],[-1.3469069,52.0700859],[-1.3469885,52.0701097],[-1.3470278,52.0701589],[-1.3473269,52.0706028],[-1.3474199,52.0706505],[-1.3474557,52.0706688],[-1.3475952,52.0706886],[-1.3477561,52.070682],[-1.3480029,52.0706358],[-1.3483784,52.0706424],[-1.3484535,52.070682],[-1.3484535,52.0707919],[-1.3484535,52.0708403]]]}},
{"type":"Feature","properties":{"highway":"path","name":null,"category":"Shared path"},"geometry":{"type":"MultiLineString","coordinates":[[[-1.3474412,52.0697901],[-1.3469069,52.0700859]]]}},
{"type":"Feature","properties":{"highway":"path","name":null,"category":"Shared path"},"geometry":{"type":"MultiLineString","coordinates":[[[-1.3481987,52.0693133],[-1.3479602,52.0694389],[-1.3479005,52.0695437],[-1.3478241,52.0697012],[-1.3477633,52.0697066],[-1.347697,52.0697574],[-1.3476624,52.0697851],[-1.3476349,52.0697857],[-1.3474412,52.0697901],[-1.3473906,52.069736]]]}},
{"type":"Feature","properties":{"highway":"path","name":null,"category":"Shared path"},"geometry":{"type":"MultiLineString","coordinates":[[[-1.3477631,52.0694975],[-1.3479005,52.0695437]]]}},
{"type":"Feature","properties":{"highway":"path","name":null,"category":"Shared path"},"geometry":{"type":"MultiLineString","coordinates":[[[-1.349108,52.0703664],[-1.3489763,52.0701347]]]}},
{"type":"Feature","properties":{"highway":"path","name":null,"category":"Shared path"},"geometry":{"type":"MultiLineString","coordinates":[[[-1.3452623,52.0706623],[-1.3453891,52.0707457],[-1.3455187,52.0708438]]]}},
{"type":"Feature","properties":{"highway":"path","name":null,"category":"Shared path"},"geometry":{"type":"MultiLineString","coordinates":[[[-1.3470633,52.069621],[-1.3470821,52.0695521],[-1.3470908,52.0695201]]]}},
{"type":"Feature","properties":{"highway":"path","name":null,"category":"Shared path"},"geometry":{"type":"MultiLineString","coordinates":[[[-1.3467753,52.0701195],[-1.3462916,52.0704352],[-1.3455187,52.0708438],[-1.3444954,52.0714002],[-1.3443014,52.0715056]]]}},
{"type":"Feature","properties":{"highway":"cycleway","name":null,"category":"Dedicated cycleway"},"geometry":{"type":"MultiLineString","coordinates":[[[-1.349728,52.0745378],[-1.3498157,52.0744664],[-1.3501249,52.0742147],[-1.3508136,52.0737582]]]}},
{"type":"Feature","properties":{"highway":"path","name":"Tarragon Walk","category":"Shared path"},"geometry":{"type":"MultiLineString","coordinates":[[[-1.3523218,52.0786767],[-1.3522318,52.0786839],[-1.3520227,52.0786244],[-1.3518598,52.0785721],[-1.351776,52.0785101],[-1.3517617,52.0784523],[-1.3518395,52.0782619],[-1.3518564,52.0782111],[-1.351898,52.0781093],[-1.3519552,52.0780247],[-1.3520445,52.0779824],[-1.3522032,52.0779573],[-1.352272,52.0779623],[-1.3523119,52.0779555]]]}},
{"type":"Feature","properties":{"highway":"path","name":null,"category":"Shared path"},"geometry":{"type":"MultiLineString","coordinates":[[[-1.3521208,52.0783552],[-1.351977,52.0783049]]]}},
{"type":"Feature","properties":{"highway":"path","name":null,"category":"Shared path"},"geometry":{"type":"MultiLineString","coordinates":[[[-1.351977,52.0783049],[-1.3518571,52.0782672]]]}},
{"type":"Feature","properties":{"highway":"path","name":null,"category":"Shared path"},"geometry":{"type":"MultiLineString","coordinates":[[[-1.3518571,52.0782672],[-1.3518395,52.0782619]]]}},
{"type":"Feature","properties":{"highway":"path","name":"Marjoram Walk","category":"Shared path"},"geometry":{"type":"MultiLineString","coordinates":[[[-1.3523218,52.0786767],[-1.3523511,52.0787266],[-1.3525473,52.0788095],[-1.3529902,52.0790034],[-1.3530993,52.0790574],[-1.3532185,52.0790708],[-1.3533207,52.0790654],[-1.3533909,52.0790566],[-1.3534427,52.0789984],[-1.3534965,52.0788677],[-1.3535981,52.0788414]]]}},
{"type":"Feature","properties":{"highway":"path","name":null,"category":"Shared path"},"geometry":{"type":"MultiLineString","coordinates":[[[-1.3533909,52.0790566],[-1.3532553,52.0791868]]]}},
{"type":"Feature","properties":{"highway":"path","name":null,"category":"Shared path"},"geometry":{"type":"MultiLineString","coordinates":[[[-1.3642441,52.0738191],[-1.3641641,52.073844],[-1.3640631,52.0738606],[-1.3642879,52.0741986],[-1.3644901,52.0744146],[-1.3647131,52.0746469],[-1.364749,52.0747862],[-1.3647282,52.075084]]]}},
{"type":"Feature","properties":{"highway":"path","name":null,"category":"Shared path"},"geometry":{"type":"MultiLineString","coordinates":[[[-1.3647282,52.075084],[-1.3646696,52.0752176],[-1.3645756,52.075314]]]}},
{"type":"Feature","properties":{"highway":"path","name":null,"category":"Shared path"},"geometry":{"type":"MultiLineString","coordinates":[[[-1.3647282,52.075084],[-1.3645162,52.0749611]]]}},
{"type":"Feature","properties":{"highway":"path","name":null,"category":"Shared path"},"geometry":{"type":"MultiLineString","coordinates":[[[-1.3640863,52.0742636],[-1.3642527,52.0742876]]]}},
{"type":"Feature","properties":{"highway":"path","name":null,"category":"Shared path"},"geometry":{"type":"MultiLineString","coordinates":[[[-1.3611634,52.072412],[-1.3611027,52.0724382],[-1.3610613,52.0725089],[-1.3609797,52.072648],[-1.3611099,52.0726685],[-1.3610983,52.0727031],[-1.3614354,52.072664],[-1.3615292,52.0725984]]]}},
{"type":"Feature","properties":{"highway":"path","name":null,"category":"Shared path"},"geometry":{"type":"MultiLineString","coordinates":[[[-1.3610983,52.0727031],[-1.3610593,52.0728792]]]}},
{"type":"Feature","properties":{"highway":"path","name":null,"category":"Shared path"},"geometry":{"type":"MultiLineString","coordinates":[[[-1.3610613,52.0725089],[-1.3609725,52.0724836],[-1.3610145,52.0724071],[-1.3610448,52.0723449],[-1.3610747,52.0722779]]]}},
{"type":"Feature","properties":{"highway":"path","name":null,"category":"Shared path"},"geometry":{"type":"MultiLineString","coordinates":[[[-1.3609725,52.0724836],[-1.3609259,52.0725573],[-1.3609118,52.0725796],[-1.360799,52.0726311],[-1.3607051,52.0726447],[-1.3606572,52.0726516],[-1.3605487,52.0726285],[-1.3604576,52.0725902],[-1.3604128,52.0725467],[-1.3604077,52.0725373],[-1.3603824,52.0724907],[-1.3603824,52.0724115],[-1.3603908,52.0723387]]]}},
{"type":"Feature","properties":{"highway":"path","name":null,"category":"Shared path"},"geometry":{"type":"MultiLineString","coordinates":[[[-1.3604077,52.0725373],[-1.3609259,52.0725573]]]}},
{"type":"Feature","properties":{"highway":"path","name":null,"category":"Shared path"},"geometry":{"type":"MultiLineString","coordinates":[[[-1.3607051,52.0726447],[-1.3608004,52.0726782],[-1.3608727,52.0727325],[-1.3608814,52.0726631],[-1.3609118,52.0725796]]]}},
{"type":"Feature","properties":{"highway":"path","name":null,"category":"Shared path"},"geometry":{"type":"MultiLineString","coordinates":[[[-1.3608727,52.0727325],[-1.3610593,52.0728792],[-1.3611012,52.0729049],[-1.3611765,52.0729121],[-1.3612951,52.0729103],[-1.3614432,52.0728755]]]}},
{"type":"Feature","properties":{"highway":"path","name":null,"category":"Shared path"},"geometry":{"type":"MultiLineString","coordinates":[[[-1.36171,52.0730122],[-1.3617933,52.0730538],[-1.3619046,52.0730503],[-1.3620562,52.0730656],[-1.3622213,52.0730868],[-1.3623191,52.0730927],[-1.3624631,52.0730904],[-1.3625686,52.0730935]]]}},
{"type":"Feature","properties":{"highway":"path","name":null,"category":"Shared path"},"geometry":{"type":"MultiLineString","coordinates":[[[-1.3620155,52.0725321],[-1.362114,52.0725164],[-1.3624139,52.0724656]]]}},
{"type":"Feature","properties":{"highway":"path","name":null,"category":"Shared path"},"geometry":{"type":"MultiLineString","coordinates":[[[-1.359337,52.0724128],[-1.3592936,52.0724184],[-1.3589156,52.0723458],[-1.3587587,52.0723149],[-1.3586032,52.0724983],[-1.3585493,52.0725619]]]}},
{"type":"Feature","properties":{"highway":"path","name":null,"category":"Shared path"},"geometry":{"type":"MultiLineString","coordinates":[[[-1.3586401,52.072593],[-1.358413,52.0728551]]]}},
{"type":"Feature","properties":{"highway":"path","name":null,"category":"Shared path"},"geometry":{"type":"MultiLineString","coordinates":[[[-1.3567977,52.0717857],[-1.3565833,52.0714566]]]}},
{"type":"Feature","properties":{"highway":"path","name":null,"category":"Shared path"},"geometry":{"type":"MultiLineString","coordinates":[[[-1.3565833,52.0714566],[-1.3562812,52.0715311]]]}},
{"type":"Feature","properties":{"highway":"path","name":null,"category":"Shared path"},"geometry":{"type":"MultiLineString","coordinates":[[[-1.3568335,52.0718267],[-1.3565988,52.0718838]]]}},
{"type":"Feature","properties":{"highway":"path","name":null,"category":"Shared path"},"geometry":{"type":"MultiLineString","coordinates":[[[-1.3565371,52.0718995],[-1.3562008,52.0719794],[-1.3560413,52.0720173]]]}},
{"type":"Feature","properties":{"highway":"path","name":null,"category":"Shared path"},"geometry":{"type":"MultiLineString","coordinates":[[[-1.355494,52.0721138],[-1.3552155,52.0721773],[-1.3549304,52.0722422]]]}},
{"type":"Feature","properties":{"highway":"path","name":null,"category":"Shared path"},"geometry":{"type":"MultiLineString","coordinates":[[[-1.3550153,52.0718452],[-1.3552155,52.0721773],[-1.3552652,52.072266]]]}},
{"type":"Feature","properties":{"highway":"path","name":null,"category":"Shared path"},"geometry":{"type":"MultiLineString","coordinates":[[[-1.3541395,52.0714353],[-1.3539236,52.0714837]]]}},
{"type":"Feature","properties":{"highway":"path","name":null,"category":"Shared path"},"geometry":{"type":"MultiLineString","coordinates":[[[-1.3538089,52.0723584],[-1.3538533,52.0724442]]]}},
{"type":"Feature","properties":{"highway":"path","name":null,"category":"Shared path"},"geometry":{"type":"MultiLineString","coordinates":[[[-1.3534942,52.0724405],[-1.3535349,52.0725068]]]}},
{"type":"Feature","properties":{"highway":"path","name":null,"category":"Shared path"},"geometry":{"type":"MultiLineString","coordinates":[[[-1.3518914,52.0715209],[-1.3524181,52.071392],[-1.3527126,52.0713202],[-1.3530273,52.0712477]]]}},
{"type":"Feature","properties":{"highway":"path","name":null,"category":"Shared path"},"geometry":{"type":"MultiLineString","coordinates":[[[-1.3529602,52.0711486],[-1.3526588,52.0712197]]]}},
{"type":"Feature","properties":{"highway":"path","name":null,"category":"Shared path"},"geometry":{"type":"MultiLineString","coordinates":[[[-1.3518166,52.0709472],[-1.3515817,52.0709612]]]}},
{"type":"Feature","properties":{"highway":"path","name":null,"category":"Shared path"},"geometry":{"type":"MultiLineString","coordinates":[[[-1.350626,52.0705915],[-1.3506347,52.0706138],[-1.3506862,52.07085],[-1.3507355,52.070846],[-1.3507992,52.0708408],[-1.3508937,52.0708768]]]}},
{"type":"Feature","properties":{"highway":"path","name":null,"category":"Shared path"},"geometry":{"type":"MultiLineString","coordinates":[[[-1.3507355,52.070846],[-1.3508154,52.0712105]]]}},
{"type":"Feature","properties":{"highway":"path","name":null,"category":"Shared path"},"geometry":{"type":"MultiLineString","coordinates":[[[-1.3488391,52.0707326],[-1.3489352,52.0709087]]]}},
{"type":"Feature","properties":{"highway":"path","name":null,"category":"Shared path"},"geometry":{"type":"MultiLineString","coordinates":[[[-1.3489468,52.0709264],[-1.3486663,52.070988],[-1.3485943,52.0710081]]]}},
{"type":"Feature","properties":{"highway":"path","name":null,"category":"Shared path"},"geometry":{"type":"MultiLineString","coordinates":[[[-1.3486663,52.070988],[-1.3487314,52.0708809]]]}},
{"type":"Feature","properties":{"highway":"path","name":null,"category":"Shared path"},"geometry":{"type":"MultiLineString","coordinates":[[[-1.3488391,52.0707326],[-1.3487827,52.070747],[-1.3485609,52.0708035],[-1.3484535,52.0707919]]]}},
{"type":"Feature","properties":{"highway":"path","name":null,"category":"Shared path"},"geometry":{"type":"MultiLineString","coordinates":[[[-1.3487827,52.070747],[-1.348586,52.0705843],[-1.3485757,52.0705292],[-1.3485395,52.0705125],[-1.3484654,52.070504],[-1.3483939,52.0705079],[-1.3483405,52.0705113]]]}},
{"type":"Feature","properties":{"highway":"path","name":null,"category":"Shared path"},"geometry":{"type":"MultiLineString","coordinates":[[[-1.3482927,52.0725539],[-1.3485933,52.0724747],[-1.3484983,52.072277],[-1.3485223,52.0722402]]]}},
{"type":"Feature","properties":{"highway":"path","name":null,"category":"Shared path"},"geometry":{"type":"MultiLineString","coordinates":[[[-1.3491235,52.0723203],[-1.3502545,52.0720476]]]}},
{"type":"Feature","properties":{"highway":"path","name":null,"category":"Shared path"},"geometry":{"type":"MultiLineString","coordinates":[[[-1.3492463,52.0722286],[-1.349656,52.0721313],[-1.3499005,52.0720733]]]}},
{"type":"Feature","properties":{"highway":"path","name":null,"category":"Shared path"},"geometry":{"type":"MultiLineString","coordinates":[[[-1.349656,52.0721313],[-1.3495227,52.0719313],[-1.3495425,52.0719206]]]}},
{"type":"Feature","properties":{"highway":"path","name":null,"category":"Shared path"},"geometry":{"type":"MultiLineString","coordinates":[[[-1.3490642,52.0719307],[-1.3494609,52.0718311],[-1.350031,52.0716881]]]}},
{"type":"Feature","properties":{"highway":"path","name":null,"category":"Shared path"},"geometry":{"type":"MultiLineString","coordinates":[[[-1.3495227,52.0719313],[-1.3494609,52.0718311]]]}},
{"type":"Feature","properties":{"highway":"path","name":null,"category":"Shared path"},"geometry":{"type":"MultiLineString","coordinates":[[[-1.3505952,52.0725889],[-1.3500302,52.0727212],[-1.3500119,52.0726946],[-1.34955,52.0728041],[-1.3494171,52.0728356]]]}},
{"type":"Feature","properties":{"highway":"path","name":null,"category":"Shared path"},"geometry":{"type":"MultiLineString","coordinates":[[[-1.34955,52.0728041],[-1.3497636,52.0731472]]]}},
{"type":"Feature","properties":{"highway":"path","name":null,"category":"Shared path"},"geometry":{"type":"MultiLineString","coordinates":[[[-1.3496142,52.0731819],[-1.3497636,52.0731472],[-1.3506666,52.0729352],[-1.3506148,52.0728502]]]}},
{"type":"Feature","properties":{"highway":"path","name":null,"category":"Shared path"},"geometry":{"type":"MultiLineString","coordinates":[[[-1.3502037,52.0735356],[-1.3502151,52.0735189],[-1.3501207,52.0733687],[-1.3500836,52.0733096]]]}},
{"type":"Feature","properties":{"highway":"path","name":null,"category":"Shared path"},"geometry":{"type":"MultiLineString","coordinates":[[[-1.3501207,52.0733687],[-1.3508299,52.0731953],[-1.3509398,52.0733633]]]}},
{"type":"Feature","properties":{"highway":"path","name":null,"category":"Shared path"},"geometry":{"type":"MultiLineString","coordinates":[[[-1.3508299,52.0731953],[-1.3507914,52.0731399],[-1.3506666,52.0729352]]]}},
{"type":"Feature","properties":{"highway":"path","name":null,"category":"Shared path"},"geometry":{"type":"MultiLineString","coordinates":[[[-1.3497342,52.0733977],[-1.3497577,52.0734371],[-1.3498597,52.0736084],[-1.349413,52.0737102]]]}},
{"type":"Feature","properties":{"highway":"path","name":null,"category":"Shared path"},"geometry":{"type":"MultiLineString","coordinates":[[[-1.3498597,52.0736084],[-1.3502037,52.0735356]]]}},
{"type":"Feature","properties":{"highway":"path","name":null,"category":"Shared path"},"geometry":{"type":"MultiLineString","coordinates":[[[-1.3497577,52.0734371],[-1.3493096,52.0735357]]]}},
{"type":"Feature","properties":{"highway":"path","name":null,"category":"Shared path"},"geometry":{"type":"MultiLineString","coordinates":[[[-1.3490742,52.0731352],[-1.348553,52.0732432]]]}},
{"type":"Feature","properties":{"highway":"path","name":null,"category":"Shared path"},"geometry":{"type":"MultiLineString","coordinates":[[[-1.3482438,52.0734113],[-1.3478193,52.0734982],[-1.3477411,52.0733667]]]}},
{"type":"Feature","properties":{"highway":"path","name":null,"category":"Shared path"},"geometry":{"type":"MultiLineString","coordinates":[[[-1.3478193,52.0734982],[-1.3480273,52.0738948]]]}},
{"type":"Feature","properties":{"highway":"path","name":null,"category":"Shared path"},"geometry":{"type":"MultiLineString","coordinates":[[[-1.3491283,52.0740204],[-1.3491683,52.0740896],[-1.3491506,52.0741425]]]}},
{"type":"Feature","properties":{"highway":"path","name":null,"category":"Shared path"},"geometry":{"type":"MultiLineString","coordinates":[[[-1.3489885,52.0737402],[-1.3484504,52.0738511]]]}},
{"type":"Feature","properties":{"highway":"path","name":null,"category":"Shared path"},"geometry":{"type":"MultiLineString","coordinates":[[[-1.3479104,52.0732621],[-1.3480051,52.0734548]]]}},
{"type":"Feature","properties":{"highway":"path","name":null,"category":"Shared path"},"geometry":{"type":"MultiLineString","coordinates":[[[-1.3479293,52.0732212],[-1.3484785,52.0731116]]]}},
{"type":"Feature","properties":{"highway":"path","name":null,"category":"Shared path"},"geometry":{"type":"MultiLineString","coordinates":[[[-1.3477389,52.0727448],[-1.3476846,52.0728711],[-1.3475983,52.0728982]]]}},
{"type":"Feature","properties":{"highway":"path","name":null,"category":"Shared path"},"geometry":{"type":"MultiLineString","coordinates":[[[-1.3476499,52.0726541],[-1.347758,52.0724322]]]}},
{"type":"Feature","properties":{"highway":"path","name":null,"category":"Shared path"},"geometry":{"type":"MultiLineString","coordinates":[[[-1.3474198,52.0726895],[-1.3473361,52.0726727],[-1.3472222,52.0726498]]]}},
{"type":"Feature","properties":{"highway":"path","name":null,"category":"Shared path"},"geometry":{"type":"MultiLineString","coordinates":[[[-1.3473361,52.0726727],[-1.3473723,52.0725922],[-1.347153,52.0725533],[-1.347116,52.0726306]]]}},
{"type":"Feature","properties":{"highway":"path","name":null,"category":"Shared path"},"geometry":{"type":"MultiLineString","coordinates":[[[-1.3463192,52.0735415],[-1.346253,52.0735265]]]}},
{"type":"Feature","properties":{"highway":"path","name":null,"category":"Shared path"},"geometry":{"type":"MultiLineString","coordinates":[[[-1.3465902,52.0733548],[-1.3466913,52.0734371],[-1.3468901,52.0735989],[-1.3469295,52.0736309],[-1.3470655,52.0735627]]]}},
{"type":"Feature","properties":{"highway":"path","name":null,"category":"Shared path"},"geometry":{"type":"MultiLineString","coordinates":[[[-1.3468901,52.0735989],[-1.3469295,52.0735003],[-1.3466913,52.0734371]]]}},
{"type":"Feature","properties":{"highway":"path","name":null,"category":"Shared path"},"geometry":{"type":"MultiLineString","coordinates":[[[-1.3459242,52.0739024],[-1.3461554,52.0735851],[-1.346253,52.0735265]]]}},
{"type":"Feature","properties":{"highway":"path","name":null,"category":"Shared path"},"geometry":{"type":"MultiLineString","coordinates":[[[-1.3444359,52.0716561],[-1.344568,52.0715845],[-1.3447558,52.0714847],[-1.344932,52.0713923],[-1.3451115,52.0712946],[-1.345283,52.0712039],[-1.3454581,52.0711085],[-1.3455852,52.0710443]]]}},
{"type":"Feature","properties":{"highway":"path","name":null,"category":"Shared path"},"geometry":{"type":"MultiLineString","coordinates":[[[-1.3482062,52.0765377],[-1.3479972,52.0764416],[-1.3479482,52.0764141],[-1.3480778,52.0762769],[-1.3481507,52.0762183]]]}},
{"type":"Feature","properties":{"highway":"path","name":null,"category":"Shared path"},"geometry":{"type":"MultiLineString","coordinates":[[[-1.3502273,52.0771214],[-1.3504,52.0764826],[-1.3502069,52.0765419],[-1.3500824,52.0765363]]]}},
{"type":"Feature","properties":{"highway":"path","name":null,"category":"Shared path"},"geometry":{"type":"MultiLineString","coordinates":[[[-1.3504,52.0764826],[-1.3504682,52.0764908],[-1.3506447,52.0765665],[-1.3507313,52.0766535],[-1.3508961,52.0767179],[-1.3507493,52.076872]]]}},
{"type":"Feature","properties":{"highway":"path","name":null,"category":"Shared path"},"geometry":{"type":"MultiLineString","coordinates":[[[-1.3508961,52.0767179],[-1.3509627,52.0767466],[-1.3511825,52.0767752],[-1.3514122,52.076764],[-1.3517076,52.0767799]]]}},
{"type":"Feature","properties":{"highway":"path","name":null,"category":"Shared path"},"geometry":{"type":"MultiLineString","coordinates":[[[-1.3515456,52.0769748],[-1.3515406,52.0771559],[-1.3514677,52.0771572],[-1.3512313,52.0770853],[-1.3512118,52.0769965]]]}},
{"type":"Feature","properties":{"highway":"path","name":null,"category":"Shared path"},"geometry":{"type":"MultiLineString","coordinates":[[[-1.3515406,52.0771559],[-1.3515428,52.0773079],[-1.3514213,52.0774003],[-1.3513064,52.0776522]]]}},
{"type":"Feature","properties":{"highway":"path","name":null,"category":"Shared path"},"geometry":{"type":"MultiLineString","coordinates":[[[-1.3518427,52.0769585],[-1.3518616,52.0770882],[-1.3518414,52.0771797],[-1.3521593,52.0772499],[-1.3523053,52.077265],[-1.3523978,52.0770998],[-1.3524108,52.0770891],[-1.3524144,52.0769966]]]}},
{"type":"Feature","properties":{"highway":"path","name":null,"category":"Shared path"},"geometry":{"type":"MultiLineString","coordinates":[[[-1.3519096,52.0758456],[-1.3514863,52.0758072],[-1.3512676,52.0757886]]]}},
{"type":"Feature","properties":{"highway":"path","name":null,"category":"Shared path"},"geometry":{"type":"MultiLineString","coordinates":[[[-1.3546115,52.0758366],[-1.3551145,52.075975],[-1.3551655,52.075989],[-1.3552638,52.0760183],[-1.355284,52.076037],[-1.3556495,52.0761311]]]}},
{"type":"Feature","properties":{"highway":"path","name":null,"category":"Shared path"},"geometry":{"type":"MultiLineString","coordinates":[[[-1.3552638,52.0760183],[-1.3554502,52.0757447],[-1.3554352,52.0757407]]]}},
{"type":"Feature","properties":{"highway":"path","name":null,"category":"Shared path"},"geometry":{"type":"MultiLineString","coordinates":[[[-1.3551444,52.0759301],[-1.3551145,52.075975]]]}},
{"type":"Feature","properties":{"highway":"path","name":null,"category":"Shared path"},"geometry":{"type":"MultiLineString","coordinates":[[[-1.3570881,52.0765182],[-1.3571198,52.0765287],[-1.3571964,52.0765359],[-1.357253,52.0765441],[-1.3572729,52.0765594],[-1.3572796,52.0765707],[-1.3572097,52.0766802]]]}},
{"type":"Feature","properties":{"highway":"path","name":null,"category":"Shared path"},"geometry":{"type":"MultiLineString","coordinates":[[[-1.3611099,52.0759688],[-1.3613912,52.0759822],[-1.3614383,52.0760354]]]}},
{"type":"Feature","properties":{"highway":"path","name":null,"category":"Shared path"},"geometry":{"type":"MultiLineString","coordinates":[[[-1.3633419,52.0750134],[-1.3633776,52.0750108],[-1.3635764,52.0749573],[-1.3638603,52.074873]]]}},
{"type":"Feature","properties":{"highway":"path","name":null,"category":"Shared path"},"geometry":{"type":"MultiLineString","coordinates":[[[-1.3575703,52.0738796],[-1.3575055,52.0738635],[-1.3570487,52.0738077]]]}},
{"type":"Feature","properties":{"highway":"path","name":null,"category":"Shared path"},"geometry":{"type":"MultiLineString","coordinates":[[[-1.3610289,52.0780769],[-1.3610831,52.0782004],[-1.3608577,52.0782205],[-1.3607941,52.0783514]]]}},
{"type":"Feature","properties":{"highway":"path","name":null,"category":"Shared path"},"geometry":{"type":"MultiLineString","coordinates":[[[-1.3604542,52.0771643],[-1.3601863,52.077231],[-1.360237,52.0773143],[-1.3600184,52.0773653]]]}},
{"type":"Feature","properties":{"highway":"path","name":null,"category":"Shared path"},"geometry":{"type":"MultiLineString","coordinates":[[[-1.352974,52.0781424],[-1.3529634,52.0781983],[-1.3529131,52.0782233],[-1.3529417,52.0782589],[-1.35289,52.078286],[-1.3529152,52.0783126],[-1.3528627,52.0783393],[-1.3528942,52.0783775],[-1.3528362,52.0783904],[-1.3528104,52.0784227]]]}},
{"type":"Feature","properties":{"highway":"path","name":null,"category":"Shared path"},"geometry":{"type":"MultiLineString","coordinates":[[[-1.3643519,52.0739455],[-1.3647355,52.0742653],[-1.3652632,52.0743744],[-1.3656106,52.0743864],[-1.3656912,52.0744359],[-1.365759,52.0744776],[-1.3658261,52.074585],[-1.3659277,52.0746812],[-1.366005,52.0746363],[-1.3661513,52.074615],[-1.3663103,52.0746419]]]}},
{"type":"Feature","properties":{"highway":"path","name":null,"category":"Shared path"},"geometry":{"type":"MultiLineString","coordinates":[[[-1.3624709,52.0777559],[-1.3627991,52.0777786],[-1.3630705,52.0777812]]]}}
]
}
