{
"type": "FeatureCollection",
"name": "CHICH_39_NACH",
"crs": { "type": "name", "properties": { "name": "urn:ogc:def:crs:OGC:1.3:CRS84" } },
"features": [
{ "type": "Feature", "properties": { "id": 60395, "nach": 0.53038988895850114 }, "geometry": { "type": "LineString", "coordinates": [ [ -0.8861417, 50.843419 ], [ -0.8858913, 50.8433883 ] ] } },
{ "type": "Feature", "properties": { "id": 58046, "nach": 0.54242191292951836 }, "geometry": { "type": "LineString", "coordinates": [ [ -0.885736, 50.84337 ], [ -0.8858913, 50.8433883 ] ] } },
{ "type": "Feature", "properties": { "id": 80881, "nach": 0.40556875950149029 }, "geometry": { "type": "LineString", "coordinates": [ [ -0.8858778, 50.8436329 ], [ -0.8858913, 50.8433883 ] ] } },
{ "type": "Feature", "properties": { "id": 60397, "nach": 0.5175897478335757 }, "geometry": { "type": "LineString", "coordinates": [ [ -0.8861417, 50.843419 ], [ -0.8865772, 50.8434761 ], [ -0.886986, 50.8435211 ], [ -0.8874705, 50.8435655 ], [ -0.8878675, 50.843594300000014 ], [ -0.8883215, 50.8436144 ], [ -0.8888227, 50.8436246 ], [ -0.8893562, 50.843625500000016 ] ] } },
{ "type": "Feature", "properties": { "id": 60398, "nach": 0.39545368398698361 }, "geometry": { "type": "LineString", "coordinates": [ [ -0.8859902, 50.8441011 ], [ -0.8861417, 50.843419 ] ] } },
{ "type": "Feature", "properties": { "id": 58047, "nach": 0.55252761114721705 }, "geometry": { "type": "LineString", "coordinates": [ [ -0.885736, 50.84337 ], [ -0.8854968, 50.8433318 ] ] } },
{ "type": "Feature", "properties": { "id": 58049, "nach": 0.40140394050386796 }, "geometry": { "type": "LineString", "coordinates": [ [ -0.8852946, 50.8430885 ], [ -0.8857146, 50.8431345 ], [ -0.8857644, 50.8431608 ], [ -0.8857781, 50.8432301 ], [ -0.885736, 50.84337 ] ] } },
{ "type": "Feature", "properties": { "id": 18710, "nach": 0.46634819287314294 }, "geometry": { "type": "LineString", "coordinates": [ [ -0.8892786, 50.8434373 ], [ -0.8893562, 50.843625500000016 ] ] } },
{ "type": "Feature", "properties": { "id": 61857, "nach": 0.50625026250075733 }, "geometry": { "type": "LineString", "coordinates": [ [ -0.8916992, 50.8434917 ], [ -0.8916507, 50.8434927 ], [ -0.890991, 50.8435249 ], [ -0.8903471, 50.8435736 ], [ -0.889823, 50.8436066 ], [ -0.8893562, 50.843625500000016 ] ] } },
{ "type": "Feature", "properties": { "id": 18709, "nach": 0.38511073585064515 }, "geometry": { "type": "LineString", "coordinates": [ [ -0.8892786, 50.8434373 ], [ -0.8889771, 50.8434901 ] ] } },
{ "type": "Feature", "properties": { "id": 24188, "nach": 0.41127930235742188 }, "geometry": { "type": "LineString", "coordinates": [ [ -0.8907536, 50.8433483 ], [ -0.8899938, 50.8433389 ], [ -0.8892786, 50.8434373 ] ] } },
{ "type": "Feature", "properties": { "id": 61905, "nach": 0.51034859926075204 }, "geometry": { "type": "LineString", "coordinates": [ [ -0.8925122, 50.8434878 ], [ -0.8923706, 50.8434877 ], [ -0.8920244, 50.8434853 ], [ -0.8916992, 50.8434917 ] ] } },
{ "type": "Feature", "properties": { "id": 66848, "nach": 0.33345480573092029 }, "geometry": { "type": "LineString", "coordinates": [ [ -0.8926195, 50.8453677 ], [ -0.8920199, 50.845221700000018 ], [ -0.8912898, 50.8450853 ], [ -0.891231, 50.845015 ], [ -0.8911576, 50.844857 ], [ -0.8912862, 50.8444779 ], [ -0.8916329, 50.8437307 ], [ -0.8916582, 50.8436396 ], [ -0.8916992, 50.8434917 ] ] } },
{ "type": "Feature", "properties": { "id": 24208, "nach": 0.5884024812264711 }, "geometry": { "type": "LineString", "coordinates": [ [ -0.907684, 50.8449119 ], [ -0.9081371, 50.8450902 ] ] } },
{ "type": "Feature", "properties": { "id": 13472, "nach": 0.5285165356221857 }, "geometry": { "type": "LineString", "coordinates": [ [ -0.9079334, 50.8456242 ], [ -0.9080162, 50.8452951 ], [ -0.9080729, 50.8451774 ], [ -0.9081371, 50.8450902 ] ] } },
{ "type": "Feature", "properties": { "id": 90455, "nach": 0.55927072400178979 }, "geometry": { "type": "LineString", "coordinates": [ [ -0.9086538, 50.8451562 ], [ -0.9085973, 50.845152099999986 ], [ -0.9083246, 50.8451151 ], [ -0.9081371, 50.8450902 ] ] } },
{ "type": "Feature", "properties": { "id": 20494, "nach": 0.0 }, "geometry": { "type": "LineString", "coordinates": [ [ -0.9095302, 50.8452024 ], [ -0.9095996, 50.8446581 ], [ -0.9095637, 50.8446138 ], [ -0.9083901, 50.8445173 ], [ -0.9083306, 50.844547200000015 ], [ -0.9082311, 50.8450093 ], [ -0.9081371, 50.8450902 ] ] } },
{ "type": "Feature", "properties": { "id": 24210, "nach": 0.58035070141873213 }, "geometry": { "type": "LineString", "coordinates": [ [ -0.907684, 50.8449119 ], [ -0.9074873, 50.8448546 ], [ -0.907238, 50.844810300000013 ] ] } },
{ "type": "Feature", "properties": { "id": 24209, "nach": 0.40933468562058628 }, "geometry": { "type": "LineString", "coordinates": [ [ -0.907684, 50.8449119 ], [ -0.9077007, 50.844835 ], [ -0.9078916, 50.8442133 ], [ -0.9079295, 50.8440456 ] ] } },
{ "type": "Feature", "properties": { "id": 79662, "nach": 0.4212925990034444 }, "geometry": { "type": "LineString", "coordinates": [ [ -0.9078464, 50.8451692 ], [ -0.907854, 50.8451122 ], [ -0.9077522, 50.8450543 ], [ -0.9076479, 50.845039799999988 ], [ -0.907684, 50.8449119 ] ] } },
{ "type": "Feature", "properties": { "id": 90454, "nach": 0.61661969099061342 }, "geometry": { "type": "LineString", "coordinates": [ [ -0.9086538, 50.8451562 ], [ -0.9087767, 50.8451629 ], [ -0.9095302, 50.8452024 ] ] } },
{ "type": "Feature", "properties": { "id": 90456, "nach": 0.58092631425033014 }, "geometry": { "type": "LineString", "coordinates": [ [ -0.9086538, 50.8451562 ], [ -0.9086467, 50.8451955 ], [ -0.908464, 50.8451927 ], [ -0.9083019, 50.8451906 ], [ -0.9082351, 50.8451948 ], [ -0.9081946, 50.8451945 ], [ -0.9081334, 50.8452132 ], [ -0.9080837, 50.8452622 ], [ -0.9080446, 50.845413 ], [ -0.9080201, 50.8455341 ], [ -0.908009, 50.8456344 ] ] } },
{ "type": "Feature", "properties": { "id": 90457, "nach": 0.42681490267554217 }, "geometry": { "type": "LineString", "coordinates": [ [ -0.908664, 50.845096 ], [ -0.9086538, 50.8451562 ] ] } },
{ "type": "Feature", "properties": { "id": 80057, "nach": 0.0 }, "geometry": { "type": "LineString", "coordinates": [ [ -0.9094361, 50.8395007 ], [ -0.9094117, 50.839504400000017 ], [ -0.9093252, 50.8394697 ], [ -0.9088736, 50.838242799999989 ], [ -0.908828, 50.8381175 ], [ -0.9087502, 50.8380599 ], [ -0.9086654, 50.8380392 ], [ -0.9085638, 50.838037 ], [ -0.9084428, 50.8380867 ], [ -0.9082996, 50.8381853 ], [ -0.9080539, 50.83831030000001 ], [ -0.9078098, 50.8383729 ], [ -0.9065454, 50.838498599999987 ], [ -0.9061723, 50.8385177 ], [ -0.9055246, 50.8385127 ], [ -0.9050632, 50.8384855 ], [ -0.9042575, 50.8384867 ], [ -0.9034489, 50.838408 ], [ -0.9025647, 50.838294200000014 ], [ -0.9019948, 50.8382094 ], [ -0.9009528, 50.838026600000013 ], [ -0.9003975, 50.8379631 ], [ -0.8995985, 50.8379303 ], [ -0.8991895, 50.8379235 ], [ -0.8990272, 50.8379447 ], [ -0.8989199, 50.8379973 ], [ -0.8988354, 50.8380675 ], [ -0.8987426, 50.8381324 ] ] } },
{ "type": "Feature", "properties": { "id": 36801, "nach": 0.32030155241475117 }, "geometry": { "type": "LineString", "coordinates": [ [ -0.8975092, 50.8425387 ], [ -0.8974621, 50.8424527 ], [ -0.8974778, 50.8424219 ], [ -0.8974843, 50.8422797 ], [ -0.8972967, 50.8419251 ], [ -0.8972812, 50.841617 ], [ -0.8974237, 50.8413495 ], [ -0.8974375, 50.8412399 ], [ -0.8974181, 50.841072 ], [ -0.8973455, 50.8409262 ], [ -0.8971346, 50.8406077 ], [ -0.8969184, 50.8402295 ], [ -0.896762, 50.8399311 ], [ -0.8965436, 50.839721 ], [ -0.8964117, 50.8395114 ], [ -0.8963377, 50.8392857 ], [ -0.8963322, 50.8390338 ], [ -0.8964304, 50.8389483 ] ] } },
{ "type": "Feature", "properties": { "id": 24166, "nach": 0.26497769446854286 }, "geometry": { "type": "LineString", "coordinates": [ [ -0.8934262, 50.8377644 ], [ -0.8934933, 50.8379374 ], [ -0.893783, 50.838310100000015 ], [ -0.8939922, 50.838388 ], [ -0.8949149, 50.8386421 ], [ -0.8960951, 50.8388599 ], [ -0.8964304, 50.8389483 ] ] } },
{ "type": "Feature", "properties": { "id": 36758, "nach": 0.22473271473221501 }, "geometry": { "type": "LineString", "coordinates": [ [ -0.8988423, 50.8379407 ], [ -0.8987343, 50.8379883 ], [ -0.8983721, 50.838653900000018 ], [ -0.898284, 50.8387975 ], [ -0.8980251, 50.8390178 ], [ -0.8979103, 50.8390548 ], [ -0.897541, 50.8390402 ], [ -0.89696, 50.8389818 ], [ -0.8964304, 50.8389483 ] ] } },
{ "type": "Feature", "properties": { "id": 36802, "nach": 0.45319613692438354 }, "geometry": { "type": "LineString", "coordinates": [ [ -0.8975092, 50.8425387 ], [ -0.8982992, 50.8423 ], [ -0.8985248, 50.8422023 ], [ -0.8989426, 50.8419817 ], [ -0.8990443, 50.8419307 ], [ -0.8995214, 50.841817 ], [ -0.8997159, 50.8417279 ] ] } },
{ "type": "Feature", "properties": { "id": 36800, "nach": 0.47854431279563708 }, "geometry": { "type": "LineString", "coordinates": [ [ -0.8975092, 50.8425387 ], [ -0.897409, 50.8425734 ] ] } },
{ "type": "Feature", "properties": { "id": 36803, "nach": 0.28655070665276877 }, "geometry": { "type": "LineString", "coordinates": [ [ -0.8975092, 50.8425387 ], [ -0.8975166, 50.8424677 ], [ -0.8975458, 50.8424003 ], [ -0.8975662, 50.842287399999982 ], [ -0.8974791, 50.8421162 ], [ -0.8973937, 50.841988 ], [ -0.8973555, 50.841824100000011 ], [ -0.8973984, 50.8416181 ], [ -0.8974871, 50.8414346 ], [ -0.8975447, 50.8412872 ], [ -0.897553, 50.841167 ], [ -0.8975117, 50.8409788 ], [ -0.897235, 50.840563 ], [ -0.8969136, 50.8399417 ], [ -0.8968358, 50.8398638 ], [ -0.8966105, 50.8396487 ], [ -0.8965472, 50.8395417 ], [ -0.8964748, 50.8394128 ], [ -0.8964492, 50.8392627 ], [ -0.8964922, 50.8391863 ], [ -0.8965348, 50.8391364 ], [ -0.896665, 50.8390799 ], [ -0.8968826, 50.8390715 ], [ -0.8979442, 50.8391468 ], [ -0.8980732, 50.83914080000001 ], [ -0.8981392, 50.839123 ], [ -0.8982103, 50.8390751 ], [ -0.898409, 50.8387849 ], [ -0.898457, 50.8386016 ], [ -0.8985431, 50.838435099999984 ], [ -0.8987426, 50.8381324 ] ] } },
{ "type": "Feature", "properties": { "id": 24310, "nach": 0.28046343115799532 }, "geometry": { "type": "LineString", "coordinates": [ [ -0.8928598, 50.838726199999989 ], [ -0.8928692, 50.8383458 ], [ -0.8928472, 50.8378531 ], [ -0.8928621, 50.837805 ], [ -0.8929405, 50.83776790000001 ], [ -0.8931147, 50.837752800000018 ], [ -0.8932399, 50.8377555 ], [ -0.8933215, 50.8377435 ], [ -0.8934262, 50.8377644 ] ] } },
{ "type": "Feature", "properties": { "id": 25117, "nach": 0.25391183623496394 }, "geometry": { "type": "LineString", "coordinates": [ [ -0.8925627, 50.8359455 ], [ -0.8927315, 50.8364197 ], [ -0.8930427, 50.837070200000014 ], [ -0.8934262, 50.8377644 ] ] } },
{ "type": "Feature", "properties": { "id": 36759, "nach": 0.22456728701636197 }, "geometry": { "type": "LineString", "coordinates": [ [ -0.8988423, 50.8379407 ], [ -0.8989869, 50.837877 ], [ -0.9004031, 50.8379246 ], [ -0.900985, 50.837989 ], [ -0.9020146, 50.8381723 ], [ -0.9033861, 50.8383478 ] ] } },
{ "type": "Feature", "properties": { "id": 36757, "nach": 0.2698318020390188 }, "geometry": { "type": "LineString", "coordinates": [ [ -0.8988423, 50.8379407 ], [ -0.8987426, 50.8381324 ] ] } },
{ "type": "Feature", "properties": { "id": 24196, "nach": 0.54359809055455022 }, "geometry": { "type": "LineString", "coordinates": [ [ -0.8965061, 50.8438312 ], [ -0.8959504, 50.843748 ] ] } },
{ "type": "Feature", "properties": { "id": 79967, "nach": 0.52090070089349472 }, "geometry": { "type": "LineString", "coordinates": [ [ -0.8947956, 50.8436525 ], [ -0.8954958, 50.8437083 ], [ -0.8959504, 50.843748 ] ] } },
{ "type": "Feature", "properties": { "id": 69338, "nach": 0.52024016022434183 }, "geometry": { "type": "LineString", "coordinates": [ [ -0.8963754, 50.8432862 ], [ -0.8962278, 50.8434164 ], [ -0.8960905, 50.8435612 ], [ -0.8959504, 50.843748 ] ] } },
{ "type": "Feature", "properties": { "id": 76294, "nach": 0.51080448516111876 }, "geometry": { "type": "LineString", "coordinates": [ [ -0.8953148, 50.8443728 ], [ -0.8954016, 50.844322 ], [ -0.8954783, 50.84425430000001 ], [ -0.8955982, 50.8441961 ], [ -0.8956672, 50.844189499999985 ], [ -0.8959504, 50.843748 ] ] } },
{ "type": "Feature", "properties": { "id": 61532, "nach": 0.53796794690693384 }, "geometry": { "type": "LineString", "coordinates": [ [ -0.8970294, 50.8439352 ], [ -0.8965061, 50.8438312 ] ] } },
{ "type": "Feature", "properties": { "id": 24198, "nach": 0.37843613605095017 }, "geometry": { "type": "LineString", "coordinates": [ [ -0.8965518, 50.8437459 ], [ -0.8965061, 50.8438312 ] ] } },
{ "type": "Feature", "properties": { "id": 79966, "nach": 0.517019191549412 }, "geometry": { "type": "LineString", "coordinates": [ [ -0.8947956, 50.8436525 ], [ -0.8947769, 50.8435244 ], [ -0.8944336, 50.843493100000018 ], [ -0.8943203, 50.8436147 ] ] } },
{ "type": "Feature", "properties": { "id": 79972, "nach": 0.51155055595979759 }, "geometry": { "type": "LineString", "coordinates": [ [ -0.8967675, 50.8429401 ], [ -0.8963754, 50.8432862 ] ] } },
{ "type": "Feature", "properties": { "id": 69340, "nach": 0.3716021708382598 }, "geometry": { "type": "LineString", "coordinates": [ [ -0.8956607, 50.8429751 ], [ -0.8957609, 50.842977500000011 ], [ -0.8957962, 50.8429827 ], [ -0.8958239, 50.8429882 ], [ -0.8958705, 50.8430101 ], [ -0.8961983, 50.8431903 ], [ -0.8963754, 50.8432862 ] ] } },
{ "type": "Feature", "properties": { "id": 76296, "nach": 0.45290380188035528 }, "geometry": { "type": "LineString", "coordinates": [ [ -0.8953148, 50.8443728 ], [ -0.8950293, 50.84441240000001 ], [ -0.8948554, 50.8443996 ], [ -0.8945598, 50.844358299999989 ], [ -0.89436, 50.8443192 ], [ -0.8942566, 50.84429930000001 ], [ -0.8936256, 50.844178399999983 ] ] } },
{ "type": "Feature", "properties": { "id": 76462, "nach": 0.46605037891365553 }, "geometry": { "type": "LineString", "coordinates": [ [ -0.8944382, 50.8449543 ], [ -0.8946566, 50.8448231 ], [ -0.894938, 50.844590500000017 ], [ -0.8951896, 50.8444365 ], [ -0.8953148, 50.8443728 ] ] } },
{ "type": "Feature", "properties": { "id": 79706, "nach": 0.52144612984745553 }, "geometry": { "type": "LineString", "coordinates": [ [ -0.9004041, 50.8489188 ], [ -0.9004509, 50.8490596 ], [ -0.9004891, 50.8492172 ] ] } },
{ "type": "Feature", "properties": { "id": 24363, "nach": 0.50078753884951555 }, "geometry": { "type": "LineString", "coordinates": [ [ -0.9001756, 50.84986 ], [ -0.90028, 50.8498074 ], [ -0.9003683, 50.8497061 ], [ -0.9004343, 50.8495862 ], [ -0.9004845, 50.8494705 ], [ -0.9005013, 50.8493524 ], [ -0.9004891, 50.8492172 ] ] } },
{ "type": "Feature", "properties": { "id": 82203, "nach": 0.51010582595742138 }, "geometry": { "type": "LineString", "coordinates": [ [ -0.9015844, 50.8492761 ], [ -0.9007792, 50.8492175 ], [ -0.9004891, 50.8492172 ] ] } },
{ "type": "Feature", "properties": { "id": 79705, "nach": 0.51880771270878456 }, "geometry": { "type": "LineString", "coordinates": [ [ -0.9004041, 50.8489188 ], [ -0.9003744, 50.8488268 ], [ -0.9003304, 50.848740899999989 ] ] } },
{ "type": "Feature", "properties": { "id": 79707, "nach": 0.37905976730985125 }, "geometry": { "type": "LineString", "coordinates": [ [ -0.9004041, 50.8489188 ], [ -0.9007181, 50.8489046 ], [ -0.9007793, 50.8489374 ], [ -0.9007823, 50.849113199999984 ] ] } },
{ "type": "Feature", "properties": { "id": 64916, "nach": 0.49369905027004013 }, "geometry": { "type": "LineString", "coordinates": [ [ -0.8995074, 50.8498555 ], [ -0.8999376, 50.849898400000015 ], [ -0.9001259, 50.849885 ], [ -0.9001756, 50.84986 ] ] } },
{ "type": "Feature", "properties": { "id": 24366, "nach": 0.0 }, "geometry": { "type": "LineString", "coordinates": [ [ -0.9005263, 50.8580099 ], [ -0.9005756, 50.8575454 ], [ -0.9007052, 50.8565192 ], [ -0.9008556, 50.8556697 ], [ -0.9009489, 50.854975700000011 ], [ -0.9010881, 50.8528784 ], [ -0.9011304, 50.8508116 ], [ -0.9002234, 50.850817699999986 ], [ -0.9002744, 50.8506586 ], [ -0.9002262, 50.8498851 ], [ -0.9001756, 50.84986 ] ] } },
{ "type": "Feature", "properties": { "id": 76056, "nach": 0.5812517878584863 }, "geometry": { "type": "LineString", "coordinates": [ [ -0.899122, 50.844187900000016 ], [ -0.8996497, 50.844246 ] ] } },
{ "type": "Feature", "properties": { "id": 79689, "nach": 0.54109978033788886 }, "geometry": { "type": "LineString", "coordinates": [ [ -0.8996548, 50.8444204 ], [ -0.8996497, 50.844246 ] ] } },
{ "type": "Feature", "properties": { "id": 79699, "nach": 0.54941387755108151 }, "geometry": { "type": "LineString", "coordinates": [ [ -0.9009012, 50.8443891 ], [ -0.9002665, 50.8443195 ], [ -0.8996497, 50.844246 ] ] } },
{ "type": "Feature", "properties": { "id": 76057, "nach": 0.57930298328107543 }, "geometry": { "type": "LineString", "coordinates": [ [ -0.899122, 50.844187900000016 ], [ -0.8983913, 50.8441075 ] ] } },
{ "type": "Feature", "properties": { "id": 76059, "nach": 0.3883394370749681 }, "geometry": { "type": "LineString", "coordinates": [ [ -0.8990692, 50.8450584 ], [ -0.8990872, 50.8446499 ], [ -0.899122, 50.844187900000016 ] ] } },
{ "type": "Feature", "properties": { "id": 79691, "nach": 0.53199694800494601 }, "geometry": { "type": "LineString", "coordinates": [ [ -0.8996548, 50.8444204 ], [ -0.8996512, 50.8453324 ], [ -0.8996704, 50.8457723 ], [ -0.8997551, 50.8460581 ], [ -0.899781, 50.8461018 ] ] } },
{ "type": "Feature", "properties": { "id": 79690, "nach": 0.4026377405440883 }, "geometry": { "type": "LineString", "coordinates": [ [ -0.8996548, 50.8444204 ], [ -0.8998287, 50.8444247 ] ] } },
{ "type": "Feature", "properties": { "id": 79697, "nach": 0.55397207107631707 }, "geometry": { "type": "LineString", "coordinates": [ [ -0.9009012, 50.8443891 ], [ -0.9019776, 50.8445072 ] ] } },
{ "type": "Feature", "properties": { "id": 79698, "nach": 0.47723159058623899 }, "geometry": { "type": "LineString", "coordinates": [ [ -0.9009012, 50.8443891 ], [ -0.900877, 50.8445139 ] ] } },
{ "type": "Feature", "properties": { "id": 68964, "nach": 0.54653189097033528 }, "geometry": { "type": "LineString", "coordinates": [ [ -0.8853284, 50.8444211 ], [ -0.8853075, 50.844560700000017 ], [ -0.8852583, 50.8448031 ], [ -0.8851936, 50.8450662 ] ] } },
{ "type": "Feature", "properties": { "id": 68973, "nach": 0.39561452798713242 }, "geometry": { "type": "LineString", "coordinates": [ [ -0.8856628, 50.8452123 ], [ -0.8853984, 50.8451935 ] ] } },
{ "type": "Feature", "properties": { "id": 68963, "nach": 0.54499063823314675 }, "geometry": { "type": "LineString", "coordinates": [ [ -0.8853284, 50.8444211 ], [ -0.8853751, 50.8440182 ] ] } },
{ "type": "Feature", "properties": { "id": 68966, "nach": 0.39850309263631034 }, "geometry": { "type": "LineString", "coordinates": [ [ -0.8857512, 50.8444745 ], [ -0.8855346, 50.8444527 ], [ -0.8854505, 50.8444425 ], [ -0.8853284, 50.8444211 ] ] } },
{ "type": "Feature", "properties": { "id": 60681, "nach": 0.4758413194906515 }, "geometry": { "type": "LineString", "coordinates": [ [ -0.8842859, 50.8444097 ], [ -0.8843395, 50.8443216 ], [ -0.8844283, 50.844299199999988 ], [ -0.8845209, 50.8441417 ], [ -0.8847283, 50.8440097 ], [ -0.8853751, 50.8440182 ] ] } },
{ "type": "Feature", "properties": { "id": 79710, "nach": 0.55549458989250433 }, "geometry": { "type": "LineString", "coordinates": [ [ -0.8977887, 50.8440536 ], [ -0.8983913, 50.8441075 ] ] } },
{ "type": "Feature", "properties": { "id": 33426, "nach": 0.52107469519826 }, "geometry": { "type": "LineString", "coordinates": [ [ -0.8982702, 50.8435432 ], [ -0.8984451, 50.84374840000001 ], [ -0.8984396, 50.8438741 ], [ -0.8983913, 50.8441075 ] ] } },
{ "type": "Feature", "properties": { "id": 79711, "nach": 0.55187364764767266 }, "geometry": { "type": "LineString", "coordinates": [ [ -0.8977887, 50.8440536 ], [ -0.8977289, 50.8440488 ] ] } },
{ "type": "Feature", "properties": { "id": 79712, "nach": 0.38394437174822854 }, "geometry": { "type": "LineString", "coordinates": [ [ -0.8977887, 50.8440536 ], [ -0.8977721, 50.8441686 ], [ -0.8976692, 50.84422330000001 ], [ -0.8974199, 50.8442883 ], [ -0.8973238, 50.844456 ] ] } },
{ "type": "Feature", "properties": { "id": 33425, "nach": 0.38652367161865359 }, "geometry": { "type": "LineString", "coordinates": [ [ -0.8982702, 50.8435432 ], [ -0.8979831, 50.843575599999987 ], [ -0.8979311, 50.843581 ] ] } },
{ "type": "Feature", "properties": { "id": 52460, "nach": 0.50782054657279818 }, "geometry": { "type": "LineString", "coordinates": [ [ -0.8980198, 50.8429259 ], [ -0.8980394, 50.8430044 ], [ -0.898105, 50.8432668 ], [ -0.8981505, 50.843377 ], [ -0.8982702, 50.8435432 ] ] } },
{ "type": "Feature", "properties": { "id": 63505, "nach": 0.54717965986530548 }, "geometry": { "type": "LineString", "coordinates": [ [ -0.9051982, 50.8448999 ], [ -0.9052079, 50.844755 ] ] } },
{ "type": "Feature", "properties": { "id": 80026, "nach": 0.554125207751474 }, "geometry": { "type": "LineString", "coordinates": [ [ -0.906824, 50.8447657 ], [ -0.9065886, 50.844757500000014 ], [ -0.9052079, 50.844755 ] ] } },
{ "type": "Feature", "properties": { "id": 65233, "nach": 0.58839637440902426 }, "geometry": { "type": "LineString", "coordinates": [ [ -0.9043344, 50.844735400000012 ], [ -0.9044261, 50.8447402 ], [ -0.9052079, 50.844755 ] ] } },
{ "type": "Feature", "properties": { "id": 63506, "nach": 0.54021599490306149 }, "geometry": { "type": "LineString", "coordinates": [ [ -0.9051982, 50.8448999 ], [ -0.9051931, 50.8449605 ], [ -0.9051996, 50.8452002 ], [ -0.9052319, 50.8453134 ], [ -0.9053318, 50.8454905 ], [ -0.9053631, 50.8455872 ] ] } },
{ "type": "Feature", "properties": { "id": 79661, "nach": 0.40746026933530877 }, "geometry": { "type": "LineString", "coordinates": [ [ -0.9045302, 50.844839299999983 ], [ -0.904723, 50.8448421 ], [ -0.9047453, 50.844861799999983 ], [ -0.9048661, 50.8448657 ], [ -0.9049107, 50.8448671 ], [ -0.9049282, 50.8448977 ], [ -0.9051982, 50.8448999 ] ] } },
{ "type": "Feature", "properties": { "id": 80027, "nach": 0.51287136985995796 }, "geometry": { "type": "LineString", "coordinates": [ [ -0.906824, 50.8447657 ], [ -0.9068286, 50.8446431 ], [ -0.9067751, 50.8445714 ] ] } },
{ "type": "Feature", "properties": { "id": 80025, "nach": 0.56857972450543304 }, "geometry": { "type": "LineString", "coordinates": [ [ -0.906824, 50.8447657 ], [ -0.9069191, 50.8447716 ], [ -0.9071918, 50.8448047 ] ] } },
{ "type": "Feature", "properties": { "id": 65234, "nach": 0.58522812644471289 }, "geometry": { "type": "LineString", "coordinates": [ [ -0.9043344, 50.844735400000012 ], [ -0.9039447, 50.844715 ], [ -0.9034158, 50.8446734 ] ] } },
{ "type": "Feature", "properties": { "id": 65236, "nach": 0.51544843266212503 }, "geometry": { "type": "LineString", "coordinates": [ [ -0.9043075, 50.8449048 ], [ -0.9043344, 50.844735400000012 ] ] } },
{ "type": "Feature", "properties": { "id": 13466, "nach": 0.38743336133571443 }, "geometry": { "type": "LineString", "coordinates": [ [ -0.9053631, 50.8455872 ], [ -0.9044557, 50.8455417 ], [ -0.9043026, 50.8455423 ], [ -0.9041221, 50.845587 ], [ -0.9040059, 50.845655 ], [ -0.9039174, 50.84578350000001 ], [ -0.9038713, 50.84596530000001 ] ] } },
{ "type": "Feature", "properties": { "id": 13468, "nach": 0.54367785698089444 }, "geometry": { "type": "LineString", "coordinates": [ [ -0.9063025, 50.8456757 ], [ -0.9061572, 50.845636399999989 ], [ -0.9058636, 50.8456168 ], [ -0.9053631, 50.8455872 ] ] } },
{ "type": "Feature", "properties": { "id": 69477, "nach": 0.54294744880152856 }, "geometry": { "type": "LineString", "coordinates": [ [ -0.9064885, 50.845797500000018 ], [ -0.9064421, 50.8457503 ], [ -0.9063025, 50.8456757 ] ] } },
{ "type": "Feature", "properties": { "id": 70213, "nach": 0.50114974082014774 }, "geometry": { "type": "LineString", "coordinates": [ [ -0.9078743, 50.8456764 ], [ -0.9074483, 50.8456578 ], [ -0.906433, 50.8456188 ], [ -0.9063594, 50.845632 ], [ -0.9063025, 50.8456757 ] ] } },
{ "type": "Feature", "properties": { "id": 69476, "nach": 0.5401467190897723 }, "geometry": { "type": "LineString", "coordinates": [ [ -0.9064885, 50.845797500000018 ], [ -0.9065254, 50.84583520000001 ], [ -0.9065695, 50.845950400000014 ], [ -0.9065695, 50.846047 ], [ -0.9065726, 50.846169 ], [ -0.906589, 50.846252 ] ] } },
{ "type": "Feature", "properties": { "id": 69479, "nach": 0.41123705175455383 }, "geometry": { "type": "LineString", "coordinates": [ [ -0.9063884, 50.8461285 ], [ -0.9064031, 50.845906 ], [ -0.9064077, 50.8458605 ], [ -0.9064364, 50.8458317 ], [ -0.9064885, 50.845797500000018 ] ] } },
{ "type": "Feature", "properties": { "id": 70220, "nach": 0.41383673667955784 }, "geometry": { "type": "LineString", "coordinates": [ [ -0.9079234, 50.8450747 ], [ -0.9079688, 50.8451151 ], [ -0.9079895, 50.8451492 ], [ -0.9079826, 50.8452137 ], [ -0.9079252, 50.8454624 ], [ -0.9078816, 50.8456372 ], [ -0.9078743, 50.8456764 ] ] } },
{ "type": "Feature", "properties": { "id": 80841, "nach": 0.55958319151498792 }, "geometry": { "type": "LineString", "coordinates": [ [ -0.8847788, 50.8432609 ], [ -0.8850393, 50.8432821 ], [ -0.8854968, 50.8433318 ] ] } },
{ "type": "Feature", "properties": { "id": 80834, "nach": 0.56350777503766658 }, "geometry": { "type": "LineString", "coordinates": [ [ -0.8853985, 50.8438578 ], [ -0.885456, 50.8436176 ], [ -0.8854968, 50.8433318 ] ] } },
{ "type": "Feature", "properties": { "id": 80832, "nach": 0.56404244695641192 }, "geometry": { "type": "LineString", "coordinates": [ [ -0.8853985, 50.8438578 ], [ -0.8853751, 50.8440182 ] ] } },
{ "type": "Feature", "properties": { "id": 24187, "nach": 0.36518218002347008 }, "geometry": { "type": "LineString", "coordinates": [ [ -0.8907536, 50.8433483 ], [ -0.891781, 50.8434036 ] ] } },
{ "type": "Feature", "properties": { "id": 24189, "nach": 0.39058757309602032 }, "geometry": { "type": "LineString", "coordinates": [ [ -0.8907536, 50.8433483 ], [ -0.8907568, 50.8431947 ], [ -0.8906433, 50.8431311 ], [ -0.8907288, 50.8427605 ] ] } },
{ "type": "Feature", "properties": { "id": 18726, "nach": 0.33668012762930988 }, "geometry": { "type": "LineString", "coordinates": [ [ -0.9037525, 50.8428061 ], [ -0.904761, 50.842938 ], [ -0.9048769, 50.8429427 ], [ -0.9049091, 50.8429203 ], [ -0.9049703, 50.8427547 ], [ -0.9050561, 50.8427141 ], [ -0.9051565, 50.8427086 ], [ -0.9061134, 50.8427173 ], [ -0.9073534, 50.8427254 ] ] } },
{ "type": "Feature", "properties": { "id": 18719, "nach": 0.41838344946568384 }, "geometry": { "type": "LineString", "coordinates": [ [ -0.907238, 50.844810300000013 ], [ -0.9073173, 50.8443658 ], [ -0.9073243, 50.8440105 ], [ -0.9073278, 50.8438239 ], [ -0.907383, 50.8428258 ], [ -0.9073534, 50.8427254 ] ] } },
{ "type": "Feature", "properties": { "id": 18725, "nach": 0.39005200457027511 }, "geometry": { "type": "LineString", "coordinates": [ [ -0.9037525, 50.8428061 ], [ -0.9034158, 50.8446734 ] ] } },
{ "type": "Feature", "properties": { "id": 33406, "nach": 0.3166251830180169 }, "geometry": { "type": "LineString", "coordinates": [ [ -0.9025286, 50.8426486 ], [ -0.9037525, 50.8428061 ] ] } },
{ "type": "Feature", "properties": { "id": 80017, "nach": 0.57483512399350023 }, "geometry": { "type": "LineString", "coordinates": [ [ -0.9071918, 50.8448047 ], [ -0.907238, 50.844810300000013 ] ] } },
{ "type": "Feature", "properties": { "id": 80019, "nach": 0.41376997744212535 }, "geometry": { "type": "LineString", "coordinates": [ [ -0.9071918, 50.8448047 ], [ -0.9072076, 50.8446931 ], [ -0.9070909, 50.8446355 ], [ -0.907115, 50.8442442 ] ] } },
{ "type": "Feature", "properties": { "id": 59586, "nach": 0.58592630591496719 }, "geometry": { "type": "LineString", "coordinates": [ [ -0.9029938, 50.8446286 ], [ -0.9030501, 50.8446346 ], [ -0.9034158, 50.8446734 ] ] } },
{ "type": "Feature", "properties": { "id": 59587, "nach": 0.58628685000421588 }, "geometry": { "type": "LineString", "coordinates": [ [ -0.9029938, 50.8446286 ], [ -0.9028236, 50.8446104 ], [ -0.9025017, 50.8445727 ], [ -0.9022323, 50.8445412 ] ] } },
{ "type": "Feature", "properties": { "id": 60906, "nach": 0.47738700394825234 }, "geometry": { "type": "LineString", "coordinates": [ [ -0.9028241, 50.8450782 ], [ -0.9028613, 50.8450546 ], [ -0.90291, 50.845029500000017 ], [ -0.9029356, 50.8450172 ], [ -0.9029471, 50.845001 ], [ -0.9029675, 50.8447898 ], [ -0.9029938, 50.8446286 ] ] } },
{ "type": "Feature", "properties": { "id": 33407, "nach": 0.46981251372277444 }, "geometry": { "type": "LineString", "coordinates": [ [ -0.9025286, 50.8426486 ], [ -0.9022323, 50.8445412 ] ] } },
{ "type": "Feature", "properties": { "id": 36808, "nach": 0.46469992306474772 }, "geometry": { "type": "LineString", "coordinates": [ [ -0.901946, 50.8425738 ], [ -0.9025286, 50.8426486 ] ] } },
{ "type": "Feature", "properties": { "id": 65983, "nach": 0.58378511584752568 }, "geometry": { "type": "LineString", "coordinates": [ [ -0.8871096, 50.8514619 ], [ -0.8875279, 50.851278 ], [ -0.8880581, 50.85099910000001 ], [ -0.8880978, 50.850976 ] ] } },
{ "type": "Feature", "properties": { "id": 24311, "nach": 0.27195376089613793 }, "geometry": { "type": "LineString", "coordinates": [ [ -0.8928598, 50.838726199999989 ], [ -0.8926914, 50.8387571 ], [ -0.8924961, 50.8387573 ], [ -0.8920187, 50.8387393 ], [ -0.8913547, 50.8387193 ] ] } },
{ "type": "Feature", "properties": { "id": 24313, "nach": 0.26719940447501872 }, "geometry": { "type": "LineString", "coordinates": [ [ -0.8928492, 50.8401131 ], [ -0.8928501, 50.8400198 ], [ -0.8928396, 50.8398682 ], [ -0.8928396, 50.8395352 ], [ -0.8928449, 50.8392648 ], [ -0.8928605, 50.8391098 ], [ -0.8928449, 50.8389153 ], [ -0.8928598, 50.838726199999989 ] ] } },
{ "type": "Feature", "properties": { "id": 24171, "nach": 0.29936521113368109 }, "geometry": { "type": "LineString", "coordinates": [ [ -0.89136, 50.8400871 ], [ -0.8913353, 50.8399734 ], [ -0.891374, 50.838827600000016 ], [ -0.8913547, 50.8387193 ] ] } },
{ "type": "Feature", "properties": { "id": 24312, "nach": 0.30638444657772906 }, "geometry": { "type": "LineString", "coordinates": [ [ -0.8928492, 50.8401131 ], [ -0.8914769, 50.8401156 ], [ -0.89136, 50.8400871 ] ] } },
{ "type": "Feature", "properties": { "id": 24186, "nach": 0.33974366364316344 }, "geometry": { "type": "LineString", "coordinates": [ [ -0.8907288, 50.8427605 ], [ -0.8906936, 50.8427557 ], [ -0.8907609, 50.8424634 ], [ -0.8907542, 50.8424243 ], [ -0.8908969, 50.8421609 ], [ -0.8909962, 50.8418876 ], [ -0.8910565, 50.8415692 ], [ -0.891111, 50.8413197 ], [ -0.8912245, 50.8407265 ], [ -0.89136, 50.8400871 ] ] } },
{ "type": "Feature", "properties": { "id": 24178, "nach": 0.34411703458454901 }, "geometry": { "type": "LineString", "coordinates": [ [ -0.8952986, 50.8427323 ], [ -0.895472, 50.8427605 ] ] } },
{ "type": "Feature", "properties": { "id": 24180, "nach": 0.33688526909959254 }, "geometry": { "type": "LineString", "coordinates": [ [ -0.8952986, 50.8427323 ], [ -0.8950107, 50.8426704 ], [ -0.8945978, 50.8425873 ], [ -0.89418, 50.8425148 ] ] } },
{ "type": "Feature", "properties": { "id": 24179, "nach": 0.41451198399335742 }, "geometry": { "type": "LineString", "coordinates": [ [ -0.8952986, 50.8427323 ], [ -0.8951604, 50.84295310000001 ], [ -0.8951094, 50.8429985 ], [ -0.8950314, 50.8429915 ], [ -0.8938455, 50.8428745 ], [ -0.8937732, 50.84288440000001 ], [ -0.8937208, 50.8428991 ], [ -0.8935866, 50.84309720000001 ] ] } },
{ "type": "Feature", "properties": { "id": 73163, "nach": 0.33803721898381178 }, "geometry": { "type": "LineString", "coordinates": [ [ -0.8964595, 50.84206180000001 ], [ -0.8964603, 50.8419133 ], [ -0.8963943, 50.8417451 ], [ -0.8962924, 50.8416265 ], [ -0.8961183, 50.8415443 ], [ -0.8952928, 50.8415159 ], [ -0.8950801, 50.8414944 ], [ -0.8950059, 50.8414368 ], [ -0.8949787, 50.8413469 ], [ -0.8951981, 50.8404206 ], [ -0.8951766, 50.8402715 ], [ -0.8950157, 50.8401699 ], [ -0.8948768, 50.840135600000011 ], [ -0.8946406, 50.8401199 ], [ -0.8928492, 50.8401131 ] ] } },
{ "type": "Feature", "properties": { "id": 24203, "nach": 0.40163899618864435 }, "geometry": { "type": "LineString", "coordinates": [ [ -0.8935555, 50.84316590000001 ], [ -0.8934148, 50.843116899999984 ], [ -0.8918888, 50.842722899999984 ], [ -0.8915747, 50.8426229 ], [ -0.8913994, 50.8426162 ], [ -0.8910413, 50.84271480000001 ], [ -0.890856, 50.8427543 ], [ -0.8907288, 50.8427605 ] ] } },
{ "type": "Feature", "properties": { "id": 24202, "nach": 0.4575982638952355 }, "geometry": { "type": "LineString", "coordinates": [ [ -0.8935555, 50.84316590000001 ], [ -0.8935866, 50.84309720000001 ] ] } },
{ "type": "Feature", "properties": { "id": 67894, "nach": 0.36172578192575505 }, "geometry": { "type": "LineString", "coordinates": [ [ -0.8941964, 50.8432079 ], [ -0.8937529, 50.8431214 ], [ -0.8936637, 50.843104 ], [ -0.8935866, 50.84309720000001 ] ] } },
{ "type": "Feature", "properties": { "id": 24201, "nach": 0.48696868423674872 }, "geometry": { "type": "LineString", "coordinates": [ [ -0.8935555, 50.84316590000001 ], [ -0.8934174, 50.8435428 ] ] } },
{ "type": "Feature", "properties": { "id": 79970, "nach": 0.51419394399552598 }, "geometry": { "type": "LineString", "coordinates": [ [ -0.8936217, 50.8435591 ], [ -0.8934174, 50.8435428 ] ] } },
{ "type": "Feature", "properties": { "id": 79740, "nach": 0.50202551498630987 }, "geometry": { "type": "LineString", "coordinates": [ [ -0.893346, 50.8435382 ], [ -0.8934174, 50.8435428 ] ] } },
{ "type": "Feature", "properties": { "id": 79969, "nach": 0.51509402552003525 }, "geometry": { "type": "LineString", "coordinates": [ [ -0.8936217, 50.8435591 ], [ -0.8943203, 50.8436147 ] ] } },
{ "type": "Feature", "properties": { "id": 79971, "nach": 0.37789333341369663 }, "geometry": { "type": "LineString", "coordinates": [ [ -0.8936217, 50.8435591 ], [ -0.8936544, 50.8434567 ] ] } },
{ "type": "Feature", "properties": { "id": 79742, "nach": 0.49877879179660989 }, "geometry": { "type": "LineString", "coordinates": [ [ -0.893346, 50.8435382 ], [ -0.8927665, 50.8435008 ], [ -0.8925122, 50.8434878 ] ] } },
{ "type": "Feature", "properties": { "id": 79741, "nach": 0.37434036448761404 }, "geometry": { "type": "LineString", "coordinates": [ [ -0.893346, 50.8435382 ], [ -0.8933068, 50.8437923 ] ] } },
{ "type": "Feature", "properties": { "id": 24199, "nach": 0.3757671874665458 }, "geometry": { "type": "LineString", "coordinates": [ [ -0.8965518, 50.8437459 ], [ -0.8966357, 50.8435939 ], [ -0.896759, 50.8434515 ], [ -0.8967968, 50.8434482 ], [ -0.8969178, 50.8434936 ], [ -0.8971498, 50.8435492 ] ] } },
{ "type": "Feature", "properties": { "id": 24200, "nach": 0.38026057802003754 }, "geometry": { "type": "LineString", "coordinates": [ [ -0.8965518, 50.8437459 ], [ -0.8969363, 50.8438286 ], [ -0.8972816, 50.8439854 ] ] } },
{ "type": "Feature", "properties": { "id": 61531, "nach": 0.53968340550543936 }, "geometry": { "type": "LineString", "coordinates": [ [ -0.8970294, 50.8439352 ], [ -0.8972816, 50.8439854 ] ] } },
{ "type": "Feature", "properties": { "id": 76283, "nach": 0.54774104736735618 }, "geometry": { "type": "LineString", "coordinates": [ [ -0.8977289, 50.8440488 ], [ -0.8976822, 50.8440441 ], [ -0.8973804, 50.8440029 ], [ -0.8972816, 50.8439854 ] ] } },
{ "type": "Feature", "properties": { "id": 69342, "nach": 0.44868235448328864 }, "geometry": { "type": "LineString", "coordinates": [ [ -0.8968543, 50.8443967 ], [ -0.8968788, 50.8442955 ], [ -0.8971776, 50.8441213 ], [ -0.8972816, 50.8439854 ] ] } },
{ "type": "Feature", "properties": { "id": 61534, "nach": 0.38131900734426744 }, "geometry": { "type": "LineString", "coordinates": [ [ -0.8966621, 50.844181399999989 ], [ -0.8969263, 50.844023600000014 ], [ -0.8970294, 50.8439352 ] ] } },
{ "type": "Feature", "properties": { "id": 79743, "nach": 0.38492566344436813 }, "geometry": { "type": "LineString", "coordinates": [ [ -0.8980877, 50.8437264 ], [ -0.8979238, 50.8437136 ], [ -0.8978705, 50.8437409 ], [ -0.8977289, 50.8440488 ] ] } },
{ "type": "Feature", "properties": { "id": 69341, "nach": 0.37176257547709168 }, "geometry": { "type": "LineString", "coordinates": [ [ -0.8968543, 50.8443967 ], [ -0.8968264, 50.8445124 ], [ -0.8966477, 50.8446135 ], [ -0.8962333, 50.8447818 ], [ -0.8958859, 50.8448932 ] ] } },
{ "type": "Feature", "properties": { "id": 69344, "nach": 0.37621818985728273 }, "geometry": { "type": "LineString", "coordinates": [ [ -0.8963362, 50.8444901 ], [ -0.8963977, 50.844479400000012 ], [ -0.8965377, 50.8444612 ], [ -0.896662, 50.8444447 ], [ -0.896734, 50.8444331 ], [ -0.8968543, 50.8443967 ] ] } },
{ "type": "Feature", "properties": { "id": 88191, "nach": 0.54132899050183514 }, "geometry": { "type": "LineString", "coordinates": [ [ -0.9073799, 50.8465443 ], [ -0.9067722, 50.8463311 ], [ -0.906589, 50.846252 ] ] } },
{ "type": "Feature", "properties": { "id": 24220, "nach": 0.4826696776848699 }, "geometry": { "type": "LineString", "coordinates": [ [ -0.9063125, 50.8462742 ], [ -0.9065142, 50.8462716 ], [ -0.906589, 50.846252 ] ] } },
{ "type": "Feature", "properties": { "id": 24223, "nach": 0.40677901523000742 }, "geometry": { "type": "LineString", "coordinates": [ [ -0.905903, 50.8466546 ], [ -0.9062779, 50.84631370000001 ], [ -0.9063125, 50.8462742 ] ] } },
{ "type": "Feature", "properties": { "id": 69475, "nach": 0.40914752810407745 }, "geometry": { "type": "LineString", "coordinates": [ [ -0.9059626, 50.8461797 ], [ -0.9061112, 50.8461837 ], [ -0.9061593, 50.8462563 ], [ -0.9061764, 50.846264900000016 ], [ -0.9062706, 50.8462735 ], [ -0.9063125, 50.8462742 ] ] } },
{ "type": "Feature", "properties": { "id": 73162, "nach": 0.40680221122733751 }, "geometry": { "type": "LineString", "coordinates": [ [ -0.8964595, 50.84206180000001 ], [ -0.8965221, 50.8420581 ] ] } },
{ "type": "Feature", "properties": { "id": 73164, "nach": 0.39762536651614189 }, "geometry": { "type": "LineString", "coordinates": [ [ -0.8964595, 50.84206180000001 ], [ -0.8963798, 50.8422995 ], [ -0.8963634, 50.842431 ], [ -0.8963259, 50.842615300000013 ], [ -0.8963183, 50.8426878 ] ] } },
{ "type": "Feature", "properties": { "id": 64917, "nach": 0.47236056597380588 }, "geometry": { "type": "LineString", "coordinates": [ [ -0.8995074, 50.8498555 ], [ -0.8992763, 50.849838 ], [ -0.8986309, 50.8497542 ], [ -0.8984597, 50.8497713 ] ] } },
{ "type": "Feature", "properties": { "id": 64921, "nach": 0.42490770771073494 }, "geometry": { "type": "LineString", "coordinates": [ [ -0.899141, 50.850064600000017 ], [ -0.8993658, 50.8499979 ], [ -0.8994936, 50.8499044 ], [ -0.8995074, 50.8498555 ] ] } },
{ "type": "Feature", "properties": { "id": 52455, "nach": 0.58725131423208432 }, "geometry": { "type": "LineString", "coordinates": [ [ -0.9020387, 50.8445139 ], [ -0.9022323, 50.8445412 ] ] } },
{ "type": "Feature", "properties": { "id": 79681, "nach": 0.5665771541079756 }, "geometry": { "type": "LineString", "coordinates": [ [ -0.9019776, 50.8445072 ], [ -0.9020387, 50.8445139 ] ] } },
{ "type": "Feature", "properties": { "id": 62450, "nach": 0.52612665595220076 }, "geometry": { "type": "LineString", "coordinates": [ [ -0.9016251, 50.8456021 ], [ -0.9016363, 50.8454961 ], [ -0.9016985, 50.8452813 ], [ -0.9017555, 50.8452318 ], [ -0.901779, 50.8451679 ], [ -0.9018059, 50.8450833 ], [ -0.9018077, 50.8449384 ], [ -0.9018214, 50.8448511 ], [ -0.9018403, 50.8448157 ], [ -0.9018611, 50.84478940000001 ], [ -0.9018952, 50.8447631 ], [ -0.9019814, 50.8446947 ], [ -0.9020104, 50.84464710000001 ], [ -0.9020387, 50.8445139 ] ] } },
{ "type": "Feature", "properties": { "id": 34911, "nach": 0.3355275520424138 }, "geometry": { "type": "LineString", "coordinates": [ [ -0.9012918, 50.8422343 ], [ -0.9016272, 50.8411368 ], [ -0.9016565, 50.8410224 ], [ -0.9016381, 50.8409525 ], [ -0.9015557, 50.8408879 ], [ -0.9014135, 50.840845 ], [ -0.9011501, 50.8408168 ], [ -0.9010619, 50.8409238 ] ] } },
{ "type": "Feature", "properties": { "id": 36731, "nach": 0.43859624332006603 }, "geometry": { "type": "LineString", "coordinates": [ [ -0.9005485, 50.8417393 ], [ -0.9006832, 50.8417688 ], [ -0.9007631, 50.841784 ], [ -0.9008163, 50.8417939 ], [ -0.9009567, 50.8418091 ], [ -0.9009252, 50.8419159 ], [ -0.9009473, 50.8419791 ], [ -0.9010736, 50.8420832 ], [ -0.9012918, 50.8422343 ] ] } },
{ "type": "Feature", "properties": { "id": 36809, "nach": 0.44349955228320992 }, "geometry": { "type": "LineString", "coordinates": [ [ -0.901946, 50.8425738 ], [ -0.9018606, 50.8425563 ], [ -0.9016844, 50.8425193 ], [ -0.9015622, 50.8424486 ], [ -0.9012918, 50.8422343 ] ] } },
{ "type": "Feature", "properties": { "id": 36810, "nach": 0.37733912431551897 }, "geometry": { "type": "LineString", "coordinates": [ [ -0.901946, 50.8425738 ], [ -0.9019892, 50.8424513 ], [ -0.9020343, 50.8423929 ], [ -0.9021404, 50.8423661 ] ] } },
{ "type": "Feature", "properties": { "id": 79973, "nach": 0.51269800661366494 }, "geometry": { "type": "LineString", "coordinates": [ [ -0.8967675, 50.8429401 ], [ -0.8968778, 50.8428428 ] ] } },
{ "type": "Feature", "properties": { "id": 33428, "nach": 0.50424536954315036 }, "geometry": { "type": "LineString", "coordinates": [ [ -0.8970459, 50.842748 ], [ -0.8968778, 50.8428428 ] ] } },
{ "type": "Feature", "properties": { "id": 73159, "nach": 0.4498985209321727 }, "geometry": { "type": "LineString", "coordinates": [ [ -0.8963183, 50.8426878 ], [ -0.8967074, 50.8427636 ], [ -0.89681, 50.842792799999984 ], [ -0.8968778, 50.8428428 ] ] } },
{ "type": "Feature", "properties": { "id": 79974, "nach": 0.0 }, "geometry": { "type": "LineString", "coordinates": [ [ -0.8967675, 50.8429401 ], [ -0.8967818, 50.8429435 ], [ -0.8968415, 50.84295620000001 ], [ -0.896926, 50.8429528 ], [ -0.8970125, 50.8428948 ], [ -0.8970527, 50.8428279 ], [ -0.8970601, 50.842794100000013 ], [ -0.8970459, 50.842748 ] ] } },
{ "type": "Feature", "properties": { "id": 36751, "nach": 0.50522970418098179 }, "geometry": { "type": "LineString", "coordinates": [ [ -0.8973429, 50.8426032 ], [ -0.8970459, 50.842748 ] ] } },
{ "type": "Feature", "properties": { "id": 73160, "nach": 0.37183267810852683 }, "geometry": { "type": "LineString", "coordinates": [ [ -0.8963183, 50.8426878 ], [ -0.8961996, 50.8426814 ], [ -0.8960702, 50.8427629 ] ] } },
{ "type": "Feature", "properties": { "id": 79708, "nach": 0.37920007079621199 }, "geometry": { "type": "LineString", "coordinates": [ [ -0.9012596, 50.848824399999984 ], [ -0.9012627, 50.8489461 ], [ -0.9013086, 50.8489674 ], [ -0.901792, 50.8489684 ], [ -0.901896, 50.849006 ], [ -0.9019129, 50.8490775 ], [ -0.9018761, 50.8491654 ], [ -0.9017595, 50.8492889 ] ] } },
{ "type": "Feature", "properties": { "id": 36730, "nach": 0.44444539517144716 }, "geometry": { "type": "LineString", "coordinates": [ [ -0.9005485, 50.8417393 ], [ -0.9004165, 50.8417151 ], [ -0.9001698, 50.8416718 ], [ -0.8998553, 50.8417079 ], [ -0.8997159, 50.8417279 ] ] } },
{ "type": "Feature", "properties": { "id": 52769, "nach": 0.29180079896986971 }, "geometry": { "type": "LineString", "coordinates": [ [ -0.9006122, 50.8391606 ], [ -0.9003476, 50.839113 ], [ -0.9002186, 50.8391287 ], [ -0.9001123, 50.839183900000016 ], [ -0.9000336, 50.8392837 ], [ -0.8999377, 50.8394651 ], [ -0.8997816, 50.8401218 ], [ -0.899719, 50.8404617 ], [ -0.899683, 50.8408133 ], [ -0.8995936, 50.8409374 ], [ -0.8993631, 50.8411476 ], [ -0.8992334, 50.8413352 ], [ -0.899229, 50.8413922 ], [ -0.899265, 50.8414531 ], [ -0.8993634, 50.8415115 ], [ -0.8995727, 50.8415864 ], [ -0.8996826, 50.8416519 ], [ -0.8997159, 50.8417279 ] ] } },
{ "type": "Feature", "properties": { "id": 36744, "nach": 0.36134738300894292 }, "geometry": { "type": "LineString", "coordinates": [ [ -0.9008484, 50.841379700000012 ], [ -0.9007915, 50.841437 ], [ -0.9007063, 50.841476100000015 ], [ -0.9004869, 50.8414435 ], [ -0.9004702, 50.8415034 ], [ -0.9005912, 50.8415856 ], [ -0.9005485, 50.8417393 ] ] } },
{ "type": "Feature", "properties": { "id": 36752, "nach": 0.52173823235934669 }, "geometry": { "type": "LineString", "coordinates": [ [ -0.8973429, 50.8426032 ], [ -0.897409, 50.8425734 ] ] } },
{ "type": "Feature", "properties": { "id": 62432, "nach": 0.50614621778844149 }, "geometry": { "type": "LineString", "coordinates": [ [ -0.8979393, 50.8428168 ], [ -0.8977076, 50.8427456 ], [ -0.897409, 50.8425734 ] ] } },
{ "type": "Feature", "properties": { "id": 36753, "nach": 0.45624990987194675 }, "geometry": { "type": "LineString", "coordinates": [ [ -0.8973429, 50.8426032 ], [ -0.8968126, 50.8424131 ], [ -0.8968241, 50.8423124 ], [ -0.8965174, 50.842274 ] ] } },
{ "type": "Feature", "properties": { "id": 62431, "nach": 0.50677384607860643 }, "geometry": { "type": "LineString", "coordinates": [ [ -0.8979393, 50.8428168 ], [ -0.8979695, 50.8428263 ], [ -0.89799, 50.8428595 ], [ -0.8980117, 50.8429049 ], [ -0.8980198, 50.8429259 ] ] } },
{ "type": "Feature", "properties": { "id": 52459, "nach": 0.38013875458767588 }, "geometry": { "type": "LineString", "coordinates": [ [ -0.8980198, 50.8429259 ], [ -0.8984295, 50.8429172 ] ] } },
{ "type": "Feature", "properties": { "id": 36745, "nach": 0.37183782997396508 }, "geometry": { "type": "LineString", "coordinates": [ [ -0.8964603, 50.8424451 ], [ -0.8965174, 50.842274 ] ] } },
{ "type": "Feature", "properties": { "id": 36771, "nach": 0.41213653199939665 }, "geometry": { "type": "LineString", "coordinates": [ [ -0.8965221, 50.8420581 ], [ -0.8965174, 50.842274 ] ] } },
{ "type": "Feature", "properties": { "id": 36769, "nach": 0.36629912426510658 }, "geometry": { "type": "LineString", "coordinates": [ [ -0.8965221, 50.8420581 ], [ -0.897045, 50.842065700000013 ] ] } },
{ "type": "Feature", "properties": { "id": 80872, "nach": 0.37755682739050966 }, "geometry": { "type": "LineString", "coordinates": [ [ -0.8863114, 50.8466115 ], [ -0.8863348, 50.8465147 ], [ -0.8863075, 50.8464817 ], [ -0.8859956, 50.8464465 ], [ -0.8859566, 50.8464601 ], [ -0.8859234, 50.8466536 ], [ -0.8859126, 50.846708800000016 ] ] } },
{ "type": "Feature", "properties": { "id": 76506, "nach": 0.36919045084852065 }, "geometry": { "type": "LineString", "coordinates": [ [ -0.8866671, 50.8469252 ], [ -0.8867763, 50.846619 ], [ -0.8868236, 50.8466011 ], [ -0.887159, 50.8466319 ] ] } },
{ "type": "Feature", "properties": { "id": 76507, "nach": 0.37475371254542367 }, "geometry": { "type": "LineString", "coordinates": [ [ -0.8868648, 50.8470618 ], [ -0.8866671, 50.8469252 ] ] } },
{ "type": "Feature", "properties": { "id": 80875, "nach": 0.44609630425268998 }, "geometry": { "type": "LineString", "coordinates": [ [ -0.886364, 50.8469479 ], [ -0.8866221, 50.8469717 ], [ -0.8866671, 50.8469252 ] ] } },
{ "type": "Feature", "properties": { "id": 80876, "nach": 0.376959687438786 }, "geometry": { "type": "LineString", "coordinates": [ [ -0.886364, 50.8469479 ], [ -0.8863748, 50.8469131 ], [ -0.8863907, 50.8468631 ], [ -0.886429, 50.84677030000001 ], [ -0.886377, 50.8467223 ] ] } },
{ "type": "Feature", "properties": { "id": 79686, "nach": 0.44480747614930483 }, "geometry": { "type": "LineString", "coordinates": [ [ -0.9013782, 50.8462125 ], [ -0.9013675, 50.8459101 ], [ -0.9014853, 50.8457057 ], [ -0.9014906, 50.8455739 ], [ -0.90152, 50.8454743 ], [ -0.9015843, 50.8454363 ], [ -0.9015789, 50.845345 ], [ -0.9016097, 50.8452969 ], [ -0.9016913, 50.8451913 ], [ -0.9017127, 50.8451018 ], [ -0.9017287, 50.844845 ], [ -0.9019443, 50.8446703 ], [ -0.9019776, 50.8445072 ] ] } },
{ "type": "Feature", "properties": { "id": 62449, "nach": 0.51642477781073837 }, "geometry": { "type": "LineString", "coordinates": [ [ -0.9016251, 50.8456021 ], [ -0.9015858, 50.8458281 ], [ -0.9015231, 50.8458801 ], [ -0.9015142, 50.8459458 ], [ -0.9014961, 50.8461454 ], [ -0.9014926, 50.8462145 ] ] } },
{ "type": "Feature", "properties": { "id": 62451, "nach": 0.39415009651192595 }, "geometry": { "type": "LineString", "coordinates": [ [ -0.9021709, 50.845618500000015 ], [ -0.9016251, 50.8456021 ] ] } },
{ "type": "Feature", "properties": { "id": 59197, "nach": 0.56661631600059148 }, "geometry": { "type": "LineString", "coordinates": [ [ -0.8881988, 50.8509172 ], [ -0.8880572, 50.8508122 ], [ -0.8880247, 50.8507658 ] ] } },
{ "type": "Feature", "properties": { "id": 59235, "nach": 0.55932095817117955 }, "geometry": { "type": "LineString", "coordinates": [ [ -0.8880932, 50.850302300000017 ], [ -0.888115, 50.850493 ], [ -0.8881274, 50.850606 ], [ -0.8880651, 50.850729 ], [ -0.8880247, 50.8507658 ] ] } },
{ "type": "Feature", "properties": { "id": 81900, "nach": 0.38577504063915075 }, "geometry": { "type": "LineString", "coordinates": [ [ -0.8873887, 50.8508921 ], [ -0.8878796, 50.8507524 ], [ -0.8879815, 50.8507651 ], [ -0.8880247, 50.8507658 ] ] } },
{ "type": "Feature", "properties": { "id": 61369, "nach": 0.51855829134019449 }, "geometry": { "type": "LineString", "coordinates": [ [ -0.8890868, 50.850394 ], [ -0.8881988, 50.8509172 ] ] } },
{ "type": "Feature", "properties": { "id": 62416, "nach": 0.57358153427701375 }, "geometry": { "type": "LineString", "coordinates": [ [ -0.8880978, 50.850976 ], [ -0.8881988, 50.8509172 ] ] } },
{ "type": "Feature", "properties": { "id": 59234, "nach": 0.55286758656305857 }, "geometry": { "type": "LineString", "coordinates": [ [ -0.8880932, 50.850302300000017 ], [ -0.8880671, 50.850092 ] ] } },
{ "type": "Feature", "properties": { "id": 81899, "nach": 0.37519949306023404 }, "geometry": { "type": "LineString", "coordinates": [ [ -0.8875912, 50.8502418 ], [ -0.8876744, 50.8501597 ], [ -0.8879533, 50.8501377 ], [ -0.8879936, 50.850159700000013 ], [ -0.8880191, 50.850233400000015 ], [ -0.8880405, 50.8502732 ], [ -0.8880932, 50.850302300000017 ] ] } },
{ "type": "Feature", "properties": { "id": 61372, "nach": 0.37993446406443909 }, "geometry": { "type": "LineString", "coordinates": [ [ -0.8888243, 50.8501117 ], [ -0.8890868, 50.850394 ] ] } },
{ "type": "Feature", "properties": { "id": 82166, "nach": 0.50495702755268101 }, "geometry": { "type": "LineString", "coordinates": [ [ -0.8906846, 50.8499307 ], [ -0.8904917, 50.8498988 ], [ -0.8901205, 50.8498973 ], [ -0.8896513, 50.8500919 ], [ -0.8892989, 50.8502664 ], [ -0.8890868, 50.850394 ] ] } },
{ "type": "Feature", "properties": { "id": 62437, "nach": 0.5237472420526007 }, "geometry": { "type": "LineString", "coordinates": [ [ -0.8881803, 50.8510449 ], [ -0.8881307, 50.8510035 ], [ -0.8880978, 50.850976 ] ] } },
{ "type": "Feature", "properties": { "id": 59226, "nach": 0.52067687199218515 }, "geometry": { "type": "LineString", "coordinates": [ [ -0.8879043, 50.8494832 ], [ -0.887875, 50.8493737 ] ] } },
{ "type": "Feature", "properties": { "id": 81915, "nach": 0.50449725366349907 }, "geometry": { "type": "LineString", "coordinates": [ [ -0.8878331, 50.849217 ], [ -0.887875, 50.8493737 ] ] } },
{ "type": "Feature", "properties": { "id": 59202, "nach": 0.41653607301633994 }, "geometry": { "type": "LineString", "coordinates": [ [ -0.8870672, 50.8494489 ], [ -0.887875, 50.8493737 ] ] } },
{ "type": "Feature", "properties": { "id": 59228, "nach": 0.52857007853062776 }, "geometry": { "type": "LineString", "coordinates": [ [ -0.8879043, 50.8494832 ], [ -0.8879632, 50.8497036 ], [ -0.8879778, 50.849758199999989 ] ] } },
{ "type": "Feature", "properties": { "id": 59227, "nach": 0.3536027657490432 }, "geometry": { "type": "LineString", "coordinates": [ [ -0.8879043, 50.8494832 ], [ -0.8885256, 50.8492943 ] ] } },
{ "type": "Feature", "properties": { "id": 81916, "nach": 0.49279134245140221 }, "geometry": { "type": "LineString", "coordinates": [ [ -0.8878331, 50.849217 ], [ -0.8878209, 50.8491712 ] ] } },
{ "type": "Feature", "properties": { "id": 81917, "nach": 0.34737663185220369 }, "geometry": { "type": "LineString", "coordinates": [ [ -0.8878331, 50.849217 ], [ -0.8886024, 50.849036100000014 ] ] } },
{ "type": "Feature", "properties": { "id": 59211, "nach": 0.53900747078271771 }, "geometry": { "type": "LineString", "coordinates": [ [ -0.8880443, 50.8500067 ], [ -0.8879778, 50.849758199999989 ] ] } },
{ "type": "Feature", "properties": { "id": 59209, "nach": 0.35785228818266102 }, "geometry": { "type": "LineString", "coordinates": [ [ -0.8871851, 50.8498126 ], [ -0.8879778, 50.849758199999989 ] ] } },
{ "type": "Feature", "properties": { "id": 59229, "nach": 0.35655786613375029 }, "geometry": { "type": "LineString", "coordinates": [ [ -0.8888223, 50.8495487 ], [ -0.8879778, 50.849758199999989 ] ] } },
{ "type": "Feature", "properties": { "id": 59232, "nach": 0.54694018628186902 }, "geometry": { "type": "LineString", "coordinates": [ [ -0.8880671, 50.850092 ], [ -0.8880443, 50.8500067 ] ] } },
{ "type": "Feature", "properties": { "id": 59214, "nach": 0.35941920034036473 }, "geometry": { "type": "LineString", "coordinates": [ [ -0.8869672, 50.8499634 ], [ -0.8876979, 50.8499044 ], [ -0.8879342, 50.8499739 ], [ -0.8880443, 50.8500067 ] ] } },
{ "type": "Feature", "properties": { "id": 69958, "nach": 0.33635673100707347 }, "geometry": { "type": "LineString", "coordinates": [ [ -0.8897527, 50.8488359 ], [ -0.8899291, 50.849239 ], [ -0.8899921, 50.84949360000001 ], [ -0.889948, 50.84954 ], [ -0.8897695, 50.849583699999982 ], [ -0.8895049, 50.8496407 ], [ -0.8892991, 50.8496581 ], [ -0.8880443, 50.8500067 ] ] } },
{ "type": "Feature", "properties": { "id": 59233, "nach": 0.36034746190388262 }, "geometry": { "type": "LineString", "coordinates": [ [ -0.8880671, 50.850092 ], [ -0.8891755, 50.8497688 ] ] } },
{ "type": "Feature", "properties": { "id": 59224, "nach": 0.34485288483403187 }, "geometry": { "type": "LineString", "coordinates": [ [ -0.8878209, 50.8491712 ], [ -0.887998, 50.8491155 ], [ -0.8883115, 50.8490293 ], [ -0.8887087, 50.8489432 ] ] } },
{ "type": "Feature", "properties": { "id": 73844, "nach": 0.47838863359189798 }, "geometry": { "type": "LineString", "coordinates": [ [ -0.8878031, 50.8491158 ], [ -0.8878209, 50.8491712 ] ] } },
{ "type": "Feature", "properties": { "id": 73845, "nach": 0.40685269043481476 }, "geometry": { "type": "LineString", "coordinates": [ [ -0.8878031, 50.8491158 ], [ -0.8877825, 50.8490519 ], [ -0.8876965, 50.8487675 ] ] } },
{ "type": "Feature", "properties": { "id": 81904, "nach": 0.44105392260808207 }, "geometry": { "type": "LineString", "coordinates": [ [ -0.8870276, 50.8487583 ], [ -0.8871456, 50.8487529 ], [ -0.8872474, 50.848765100000016 ], [ -0.8873272, 50.848791200000015 ], [ -0.8874153, 50.8488346 ], [ -0.8875089, 50.8488989 ], [ -0.8876272, 50.8490067 ], [ -0.8876878, 50.849057 ], [ -0.8877483, 50.849097 ], [ -0.8878031, 50.8491158 ] ] } },
{ "type": "Feature", "properties": { "id": 79736, "nach": 0.45588238242342555 }, "geometry": { "type": "LineString", "coordinates": [ [ -0.8979305, 50.8498144 ], [ -0.8984597, 50.8497713 ] ] } },
{ "type": "Feature", "properties": { "id": 59250, "nach": 0.40636494320595595 }, "geometry": { "type": "LineString", "coordinates": [ [ -0.8987946, 50.850977400000012 ], [ -0.8988136, 50.8508094 ], [ -0.8987989, 50.8505678 ], [ -0.8987737, 50.85044640000001 ], [ -0.8987179, 50.8502721 ], [ -0.8986799, 50.850192 ], [ -0.8985575, 50.8500708 ], [ -0.8985251, 50.8499952 ], [ -0.8984597, 50.8497713 ] ] } },
{ "type": "Feature", "properties": { "id": 79737, "nach": 0.44314562591378703 }, "geometry": { "type": "LineString", "coordinates": [ [ -0.8979305, 50.8498144 ], [ -0.8978544, 50.8498264 ] ] } },
{ "type": "Feature", "properties": { "id": 79738, "nach": 0.33872513327524095 }, "geometry": { "type": "LineString", "coordinates": [ [ -0.8979305, 50.8498144 ], [ -0.8979078, 50.8496802 ], [ -0.8976937, 50.8496725 ], [ -0.8975774, 50.8495971 ] ] } },
{ "type": "Feature", "properties": { "id": 60904, "nach": 0.40465592823255703 }, "geometry": { "type": "LineString", "coordinates": [ [ -0.9028241, 50.8450782 ], [ -0.9027876, 50.8451014 ] ] } },
{ "type": "Feature", "properties": { "id": 60907, "nach": 0.40273020276556482 }, "geometry": { "type": "LineString", "coordinates": [ [ -0.9027076, 50.8450251 ], [ -0.9028241, 50.8450782 ] ] } },
{ "type": "Feature", "properties": { "id": 59591, "nach": 0.0 }, "geometry": { "type": "LineString", "coordinates": [ [ -0.9027876, 50.8451014 ], [ -0.9027665, 50.8453138 ], [ -0.9027747, 50.8455091 ], [ -0.9027785, 50.845616 ], [ -0.9027835, 50.845703 ], [ -0.902784, 50.8457878 ], [ -0.9027758, 50.8458571 ], [ -0.9027636, 50.8459053 ], [ -0.9027402, 50.8459558 ], [ -0.9027061, 50.8459905 ], [ -0.9026626, 50.84602 ], [ -0.9026106, 50.8460458 ], [ -0.9025598, 50.8460554 ], [ -0.9025172, 50.8460561 ], [ -0.9024758, 50.8460487 ], [ -0.9024443, 50.846033200000015 ], [ -0.9024337, 50.8460148 ], [ -0.9024218, 50.8459753 ], [ -0.902426, 50.8458613 ], [ -0.9024367, 50.8456209 ], [ -0.9024564, 50.845432 ], [ -0.9024882, 50.8453685 ], [ -0.902528, 50.8453045 ], [ -0.9026357, 50.8451979 ], [ -0.9027876, 50.8451014 ] ] } },
{ "type": "Feature", "properties": { "id": 60909, "nach": 0.0 }, "geometry": { "type": "LineString", "coordinates": [ [ -0.9027076, 50.8450251 ], [ -0.9024242, 50.8450209 ], [ -0.9023757, 50.8450132 ], [ -0.9023696, 50.8449838 ], [ -0.9023918, 50.8448816 ], [ -0.9024445, 50.8448254 ], [ -0.9025214, 50.844808800000017 ], [ -0.9026246, 50.8448203 ], [ -0.9026821, 50.8448426 ], [ -0.9026934, 50.844902499999989 ], [ -0.9027015, 50.844951 ], [ -0.9027076, 50.8450251 ] ] } },
{ "type": "Feature", "properties": { "id": 82165, "nach": 0.49811905739307449 }, "geometry": { "type": "LineString", "coordinates": [ [ -0.8906846, 50.8499307 ], [ -0.8910251, 50.8499869 ] ] } },
{ "type": "Feature", "properties": { "id": 82171, "nach": 0.41346771849051367 }, "geometry": { "type": "LineString", "coordinates": [ [ -0.8907933, 50.848456699999986 ], [ -0.8906901, 50.8493823 ], [ -0.8906846, 50.8499307 ] ] } },
{ "type": "Feature", "properties": { "id": 79723, "nach": 0.48140199006500733 }, "geometry": { "type": "LineString", "coordinates": [ [ -0.892625, 50.8439464 ], [ -0.8925829, 50.8439132 ], [ -0.8925507, 50.8438793 ], [ -0.8925293, 50.8438353 ], [ -0.8925078, 50.8437574 ], [ -0.8925078, 50.84360490000001 ], [ -0.8925122, 50.8434878 ] ] } },
{ "type": "Feature", "properties": { "id": 61907, "nach": 0.48501160757418788 }, "geometry": { "type": "LineString", "coordinates": [ [ -0.8927224, 50.843997900000012 ], [ -0.892878, 50.8440351 ], [ -0.8936256, 50.844178399999983 ] ] } },
{ "type": "Feature", "properties": { "id": 79734, "nach": 0.42750253618987483 }, "geometry": { "type": "LineString", "coordinates": [ [ -0.8935041, 50.84468660000001 ], [ -0.8935089, 50.844648700000015 ], [ -0.8935143, 50.844586 ], [ -0.8935143, 50.8445233 ], [ -0.8935143, 50.8444183 ], [ -0.8935277, 50.8443828 ], [ -0.8936256, 50.844178399999983 ] ] } },
{ "type": "Feature", "properties": { "id": 79722, "nach": 0.47735255182961955 }, "geometry": { "type": "LineString", "coordinates": [ [ -0.892625, 50.8439464 ], [ -0.8926473, 50.843964 ], [ -0.8927224, 50.843997900000012 ] ] } },
{ "type": "Feature", "properties": { "id": 79720, "nach": 0.4531588342443556 }, "geometry": { "type": "LineString", "coordinates": [ [ -0.8926815, 50.8445894 ], [ -0.8927013, 50.8442607 ], [ -0.8927224, 50.843997900000012 ] ] } },
{ "type": "Feature", "properties": { "id": 79732, "nach": 0.44033671091899895 }, "geometry": { "type": "LineString", "coordinates": [ [ -0.8935041, 50.84468660000001 ], [ -0.8934919, 50.844749299999989 ] ] } },
{ "type": "Feature", "properties": { "id": 79733, "nach": 0.36033003023064913 }, "geometry": { "type": "LineString", "coordinates": [ [ -0.8935041, 50.84468660000001 ], [ -0.8931578, 50.844614 ] ] } },
{ "type": "Feature", "properties": { "id": 79714, "nach": 0.3369971236302563 }, "geometry": { "type": "LineString", "coordinates": [ [ -0.8936431, 50.84477960000001 ], [ -0.8935255, 50.845046599999989 ] ] } },
{ "type": "Feature", "properties": { "id": 61912, "nach": 0.38522001857347993 }, "geometry": { "type": "LineString", "coordinates": [ [ -0.8934919, 50.844749299999989 ], [ -0.8933855, 50.8450213 ], [ -0.8935255, 50.845046599999989 ] ] } },
{ "type": "Feature", "properties": { "id": 79725, "nach": 0.38553028731806738 }, "geometry": { "type": "LineString", "coordinates": [ [ -0.8935081, 50.8451965 ], [ -0.8934867, 50.84513470000001 ], [ -0.8935255, 50.845046599999989 ] ] } },
{ "type": "Feature", "properties": { "id": 79713, "nach": 0.41467031900797269 }, "geometry": { "type": "LineString", "coordinates": [ [ -0.8936431, 50.84477960000001 ], [ -0.8934919, 50.844749299999989 ] ] } },
{ "type": "Feature", "properties": { "id": 79715, "nach": 0.43479949218755448 }, "geometry": { "type": "LineString", "coordinates": [ [ -0.8936431, 50.84477960000001 ], [ -0.8939805, 50.844847100000017 ], [ -0.8944382, 50.8449543 ] ] } },
{ "type": "Feature", "properties": { "id": 79726, "nach": 0.31190797480727495 }, "geometry": { "type": "LineString", "coordinates": [ [ -0.8935081, 50.8451965 ], [ -0.892913, 50.8450728 ], [ -0.8925045, 50.8449878 ], [ -0.8923883, 50.844925 ], [ -0.8923745, 50.844857400000016 ], [ -0.8924189, 50.8448004 ], [ -0.892474, 50.8447608 ], [ -0.8924923, 50.8446913 ], [ -0.8924678, 50.8446694 ] ] } },
{ "type": "Feature", "properties": { "id": 79730, "nach": 0.40465482719404394 }, "geometry": { "type": "LineString", "coordinates": [ [ -0.8937041, 50.8453075 ], [ -0.8936733, 50.8452457 ], [ -0.8936274, 50.8452177 ], [ -0.8935081, 50.8451965 ] ] } },
{ "type": "Feature", "properties": { "id": 76465, "nach": 0.35908318542842121 }, "geometry": { "type": "LineString", "coordinates": [ [ -0.8927131, 50.8449268 ], [ -0.8926388, 50.8448537 ] ] } },
{ "type": "Feature", "properties": { "id": 79719, "nach": 0.43162789843825894 }, "geometry": { "type": "LineString", "coordinates": [ [ -0.8926815, 50.8445894 ], [ -0.8926388, 50.8448537 ] ] } },
{ "type": "Feature", "properties": { "id": 76466, "nach": 0.35845831701797537 }, "geometry": { "type": "LineString", "coordinates": [ [ -0.8925267, 50.8449307 ], [ -0.8926388, 50.8448537 ] ] } },
{ "type": "Feature", "properties": { "id": 79721, "nach": 0.35031439194376907 }, "geometry": { "type": "LineString", "coordinates": [ [ -0.8926815, 50.8445894 ], [ -0.8925321, 50.844585 ], [ -0.8925107, 50.8446459 ], [ -0.8924678, 50.8446694 ] ] } },
{ "type": "Feature", "properties": { "id": 79724, "nach": 0.30496994144675388 }, "geometry": { "type": "LineString", "coordinates": [ [ -0.892625, 50.8439464 ], [ -0.8925436, 50.8439914 ], [ -0.8924678, 50.844048 ], [ -0.8924663, 50.8441185 ], [ -0.8924954, 50.8442006 ], [ -0.8925214, 50.844274 ], [ -0.8925061, 50.8443677 ], [ -0.8924204, 50.8444662 ], [ -0.892376, 50.8445493 ], [ -0.8923975, 50.8446063 ], [ -0.8924678, 50.8446694 ] ] } },
{ "type": "Feature", "properties": { "id": 89476, "nach": 0.51798558840906839 }, "geometry": { "type": "LineString", "coordinates": [ [ -0.9016008, 50.8462166 ], [ -0.9014926, 50.8462145 ] ] } },
{ "type": "Feature", "properties": { "id": 79684, "nach": 0.46252090289628289 }, "geometry": { "type": "LineString", "coordinates": [ [ -0.9013782, 50.8462125 ], [ -0.9014926, 50.8462145 ] ] } },
{ "type": "Feature", "properties": { "id": 89471, "nach": 0.44847333215728896 }, "geometry": { "type": "LineString", "coordinates": [ [ -0.9014721, 50.8466451 ], [ -0.901485, 50.84663050000001 ], [ -0.9015011, 50.846241 ], [ -0.9014926, 50.8462145 ] ] } },
{ "type": "Feature", "properties": { "id": 89477, "nach": 0.0 }, "geometry": { "type": "LineString", "coordinates": [ [ -0.9016008, 50.8462166 ], [ -0.9021501, 50.8462275 ], [ -0.9021868, 50.8462399 ], [ -0.9021931, 50.8462715 ], [ -0.9021931, 50.846346 ], [ -0.9021877, 50.8464612 ], [ -0.9021877, 50.8465018 ], [ -0.9022145, 50.8465357 ], [ -0.9022735, 50.8465526 ] ] } },
{ "type": "Feature", "properties": { "id": 89478, "nach": 0.50862210044131395 }, "geometry": { "type": "LineString", "coordinates": [ [ -0.9016008, 50.8462166 ], [ -0.901604, 50.84624 ], [ -0.9016148, 50.8462662 ], [ -0.9016564, 50.8463081 ], [ -0.9017272, 50.8463518 ], [ -0.9018042, 50.8463752 ], [ -0.901889, 50.846387799999988 ], [ -0.901929, 50.8464005 ], [ -0.901946, 50.8464199 ], [ -0.9019799, 50.8465084 ] ] } },
{ "type": "Feature", "properties": { "id": 79685, "nach": 0.5000414415056017 }, "geometry": { "type": "LineString", "coordinates": [ [ -0.9013782, 50.8462125 ], [ -0.9005953, 50.8461993 ] ] } },
{ "type": "Feature", "properties": { "id": 89470, "nach": 0.46799907224534831 }, "geometry": { "type": "LineString", "coordinates": [ [ -0.9014721, 50.8466451 ], [ -0.9014581, 50.846661 ], [ -0.9014206, 50.8466746 ], [ -0.9007092, 50.8466648 ], [ -0.9006765, 50.8466544 ] ] } },
{ "type": "Feature", "properties": { "id": 89474, "nach": 0.37759951070843994 }, "geometry": { "type": "LineString", "coordinates": [ [ -0.9019799, 50.8465084 ], [ -0.9019105, 50.8465162 ], [ -0.901815, 50.8465279 ], [ -0.9017642, 50.8465396 ], [ -0.9017149, 50.846561 ], [ -0.9016533, 50.8465989 ], [ -0.9015732, 50.84663290000001 ], [ -0.9015377, 50.8466417 ], [ -0.9014721, 50.8466451 ] ] } },
{ "type": "Feature", "properties": { "id": 61925, "nach": 0.4483796280691793 }, "geometry": { "type": "LineString", "coordinates": [ [ -0.9031339, 50.8465886 ], [ -0.9022735, 50.8465526 ] ] } },
{ "type": "Feature", "properties": { "id": 89469, "nach": 0.1818973688329672 }, "geometry": { "type": "LineString", "coordinates": [ [ -0.9021219, 50.847264200000012 ], [ -0.9021601, 50.8472516 ], [ -0.9021771, 50.8472418 ], [ -0.9021909, 50.8472273 ], [ -0.9022011, 50.8472059 ], [ -0.9022117, 50.8471587 ], [ -0.9022467, 50.8467 ], [ -0.9022306, 50.8466254 ], [ -0.9022735, 50.8465526 ] ] } },
{ "type": "Feature", "properties": { "id": 89460, "nach": 0.46732900009810618 }, "geometry": { "type": "LineString", "coordinates": [ [ -0.9020678, 50.8466161 ], [ -0.9021028, 50.8465954 ], [ -0.9021635, 50.846577700000012 ], [ -0.9022735, 50.8465526 ] ] } },
{ "type": "Feature", "properties": { "id": 61927, "nach": 0.38675563268810548 }, "geometry": { "type": "LineString", "coordinates": [ [ -0.9031339, 50.8465886 ], [ -0.9038713, 50.8466912 ], [ -0.9039211, 50.846735 ], [ -0.9039444, 50.8468007 ], [ -0.9038953, 50.847360500000015 ] ] } },
{ "type": "Feature", "properties": { "id": 79678, "nach": 0.37329370768125408 }, "geometry": { "type": "LineString", "coordinates": [ [ -0.9030188, 50.8472909 ], [ -0.903057, 50.8468761 ], [ -0.9031339, 50.8465886 ] ] } },
{ "type": "Feature", "properties": { "id": 89466, "nach": 0.4157161069337858 }, "geometry": { "type": "LineString", "coordinates": [ [ -0.9021219, 50.847264200000012 ], [ -0.9020934, 50.847200600000015 ] ] } },
{ "type": "Feature", "properties": { "id": 89468, "nach": 0.41762906673113709 }, "geometry": { "type": "LineString", "coordinates": [ [ -0.9021219, 50.847264200000012 ], [ -0.9020954, 50.847270100000017 ], [ -0.9020677, 50.847273 ], [ -0.9020014, 50.8472798 ], [ -0.9019398, 50.8472827 ], [ -0.9018509, 50.847278 ], [ -0.9015367, 50.8472583 ] ] } },
{ "type": "Feature", "properties": { "id": 89479, "nach": 0.40359297388511867 }, "geometry": { "type": "LineString", "coordinates": [ [ -0.903107, 50.8475626 ], [ -0.9029551, 50.8475522 ], [ -0.9027239, 50.8475434 ], [ -0.9026328, 50.8475301 ], [ -0.9023853, 50.8474697 ], [ -0.9022826, 50.8474402 ], [ -0.9022195, 50.847397400000013 ], [ -0.9021728, 50.8473473 ], [ -0.9021331, 50.8472898 ], [ -0.9021219, 50.847264200000012 ] ] } },
{ "type": "Feature", "properties": { "id": 89461, "nach": 0.43571005512131927 }, "geometry": { "type": "LineString", "coordinates": [ [ -0.9020678, 50.8466161 ], [ -0.9020608, 50.846647 ], [ -0.9020748, 50.8466912 ], [ -0.9020981, 50.8467487 ], [ -0.9020981, 50.846821 ], [ -0.9020701, 50.8469183 ], [ -0.9020397, 50.8469935 ], [ -0.9020397, 50.8470171 ], [ -0.9020678, 50.8470642 ], [ -0.9020841, 50.8471203 ], [ -0.9020934, 50.847200600000015 ] ] } },
{ "type": "Feature", "properties": { "id": 89473, "nach": 0.50888314109323163 }, "geometry": { "type": "LineString", "coordinates": [ [ -0.9019799, 50.8465084 ], [ -0.902003, 50.8465629 ], [ -0.902023, 50.8465892 ], [ -0.9020678, 50.8466161 ] ] } },
{ "type": "Feature", "properties": { "id": 79679, "nach": 0.33643535531618135 }, "geometry": { "type": "LineString", "coordinates": [ [ -0.9035138, 50.8473511 ], [ -0.9038953, 50.847360500000015 ] ] } },
{ "type": "Feature", "properties": { "id": 79680, "nach": 0.33554127100324904 }, "geometry": { "type": "LineString", "coordinates": [ [ -0.9043743, 50.8474058 ], [ -0.9039499, 50.847393800000013 ], [ -0.9038953, 50.847360500000015 ] ] } },
{ "type": "Feature", "properties": { "id": 89480, "nach": 0.33115598079328329 }, "geometry": { "type": "LineString", "coordinates": [ [ -0.903107, 50.8475626 ], [ -0.9031932, 50.8475684 ], [ -0.9033567, 50.8475802 ], [ -0.9035575, 50.84761120000001 ], [ -0.903742, 50.8476392 ], [ -0.903833, 50.84763920000001 ], [ -0.903854, 50.8476304 ], [ -0.9038639, 50.847589 ], [ -0.9038953, 50.847360500000015 ] ] } },
{ "type": "Feature", "properties": { "id": 89481, "nach": 0.31843569110620118 }, "geometry": { "type": "LineString", "coordinates": [ [ -0.903107, 50.8475626 ], [ -0.9031195, 50.8474263 ], [ -0.9030074, 50.8474153 ], [ -0.9030188, 50.8472909 ] ] } },
{ "type": "Feature", "properties": { "id": 79676, "nach": 0.34632641252309876 }, "geometry": { "type": "LineString", "coordinates": [ [ -0.9030188, 50.8472909 ], [ -0.902614, 50.8472796 ] ] } },
{ "type": "Feature", "properties": { "id": 76082, "nach": 0.45708986157922638 }, "geometry": { "type": "LineString", "coordinates": [ [ -0.9006202, 50.847022700000011 ], [ -0.9006063, 50.8467089 ], [ -0.9006273, 50.8466786 ], [ -0.9006765, 50.8466544 ] ] } },
{ "type": "Feature", "properties": { "id": 62447, "nach": 0.37807288092510843 }, "geometry": { "type": "LineString", "coordinates": [ [ -0.9005829, 50.8465389 ], [ -0.9006159, 50.8465679 ], [ -0.9006159, 50.846617 ], [ -0.9006576, 50.8466484 ], [ -0.9006765, 50.8466544 ] ] } },
{ "type": "Feature", "properties": { "id": 76081, "nach": 0.45507360031163058 }, "geometry": { "type": "LineString", "coordinates": [ [ -0.9006202, 50.847022700000011 ], [ -0.9006032, 50.8470938 ], [ -0.9007079, 50.8471553 ] ] } },
{ "type": "Feature", "properties": { "id": 76086, "nach": 0.49461846404840487 }, "geometry": { "type": "LineString", "coordinates": [ [ -0.8998857, 50.847015 ], [ -0.9000684, 50.8470149 ], [ -0.9006202, 50.847022700000011 ] ] } },
{ "type": "Feature", "properties": { "id": 76089, "nach": 0.43065736551110007 }, "geometry": { "type": "LineString", "coordinates": [ [ -0.8998743, 50.8465346 ], [ -0.9000043, 50.8465289 ], [ -0.9003665, 50.8465306 ], [ -0.9005355, 50.8465323 ], [ -0.9005829, 50.8465389 ] ] } },
{ "type": "Feature", "properties": { "id": 76095, "nach": 0.39395237214357254 }, "geometry": { "type": "LineString", "coordinates": [ [ -0.9005953, 50.8461993 ], [ -0.9005929, 50.8462666 ], [ -0.9005829, 50.8465389 ] ] } },
{ "type": "Feature", "properties": { "id": 62436, "nach": 0.42789159680943145 }, "geometry": { "type": "LineString", "coordinates": [ [ -0.8881803, 50.8510449 ], [ -0.888208, 50.8510681 ], [ -0.8885236, 50.8513093 ] ] } },
{ "type": "Feature", "properties": { "id": 62438, "nach": 0.48968815955210776 }, "geometry": { "type": "LineString", "coordinates": [ [ -0.8881803, 50.8510449 ], [ -0.8883484, 50.8510453 ], [ -0.8884342, 50.851114699999989 ], [ -0.8886155, 50.8512615 ] ] } },
{ "type": "Feature", "properties": { "id": 73851, "nach": 0.36308241644147132 }, "geometry": { "type": "LineString", "coordinates": [ [ -0.8897424, 50.8504705 ], [ -0.8891395, 50.8507837 ], [ -0.8889665, 50.8508748 ], [ -0.8889319, 50.8509166 ], [ -0.8889319, 50.8509512 ], [ -0.8889537, 50.850992100000013 ], [ -0.8890171, 50.8510621 ], [ -0.8888347, 50.8511535 ] ] } },
{ "type": "Feature", "properties": { "id": 76088, "nach": 0.487419320102008 }, "geometry": { "type": "LineString", "coordinates": [ [ -0.8998743, 50.8465346 ], [ -0.899896, 50.8467091 ], [ -0.8998857, 50.847015 ] ] } },
{ "type": "Feature", "properties": { "id": 76091, "nach": 0.4951619540126907 }, "geometry": { "type": "LineString", "coordinates": [ [ -0.8998172, 50.8461862 ], [ -0.8998743, 50.8465346 ] ] } },
{ "type": "Feature", "properties": { "id": 76094, "nach": 0.48631043905094207 }, "geometry": { "type": "LineString", "coordinates": [ [ -0.9005953, 50.8461993 ], [ -0.8998172, 50.8461862 ] ] } },
{ "type": "Feature", "properties": { "id": 89464, "nach": 0.42633371303060813 }, "geometry": { "type": "LineString", "coordinates": [ [ -0.9015367, 50.8472583 ], [ -0.9015435, 50.8472238 ], [ -0.9007079, 50.8471553 ] ] } },
{ "type": "Feature", "properties": { "id": 89459, "nach": 0.28288647282779944 }, "geometry": { "type": "LineString", "coordinates": [ [ -0.9020934, 50.847200600000015 ], [ -0.9016547, 50.8471839 ], [ -0.9016547, 50.8471627 ], [ -0.9009547, 50.847128399999988 ], [ -0.9008373, 50.8471174 ], [ -0.9008058, 50.8471365 ], [ -0.900781, 50.847136 ], [ -0.9007079, 50.8471553 ] ] } },
{ "type": "Feature", "properties": { "id": 89463, "nach": 0.36699754865917467 }, "geometry": { "type": "LineString", "coordinates": [ [ -0.9015367, 50.8472583 ], [ -0.9014983, 50.84745310000001 ] ] } },
{ "type": "Feature", "properties": { "id": 65241, "nach": 0.48054706355666943 }, "geometry": { "type": "LineString", "coordinates": [ [ -0.9041221, 50.844891 ], [ -0.9043075, 50.8449048 ] ] } },
{ "type": "Feature", "properties": { "id": 65239, "nach": 0.40951368198307481 }, "geometry": { "type": "LineString", "coordinates": [ [ -0.9042853, 50.8450269 ], [ -0.9043075, 50.8449048 ] ] } },
{ "type": "Feature", "properties": { "id": 65240, "nach": 0.40560699686347701 }, "geometry": { "type": "LineString", "coordinates": [ [ -0.9041221, 50.844891 ], [ -0.9037909, 50.844863 ] ] } },
{ "type": "Feature", "properties": { "id": 65243, "nach": 0.40772183190852335 }, "geometry": { "type": "LineString", "coordinates": [ [ -0.9040977, 50.8450153 ], [ -0.9041221, 50.844891 ] ] } },
{ "type": "Feature", "properties": { "id": 82191, "nach": 0.44940760089952481 }, "geometry": { "type": "LineString", "coordinates": [ [ -0.89311, 50.8500401 ], [ -0.8932556, 50.8500273 ] ] } },
{ "type": "Feature", "properties": { "id": 66500, "nach": 0.3503449360845044 }, "geometry": { "type": "LineString", "coordinates": [ [ -0.8933154, 50.8504334 ], [ -0.8932556, 50.8500273 ] ] } },
{ "type": "Feature", "properties": { "id": 74161, "nach": 0.42647884367533967 }, "geometry": { "type": "LineString", "coordinates": [ [ -0.8978544, 50.8498264 ], [ -0.8972462, 50.849912400000015 ], [ -0.8967436, 50.8499758 ], [ -0.8962424, 50.8499666 ], [ -0.8955206, 50.8499214 ], [ -0.8951783, 50.8499387 ], [ -0.8938573, 50.8499459 ], [ -0.8932556, 50.8500273 ] ] } },
{ "type": "Feature", "properties": { "id": 82186, "nach": 0.33901884360952711 }, "geometry": { "type": "LineString", "coordinates": [ [ -0.8923186, 50.8495086 ], [ -0.8931729, 50.8496271 ], [ -0.8932333, 50.8496652 ], [ -0.8932534, 50.8499396 ], [ -0.8932556, 50.8500273 ] ] } },
{ "type": "Feature", "properties": { "id": 82192, "nach": 0.46120842663747813 }, "geometry": { "type": "LineString", "coordinates": [ [ -0.89311, 50.8500401 ], [ -0.8927294, 50.8500734 ], [ -0.8918376, 50.8500811 ], [ -0.8914595, 50.8500658 ], [ -0.891371, 50.850049699999985 ] ] } },
{ "type": "Feature", "properties": { "id": 82194, "nach": 0.35224488037153873 }, "geometry": { "type": "LineString", "coordinates": [ [ -0.8931407, 50.850274 ], [ -0.8931204, 50.8501192 ], [ -0.89311, 50.8500401 ] ] } },
{ "type": "Feature", "properties": { "id": 66502, "nach": 0.0 }, "geometry": { "type": "LineString", "coordinates": [ [ -0.8933154, 50.8504334 ], [ -0.8932851, 50.8504034 ], [ -0.8932304, 50.8503729 ], [ -0.893182, 50.8503609 ], [ -0.8931188, 50.8503582 ], [ -0.8930599, 50.8503649 ], [ -0.8930368, 50.8503888 ], [ -0.8930241, 50.8504313 ], [ -0.8930199, 50.8504725 ], [ -0.8930368, 50.8505057 ], [ -0.8930725, 50.850523 ], [ -0.8931167, 50.8505349 ], [ -0.8931735, 50.8505442 ], [ -0.8932283, 50.8505495 ], [ -0.8932893, 50.8505363 ], [ -0.8933208, 50.850507 ], [ -0.8933293, 50.8504605 ], [ -0.8933154, 50.8504334 ] ] } },
{ "type": "Feature", "properties": { "id": 74163, "nach": 0.33661407357782247 }, "geometry": { "type": "LineString", "coordinates": [ [ -0.8983105, 50.8499876 ], [ -0.8979519, 50.8499887 ], [ -0.8978885, 50.8499652 ], [ -0.8978544, 50.8498264 ] ] } },
{ "type": "Feature", "properties": { "id": 79701, "nach": 0.51694883842451833 }, "geometry": { "type": "LineString", "coordinates": [ [ -0.9003304, 50.848740899999989 ], [ -0.9002959, 50.8486735 ] ] } },
{ "type": "Feature", "properties": { "id": 76085, "nach": 0.51546549789692442 }, "geometry": { "type": "LineString", "coordinates": [ [ -0.8998857, 50.847015 ], [ -0.8998838, 50.8470699 ], [ -0.8998526, 50.847196899999986 ], [ -0.8998159, 50.8473076 ], [ -0.8997876, 50.847497 ], [ -0.8997887, 50.8475341 ], [ -0.8998251, 50.8477535 ], [ -0.8998895, 50.847876299999989 ], [ -0.8999785, 50.84800340000001 ], [ -0.900097, 50.848193400000014 ], [ -0.900156, 50.8483764 ], [ -0.9002496, 50.848584900000013 ], [ -0.9002959, 50.8486735 ] ] } },
{ "type": "Feature", "properties": { "id": 66858, "nach": 0.36593343431626135 }, "geometry": { "type": "LineString", "coordinates": [ [ -0.8994597, 50.8491238 ], [ -0.8995121, 50.8491199 ], [ -0.8995567, 50.8491083 ], [ -0.8995622, 50.8490849 ], [ -0.8995653, 50.8488945 ], [ -0.8996226, 50.848859 ], [ -0.9000098, 50.848750099999975 ], [ -0.9001165, 50.8487206 ], [ -0.9002959, 50.8486735 ] ] } },
{ "type": "Feature", "properties": { "id": 79703, "nach": 0.37969753382423066 }, "geometry": { "type": "LineString", "coordinates": [ [ -0.9003304, 50.848740899999989 ], [ -0.900224, 50.848767 ], [ -0.8997681, 50.8488906 ] ] } },
{ "type": "Feature", "properties": { "id": 69042, "nach": 0.33623041456495473 }, "geometry": { "type": "LineString", "coordinates": [ [ -0.8887529, 50.8485561 ], [ -0.8876965, 50.8487675 ] ] } },
{ "type": "Feature", "properties": { "id": 81897, "nach": 0.32081426872819457 }, "geometry": { "type": "LineString", "coordinates": [ [ -0.8891295, 50.8485823 ], [ -0.8889672, 50.8484581 ], [ -0.8888674, 50.848174 ], [ -0.8887795, 50.8481454 ], [ -0.8877417, 50.848362 ], [ -0.8876449, 50.8484022 ], [ -0.8876048, 50.848464 ], [ -0.8876965, 50.8487675 ] ] } },
{ "type": "Feature", "properties": { "id": 82178, "nach": 0.48804227239365527 }, "geometry": { "type": "LineString", "coordinates": [ [ -0.891371, 50.850049699999985 ], [ -0.8910251, 50.8499869 ] ] } },
{ "type": "Feature", "properties": { "id": 82172, "nach": 0.35022102286324824 }, "geometry": { "type": "LineString", "coordinates": [ [ -0.8915019, 50.849337600000013 ], [ -0.8911259, 50.8493172 ], [ -0.8910497, 50.8498108 ], [ -0.8910371, 50.8498966 ], [ -0.8910251, 50.8499869 ] ] } },
{ "type": "Feature", "properties": { "id": 82180, "nach": 0.42822928832859175 }, "geometry": { "type": "LineString", "coordinates": [ [ -0.891371, 50.850049699999985 ], [ -0.8914027, 50.8499709 ], [ -0.8915317, 50.8496344 ] ] } },
{ "type": "Feature", "properties": { "id": 74595, "nach": 0.37856821270336122 }, "geometry": { "type": "LineString", "coordinates": [ [ -0.899781, 50.8461018 ], [ -0.9006441, 50.846097600000014 ], [ -0.900647, 50.8459167 ] ] } },
{ "type": "Feature", "properties": { "id": 76090, "nach": 0.53583985581852411 }, "geometry": { "type": "LineString", "coordinates": [ [ -0.8998172, 50.8461862 ], [ -0.899781, 50.8461018 ] ] } },
{ "type": "Feature", "properties": { "id": 79687, "nach": 0.35784879917139434 }, "geometry": { "type": "LineString", "coordinates": [ [ -0.8987018, 50.8473313 ], [ -0.8993111, 50.8473781 ], [ -0.8993664, 50.847344 ], [ -0.8993704, 50.8461593 ], [ -0.8993852, 50.846109900000016 ], [ -0.899781, 50.8461018 ] ] } },
{ "type": "Feature", "properties": { "id": 79728, "nach": 0.3903709696157398 }, "geometry": { "type": "LineString", "coordinates": [ [ -0.8937041, 50.8453075 ], [ -0.8939605, 50.8451795 ], [ -0.8942248, 50.845071 ], [ -0.8944382, 50.8449543 ] ] } },
{ "type": "Feature", "properties": { "id": 82170, "nach": 0.38698917181192399 }, "geometry": { "type": "LineString", "coordinates": [ [ -0.8907933, 50.848456699999986 ], [ -0.8908024, 50.8483811 ], [ -0.8909971, 50.8478771 ], [ -0.8910142, 50.8478002 ], [ -0.8911799, 50.8476588 ], [ -0.8916314, 50.8469808 ], [ -0.8917111, 50.8468891 ], [ -0.891723, 50.846875 ], [ -0.8917428, 50.8468439 ], [ -0.8917715, 50.8468001 ], [ -0.8918094, 50.8467372 ], [ -0.8919135, 50.8466505 ], [ -0.8919635, 50.8466252 ], [ -0.8921554, 50.8466177 ], [ -0.8925538, 50.8463124 ], [ -0.8928522, 50.8460745 ], [ -0.893387, 50.8456221 ], [ -0.8935703, 50.8454238 ], [ -0.8936514, 50.8453339 ], [ -0.8937041, 50.8453075 ] ] } },
{ "type": "Feature", "properties": { "id": 79694, "nach": 0.40266655225605869 }, "geometry": { "type": "LineString", "coordinates": [ [ -0.900877, 50.8445139 ], [ -0.900569, 50.844481 ] ] } },
{ "type": "Feature", "properties": { "id": 79695, "nach": 0.40397097610911248 }, "geometry": { "type": "LineString", "coordinates": [ [ -0.900877, 50.8445139 ], [ -0.9010232, 50.8445295 ] ] } },
{ "type": "Feature", "properties": { "id": 82169, "nach": 0.36111205268866603 }, "geometry": { "type": "LineString", "coordinates": [ [ -0.8907933, 50.848456699999986 ], [ -0.8910258, 50.8483325 ] ] } },
{ "type": "Feature", "properties": { "id": 80005, "nach": 0.40978903042895803 }, "geometry": { "type": "LineString", "coordinates": [ [ -0.9067751, 50.8445714 ], [ -0.9061253, 50.8445618 ] ] } },
{ "type": "Feature", "properties": { "id": 80024, "nach": 0.47242664253042366 }, "geometry": { "type": "LineString", "coordinates": [ [ -0.9066136, 50.84397640000001 ], [ -0.9066215, 50.8441672 ], [ -0.9067503, 50.8442739 ], [ -0.9067288, 50.8445093 ], [ -0.9067751, 50.8445714 ] ] } },
{ "type": "Feature", "properties": { "id": 80022, "nach": 0.39688841261026947 }, "geometry": { "type": "LineString", "coordinates": [ [ -0.9066136, 50.84397640000001 ], [ -0.906136, 50.8439602 ] ] } },
{ "type": "Feature", "properties": { "id": 80023, "nach": 0.3975774894891439 }, "geometry": { "type": "LineString", "coordinates": [ [ -0.9066136, 50.84397640000001 ], [ -0.9070104, 50.8439899 ] ] } },
{ "type": "Feature", "properties": { "id": 82175, "nach": 0.35377106766492161 }, "geometry": { "type": "LineString", "coordinates": [ [ -0.8915317, 50.8496344 ], [ -0.8915696, 50.849639900000014 ], [ -0.8916128, 50.8496463 ], [ -0.8917715, 50.8496695 ], [ -0.8918788, 50.84965420000001 ] ] } },
{ "type": "Feature", "properties": { "id": 82177, "nach": 0.35582905930252717 }, "geometry": { "type": "LineString", "coordinates": [ [ -0.8915783, 50.8495128 ], [ -0.8915317, 50.8496344 ] ] } }
]
}
