{
"type": "FeatureCollection",
"name": "SOUOX_40_toilets",
"crs": { "type": "name", "properties": { "name": "urn:ogc:def:crs:OGC:1.3:CRS84" } },
"features": [
{ "type": "Feature", "properties": { "name": "BP Services", "payment_info": "Free", "accessible": "Unknown", "radar": "Unknown", "women": "True", "men": "True", "baby_change": "Unknown", "Mon": "Unknown", "Tue": "Unknown", "Wed": "Unknown", "Thu": "Unknown", "Fri": "Unknown", "Sat": "Unknown", "Sun": "Unknown", "index_right": 83, "park_offical_id": "SOUOX_40" }, "geometry": { "type": "Point", "coordinates": [ -1.117799878, 51.62241174 ] } },
{ "type": "Feature", "properties": { "name": "McDonalds", "payment_info": "Free", "accessible": "Unknown", "radar": "Unknown", "women": "True", "men": "True", "baby_change": "Unknown", "Mon": "Unknown", "Tue": "Unknown", "Wed": "Unknown", "Thu": "Unknown", "Fri": "Unknown", "Sat": "Unknown", "Sun": "Unknown", "index_right": 83, "park_offical_id": "SOUOX_40" }, "geometry": { "type": "Point", "coordinates": [ -1.118025184, 51.622910415 ] } }
]
}
