{
"type": "FeatureCollection",
"name": "4b6bf26d726c_visibility",
"crs": { "type": "name", "properties": { "name": "urn:ogc:def:crs:OGC:1.3:CRS84" } },
"features": [
{ "type": "Feature", "properties": { "visible_points": 0, "total_points": 51, "visibility_pct": 0.0 }, "geometry": { "type": "Point", "coordinates": [ -0.714829281201436, 51.430567279559384 ] } },
{ "type": "Feature", "properties": { "visible_points": 3, "total_points": 56, "visibility_pct": 5.3571428571428568 }, "geometry": { "type": "Point", "coordinates": [ -0.714630014947964, 51.430565094993263 ] } },
{ "type": "Feature", "properties": { "visible_points": 0, "total_points": 58, "visibility_pct": 0.0 }, "geometry": { "type": "Point", "coordinates": [ -0.714430748719552, 51.43056291008871 ] } },
{ "type": "Feature", "properties": { "visible_points": 3, "total_points": 58, "visibility_pct": 5.1724137931034484 }, "geometry": { "type": "Point", "coordinates": [ -0.714231482516196, 51.430560724845748 ] } },
{ "type": "Feature", "properties": { "visible_points": 8, "total_points": 61, "visibility_pct": 13.114754098360656 }, "geometry": { "type": "Point", "coordinates": [ -0.714726624498179, 51.430674061293978 ] } },
{ "type": "Feature", "properties": { "visible_points": 5, "total_points": 65, "visibility_pct": 7.6923076923076925 }, "geometry": { "type": "Point", "coordinates": [ -0.71452735778881, 51.430671876543791 ] } },
{ "type": "Feature", "properties": { "visible_points": 7, "total_points": 66, "visibility_pct": 10.606060606060606 }, "geometry": { "type": "Point", "coordinates": [ -0.714328091104496, 51.430669691455208 ] } },
{ "type": "Feature", "properties": { "visible_points": 4, "total_points": 65, "visibility_pct": 6.1538461538461542 }, "geometry": { "type": "Point", "coordinates": [ -0.714128824445242, 51.4306675060282 ] } },
{ "type": "Feature", "properties": { "visible_points": 0, "total_points": 65, "visibility_pct": 0.0 }, "geometry": { "type": "Point", "coordinates": [ -0.714823234504281, 51.430783027522594 ] } },
{ "type": "Feature", "properties": { "visible_points": 6, "total_points": 71, "visibility_pct": 8.4507042253521121 }, "geometry": { "type": "Point", "coordinates": [ -0.71462396731395, 51.430780842926801 ] } },
{ "type": "Feature", "properties": { "visible_points": 7, "total_points": 73, "visibility_pct": 9.5890410958904102 }, "geometry": { "type": "Point", "coordinates": [ -0.714424700148677, 51.430778657992583 ] } },
{ "type": "Feature", "properties": { "visible_points": 4, "total_points": 73, "visibility_pct": 5.4794520547945202 }, "geometry": { "type": "Point", "coordinates": [ -0.714225433008463, 51.430776472719948 ] } },
{ "type": "Feature", "properties": { "visible_points": 4, "total_points": 71, "visibility_pct": 5.6338028169014089 }, "geometry": { "type": "Point", "coordinates": [ -0.714026165893311, 51.43077428710891 ] } },
{ "type": "Feature", "properties": { "visible_points": 0, "total_points": 72, "visibility_pct": 0.0 }, "geometry": { "type": "Point", "coordinates": [ -0.71472057729498, 51.430889809237719 ] } },
{ "type": "Feature", "properties": { "visible_points": 2, "total_points": 75, "visibility_pct": 2.666666666666667 }, "geometry": { "type": "Point", "coordinates": [ -0.714521309648745, 51.430887624457881 ] } },
{ "type": "Feature", "properties": { "visible_points": 3, "total_points": 76, "visibility_pct": 3.9473684210526314 }, "geometry": { "type": "Point", "coordinates": [ -0.714322042027564, 51.430885439339612 ] } },
{ "type": "Feature", "properties": { "visible_points": 4, "total_points": 75, "visibility_pct": 5.3333333333333339 }, "geometry": { "type": "Point", "coordinates": [ -0.714122774431452, 51.430883253882953 ] } },
{ "type": "Feature", "properties": { "visible_points": 0, "total_points": 69, "visibility_pct": 0.0 }, "geometry": { "type": "Point", "coordinates": [ -0.713923506860398, 51.430881068087849 ] } },
{ "type": "Feature", "properties": { "visible_points": 0, "total_points": 66, "visibility_pct": 0.0 }, "geometry": { "type": "Point", "coordinates": [ -0.714817187731903, 51.430998775476539 ] } },
{ "type": "Feature", "properties": { "visible_points": 4, "total_points": 75, "visibility_pct": 5.3333333333333339 }, "geometry": { "type": "Point", "coordinates": [ -0.714617919604701, 51.43099659085108 ] } },
{ "type": "Feature", "properties": { "visible_points": 3, "total_points": 76, "visibility_pct": 3.9473684210526314 }, "geometry": { "type": "Point", "coordinates": [ -0.714418651502555, 51.430994405887191 ] } },
{ "type": "Feature", "properties": { "visible_points": 0, "total_points": 75, "visibility_pct": 0.0 }, "geometry": { "type": "Point", "coordinates": [ -0.714219383425476, 51.430992220584898 ] } },
{ "type": "Feature", "properties": { "visible_points": 0, "total_points": 71, "visibility_pct": 0.0 }, "geometry": { "type": "Point", "coordinates": [ -0.714020115373448, 51.43099003494418 ] } },
{ "type": "Feature", "properties": { "visible_points": 4, "total_points": 62, "visibility_pct": 6.4516129032258061 }, "geometry": { "type": "Point", "coordinates": [ -0.713820847346499, 51.430987848965053 ] } },
{ "type": "Feature", "properties": { "visible_points": 0, "total_points": 66, "visibility_pct": 0.0 }, "geometry": { "type": "Point", "coordinates": [ -0.714714530016551, 51.431105557172209 ] } },
{ "type": "Feature", "properties": { "visible_points": 0, "total_points": 71, "visibility_pct": 0.0 }, "geometry": { "type": "Point", "coordinates": [ -0.71451526143344, 51.431103372362685 ] } },
{ "type": "Feature", "properties": { "visible_points": 4, "total_points": 71, "visibility_pct": 5.6338028169014089 }, "geometry": { "type": "Point", "coordinates": [ -0.714315992875385, 51.431101187214765 ] } },
{ "type": "Feature", "properties": { "visible_points": 1, "total_points": 69, "visibility_pct": 1.4492753623188406 }, "geometry": { "type": "Point", "coordinates": [ -0.714116724342394, 51.431099001728427 ] } },
{ "type": "Feature", "properties": { "visible_points": 3, "total_points": 64, "visibility_pct": 4.6875 }, "geometry": { "type": "Point", "coordinates": [ -0.713917455834462, 51.431096815903672 ] } },
{ "type": "Feature", "properties": { "visible_points": 0, "total_points": 55, "visibility_pct": 0.0 }, "geometry": { "type": "Point", "coordinates": [ -0.714811140884297, 51.431214523421239 ] } },
{ "type": "Feature", "properties": { "visible_points": 0, "total_points": 62, "visibility_pct": 0.0 }, "geometry": { "type": "Point", "coordinates": [ -0.714611871820216, 51.431212338766109 ] } },
{ "type": "Feature", "properties": { "visible_points": 1, "total_points": 64, "visibility_pct": 1.5625 }, "geometry": { "type": "Point", "coordinates": [ -0.714412602781189, 51.431210153772561 ] } },
{ "type": "Feature", "properties": { "visible_points": 3, "total_points": 64, "visibility_pct": 4.6875 }, "geometry": { "type": "Point", "coordinates": [ -0.714213333767222, 51.431207968440589 ] } },
{ "type": "Feature", "properties": { "visible_points": 3, "total_points": 61, "visibility_pct": 4.918032786885246 }, "geometry": { "type": "Point", "coordinates": [ -0.714014064778321, 51.431205782770185 ] } },
{ "type": "Feature", "properties": { "visible_points": 7, "total_points": 54, "visibility_pct": 12.962962962962962 }, "geometry": { "type": "Point", "coordinates": [ -0.713814795814485, 51.431203596761385 ] } },
{ "type": "Feature", "properties": { "visible_points": 0, "total_points": 52, "visibility_pct": 0.0 }, "geometry": { "type": "Point", "coordinates": [ -0.714708482662895, 51.431321305097427 ] } },
{ "type": "Feature", "properties": { "visible_points": 0, "total_points": 56, "visibility_pct": 0.0 }, "geometry": { "type": "Point", "coordinates": [ -0.714509213142889, 51.431319120258259 ] } },
{ "type": "Feature", "properties": { "visible_points": 3, "total_points": 57, "visibility_pct": 5.2631578947368416 }, "geometry": { "type": "Point", "coordinates": [ -0.714309943647949, 51.431316935080666 ] } },
{ "type": "Feature", "properties": { "visible_points": 4, "total_points": 56, "visibility_pct": 7.1428571428571423 }, "geometry": { "type": "Point", "coordinates": [ -0.714110674178068, 51.431314749564663 ] } },
{ "type": "Feature", "properties": { "visible_points": 7, "total_points": 52, "visibility_pct": 13.461538461538462 }, "geometry": { "type": "Point", "coordinates": [ -0.713911404733254, 51.431312563710229 ] } }
]
}
