{
"type": "FeatureCollection",
"name": "SOUOX_107_NACH_800m",
"crs": { "type": "name", "properties": { "name": "urn:ogc:def:crs:OGC:1.3:CRS84" } },
"features": [
{ "type": "Feature", "properties": { "id": 48487, "nach": 0.33632424280408868 }, "geometry": { "type": "LineString", "coordinates": [ [ -1.1614284, 51.6167358 ], [ -1.1613059, 51.6169963 ], [ -1.161463, 51.6177394 ] ] } },
{ "type": "Feature", "properties": { "id": 33864, "nach": 0.0 }, "geometry": { "type": "LineString", "coordinates": [ [ -1.1576244, 51.6273978 ], [ -1.1595187, 51.6247218 ], [ -1.1609295, 51.6224405 ], [ -1.1614498, 51.6218976 ], [ -1.1618152, 51.6215969 ], [ -1.1620673, 51.6211939 ], [ -1.162115, 51.6208718 ], [ -1.1621317, 51.6205111 ], [ -1.162078, 51.6199183 ], [ -1.1618795, 51.6187958 ], [ -1.1617395, 51.6184138 ], [ -1.1615089, 51.6178514 ], [ -1.161463, 51.6177394 ] ] } },
{ "type": "Feature", "properties": { "id": 56724, "nach": 0.28254782683057117 }, "geometry": { "type": "LineString", "coordinates": [ [ -1.1558005, 51.6164862 ], [ -1.1559431, 51.6165604 ], [ -1.1563903, 51.6167549 ], [ -1.1569518, 51.6169707 ], [ -1.1574872, 51.6171417 ], [ -1.1579959, 51.6172839 ], [ -1.158492, 51.617403 ], [ -1.1592018, 51.6175302 ], [ -1.1598025, 51.6176194 ], [ -1.1603517, 51.617668800000011 ], [ -1.161463, 51.6177394 ] ] } },
{ "type": "Feature", "properties": { "id": 24019, "nach": 0.28241037382217632 }, "geometry": { "type": "LineString", "coordinates": [ [ -1.1649327, 51.617844 ], [ -1.1641192, 51.6178278 ], [ -1.1632557, 51.61780670000001 ], [ -1.1626371, 51.61779 ], [ -1.161463, 51.6177394 ] ] } },
{ "type": "Feature", "properties": { "id": 48486, "nach": 0.46682354273889348 }, "geometry": { "type": "LineString", "coordinates": [ [ -1.1614284, 51.6167358 ], [ -1.1618397, 51.6168178 ], [ -1.1621487, 51.61688560000001 ] ] } },
{ "type": "Feature", "properties": { "id": 102748, "nach": 0.43897494369409434 }, "geometry": { "type": "LineString", "coordinates": [ [ -1.1592942, 51.6163499 ], [ -1.159476, 51.6163669 ], [ -1.159792, 51.6164047 ], [ -1.1601203, 51.616458 ], [ -1.1610853, 51.6166553 ], [ -1.1614284, 51.6167358 ] ] } },
{ "type": "Feature", "properties": { "id": 80319, "nach": 0.45175986913407562 }, "geometry": { "type": "LineString", "coordinates": [ [ -1.1614049, 51.6163542 ], [ -1.1614213, 51.6164085 ], [ -1.1614515, 51.6166932 ], [ -1.1614284, 51.6167358 ] ] } },
{ "type": "Feature", "properties": { "id": 56723, "nach": 0.35040508843261031 }, "geometry": { "type": "LineString", "coordinates": [ [ -1.1558005, 51.6164862 ], [ -1.155729, 51.6164498 ], [ -1.1554313, 51.616297 ], [ -1.1549653, 51.6160474 ] ] } },
{ "type": "Feature", "properties": { "id": 56725, "nach": 0.35640359558131712 }, "geometry": { "type": "LineString", "coordinates": [ [ -1.1558005, 51.6164862 ], [ -1.1561474, 51.6162701 ], [ -1.1564794, 51.616103900000013 ], [ -1.1565345, 51.615999600000016 ] ] } },
{ "type": "Feature", "properties": { "id": 56729, "nach": 0.32124804457900991 }, "geometry": { "type": "LineString", "coordinates": [ [ -1.1535026, 51.6175689 ], [ -1.1539211, 51.6174128 ], [ -1.1550931, 51.6168486 ], [ -1.1558005, 51.6164862 ] ] } },
{ "type": "Feature", "properties": { "id": 80245, "nach": 0.43689739264335981 }, "geometry": { "type": "LineString", "coordinates": [ [ -1.1465574, 51.6113294 ], [ -1.1463842, 51.6112613 ], [ -1.1460945, 51.6111497 ], [ -1.1459121, 51.6110764 ], [ -1.1457727, 51.6110148 ], [ -1.14566, 51.6109382 ], [ -1.1456041, 51.610888 ], [ -1.1455742, 51.6108366 ], [ -1.1455608, 51.6107849 ], [ -1.1455608, 51.6107516 ], [ -1.1455263, 51.6107181 ], [ -1.1454606, 51.6106914 ] ] } },
{ "type": "Feature", "properties": { "id": 80177, "nach": 0.38249401851640885 }, "geometry": { "type": "LineString", "coordinates": [ [ -1.148622, 51.6106395 ], [ -1.1485982, 51.6105632 ], [ -1.1479909, 51.6103425 ], [ -1.1477709, 51.6102485 ], [ -1.1474008, 51.6100487 ], [ -1.1468053, 51.6097355 ], [ -1.1460341, 51.6093783 ] ] } },
{ "type": "Feature", "properties": { "id": 5621, "nach": 0.46698833131559853 }, "geometry": { "type": "LineString", "coordinates": [ [ -1.1454396, 51.6107565 ], [ -1.1454727, 51.610807300000012 ], [ -1.1454745, 51.6108453 ] ] } },
{ "type": "Feature", "properties": { "id": 80163, "nach": 0.46480468527945529 }, "geometry": { "type": "LineString", "coordinates": [ [ -1.1454745, 51.6108453 ], [ -1.1455393, 51.6108881 ], [ -1.145605, 51.6109535 ], [ -1.1457337, 51.6110484 ] ] } },
{ "type": "Feature", "properties": { "id": 80164, "nach": 0.27141701240550176 }, "geometry": { "type": "LineString", "coordinates": [ [ -1.1454745, 51.6108453 ], [ -1.1454754, 51.6108638 ], [ -1.1454575, 51.6109048 ], [ -1.1454379, 51.610925400000013 ], [ -1.1453907, 51.610958 ], [ -1.14538, 51.610962800000017 ] ] } },
{ "type": "Feature", "properties": { "id": 7676, "nach": 0.45967995638117171 }, "geometry": { "type": "LineString", "coordinates": [ [ -1.1630881, 51.6170777 ], [ -1.1638502, 51.617187200000018 ], [ -1.1644032, 51.6172887 ], [ -1.1646888, 51.6173695 ], [ -1.1647914, 51.6174053 ], [ -1.1648626, 51.6174476 ], [ -1.1649098, 51.6174927 ], [ -1.1649417, 51.617544100000011 ] ] } },
{ "type": "Feature", "properties": { "id": 24020, "nach": 0.46800552156831032 }, "geometry": { "type": "LineString", "coordinates": [ [ -1.1621487, 51.61688560000001 ], [ -1.1630881, 51.6170777 ] ] } },
{ "type": "Feature", "properties": { "id": 88158, "nach": 0.42334309094886552 }, "geometry": { "type": "LineString", "coordinates": [ [ -1.1634941, 51.6160415 ], [ -1.1634725, 51.6161949 ], [ -1.1634249, 51.6164246 ], [ -1.1633804, 51.616632499999987 ], [ -1.1632958, 51.61683810000001 ], [ -1.1632027, 51.6169536 ], [ -1.1630881, 51.6170777 ] ] } },
{ "type": "Feature", "properties": { "id": 86564, "nach": 0.36628990434959036 }, "geometry": { "type": "LineString", "coordinates": [ [ -1.1623792, 51.6157326 ], [ -1.1623524, 51.6158394 ], [ -1.162442, 51.6161089 ], [ -1.1624182, 51.6162046 ], [ -1.1623058, 51.6163256 ], [ -1.1622694, 51.6164159 ], [ -1.1621678, 51.6164867 ], [ -1.162147, 51.6165344 ], [ -1.1621487, 51.61688560000001 ] ] } },
{ "type": "Feature", "properties": { "id": 88157, "nach": 0.42040481877786623 }, "geometry": { "type": "LineString", "coordinates": [ [ -1.1634941, 51.6160415 ], [ -1.1635326, 51.61576860000001 ], [ -1.1634933, 51.6148899 ] ] } },
{ "type": "Feature", "properties": { "id": 88160, "nach": 0.34990140653985863 }, "geometry": { "type": "LineString", "coordinates": [ [ -1.1642017, 51.6162366 ], [ -1.1642182, 51.6161277 ], [ -1.1641867, 51.6160904 ], [ -1.1641387, 51.6160755 ], [ -1.1634941, 51.6160415 ] ] } },
{ "type": "Feature", "properties": { "id": 62920, "nach": 0.48670475095364552 }, "geometry": { "type": "LineString", "coordinates": [ [ -1.1531222, 51.6119387 ], [ -1.1532138, 51.6119748 ] ] } },
{ "type": "Feature", "properties": { "id": 71504, "nach": 0.37403357856792946 }, "geometry": { "type": "LineString", "coordinates": [ [ -1.1536552, 51.61167780000001 ], [ -1.1536178, 51.6117378 ], [ -1.1534596, 51.611772 ], [ -1.153321, 51.6118249 ], [ -1.1532138, 51.6119748 ] ] } },
{ "type": "Feature", "properties": { "id": 80205, "nach": 0.47979053499253965 }, "geometry": { "type": "LineString", "coordinates": [ [ -1.1538716, 51.6120969 ], [ -1.1537193, 51.6121041 ], [ -1.1534707, 51.6120593 ], [ -1.1532138, 51.6119748 ] ] } },
{ "type": "Feature", "properties": { "id": 62921, "nach": 0.45957659173769988 }, "geometry": { "type": "LineString", "coordinates": [ [ -1.1531222, 51.6119387 ], [ -1.1529606, 51.6121248 ], [ -1.1527955, 51.6125168 ], [ -1.1528266, 51.61253330000001 ] ] } },
{ "type": "Feature", "properties": { "id": 83718, "nach": 0.50198210960541512 }, "geometry": { "type": "LineString", "coordinates": [ [ -1.1525179, 51.6117969 ], [ -1.1528907, 51.6118608 ], [ -1.1531222, 51.6119387 ] ] } },
{ "type": "Feature", "properties": { "id": 80204, "nach": 0.43676386837780845 }, "geometry": { "type": "LineString", "coordinates": [ [ -1.1538716, 51.6120969 ], [ -1.1539013, 51.61213510000001 ], [ -1.1539319, 51.6121757 ], [ -1.1541746, 51.6122627 ], [ -1.1544621, 51.6123751 ] ] } },
{ "type": "Feature", "properties": { "id": 80206, "nach": 0.43310548851527952 }, "geometry": { "type": "LineString", "coordinates": [ [ -1.1538716, 51.6120969 ], [ -1.1539909, 51.61209070000001 ], [ -1.1542009, 51.6120416 ], [ -1.154353, 51.6119991 ], [ -1.1544844, 51.6119158 ], [ -1.1546306, 51.6118263 ], [ -1.1547339, 51.6117742 ], [ -1.1548358, 51.61172590000001 ], [ -1.1549109, 51.6116993 ], [ -1.1550155, 51.6116993 ], [ -1.1551577, 51.6117076 ], [ -1.1553602, 51.6117433 ] ] } },
{ "type": "Feature", "properties": { "id": 94558, "nach": 0.49514250044812441 }, "geometry": { "type": "LineString", "coordinates": [ [ -1.1632105, 51.6129021 ], [ -1.1627792, 51.6128423 ], [ -1.1618297, 51.6126941 ], [ -1.1610186, 51.6125637 ] ] } },
{ "type": "Feature", "properties": { "id": 15093, "nach": 0.47398739532832057 }, "geometry": { "type": "LineString", "coordinates": [ [ -1.1612095, 51.614031 ], [ -1.1611739, 51.6139587 ], [ -1.1611008, 51.6135456 ], [ -1.1610344, 51.613189800000015 ], [ -1.1609847, 51.6127512 ], [ -1.1609847, 51.612718 ], [ -1.1610186, 51.6125637 ] ] } },
{ "type": "Feature", "properties": { "id": 80221, "nach": 0.52175212283933348 }, "geometry": { "type": "LineString", "coordinates": [ [ -1.1605993, 51.612439 ], [ -1.1606359, 51.6124596 ], [ -1.1607352, 51.612506400000015 ], [ -1.160892, 51.6125445 ], [ -1.1610186, 51.6125637 ] ] } },
{ "type": "Feature", "properties": { "id": 59805, "nach": 0.49631848853936472 }, "geometry": { "type": "LineString", "coordinates": [ [ -1.1612163, 51.6140654 ], [ -1.1612095, 51.614031 ] ] } },
{ "type": "Feature", "properties": { "id": 59776, "nach": 0.42816595707250693 }, "geometry": { "type": "LineString", "coordinates": [ [ -1.162661, 51.613996 ], [ -1.1612611, 51.6140229 ], [ -1.1612095, 51.614031 ] ] } },
{ "type": "Feature", "properties": { "id": 80220, "nach": 0.43713477898707309 }, "geometry": { "type": "LineString", "coordinates": [ [ -1.1605993, 51.612439 ], [ -1.1605244, 51.6125288 ], [ -1.1604067, 51.6127636 ] ] } },
{ "type": "Feature", "properties": { "id": 80219, "nach": 0.51812222705986422 }, "geometry": { "type": "LineString", "coordinates": [ [ -1.1605993, 51.612439 ], [ -1.1605512, 51.6124143 ] ] } },
{ "type": "Feature", "properties": { "id": 59804, "nach": 0.49592182943836366 }, "geometry": { "type": "LineString", "coordinates": [ [ -1.1612163, 51.6140654 ], [ -1.1613117, 51.6148334 ] ] } },
{ "type": "Feature", "properties": { "id": 59811, "nach": 0.46567557040003776 }, "geometry": { "type": "LineString", "coordinates": [ [ -1.1597342, 51.6141361 ], [ -1.1600946, 51.6141215 ], [ -1.1612163, 51.6140654 ] ] } },
{ "type": "Feature", "properties": { "id": 59775, "nach": 0.50064126791829777 }, "geometry": { "type": "LineString", "coordinates": [ [ -1.162661, 51.613996 ], [ -1.1627341, 51.613970899999984 ], [ -1.1628255, 51.613959200000011 ], [ -1.1630846, 51.6138506 ], [ -1.1635738, 51.6135964 ], [ -1.163611, 51.6135521 ], [ -1.1636215, 51.613488399999987 ], [ -1.1636307, 51.6134278 ], [ -1.163666, 51.6134127 ], [ -1.1640804, 51.6135121 ], [ -1.1643526, 51.6136056 ], [ -1.1644748, 51.61368370000001 ], [ -1.1645098, 51.6137164 ] ] } },
{ "type": "Feature", "properties": { "id": 59779, "nach": 0.47774286803944266 }, "geometry": { "type": "LineString", "coordinates": [ [ -1.1613117, 51.6148334 ], [ -1.1618595, 51.6146044 ], [ -1.1622564, 51.6142947 ], [ -1.162661, 51.613996 ] ] } },
{ "type": "Feature", "properties": { "id": 62717, "nach": 0.0 }, "geometry": { "type": "LineString", "coordinates": [ [ -1.1646942, 51.613682200000014 ], [ -1.1646517, 51.61391350000001 ], [ -1.1646264, 51.6140773 ], [ -1.1645903, 51.6141393 ], [ -1.1643163, 51.6143693 ], [ -1.1642358, 51.6144592 ], [ -1.1641618, 51.6146664 ], [ -1.1640835, 51.6148277 ], [ -1.1640455, 51.6148618 ], [ -1.1639585, 51.6148724 ], [ -1.1634933, 51.6148899 ] ] } },
{ "type": "Feature", "properties": { "id": 74533, "nach": 0.43020964031291864 }, "geometry": { "type": "LineString", "coordinates": [ [ -1.163545, 51.6144218 ], [ -1.1634933, 51.6148899 ] ] } },
{ "type": "Feature", "properties": { "id": 74536, "nach": 0.36351120720170876 }, "geometry": { "type": "LineString", "coordinates": [ [ -1.1632974, 51.6146057 ], [ -1.1633196, 51.6144672 ], [ -1.1633887, 51.6144191 ], [ -1.163545, 51.6144218 ] ] } },
{ "type": "Feature", "properties": { "id": 86565, "nach": 0.36755168969788221 }, "geometry": { "type": "LineString", "coordinates": [ [ -1.1626138, 51.615739799999986 ], [ -1.1623792, 51.6157326 ] ] } },
{ "type": "Feature", "properties": { "id": 95373, "nach": 0.39872246694621372 }, "geometry": { "type": "LineString", "coordinates": [ [ -1.1622965, 51.6152181 ], [ -1.1623249, 51.615226299999989 ], [ -1.1623701, 51.6152521 ], [ -1.1624093, 51.615303 ], [ -1.1624167, 51.6153397 ], [ -1.1624327, 51.6154451 ], [ -1.1624275, 51.6155396 ], [ -1.1623792, 51.6157326 ] ] } },
{ "type": "Feature", "properties": { "id": 56720, "nach": 0.510791334506984 }, "geometry": { "type": "LineString", "coordinates": [ [ -1.1565345, 51.615999600000016 ], [ -1.1565863, 51.6160108 ] ] } },
{ "type": "Feature", "properties": { "id": 71859, "nach": 0.47058385508491068 }, "geometry": { "type": "LineString", "coordinates": [ [ -1.1571263, 51.6144798 ], [ -1.1570824, 51.614611 ], [ -1.1569537, 51.6151489 ], [ -1.1568396, 51.615572 ], [ -1.1565863, 51.6160108 ] ] } },
{ "type": "Feature", "properties": { "id": 103705, "nach": 0.49505509652253293 }, "geometry": { "type": "LineString", "coordinates": [ [ -1.1578954, 51.6162089 ], [ -1.1573898, 51.6161599 ], [ -1.1569923, 51.6160934 ], [ -1.1565863, 51.6160108 ] ] } },
{ "type": "Feature", "properties": { "id": 56721, "nach": 0.50037515405895128 }, "geometry": { "type": "LineString", "coordinates": [ [ -1.1565345, 51.615999600000016 ], [ -1.1561395, 51.615913900000017 ], [ -1.1557165, 51.615819 ], [ -1.1556843, 51.615812500000011 ], [ -1.1555249, 51.6157851 ] ] } },
{ "type": "Feature", "properties": { "id": 71858, "nach": 0.47779379975652286 }, "geometry": { "type": "LineString", "coordinates": [ [ -1.1571263, 51.6144798 ], [ -1.1571339, 51.6144245 ], [ -1.157171, 51.6142979 ], [ -1.1572817, 51.614182 ] ] } },
{ "type": "Feature", "properties": { "id": 102746, "nach": 0.3682338957070409 }, "geometry": { "type": "LineString", "coordinates": [ [ -1.1587365, 51.6145451 ], [ -1.1585394, 51.6143876 ], [ -1.1583086, 51.61436530000001 ], [ -1.1580442, 51.614367799999989 ], [ -1.1571263, 51.6144798 ] ] } },
{ "type": "Feature", "properties": { "id": 103706, "nach": 0.49087993892088766 }, "geometry": { "type": "LineString", "coordinates": [ [ -1.1578954, 51.6162089 ], [ -1.1584627, 51.6162638 ], [ -1.1592942, 51.6163499 ] ] } },
{ "type": "Feature", "properties": { "id": 103707, "nach": 0.35677773597248347 }, "geometry": { "type": "LineString", "coordinates": [ [ -1.1575878, 51.6169374 ], [ -1.1578954, 51.6162089 ] ] } },
{ "type": "Feature", "properties": { "id": 24030, "nach": 0.48953844238236865 }, "geometry": { "type": "LineString", "coordinates": [ [ -1.1581052, 51.6140556 ], [ -1.1579428, 51.614088 ], [ -1.1574636, 51.6141538 ], [ -1.1572817, 51.614182 ] ] } },
{ "type": "Feature", "properties": { "id": 24959, "nach": 0.45382071866504209 }, "geometry": { "type": "LineString", "coordinates": [ [ -1.1565054, 51.614133 ], [ -1.1567917, 51.6141484 ], [ -1.1571354, 51.6141553 ], [ -1.1572817, 51.614182 ] ] } },
{ "type": "Feature", "properties": { "id": 88998, "nach": 0.44058624816311837 }, "geometry": { "type": "LineString", "coordinates": [ [ -1.1586949, 51.6126589 ], [ -1.1586825, 51.6127837 ], [ -1.1583453, 51.6134761 ], [ -1.1581052, 51.6140556 ] ] } },
{ "type": "Feature", "properties": { "id": 59810, "nach": 0.48138512831433183 }, "geometry": { "type": "LineString", "coordinates": [ [ -1.1597342, 51.6141361 ], [ -1.1596594, 51.6141339 ], [ -1.1596499, 51.6141322 ], [ -1.1590265, 51.6140454 ], [ -1.1586076, 51.6140238 ], [ -1.1581052, 51.6140556 ] ] } },
{ "type": "Feature", "properties": { "id": 44993, "nach": 0.37949107218806061 }, "geometry": { "type": "LineString", "coordinates": [ [ -1.1563341, 51.6144837 ], [ -1.1565054, 51.614133 ] ] } },
{ "type": "Feature", "properties": { "id": 28060, "nach": 0.44499180629818985 }, "geometry": { "type": "LineString", "coordinates": [ [ -1.1555819, 51.613654200000013 ], [ -1.1556124, 51.613753500000023 ], [ -1.1557863, 51.6138878 ], [ -1.1562057, 51.6140568 ], [ -1.1565054, 51.614133 ] ] } },
{ "type": "Feature", "properties": { "id": 88997, "nach": 0.4556882996716049 }, "geometry": { "type": "LineString", "coordinates": [ [ -1.1586949, 51.6126589 ], [ -1.1586948, 51.6126375 ], [ -1.1586776, 51.6125925 ] ] } },
{ "type": "Feature", "properties": { "id": 88999, "nach": 0.37023211491167335 }, "geometry": { "type": "LineString", "coordinates": [ [ -1.1586949, 51.6126589 ], [ -1.1588029, 51.6126662 ], [ -1.1588846, 51.6126895 ], [ -1.1589677, 51.612723 ], [ -1.1591319, 51.6127608 ], [ -1.1593758, 51.6128103 ], [ -1.1594697, 51.6128351 ], [ -1.1595095, 51.6128628 ], [ -1.1595541, 51.612921 ] ] } },
{ "type": "Feature", "properties": { "id": 59812, "nach": 0.39003600279522432 }, "geometry": { "type": "LineString", "coordinates": [ [ -1.1597342, 51.6141361 ], [ -1.1597386, 51.6139598 ], [ -1.159744, 51.6137516 ], [ -1.1596655, 51.6137091 ], [ -1.1599232, 51.613227 ], [ -1.1600251, 51.6130205 ], [ -1.1601378, 51.6128706 ], [ -1.1603592, 51.6127811 ], [ -1.1604067, 51.6127636 ] ] } },
{ "type": "Feature", "properties": { "id": 56301, "nach": 0.50019493888035838 }, "geometry": { "type": "LineString", "coordinates": [ [ -1.1552559, 51.6158568 ], [ -1.1553445, 51.6158144 ], [ -1.1555249, 51.6157851 ] ] } },
{ "type": "Feature", "properties": { "id": 111163, "nach": 0.35887172385104277 }, "geometry": { "type": "LineString", "coordinates": [ [ -1.1557681, 51.61499580000001 ], [ -1.1555451, 51.6153404 ], [ -1.1556083, 51.615625 ], [ -1.1555249, 51.6157851 ] ] } },
{ "type": "Feature", "properties": { "id": 56300, "nach": 0.45836972786003799 }, "geometry": { "type": "LineString", "coordinates": [ [ -1.1552559, 51.6158568 ], [ -1.1551175, 51.6159334 ], [ -1.1549653, 51.6160474 ] ] } },
{ "type": "Feature", "properties": { "id": 56302, "nach": 0.45678957856440178 }, "geometry": { "type": "LineString", "coordinates": [ [ -1.1552559, 51.6158568 ], [ -1.1551361, 51.6157115 ], [ -1.1549703, 51.6156429 ], [ -1.1546526, 51.6155683 ] ] } },
{ "type": "Feature", "properties": { "id": 59785, "nach": 0.46169687554220823 }, "geometry": { "type": "LineString", "coordinates": [ [ -1.1542048, 51.6156262 ], [ -1.1545306, 51.615808200000011 ], [ -1.1549653, 51.6160474 ] ] } },
{ "type": "Feature", "properties": { "id": 59784, "nach": 0.48324183931643167 }, "geometry": { "type": "LineString", "coordinates": [ [ -1.1542048, 51.6156262 ], [ -1.1540247, 51.6155197 ] ] } },
{ "type": "Feature", "properties": { "id": 93043, "nach": 0.50535024977863507 }, "geometry": { "type": "LineString", "coordinates": [ [ -1.1544352, 51.6165535 ], [ -1.1540941, 51.616514900000013 ], [ -1.1540124, 51.6164777 ], [ -1.1539527, 51.6164252 ], [ -1.1538937, 51.616353599999989 ], [ -1.1538836, 51.6162687 ], [ -1.1540325, 51.6157691 ], [ -1.1542048, 51.6156262 ] ] } },
{ "type": "Feature", "properties": { "id": 80185, "nach": 0.47982604156557829 }, "geometry": { "type": "LineString", "coordinates": [ [ -1.1557574, 51.6129016 ], [ -1.1557863, 51.6129285 ], [ -1.1558121, 51.6129978 ], [ -1.1557777, 51.6131044 ], [ -1.1557177, 51.61322160000001 ], [ -1.155649, 51.6134082 ], [ -1.1556061, 51.6135841 ], [ -1.1555819, 51.613654200000013 ] ] } },
{ "type": "Feature", "properties": { "id": 56287, "nach": 0.44795059897239409 }, "geometry": { "type": "LineString", "coordinates": [ [ -1.1546526, 51.6155683 ], [ -1.1546694, 51.6155183 ], [ -1.154723, 51.615351799999978 ], [ -1.1548737, 51.6150267 ], [ -1.1551952, 51.6143359 ], [ -1.1555379, 51.6137098 ], [ -1.1555819, 51.613654200000013 ] ] } },
{ "type": "Feature", "properties": { "id": 56303, "nach": 0.46309251195195034 }, "geometry": { "type": "LineString", "coordinates": [ [ -1.1548757, 51.6125537 ], [ -1.1544621, 51.6123751 ] ] } },
{ "type": "Feature", "properties": { "id": 62918, "nach": 0.38274424093761361 }, "geometry": { "type": "LineString", "coordinates": [ [ -1.1536124, 51.6126868 ], [ -1.1536391, 51.612674900000016 ], [ -1.1539058, 51.6126449 ], [ -1.1540831, 51.6126642 ], [ -1.1541518, 51.6126645 ], [ -1.1543066, 51.6125754 ], [ -1.1543935, 51.6124862 ], [ -1.1544621, 51.6123751 ] ] } },
{ "type": "Feature", "properties": { "id": 80191, "nach": 0.36333989573581843 }, "geometry": { "type": "LineString", "coordinates": [ [ -1.1553602, 51.6117433 ], [ -1.1548757, 51.6125537 ] ] } },
{ "type": "Feature", "properties": { "id": 80184, "nach": 0.4769324314088198 }, "geometry": { "type": "LineString", "coordinates": [ [ -1.1557574, 51.6129016 ], [ -1.1557177, 51.6128645 ], [ -1.1553057, 51.6127313 ], [ -1.1548757, 51.6125537 ] ] } },
{ "type": "Feature", "properties": { "id": 62919, "nach": 0.35979606165599104 }, "geometry": { "type": "LineString", "coordinates": [ [ -1.1536124, 51.6126868 ], [ -1.1533367, 51.612989 ], [ -1.1532662, 51.6130895 ], [ -1.1532068, 51.6131312 ], [ -1.153056, 51.613187 ], [ -1.1528641, 51.6132077 ], [ -1.1526163, 51.613183399999983 ], [ -1.1524101, 51.613145899999985 ] ] } },
{ "type": "Feature", "properties": { "id": 62917, "nach": 0.33686761531469123 }, "geometry": { "type": "LineString", "coordinates": [ [ -1.1536124, 51.6126868 ], [ -1.1531001, 51.61255 ], [ -1.1529124, 51.6125233 ], [ -1.1528266, 51.61253330000001 ] ] } },
{ "type": "Feature", "properties": { "id": 80186, "nach": 0.42797840330950632 }, "geometry": { "type": "LineString", "coordinates": [ [ -1.1557574, 51.6129016 ], [ -1.1558564, 51.612878900000013 ], [ -1.1561082, 51.6128681 ], [ -1.1565481, 51.6128481 ], [ -1.1567626, 51.6127682 ], [ -1.1568806, 51.6126349 ], [ -1.1570224, 51.6122767 ] ] } },
{ "type": "Feature", "properties": { "id": 56299, "nach": 0.48434602495731227 }, "geometry": { "type": "LineString", "coordinates": [ [ -1.1541824, 51.6154618 ], [ -1.1545674, 51.6155483 ], [ -1.1546526, 51.6155683 ] ] } },
{ "type": "Feature", "properties": { "id": 45450, "nach": 0.17136046221082726 }, "geometry": { "type": "LineString", "coordinates": [ [ -1.1495714, 51.6208181 ], [ -1.1465725, 51.6217947 ], [ -1.1462326, 51.621905900000016 ], [ -1.1461303, 51.621945100000012 ], [ -1.1459577, 51.6220325 ], [ -1.1449117, 51.62267940000001 ], [ -1.1437851, 51.6233672 ], [ -1.1430234, 51.6238584 ] ] } },
{ "type": "Feature", "properties": { "id": 56275, "nach": 0.10749430439854282 }, "geometry": { "type": "LineString", "coordinates": [ [ -1.1499386, 51.6263079 ], [ -1.1499814, 51.6261308 ], [ -1.1501257, 51.62561 ], [ -1.1502067, 51.6253782 ], [ -1.150174, 51.6253369 ], [ -1.1501042, 51.6253203 ], [ -1.1498843, 51.625287 ], [ -1.1494337, 51.625207 ], [ -1.1489729, 51.6251218 ], [ -1.1489133, 51.625097100000012 ], [ -1.1489139, 51.6250585 ], [ -1.1489831, 51.6249339 ], [ -1.1490587, 51.6246089 ], [ -1.1491338, 51.624089400000017 ], [ -1.1492679, 51.6233401 ], [ -1.1493645, 51.6224808 ], [ -1.1494955, 51.6214954 ], [ -1.1495714, 51.6208181 ] ] } },
{ "type": "Feature", "properties": { "id": 56280, "nach": 0.20312128068508722 }, "geometry": { "type": "LineString", "coordinates": [ [ -1.1551414, 51.6246642 ], [ -1.1551843, 51.6247508 ], [ -1.1552112, 51.624844 ], [ -1.1547289, 51.6257079 ], [ -1.154428, 51.626296 ], [ -1.1542308, 51.6266182 ] ] } },
{ "type": "Feature", "properties": { "id": 48497, "nach": 0.38054060486879604 }, "geometry": { "type": "LineString", "coordinates": [ [ -1.1557895, 51.6118717 ], [ -1.1559943, 51.6119541 ], [ -1.1566016, 51.6121553 ], [ -1.1570224, 51.6122767 ] ] } },
{ "type": "Feature", "properties": { "id": 39818, "nach": 0.45543598649198042 }, "geometry": { "type": "LineString", "coordinates": [ [ -1.158253, 51.6125265 ], [ -1.1578032, 51.6124184 ], [ -1.1570224, 51.6122767 ] ] } },
{ "type": "Feature", "properties": { "id": 80192, "nach": 0.44739783482269319 }, "geometry": { "type": "LineString", "coordinates": [ [ -1.1553602, 51.6117433 ], [ -1.1557895, 51.6118717 ] ] } },
{ "type": "Feature", "properties": { "id": 80188, "nach": 0.43235946373192369 }, "geometry": { "type": "LineString", "coordinates": [ [ -1.1560278, 51.6114022 ], [ -1.1559655, 51.6114752 ], [ -1.155937, 51.6115194 ], [ -1.1557895, 51.6118717 ] ] } },
{ "type": "Feature", "properties": { "id": 39817, "nach": 0.32876770965927121 }, "geometry": { "type": "LineString", "coordinates": [ [ -1.158253, 51.6125265 ], [ -1.1579158, 51.6132658 ], [ -1.1577946, 51.6133561 ], [ -1.1575895, 51.6134178 ], [ -1.1573394, 51.6134066 ], [ -1.1569665, 51.6133243 ], [ -1.1567589, 51.6133018 ], [ -1.1565383, 51.6133452 ], [ -1.1563871, 51.613407699999989 ], [ -1.1563453, 51.6135793 ], [ -1.1564449, 51.6136995 ], [ -1.1565607, 51.6137801 ] ] } },
{ "type": "Feature", "properties": { "id": 80170, "nach": 0.46382000218303254 }, "geometry": { "type": "LineString", "coordinates": [ [ -1.1586776, 51.6125925 ], [ -1.1586097, 51.6125937 ], [ -1.1585185, 51.6125854 ], [ -1.158253, 51.6125265 ] ] } },
{ "type": "Feature", "properties": { "id": 80174, "nach": 0.47402041004244572 }, "geometry": { "type": "LineString", "coordinates": [ [ -1.1591381, 51.612049100000021 ], [ -1.1590844, 51.612080700000021 ], [ -1.1590522, 51.6121457 ], [ -1.1588913, 51.6124155 ], [ -1.1588081, 51.6125271 ], [ -1.1587491, 51.6125721 ], [ -1.1586776, 51.6125925 ] ] } },
{ "type": "Feature", "properties": { "id": 39836, "nach": 0.51467022253938843 }, "geometry": { "type": "LineString", "coordinates": [ [ -1.1613281, 51.6153676 ], [ -1.1613224, 51.6151007 ] ] } },
{ "type": "Feature", "properties": { "id": 59780, "nach": 0.52838645421177388 }, "geometry": { "type": "LineString", "coordinates": [ [ -1.1613146, 51.6148975 ], [ -1.1613224, 51.6151007 ] ] } },
{ "type": "Feature", "properties": { "id": 95372, "nach": 0.43920102847374098 }, "geometry": { "type": "LineString", "coordinates": [ [ -1.1622965, 51.6152181 ], [ -1.1621647, 51.6151797 ], [ -1.16185, 51.6151253 ], [ -1.1614886, 51.6150875 ], [ -1.1613224, 51.6151007 ] ] } },
{ "type": "Feature", "properties": { "id": 39835, "nach": 0.46061001926840783 }, "geometry": { "type": "LineString", "coordinates": [ [ -1.1613281, 51.6153676 ], [ -1.1613331, 51.6158594 ] ] } },
{ "type": "Feature", "properties": { "id": 39839, "nach": 0.47972582434288918 }, "geometry": { "type": "LineString", "coordinates": [ [ -1.1601779, 51.6152712 ], [ -1.1613281, 51.6153676 ] ] } },
{ "type": "Feature", "properties": { "id": 59781, "nach": 0.53181738586721417 }, "geometry": { "type": "LineString", "coordinates": [ [ -1.1613146, 51.6148975 ], [ -1.1613117, 51.6148334 ] ] } },
{ "type": "Feature", "properties": { "id": 59783, "nach": 0.3713025669127456 }, "geometry": { "type": "LineString", "coordinates": [ [ -1.1608738, 51.61484260000001 ], [ -1.1611822, 51.6148459 ], [ -1.1613146, 51.6148975 ] ] } },
{ "type": "Feature", "properties": { "id": 95374, "nach": 0.3666862700822402 }, "geometry": { "type": "LineString", "coordinates": [ [ -1.1622911, 51.6149662 ], [ -1.1622965, 51.6152181 ] ] } },
{ "type": "Feature", "properties": { "id": 39828, "nach": 0.31890566238577511 }, "geometry": { "type": "LineString", "coordinates": [ [ -1.1601049, 51.615721099999988 ], [ -1.1605232, 51.6158 ], [ -1.1609415, 51.6158889 ], [ -1.161091, 51.6158952 ], [ -1.1612192, 51.6158912 ], [ -1.1613331, 51.6158594 ] ] } },
{ "type": "Feature", "properties": { "id": 80320, "nach": 0.45613913706595444 }, "geometry": { "type": "LineString", "coordinates": [ [ -1.1614049, 51.6163542 ], [ -1.1613798, 51.61596620000001 ], [ -1.1613331, 51.6158594 ] ] } },
{ "type": "Feature", "properties": { "id": 39829, "nach": 0.34345117645667056 }, "geometry": { "type": "LineString", "coordinates": [ [ -1.159445, 51.61568960000001 ], [ -1.1601049, 51.615721099999988 ] ] } },
{ "type": "Feature", "properties": { "id": 39840, "nach": 0.32972477593469562 }, "geometry": { "type": "LineString", "coordinates": [ [ -1.1601779, 51.6152712 ], [ -1.1601049, 51.615721099999988 ] ] } },
{ "type": "Feature", "properties": { "id": 80321, "nach": 0.36668831963964527 }, "geometry": { "type": "LineString", "coordinates": [ [ -1.1603906, 51.6163277 ], [ -1.1614049, 51.6163542 ] ] } },
{ "type": "Feature", "properties": { "id": 95368, "nach": 0.4584859032580576 }, "geometry": { "type": "LineString", "coordinates": [ [ -1.1594501, 51.6156575 ], [ -1.159445, 51.61568960000001 ] ] } },
{ "type": "Feature", "properties": { "id": 102749, "nach": 0.46798442071312762 }, "geometry": { "type": "LineString", "coordinates": [ [ -1.1592942, 51.6163499 ], [ -1.159329, 51.6161753 ], [ -1.159445, 51.61568960000001 ] ] } },
{ "type": "Feature", "properties": { "id": 39842, "nach": 0.46631656491425449 }, "geometry": { "type": "LineString", "coordinates": [ [ -1.1595655, 51.6152315 ], [ -1.1601779, 51.6152712 ] ] } },
{ "type": "Feature", "properties": { "id": 95370, "nach": 0.35555981489573224 }, "geometry": { "type": "LineString", "coordinates": [ [ -1.1594501, 51.6156575 ], [ -1.1588404, 51.6156025 ], [ -1.1588869, 51.6151932 ] ] } },
{ "type": "Feature", "properties": { "id": 95369, "nach": 0.44267737782811611 }, "geometry": { "type": "LineString", "coordinates": [ [ -1.1594501, 51.6156575 ], [ -1.1595655, 51.6152315 ] ] } },
{ "type": "Feature", "properties": { "id": 39841, "nach": 0.36745161616588939 }, "geometry": { "type": "LineString", "coordinates": [ [ -1.1595655, 51.6152315 ], [ -1.1588869, 51.6151932 ] ] } },
{ "type": "Feature", "properties": { "id": 39844, "nach": 0.35266806750918195 }, "geometry": { "type": "LineString", "coordinates": [ [ -1.1576603, 51.6151124 ], [ -1.1582485, 51.6151566 ], [ -1.1588869, 51.6151932 ] ] } },
{ "type": "Feature", "properties": { "id": 55973, "nach": 0.23750042012677722 }, "geometry": { "type": "LineString", "coordinates": [ [ -1.15077, 51.6196684 ], [ -1.1499113, 51.6202248 ], [ -1.1498201, 51.62030140000001 ], [ -1.149745, 51.6203714 ], [ -1.1497021, 51.620428 ], [ -1.1496646, 51.6205246 ], [ -1.1496485, 51.6205945 ], [ -1.1495714, 51.6208181 ] ] } },
{ "type": "Feature", "properties": { "id": 80176, "nach": 0.50314824970635019 }, "geometry": { "type": "LineString", "coordinates": [ [ -1.148622, 51.6106395 ], [ -1.1485098, 51.6106335 ], [ -1.148406, 51.610652600000016 ], [ -1.1483424, 51.6106746 ], [ -1.1482836, 51.6107045 ], [ -1.1479941, 51.6108505 ] ] } },
{ "type": "Feature", "properties": { "id": 80201, "nach": 0.50993347011647849 }, "geometry": { "type": "LineString", "coordinates": [ [ -1.1488526, 51.6106948 ], [ -1.148622, 51.6106395 ] ] } },
{ "type": "Feature", "properties": { "id": 55974, "nach": 0.12995812034256521 }, "geometry": { "type": "LineString", "coordinates": [ [ -1.15077, 51.6196684 ], [ -1.1496392, 51.618574700000011 ], [ -1.1484392, 51.6174286 ], [ -1.1470337, 51.6160363 ] ] } },
{ "type": "Feature", "properties": { "id": 56728, "nach": 0.31206484875648249 }, "geometry": { "type": "LineString", "coordinates": [ [ -1.1535026, 51.6175689 ], [ -1.1534465, 51.61774350000001 ], [ -1.1533606, 51.6179433 ], [ -1.1531675, 51.6181698 ], [ -1.1529208, 51.618363 ], [ -1.1526418, 51.6185495 ], [ -1.1523199, 51.618729400000014 ], [ -1.1518479, 51.6190025 ], [ -1.1510164, 51.6195087 ], [ -1.15077, 51.6196684 ] ] } },
{ "type": "Feature", "properties": { "id": 80162, "nach": 0.39225343909388588 }, "geometry": { "type": "LineString", "coordinates": [ [ -1.14538, 51.610962800000017 ], [ -1.1453426, 51.6109796 ], [ -1.1452537, 51.6109967 ], [ -1.1451651, 51.6109934 ], [ -1.145084, 51.6109714 ], [ -1.1450453, 51.6109517 ], [ -1.1449963, 51.6109085 ] ] } },
{ "type": "Feature", "properties": { "id": 80237, "nach": 0.35550937306173713 }, "geometry": { "type": "LineString", "coordinates": [ [ -1.1464767, 51.611393 ], [ -1.1460409, 51.6112196 ], [ -1.1455581, 51.6110731 ], [ -1.1453972, 51.6110381 ], [ -1.1453355, 51.6110414 ], [ -1.1452604, 51.61104310000001 ], [ -1.1451462, 51.611021 ], [ -1.1450297, 51.6109831 ], [ -1.1449654, 51.61091840000001 ] ] } },
{ "type": "Feature", "properties": { "id": 55977, "nach": 0.24107121467763379 }, "geometry": { "type": "LineString", "coordinates": [ [ -1.1427191, 51.6118831 ], [ -1.1431928, 51.6123388 ], [ -1.1437936, 51.6129184 ], [ -1.1446694, 51.6137475 ], [ -1.1447753, 51.6138478 ], [ -1.1448961, 51.6139634 ], [ -1.1450449, 51.614106 ], [ -1.1457779, 51.614808 ], [ -1.1458535, 51.6148804 ], [ -1.1461956, 51.615214 ], [ -1.1470337, 51.6160363 ] ] } },
{ "type": "Feature", "properties": { "id": 80195, "nach": 0.46918798430001968 }, "geometry": { "type": "LineString", "coordinates": [ [ -1.1492109, 51.6107923 ], [ -1.1493976, 51.610842 ] ] } },
{ "type": "Feature", "properties": { "id": 62724, "nach": 0.4730835383371767 }, "geometry": { "type": "LineString", "coordinates": [ [ -1.1501796, 51.61112760000001 ], [ -1.1493976, 51.610842 ] ] } },
{ "type": "Feature", "properties": { "id": 80198, "nach": 0.32071094362400732 }, "geometry": { "type": "LineString", "coordinates": [ [ -1.1496283, 51.6107139 ], [ -1.1493976, 51.610842 ] ] } },
{ "type": "Feature", "properties": { "id": 80202, "nach": 0.50870645468478715 }, "geometry": { "type": "LineString", "coordinates": [ [ -1.1488526, 51.6106948 ], [ -1.1492109, 51.6107923 ] ] } },
{ "type": "Feature", "properties": { "id": 80197, "nach": 0.45448524923036554 }, "geometry": { "type": "LineString", "coordinates": [ [ -1.1496283, 51.6107139 ], [ -1.1492109, 51.6107923 ] ] } },
{ "type": "Feature", "properties": { "id": 102788, "nach": 0.40927002301010373 }, "geometry": { "type": "LineString", "coordinates": [ [ -1.1502717, 51.6108642 ], [ -1.1501796, 51.61112760000001 ] ] } },
{ "type": "Feature", "properties": { "id": 102783, "nach": 0.49331009902019407 }, "geometry": { "type": "LineString", "coordinates": [ [ -1.151948, 51.61173620000001 ], [ -1.1516985, 51.611710700000025 ], [ -1.1513004, 51.6116198 ], [ -1.1508469, 51.6114835 ], [ -1.1505641, 51.6113418 ], [ -1.1502908, 51.611193299999989 ], [ -1.1501796, 51.61112760000001 ] ] } },
{ "type": "Feature", "properties": { "id": 80200, "nach": 0.3413609260255186 }, "geometry": { "type": "LineString", "coordinates": [ [ -1.1496283, 51.6107139 ], [ -1.1499365, 51.610592 ], [ -1.1499906, 51.610531 ], [ -1.1499869, 51.6104557 ], [ -1.1499367, 51.6103826 ], [ -1.149808, 51.6103221 ] ] } },
{ "type": "Feature", "properties": { "id": 80199, "nach": 0.44743856744576199 }, "geometry": { "type": "LineString", "coordinates": [ [ -1.1496283, 51.6107139 ], [ -1.1497459, 51.6107347 ], [ -1.1503271, 51.610705600000017 ] ] } },
{ "type": "Feature", "properties": { "id": 80187, "nach": 0.3619999943479737 }, "geometry": { "type": "LineString", "coordinates": [ [ -1.1560278, 51.6114022 ], [ -1.1560651, 51.6113503 ], [ -1.1562643, 51.610979100000016 ], [ -1.1565164, 51.6104439 ], [ -1.1567379, 51.6100084 ], [ -1.1568355, 51.6097938 ], [ -1.1568762, 51.6097332 ], [ -1.1569128, 51.609701700000016 ], [ -1.1569493, 51.609684 ], [ -1.157011, 51.6096774 ], [ -1.1571006, 51.6096662 ] ] } },
{ "type": "Feature", "properties": { "id": 80190, "nach": 0.36410884463914406 }, "geometry": { "type": "LineString", "coordinates": [ [ -1.1560278, 51.6114022 ], [ -1.1557695, 51.61131790000001 ], [ -1.1549809, 51.611158 ], [ -1.1522665, 51.6107716 ], [ -1.1521319, 51.6107791 ], [ -1.1518736, 51.610804 ], [ -1.1513622, 51.6107842 ], [ -1.1511748, 51.6108791 ], [ -1.1509829, 51.6108995 ], [ -1.1503616, 51.6107058 ], [ -1.1503271, 51.610705600000017 ] ] } },
{ "type": "Feature", "properties": { "id": 80189, "nach": 0.41091240579517779 }, "geometry": { "type": "LineString", "coordinates": [ [ -1.1560278, 51.6114022 ], [ -1.1565527, 51.6115978 ], [ -1.15733, 51.6118751 ], [ -1.1575934, 51.6119475 ], [ -1.1590925, 51.61203410000001 ], [ -1.1591381, 51.612049100000021 ] ] } },
{ "type": "Feature", "properties": { "id": 80179, "nach": 0.45088797530533048 }, "geometry": { "type": "LineString", "coordinates": [ [ -1.1591714, 51.612036 ], [ -1.1591501, 51.6119863 ], [ -1.1594718, 51.6110049 ] ] } },
{ "type": "Feature", "properties": { "id": 73301, "nach": 0.50351048960917699 }, "geometry": { "type": "LineString", "coordinates": [ [ -1.1479941, 51.6108505 ], [ -1.1469799, 51.6114024 ] ] } },
{ "type": "Feature", "properties": { "id": 80233, "nach": 0.39204678110329022 }, "geometry": { "type": "LineString", "coordinates": [ [ -1.1468332, 51.6114944 ], [ -1.1469799, 51.6114024 ] ] } },
{ "type": "Feature", "properties": { "id": 80244, "nach": 0.49260988273491718 }, "geometry": { "type": "LineString", "coordinates": [ [ -1.1465574, 51.6113294 ], [ -1.1466836, 51.611379 ], [ -1.1468442, 51.6113699 ], [ -1.1469234, 51.6113692 ], [ -1.1469799, 51.6114024 ] ] } },
{ "type": "Feature", "properties": { "id": 73912, "nach": 0.33864229903378601 }, "geometry": { "type": "LineString", "coordinates": [ [ -1.1488386, 51.6113547 ], [ -1.1488772, 51.6112465 ], [ -1.1488636, 51.6111804 ], [ -1.1487935, 51.61111660000001 ], [ -1.1487425, 51.6111083 ], [ -1.1486778, 51.6111291 ], [ -1.1485866, 51.6111366 ], [ -1.1484959, 51.6111307 ], [ -1.1484248, 51.6111056 ], [ -1.1483611, 51.611076 ], [ -1.1480266, 51.6108718 ], [ -1.1479941, 51.6108505 ] ] } },
{ "type": "Feature", "properties": { "id": 80234, "nach": 0.46560822877495928 }, "geometry": { "type": "LineString", "coordinates": [ [ -1.1468332, 51.6114944 ], [ -1.1472564, 51.6116894 ], [ -1.1473957, 51.6117509 ] ] } },
{ "type": "Feature", "properties": { "id": 80239, "nach": 0.44881188754467649 }, "geometry": { "type": "LineString", "coordinates": [ [ -1.146513, 51.6113644 ], [ -1.1468332, 51.6114944 ] ] } },
{ "type": "Feature", "properties": { "id": 80238, "nach": 0.0 }, "geometry": { "type": "LineString", "coordinates": [ [ -1.1464767, 51.611393 ], [ -1.1468036, 51.6115231 ], [ -1.1468332, 51.6114944 ] ] } },
{ "type": "Feature", "properties": { "id": 80243, "nach": 0.45981008427622588 }, "geometry": { "type": "LineString", "coordinates": [ [ -1.1465574, 51.6113294 ], [ -1.146513, 51.6113644 ] ] } },
{ "type": "Feature", "properties": { "id": 55980, "nach": 0.29654189421349475 }, "geometry": { "type": "LineString", "coordinates": [ [ -1.1515828, 51.6141575 ], [ -1.1509251, 51.614465700000011 ], [ -1.1491044, 51.6151902 ], [ -1.1470337, 51.6160363 ] ] } },
{ "type": "Feature", "properties": { "id": 75829, "nach": 0.47155038157148599 }, "geometry": { "type": "LineString", "coordinates": [ [ -1.1508573, 51.613740300000018 ], [ -1.1511368, 51.6139003 ], [ -1.1515828, 51.6141575 ] ] } },
{ "type": "Feature", "properties": { "id": 59797, "nach": 0.49491909039097193 }, "geometry": { "type": "LineString", "coordinates": [ [ -1.1529773, 51.614938699999989 ], [ -1.1529264, 51.6149099 ], [ -1.1528204, 51.6148513 ], [ -1.1520005, 51.6143984 ], [ -1.1515828, 51.6141575 ] ] } },
{ "type": "Feature", "properties": { "id": 62913, "nach": 0.46811874141151921 }, "geometry": { "type": "LineString", "coordinates": [ [ -1.1524101, 51.613145899999985 ], [ -1.1521185, 51.61352930000001 ], [ -1.1515828, 51.6141575 ] ] } },
{ "type": "Feature", "properties": { "id": 62924, "nach": 0.45401522810958067 }, "geometry": { "type": "LineString", "coordinates": [ [ -1.1500828, 51.6132674 ], [ -1.1493963, 51.6128201 ], [ -1.1489499, 51.6125291 ], [ -1.1485701, 51.6123113 ], [ -1.1476682, 51.6118709 ], [ -1.1473957, 51.6117509 ] ] } },
{ "type": "Feature", "properties": { "id": 77365, "nach": 0.30837760852494206 }, "geometry": { "type": "LineString", "coordinates": [ [ -1.1459589, 51.6141512 ], [ -1.1457788, 51.6139749 ], [ -1.14557, 51.6137847 ], [ -1.1454399, 51.6136449 ], [ -1.1454224, 51.61360220000001 ], [ -1.1454274, 51.6135766 ], [ -1.1454827, 51.6135366 ], [ -1.1458094, 51.6133916 ], [ -1.1458187, 51.6133681 ], [ -1.1454186, 51.6130767 ], [ -1.1453972, 51.6130468 ], [ -1.1453949, 51.6130084 ], [ -1.1454025, 51.61297350000001 ], [ -1.1454401, 51.61293520000001 ], [ -1.1457271, 51.612783600000014 ], [ -1.1465344, 51.6123639 ], [ -1.1471969, 51.6120108 ], [ -1.1472828, 51.6119609 ], [ -1.1473368, 51.6118808 ], [ -1.1473957, 51.6117509 ] ] } },
{ "type": "Feature", "properties": { "id": 62926, "nach": 0.36284049313599909 }, "geometry": { "type": "LineString", "coordinates": [ [ -1.1504394, 51.613013 ], [ -1.1500828, 51.6132674 ] ] } },
{ "type": "Feature", "properties": { "id": 75828, "nach": 0.45882738173381543 }, "geometry": { "type": "LineString", "coordinates": [ [ -1.1508573, 51.613740300000018 ], [ -1.1506716, 51.613634 ], [ -1.1502286, 51.6133624 ], [ -1.1500828, 51.6132674 ] ] } },
{ "type": "Feature", "properties": { "id": 56727, "nach": 0.33830152749474951 }, "geometry": { "type": "LineString", "coordinates": [ [ -1.1535026, 51.6175689 ], [ -1.1537006, 51.616988200000016 ], [ -1.1537737, 51.6167288 ], [ -1.1537774, 51.6166022 ], [ -1.1537656, 51.6164504 ], [ -1.1537532, 51.6162635 ], [ -1.1538213, 51.6158577 ], [ -1.1538716, 51.6156645 ], [ -1.1539165, 51.6155871 ], [ -1.1540247, 51.6155197 ] ] } },
{ "type": "Feature", "properties": { "id": 75832, "nach": 0.4053857929731679 }, "geometry": { "type": "LineString", "coordinates": [ [ -1.1483898, 51.6145484 ], [ -1.1494378, 51.614207 ], [ -1.149819, 51.6140877 ], [ -1.1500508, 51.6140214 ], [ -1.1502764, 51.6139778 ], [ -1.1505997, 51.6138869 ], [ -1.1508573, 51.613740300000018 ] ] } },
{ "type": "Feature", "properties": { "id": 59798, "nach": 0.49691131292461371 }, "geometry": { "type": "LineString", "coordinates": [ [ -1.1529773, 51.614938699999989 ], [ -1.1530875, 51.615001 ], [ -1.1531978, 51.6150633 ] ] } },
{ "type": "Feature", "properties": { "id": 59800, "nach": 0.43424073729299384 }, "geometry": { "type": "LineString", "coordinates": [ [ -1.1526728, 51.61512 ], [ -1.1529773, 51.614938699999989 ] ] } },
{ "type": "Feature", "properties": { "id": 62916, "nach": 0.45148192949581006 }, "geometry": { "type": "LineString", "coordinates": [ [ -1.1528266, 51.61253330000001 ], [ -1.1527699, 51.6125837 ], [ -1.1524101, 51.613145899999985 ] ] } },
{ "type": "Feature", "properties": { "id": 56298, "nach": 0.44906509063064426 }, "geometry": { "type": "LineString", "coordinates": [ [ -1.1541824, 51.6154618 ], [ -1.1540758, 51.6154339 ], [ -1.1537223, 51.6153598 ] ] } },
{ "type": "Feature", "properties": { "id": 56297, "nach": 0.42580135194921143 }, "geometry": { "type": "LineString", "coordinates": [ [ -1.1541824, 51.6154618 ], [ -1.1540247, 51.6155197 ] ] } },
{ "type": "Feature", "properties": { "id": 59182, "nach": 0.49909207841553122 }, "geometry": { "type": "LineString", "coordinates": [ [ -1.1531978, 51.6150633 ], [ -1.1537223, 51.6153598 ] ] } },
{ "type": "Feature", "properties": { "id": 56293, "nach": 0.46095673655250846 }, "geometry": { "type": "LineString", "coordinates": [ [ -1.1540247, 51.6155197 ], [ -1.1537223, 51.6153598 ] ] } },
{ "type": "Feature", "properties": { "id": 59185, "nach": 0.29585375723311796 }, "geometry": { "type": "LineString", "coordinates": [ [ -1.1518437, 51.6177902 ], [ -1.1514038, 51.6175671 ], [ -1.1511712, 51.6174393 ], [ -1.1511199, 51.6174015 ], [ -1.1510874, 51.617344 ], [ -1.1510868, 51.61731240000001 ], [ -1.151086, 51.6172727 ], [ -1.1511065, 51.6172044 ], [ -1.1511116, 51.6171874 ], [ -1.151164, 51.6170893 ], [ -1.1513341, 51.6168843 ], [ -1.1517042, 51.6162247 ], [ -1.1517632, 51.6156552 ], [ -1.1522568, 51.6154386 ], [ -1.1528522, 51.6152055 ], [ -1.1530453, 51.6151389 ], [ -1.1531978, 51.6150633 ] ] } },
{ "type": "Feature", "properties": { "id": 93041, "nach": 0.44686381100608019 }, "geometry": { "type": "LineString", "coordinates": [ [ -1.1544352, 51.6165535 ], [ -1.1545176, 51.6165628 ] ] } },
{ "type": "Feature", "properties": { "id": 93042, "nach": 0.46731564938923026 }, "geometry": { "type": "LineString", "coordinates": [ [ -1.1544352, 51.6165535 ], [ -1.1544851, 51.616398799999985 ] ] } },
{ "type": "Feature", "properties": { "id": 59791, "nach": 0.39236883557230007 }, "geometry": { "type": "LineString", "coordinates": [ [ -1.1548573, 51.6165417 ], [ -1.1547835, 51.616529300000018 ], [ -1.1547252, 51.6165322 ], [ -1.1546461, 51.6165502 ], [ -1.1545176, 51.6165628 ] ] } },
{ "type": "Feature", "properties": { "id": 59794, "nach": 0.37998803123657082 }, "geometry": { "type": "LineString", "coordinates": [ [ -1.1545104, 51.6168804 ], [ -1.1544416, 51.6168221 ], [ -1.1545176, 51.6165628 ] ] } },
{ "type": "Feature", "properties": { "id": 93052, "nach": 0.36971971092168626 }, "geometry": { "type": "LineString", "coordinates": [ [ -1.1549324, 51.6166717 ], [ -1.1549297, 51.6166272 ], [ -1.1549029, 51.6165747 ], [ -1.1548573, 51.6165417 ] ] } },
{ "type": "Feature", "properties": { "id": 93039, "nach": 0.25882300264826247 }, "geometry": { "type": "LineString", "coordinates": [ [ -1.1544851, 51.616398799999985 ], [ -1.1548565, 51.6164408 ], [ -1.1548573, 51.6165417 ] ] } },
{ "type": "Feature", "properties": { "id": 93063, "nach": 0.33678970398120922 }, "geometry": { "type": "LineString", "coordinates": [ [ -1.1543859, 51.616937 ], [ -1.1545104, 51.6168804 ] ] } },
{ "type": "Feature", "properties": { "id": 93051, "nach": 0.17042119307612011 }, "geometry": { "type": "LineString", "coordinates": [ [ -1.1549324, 51.6166717 ], [ -1.1548869, 51.6167093 ], [ -1.1545104, 51.6168804 ] ] } },
{ "type": "Feature", "properties": { "id": 93053, "nach": 0.31262460971863842 }, "geometry": { "type": "LineString", "coordinates": [ [ -1.1549324, 51.6166717 ], [ -1.1550001, 51.6167 ], [ -1.1550289, 51.6167254 ], [ -1.1550303, 51.6167546 ], [ -1.1549981, 51.6167879 ], [ -1.1542524, 51.6171455 ], [ -1.1537133, 51.6173429 ] ] } },
{ "type": "Feature", "properties": { "id": 93046, "nach": 0.46077794119753307 }, "geometry": { "type": "LineString", "coordinates": [ [ -1.1545315, 51.61625530000002 ], [ -1.1544851, 51.616398799999985 ] ] } },
{ "type": "Feature", "properties": { "id": 93059, "nach": 0.0 }, "geometry": { "type": "LineString", "coordinates": [ [ -1.1543754, 51.6162376 ], [ -1.1542156, 51.6162196 ], [ -1.1541734, 51.6163636 ], [ -1.1544851, 51.616398799999985 ] ] } },
{ "type": "Feature", "properties": { "id": 59802, "nach": 0.36339641348209939 }, "geometry": { "type": "LineString", "coordinates": [ [ -1.1522812, 51.615283300000016 ], [ -1.1526728, 51.61512 ] ] } },
{ "type": "Feature", "properties": { "id": 59803, "nach": 0.3523285758211831 }, "geometry": { "type": "LineString", "coordinates": [ [ -1.1518735, 51.6148769 ], [ -1.1521363, 51.6147736 ], [ -1.1522409, 51.614778600000022 ], [ -1.152477, 51.6149502 ], [ -1.1526728, 51.61512 ] ] } },
{ "type": "Feature", "properties": { "id": 75766, "nach": 0.37082822158945644 }, "geometry": { "type": "LineString", "coordinates": [ [ -1.1605447, 51.6129495 ], [ -1.1604417, 51.612936 ], [ -1.1603633, 51.612881 ], [ -1.1604067, 51.6127636 ] ] } },
{ "type": "Feature", "properties": { "id": 106008, "nach": 0.44062971078120688 }, "geometry": { "type": "LineString", "coordinates": [ [ -1.1604177, 51.6105225 ], [ -1.1605749, 51.611364 ], [ -1.160643, 51.6117473 ], [ -1.1606945, 51.6120517 ], [ -1.160692, 51.6121703 ] ] } },
{ "type": "Feature", "properties": { "id": 102787, "nach": 0.41965381313585531 }, "geometry": { "type": "LineString", "coordinates": [ [ -1.1502717, 51.6108642 ], [ -1.1503271, 51.610705600000017 ] ] } },
{ "type": "Feature", "properties": { "id": 102790, "nach": 0.3501938714564603 }, "geometry": { "type": "LineString", "coordinates": [ [ -1.1506855, 51.6109974 ], [ -1.1505151, 51.6109077 ], [ -1.1503981, 51.6108657 ], [ -1.1502717, 51.6108642 ] ] } },
{ "type": "Feature", "properties": { "id": 102784, "nach": 0.49645296306541753 }, "geometry": { "type": "LineString", "coordinates": [ [ -1.151948, 51.61173620000001 ], [ -1.1524806, 51.6117905 ], [ -1.1525179, 51.6117969 ] ] } },
{ "type": "Feature", "properties": { "id": 102786, "nach": 0.35311318266188152 }, "geometry": { "type": "LineString", "coordinates": [ [ -1.1519161, 51.611103 ], [ -1.1520927, 51.6112315 ], [ -1.1520944, 51.6113799 ], [ -1.151948, 51.61173620000001 ] ] } },
{ "type": "Feature", "properties": { "id": 62730, "nach": 0.342449833080606 }, "geometry": { "type": "LineString", "coordinates": [ [ -1.1508495, 51.6100232 ], [ -1.1508172, 51.610064 ] ] } },
{ "type": "Feature", "properties": { "id": 62733, "nach": 0.41040862496601149 }, "geometry": { "type": "LineString", "coordinates": [ [ -1.1503863, 51.610577500000019 ], [ -1.1504166, 51.6105117 ], [ -1.1508172, 51.610064 ] ] } },
{ "type": "Feature", "properties": { "id": 62731, "nach": 0.33088937566257864 }, "geometry": { "type": "LineString", "coordinates": [ [ -1.1518475, 51.6100144 ], [ -1.1517449, 51.61001 ], [ -1.1514688, 51.609891399999988 ], [ -1.1513556, 51.6098628 ], [ -1.15126, 51.6098694 ], [ -1.1511786, 51.6099002 ], [ -1.1510866, 51.6099903 ], [ -1.150984, 51.6100232 ], [ -1.1508172, 51.610064 ] ] } },
{ "type": "Feature", "properties": { "id": 80165, "nach": 0.4454247684184382 }, "geometry": { "type": "LineString", "coordinates": [ [ -1.1503271, 51.610705600000017 ], [ -1.1503863, 51.610577500000019 ] ] } },
{ "type": "Feature", "properties": { "id": 62735, "nach": 0.33722540256101491 }, "geometry": { "type": "LineString", "coordinates": [ [ -1.1517378, 51.6103002 ], [ -1.1517024, 51.6103573 ], [ -1.1516529, 51.6104057 ], [ -1.1515644, 51.6104167 ], [ -1.1511751, 51.6103419 ], [ -1.1510901, 51.6103463 ], [ -1.1510194, 51.6103727 ], [ -1.1509167, 51.6104232 ], [ -1.1507575, 51.6104958 ], [ -1.1505734, 51.6105507 ], [ -1.1503863, 51.610577500000019 ] ] } },
{ "type": "Feature", "properties": { "id": 83719, "nach": 0.37001333264180369 }, "geometry": { "type": "LineString", "coordinates": [ [ -1.1526315, 51.611521400000015 ], [ -1.1525179, 51.6117969 ] ] } },
{ "type": "Feature", "properties": { "id": 80178, "nach": 0.49741658354111701 }, "geometry": { "type": "LineString", "coordinates": [ [ -1.1591714, 51.612036 ], [ -1.1591381, 51.612049100000021 ] ] } },
{ "type": "Feature", "properties": { "id": 80182, "nach": 0.48173254859465847 }, "geometry": { "type": "LineString", "coordinates": [ [ -1.1605512, 51.6124143 ], [ -1.160447, 51.6123655 ], [ -1.1601991, 51.61227 ], [ -1.1594975, 51.6120341 ], [ -1.1593164, 51.6120145 ], [ -1.1592091, 51.6120212 ], [ -1.1591714, 51.612036 ] ] } },
{ "type": "Feature", "properties": { "id": 80240, "nach": 0.38364890218526804 }, "geometry": { "type": "LineString", "coordinates": [ [ -1.146513, 51.6113644 ], [ -1.1464767, 51.611393 ] ] } },
{ "type": "Feature", "properties": { "id": 75834, "nach": 0.34377854440809652 }, "geometry": { "type": "LineString", "coordinates": [ [ -1.1484874, 51.614734 ], [ -1.1483807, 51.61459390000001 ], [ -1.1483898, 51.6145484 ] ] } },
{ "type": "Feature", "properties": { "id": 78568, "nach": 0.30169894048046725 }, "geometry": { "type": "LineString", "coordinates": [ [ -1.146837, 51.6150493 ], [ -1.1482426, 51.614596 ], [ -1.1483898, 51.6145484 ] ] } },
{ "type": "Feature", "properties": { "id": 80242, "nach": 0.48630669939033139 }, "geometry": { "type": "LineString", "coordinates": [ [ -1.146513, 51.6113644 ], [ -1.1458826, 51.611108 ], [ -1.1457337, 51.6110484 ] ] } },
{ "type": "Feature", "properties": { "id": 80161, "nach": 0.39861979840086692 }, "geometry": { "type": "LineString", "coordinates": [ [ -1.1457337, 51.6110484 ], [ -1.1456465, 51.611028 ], [ -1.14538, 51.610962800000017 ] ] } },
{ "type": "Feature", "properties": { "id": 83179, "nach": 0.33910200827088588 }, "geometry": { "type": "LineString", "coordinates": [ [ -1.1484534, 51.6102428 ], [ -1.1488035, 51.6104617 ], [ -1.1489078, 51.6105697 ], [ -1.1489135, 51.6106169 ], [ -1.1488526, 51.6106948 ] ] } },
{ "type": "Feature", "properties": { "id": 89256, "nach": 0.46945875760961014 }, "geometry": { "type": "LineString", "coordinates": [ [ -1.160692, 51.6121703 ], [ -1.1606522, 51.612265 ], [ -1.1605963, 51.612359 ], [ -1.1605512, 51.6124143 ] ] } },
{ "type": "Feature", "properties": { "id": 89254, "nach": 0.36961413838495366 }, "geometry": { "type": "LineString", "coordinates": [ [ -1.160692, 51.6121703 ], [ -1.1610017, 51.612166 ] ] } },
{ "type": "Feature", "properties": { "id": 93057, "nach": 0.40475841922688771 }, "geometry": { "type": "LineString", "coordinates": [ [ -1.1543754, 51.6162376 ], [ -1.1545315, 51.61625530000002 ] ] } },
{ "type": "Feature", "properties": { "id": 93062, "nach": 0.33678978857398045 }, "geometry": { "type": "LineString", "coordinates": [ [ -1.154889, 51.616295600000015 ], [ -1.1545315, 51.61625530000002 ] ] } },
{ "type": "Feature", "properties": { "id": 93048, "nach": 0.37875075569592004 }, "geometry": { "type": "LineString", "coordinates": [ [ -1.1545737, 51.6161112 ], [ -1.1545315, 51.61625530000002 ] ] } },
{ "type": "Feature", "properties": { "id": 93058, "nach": 0.37875074837803202 }, "geometry": { "type": "LineString", "coordinates": [ [ -1.1543754, 51.6162376 ], [ -1.1544176, 51.6160936 ] ] } },
{ "type": "Feature", "properties": { "id": 93056, "nach": 0.17034260274103874 }, "geometry": { "type": "LineString", "coordinates": [ [ -1.1544176, 51.6160936 ], [ -1.1545737, 51.6161112 ] ] } },
{ "type": "Feature", "properties": { "id": 93061, "nach": 0.33564002647325336 }, "geometry": { "type": "LineString", "coordinates": [ [ -1.1548199, 51.616139 ], [ -1.1545737, 51.6161112 ] ] } },
{ "type": "Feature", "properties": { "id": 93060, "nach": 0.33216831287098292 }, "geometry": { "type": "LineString", "coordinates": [ [ -1.1544549, 51.615966 ], [ -1.1544176, 51.6160936 ] ] } }
]
}
