{
"type": "FeatureCollection",
"name": "SOUOX_53_NACH_800m",
"crs": { "type": "name", "properties": { "name": "urn:ogc:def:crs:OGC:1.3:CRS84" } },
"features": [
{ "type": "Feature", "properties": { "id": 39667, "nach": 0.0 }, "geometry": { "type": "LineString", "coordinates": [ [ -0.972556, 51.689831 ], [ -0.97241, 51.6898415 ], [ -0.96897, 51.6900884 ], [ -0.9661512, 51.6902503 ], [ -0.9661248, 51.690248 ], [ -0.9650023, 51.6901517 ], [ -0.9643619, 51.6900967 ], [ -0.9640127, 51.6900818 ], [ -0.9639306, 51.69007830000001 ], [ -0.9638285, 51.6900739 ], [ -0.962791, 51.6899763 ], [ -0.960259, 51.689689 ], [ -0.9572259, 51.6893606 ], [ -0.9561498, 51.689243 ], [ -0.9551099, 51.6891192 ] ] } },
{ "type": "Feature", "properties": { "id": 39689, "nach": 0.0 }, "geometry": { "type": "LineString", "coordinates": [ [ -0.9631381, 51.68366 ], [ -0.96269890000001, 51.683955 ], [ -0.9606819, 51.685179 ], [ -0.9597219, 51.6858681 ], [ -0.9582357, 51.686935 ], [ -0.9559183, 51.6882918 ], [ -0.9544378, 51.6890537 ] ] } },
{ "type": "Feature", "properties": { "id": 39664, "nach": 0.0 }, "geometry": { "type": "LineString", "coordinates": [ [ -0.9551099, 51.6891192 ], [ -0.9553886, 51.6892015 ], [ -0.9556364, 51.689348 ], [ -0.95641, 51.6900422 ], [ -0.9573305, 51.6906632 ], [ -0.9593937, 51.6917616 ], [ -0.960212, 51.6925498 ], [ -0.960319, 51.692762199999983 ], [ -0.9609035, 51.6938986 ], [ -0.9617428, 51.6949538 ], [ -0.961853, 51.6952037 ], [ -0.9620389, 51.69622480000001 ], [ -0.9622205, 51.6965824 ], [ -0.963049, 51.6973214 ], [ -0.9641879, 51.6981626 ], [ -0.9650242, 51.698661 ] ] } },
{ "type": "Feature", "properties": { "id": 39672, "nach": 0.24305982564064196 }, "geometry": { "type": "LineString", "coordinates": [ [ -0.9544378, 51.6890537 ], [ -0.9551099, 51.6891192 ] ] } },
{ "type": "Feature", "properties": { "id": 46758, "nach": 0.27684271823451168 }, "geometry": { "type": "LineString", "coordinates": [ [ -0.951662, 51.6800323 ], [ -0.9520185, 51.679788300000013 ], [ -0.9523337, 51.6795247 ], [ -0.9525465, 51.6793128 ] ] } },
{ "type": "Feature", "properties": { "id": 111496, "nach": 0.31107280308767044 }, "geometry": { "type": "LineString", "coordinates": [ [ -0.9527151, 51.6793488 ], [ -0.9525171, 51.6794881 ], [ -0.9521958, 51.6797177 ], [ -0.9518414, 51.6799363 ], [ -0.951662, 51.6800323 ] ] } },
{ "type": "Feature", "properties": { "id": 57873, "nach": 0.34147470340330771 }, "geometry": { "type": "LineString", "coordinates": [ [ -0.9484701, 51.6813781 ], [ -0.9488927, 51.681214600000011 ], [ -0.9499171, 51.6808409 ], [ -0.9506811, 51.680554 ], [ -0.9510408, 51.6803865 ], [ -0.9513466, 51.6802301 ], [ -0.951662, 51.6800323 ] ] } },
{ "type": "Feature", "properties": { "id": 7556, "nach": 0.30814733100761932 }, "geometry": { "type": "LineString", "coordinates": [ [ -0.9474076, 51.6818424 ], [ -0.9473562, 51.6818717 ] ] } },
{ "type": "Feature", "properties": { "id": 7481, "nach": 0.10663248381883285 }, "geometry": { "type": "LineString", "coordinates": [ [ -0.93943, 51.6769692 ], [ -0.9435054, 51.6794844 ], [ -0.9449268, 51.6803199 ], [ -0.945932, 51.680864 ], [ -0.9463406, 51.6810947 ], [ -0.9473562, 51.6818717 ] ] } },
{ "type": "Feature", "properties": { "id": 5805, "nach": 0.0 }, "geometry": { "type": "LineString", "coordinates": [ [ -0.9349998, 51.6874905 ], [ -0.9360994, 51.6870992 ], [ -0.9373522, 51.6866534 ], [ -0.9396124, 51.6857956 ], [ -0.9409625, 51.6852104 ], [ -0.9419437, 51.6847518 ], [ -0.9446688, 51.6832883 ], [ -0.9465631, 51.68228 ], [ -0.9473562, 51.6818717 ] ] } },
{ "type": "Feature", "properties": { "id": 93749, "nach": 0.40642091940584574 }, "geometry": { "type": "LineString", "coordinates": [ [ -0.9485536, 51.6826236 ], [ -0.9484546, 51.68254610000001 ], [ -0.948162, 51.6823156 ], [ -0.9477857, 51.682063 ], [ -0.9474076, 51.6818424 ] ] } },
{ "type": "Feature", "properties": { "id": 76026, "nach": 0.39272276298175085 }, "geometry": { "type": "LineString", "coordinates": [ [ -0.94787, 51.6816102 ], [ -0.9478351, 51.6816237 ], [ -0.9476513, 51.681705799999989 ], [ -0.9474076, 51.6818424 ] ] } },
{ "type": "Feature", "properties": { "id": 43218, "nach": 0.37837877688585997 }, "geometry": { "type": "LineString", "coordinates": [ [ -0.9346917, 51.6876053 ], [ -0.9349998, 51.6874905 ] ] } },
{ "type": "Feature", "properties": { "id": 38988, "nach": 0.35159036358058166 }, "geometry": { "type": "LineString", "coordinates": [ [ -0.9344978, 51.6861412 ], [ -0.9345744, 51.6862429 ], [ -0.9346312, 51.6863788 ], [ -0.9347457, 51.686842 ], [ -0.9348154, 51.68721 ], [ -0.9348507, 51.6873299 ], [ -0.9348982, 51.6873955 ], [ -0.9349998, 51.6874905 ] ] } },
{ "type": "Feature", "properties": { "id": 43221, "nach": 0.34714512655691371 }, "geometry": { "type": "LineString", "coordinates": [ [ -0.93431, 51.687705 ], [ -0.9346917, 51.6876053 ] ] } },
{ "type": "Feature", "properties": { "id": 43226, "nach": 0.35557606173282025 }, "geometry": { "type": "LineString", "coordinates": [ [ -0.9346801, 51.6878915 ], [ -0.9346567, 51.6877896 ], [ -0.9346533, 51.6877064 ], [ -0.9346917, 51.6876053 ] ] } },
{ "type": "Feature", "properties": { "id": 56499, "nach": 0.106546992042342 }, "geometry": { "type": "LineString", "coordinates": [ [ -0.9288915, 51.681783400000015 ], [ -0.9306461, 51.6831461 ], [ -0.9324836, 51.6845702 ], [ -0.9337419, 51.6855417 ], [ -0.9341301, 51.6858436 ], [ -0.93441, 51.686058700000011 ], [ -0.9344978, 51.6861412 ] ] } },
{ "type": "Feature", "properties": { "id": 88538, "nach": 0.3078318823075607 }, "geometry": { "type": "LineString", "coordinates": [ [ -0.9309422, 51.6877071 ], [ -0.9309675, 51.6876543 ], [ -0.9310133, 51.687568 ], [ -0.93109130000001, 51.6875062 ], [ -0.9312146, 51.6874333 ], [ -0.9316302, 51.687218800000011 ], [ -0.9318465, 51.6871337 ], [ -0.9321911, 51.6869825 ], [ -0.932459, 51.6868684 ], [ -0.9327162, 51.6867714 ], [ -0.933137, 51.6866266 ], [ -0.9336421, 51.6864489 ], [ -0.9340105, 51.6863203 ], [ -0.9344978, 51.6861412 ] ] } },
{ "type": "Feature", "properties": { "id": 7540, "nach": 0.44121660022818043 }, "geometry": { "type": "LineString", "coordinates": [ [ -0.9499515, 51.6847663 ], [ -0.950156, 51.6846488 ], [ -0.9503348, 51.6845186 ], [ -0.9504186, 51.6844213 ], [ -0.9504353, 51.684313 ], [ -0.9503721, 51.6841858 ] ] } },
{ "type": "Feature", "properties": { "id": 55084, "nach": 0.45273627125991445 }, "geometry": { "type": "LineString", "coordinates": [ [ -0.9497666, 51.6836251 ], [ -0.9500872, 51.6838851 ], [ -0.9503721, 51.6841858 ] ] } },
{ "type": "Feature", "properties": { "id": 73308, "nach": 0.40165070571502931 }, "geometry": { "type": "LineString", "coordinates": [ [ -0.9506689, 51.6842596 ], [ -0.9505267, 51.6842161 ], [ -0.9503721, 51.6841858 ] ] } },
{ "type": "Feature", "properties": { "id": 77204, "nach": 0.39896575059335143 }, "geometry": { "type": "LineString", "coordinates": [ [ -0.9506462, 51.6854183 ], [ -0.9505828, 51.68533260000001 ], [ -0.9504498, 51.6851739 ], [ -0.9499515, 51.6847663 ] ] } },
{ "type": "Feature", "properties": { "id": 46436, "nach": 0.45802703662716809 }, "geometry": { "type": "LineString", "coordinates": [ [ -0.9492298, 51.6851956 ], [ -0.949308, 51.685059 ], [ -0.9494388, 51.6849488 ], [ -0.9499515, 51.6847663 ] ] } },
{ "type": "Feature", "properties": { "id": 55082, "nach": 0.42008277582428133 }, "geometry": { "type": "LineString", "coordinates": [ [ -0.9497666, 51.6836251 ], [ -0.9494934, 51.6834035 ] ] } },
{ "type": "Feature", "properties": { "id": 55085, "nach": 0.38508841782112496 }, "geometry": { "type": "LineString", "coordinates": [ [ -0.9494514, 51.683673 ], [ -0.9497666, 51.6836251 ] ] } },
{ "type": "Feature", "properties": { "id": 73312, "nach": 0.39543899395284199 }, "geometry": { "type": "LineString", "coordinates": [ [ -0.9515144, 51.6849242 ], [ -0.951413, 51.6848469 ], [ -0.951191, 51.6846469 ], [ -0.9509518, 51.6844554 ], [ -0.9507762, 51.68431240000001 ], [ -0.9506689, 51.6842596 ] ] } },
{ "type": "Feature", "properties": { "id": 108651, "nach": 0.23863655504531664 }, "geometry": { "type": "LineString", "coordinates": [ [ -0.9497503, 51.6833318 ], [ -0.9498308, 51.6833978 ], [ -0.9499965, 51.6835682 ], [ -0.9502009, 51.6837653 ], [ -0.9503599, 51.6839484 ], [ -0.9504508, 51.6840343 ], [ -0.9505802, 51.6841624 ], [ -0.9506689, 51.6842596 ] ] } },
{ "type": "Feature", "properties": { "id": 77203, "nach": 0.34211056963183367 }, "geometry": { "type": "LineString", "coordinates": [ [ -0.9506462, 51.6854183 ], [ -0.9507057, 51.6856595 ], [ -0.9506827, 51.68598690000001 ], [ -0.9507541, 51.6862318 ], [ -0.9509837, 51.68660160000001 ], [ -0.9512582, 51.6869426 ], [ -0.9515308, 51.6872661 ], [ -0.951793, 51.6876599 ], [ -0.952048, 51.687852 ], [ -0.952893, 51.6883481 ], [ -0.9533905, 51.6888441 ], [ -0.9538011, 51.6890639 ] ] } },
{ "type": "Feature", "properties": { "id": 77205, "nach": 0.37944166589375122 }, "geometry": { "type": "LineString", "coordinates": [ [ -0.9512016, 51.685519800000016 ], [ -0.9506462, 51.6854183 ] ] } },
{ "type": "Feature", "properties": { "id": 46434, "nach": 0.4454226755904393 }, "geometry": { "type": "LineString", "coordinates": [ [ -0.9492298, 51.6851956 ], [ -0.949134, 51.6854167 ] ] } },
{ "type": "Feature", "properties": { "id": 66601, "nach": 0.32696337462707442 }, "geometry": { "type": "LineString", "coordinates": [ [ -0.9493721, 51.685317 ], [ -0.9492298, 51.6851956 ] ] } },
{ "type": "Feature", "properties": { "id": 66600, "nach": 0.2756846702608729 }, "geometry": { "type": "LineString", "coordinates": [ [ -0.9493721, 51.685317 ], [ -0.949134, 51.6854167 ] ] } },
{ "type": "Feature", "properties": { "id": 66599, "nach": 0.44658977297266106 }, "geometry": { "type": "LineString", "coordinates": [ [ -0.9486975, 51.6857289 ], [ -0.9489003, 51.6856132 ], [ -0.949134, 51.6854167 ] ] } },
{ "type": "Feature", "properties": { "id": 66602, "nach": 0.30722783157512218 }, "geometry": { "type": "LineString", "coordinates": [ [ -0.9493721, 51.685317 ], [ -0.9494928, 51.6852887 ], [ -0.9496135, 51.6852272 ] ] } },
{ "type": "Feature", "properties": { "id": 66597, "nach": 0.43830864895885263 }, "geometry": { "type": "LineString", "coordinates": [ [ -0.9486975, 51.6857289 ], [ -0.9481629, 51.6860213 ] ] } },
{ "type": "Feature", "properties": { "id": 66598, "nach": 0.30570535052091791 }, "geometry": { "type": "LineString", "coordinates": [ [ -0.9486975, 51.6857289 ], [ -0.9485648, 51.6856329 ] ] } },
{ "type": "Feature", "properties": { "id": 61011, "nach": 0.41560838161805302 }, "geometry": { "type": "LineString", "coordinates": [ [ -0.9476092, 51.686305 ], [ -0.9479605, 51.6861226 ] ] } },
{ "type": "Feature", "properties": { "id": 66591, "nach": 0.42803232509964306 }, "geometry": { "type": "LineString", "coordinates": [ [ -0.9481629, 51.6860213 ], [ -0.9479605, 51.6861226 ] ] } },
{ "type": "Feature", "properties": { "id": 100963, "nach": 0.29712866901993679 }, "geometry": { "type": "LineString", "coordinates": [ [ -0.947144, 51.686005200000011 ], [ -0.9472399, 51.6859893 ], [ -0.9474357, 51.6858896 ], [ -0.9475941, 51.6858793 ], [ -0.947742, 51.6859241 ], [ -0.9479605, 51.6861226 ] ] } },
{ "type": "Feature", "properties": { "id": 61012, "nach": 0.36632274336038328 }, "geometry": { "type": "LineString", "coordinates": [ [ -0.9476092, 51.686305 ], [ -0.9473459, 51.6864622 ], [ -0.9472553, 51.6865442 ], [ -0.947132, 51.6867762 ], [ -0.9469946, 51.6869169 ], [ -0.9467661, 51.6870881 ] ] } },
{ "type": "Feature", "properties": { "id": 61013, "nach": 0.35850149866212538 }, "geometry": { "type": "LineString", "coordinates": [ [ -0.9476092, 51.686305 ], [ -0.9475455, 51.6862809 ], [ -0.9473891, 51.6862706 ], [ -0.9472228, 51.6863039 ], [ -0.9455182, 51.6869311 ] ] } },
{ "type": "Feature", "properties": { "id": 66596, "nach": 0.30416357932895599 }, "geometry": { "type": "LineString", "coordinates": [ [ -0.9481893, 51.6861069 ], [ -0.9481629, 51.6860213 ] ] } },
{ "type": "Feature", "properties": { "id": 46438, "nach": 0.28078084656374075 }, "geometry": { "type": "LineString", "coordinates": [ [ -0.9477773, 51.6867882 ], [ -0.9479516, 51.6869096 ], [ -0.9480562, 51.6869795 ], [ -0.9480777, 51.687036 ], [ -0.9480267, 51.687087599999984 ], [ -0.9478336, 51.6872688 ], [ -0.9477504, 51.6873852 ], [ -0.9476619, 51.6874584 ], [ -0.9475387, 51.6874816 ], [ -0.9473938, 51.6874866 ], [ -0.9472705, 51.6874567 ], [ -0.9471632, 51.6874002 ], [ -0.9470559, 51.68731540000001 ], [ -0.9467661, 51.6870881 ] ] } },
{ "type": "Feature", "properties": { "id": 46433, "nach": 0.33162139092534915 }, "geometry": { "type": "LineString", "coordinates": [ [ -0.9460875, 51.6874121 ], [ -0.9462372, 51.6873785 ], [ -0.9465669, 51.6872178 ], [ -0.9467661, 51.6870881 ] ] } },
{ "type": "Feature", "properties": { "id": 46432, "nach": 0.2382379766859565 }, "geometry": { "type": "LineString", "coordinates": [ [ -0.9460875, 51.6874121 ], [ -0.9459654, 51.6873794 ], [ -0.9458078, 51.6872593 ], [ -0.9455182, 51.6869311 ] ] } },
{ "type": "Feature", "properties": { "id": 46437, "nach": 0.28635640553159147 }, "geometry": { "type": "LineString", "coordinates": [ [ -0.9456021, 51.6878308 ], [ -0.9457899, 51.6876845 ], [ -0.9459964, 51.6875615 ], [ -0.9460581, 51.6874949 ], [ -0.9460875, 51.6874121 ] ] } },
{ "type": "Feature", "properties": { "id": 39658, "nach": 0.35055004044535082 }, "geometry": { "type": "LineString", "coordinates": [ [ -0.9454114, 51.6868193 ], [ -0.9455182, 51.6869311 ] ] } },
{ "type": "Feature", "properties": { "id": 46441, "nach": 0.21254901698932799 }, "geometry": { "type": "LineString", "coordinates": [ [ -0.9363857, 51.6895844 ], [ -0.9364665, 51.6895285 ], [ -0.9365286, 51.6894993 ], [ -0.9369219, 51.689241700000011 ], [ -0.9378314, 51.6886933 ], [ -0.9382936, 51.6884461 ], [ -0.9387629, 51.6881807 ], [ -0.9389578, 51.6881089 ], [ -0.9396197, 51.6880527 ], [ -0.9399333, 51.6880506 ], [ -0.9419708, 51.6877331 ], [ -0.943385, 51.6875115 ], [ -0.943905, 51.6874183 ], [ -0.9445236, 51.687313 ], [ -0.9449611, 51.687190200000011 ], [ -0.9453216, 51.6870008 ], [ -0.9455182, 51.6869311 ] ] } },
{ "type": "Feature", "properties": { "id": 39661, "nach": 0.2665297996976263 }, "geometry": { "type": "LineString", "coordinates": [ [ -0.9430488, 51.68748630000001 ], [ -0.94373, 51.687360600000012 ], [ -0.9439308, 51.68732150000001 ], [ -0.9441546, 51.6872969 ], [ -0.9447299, 51.68718350000001 ], [ -0.9450717, 51.686993 ], [ -0.9451617, 51.6868597 ], [ -0.9452761, 51.686810299999983 ], [ -0.9454114, 51.6868193 ] ] } },
{ "type": "Feature", "properties": { "id": 90187, "nach": 0.28100836188788519 }, "geometry": { "type": "LineString", "coordinates": [ [ -0.9464171, 51.6863737 ], [ -0.9464077, 51.6863923 ], [ -0.946374, 51.6864353 ], [ -0.946329, 51.6864679 ], [ -0.946284, 51.6864841 ], [ -0.9462278, 51.6864911 ], [ -0.9461022, 51.6864923 ], [ -0.9460516, 51.6864969 ], [ -0.945986, 51.6865143 ], [ -0.9458548, 51.6865534 ], [ -0.9456049, 51.6866345 ], [ -0.9455334, 51.6866589 ], [ -0.9454848, 51.6866937 ], [ -0.9454501, 51.6867375 ], [ -0.9454308, 51.6867698 ], [ -0.9454114, 51.6868193 ] ] } },
{ "type": "Feature", "properties": { "id": 46440, "nach": 0.40455293992994412 }, "geometry": { "type": "LineString", "coordinates": [ [ -0.9363857, 51.6895844 ], [ -0.9363146, 51.6895419 ] ] } },
{ "type": "Feature", "properties": { "id": 46442, "nach": 0.38729442881947473 }, "geometry": { "type": "LineString", "coordinates": [ [ -0.9365345, 51.6896565 ], [ -0.9363857, 51.6895844 ] ] } },
{ "type": "Feature", "properties": { "id": 93748, "nach": 0.41386839914027962 }, "geometry": { "type": "LineString", "coordinates": [ [ -0.9485536, 51.6826236 ], [ -0.9486957, 51.6825552 ], [ -0.9488063, 51.6825425 ], [ -0.9490338, 51.6827383 ], [ -0.9489339, 51.6827986 ], [ -0.948832, 51.682841399999987 ] ] } },
{ "type": "Feature", "properties": { "id": 76025, "nach": 0.37242764863015149 }, "geometry": { "type": "LineString", "coordinates": [ [ -0.94787, 51.6816102 ], [ -0.9484701, 51.6813781 ] ] } },
{ "type": "Feature", "properties": { "id": 76028, "nach": 0.29851303589091255 }, "geometry": { "type": "LineString", "coordinates": [ [ -0.9472947, 51.6809108 ], [ -0.9475509, 51.6812211 ], [ -0.9477258, 51.6814248 ], [ -0.94787, 51.6816102 ] ] } },
{ "type": "Feature", "properties": { "id": 73467, "nach": 0.32295452001532637 }, "geometry": { "type": "LineString", "coordinates": [ [ -0.9566732, 51.6826654 ], [ -0.9567233, 51.68264820000001 ], [ -0.9576002, 51.682567899999981 ], [ -0.9589461, 51.6824284 ], [ -0.9594418, 51.6823622 ], [ -0.9598116, 51.6823598 ], [ -0.9605322, 51.6824237 ], [ -0.9606199, 51.6824189 ], [ -0.9607114, 51.682392900000011 ], [ -0.9608334, 51.6823433 ], [ -0.9612672, 51.6821688 ] ] } },
{ "type": "Feature", "properties": { "id": 43222, "nach": 0.39813165578070842 }, "geometry": { "type": "LineString", "coordinates": [ [ -0.93431, 51.687705 ], [ -0.9338326, 51.6878504 ], [ -0.9331788, 51.6880857 ], [ -0.9329213, 51.6881899 ], [ -0.9327834, 51.6882678 ], [ -0.9326895, 51.6883392 ], [ -0.9325805, 51.6884688 ] ] } },
{ "type": "Feature", "properties": { "id": 43225, "nach": 0.35543816498322939 }, "geometry": { "type": "LineString", "coordinates": [ [ -0.9346801, 51.6878915 ], [ -0.9345386, 51.6877973 ], [ -0.9344229, 51.6877455 ], [ -0.93431, 51.687705 ] ] } },
{ "type": "Feature", "properties": { "id": 39696, "nach": 0.22287929332523729 }, "geometry": { "type": "LineString", "coordinates": [ [ -0.9411077, 51.694536 ], [ -0.9394531, 51.6925753 ], [ -0.9389943, 51.6920218 ] ] } },
{ "type": "Feature", "properties": { "id": 46443, "nach": 0.33180665907067125 }, "geometry": { "type": "LineString", "coordinates": [ [ -0.9365345, 51.6896565 ], [ -0.9368919, 51.6899102 ], [ -0.9376917, 51.6905748 ], [ -0.9377681, 51.6906522 ], [ -0.9378183, 51.6907277 ], [ -0.9378496, 51.6907944 ], [ -0.9378576, 51.6908692 ], [ -0.9378609, 51.6909564 ], [ -0.9378754, 51.6910395 ], [ -0.9379094, 51.6911349 ], [ -0.9379673, 51.6912305 ], [ -0.9380396, 51.6913159 ], [ -0.9381451, 51.6914126 ], [ -0.9382436, 51.6914872 ], [ -0.9383738, 51.6915775 ], [ -0.9386275, 51.6917278 ], [ -0.9388302, 51.6918598 ], [ -0.9389943, 51.6920218 ] ] } },
{ "type": "Feature", "properties": { "id": 77244, "nach": 0.27606171112421224 }, "geometry": { "type": "LineString", "coordinates": [ [ -0.9378317, 51.6922104 ], [ -0.9381943, 51.6920875 ], [ -0.9383989, 51.692136 ], [ -0.9388216, 51.692072500000023 ], [ -0.9389943, 51.6920218 ] ] } },
{ "type": "Feature", "properties": { "id": 39694, "nach": 0.0 }, "geometry": { "type": "LineString", "coordinates": [ [ -0.9411077, 51.694536 ], [ -0.9424962, 51.6940144 ], [ -0.9440122, 51.6933754 ], [ -0.9454438, 51.6927333 ], [ -0.9475784, 51.692109 ], [ -0.9487215, 51.6917556 ], [ -0.9498807, 51.6913382 ], [ -0.9509527, 51.6908101 ], [ -0.9524421, 51.6898881 ], [ -0.9538011, 51.6890639 ] ] } },
{ "type": "Feature", "properties": { "id": 90147, "nach": 0.31119101329838017 }, "geometry": { "type": "LineString", "coordinates": [ [ -0.9379059, 51.6899813 ], [ -0.9376872, 51.6897882 ], [ -0.9375967, 51.6897362 ], [ -0.9374575, 51.689688200000013 ], [ -0.937389, 51.689659500000012 ], [ -0.9373117, 51.6896115 ], [ -0.9370841, 51.68944170000001 ], [ -0.9370002, 51.689408900000011 ], [ -0.936914, 51.6894157 ], [ -0.9367638, 51.6894965 ], [ -0.9365345, 51.6896565 ] ] } },
{ "type": "Feature", "properties": { "id": 38940, "nach": 0.42372943130616614 }, "geometry": { "type": "LineString", "coordinates": [ [ -0.9360713, 51.6898015 ], [ -0.9363146, 51.6895419 ] ] } },
{ "type": "Feature", "properties": { "id": 38978, "nach": 0.39936521366720817 }, "geometry": { "type": "LineString", "coordinates": [ [ -0.9359969, 51.689321400000011 ], [ -0.9363146, 51.6895419 ] ] } },
{ "type": "Feature", "properties": { "id": 38944, "nach": 0.4303854427612932 }, "geometry": { "type": "LineString", "coordinates": [ [ -0.9352875, 51.6902931 ], [ -0.9358781, 51.6899469 ], [ -0.9360221, 51.6898479 ], [ -0.9360713, 51.6898015 ] ] } },
{ "type": "Feature", "properties": { "id": 79399, "nach": 0.30945790493911318 }, "geometry": { "type": "LineString", "coordinates": [ [ -0.937339, 51.6910202 ], [ -0.9371806, 51.690862 ], [ -0.9370931, 51.6908121 ], [ -0.93706, 51.690793099999986 ], [ -0.937008, 51.6907784 ], [ -0.9369537, 51.6907521 ], [ -0.9369064, 51.6907198 ], [ -0.9368567, 51.6906964 ], [ -0.9368, 51.69067 ], [ -0.9367527, 51.6906275 ], [ -0.9367078, 51.6905586 ], [ -0.9366558, 51.6904883 ], [ -0.9366251, 51.6904487 ], [ -0.9366188, 51.690416399999989 ], [ -0.9360713, 51.6898015 ] ] } },
{ "type": "Feature", "properties": { "id": 38980, "nach": 0.40859218305241268 }, "geometry": { "type": "LineString", "coordinates": [ [ -0.9359969, 51.689321400000011 ], [ -0.9355356, 51.688907 ], [ -0.9354008, 51.6887927 ] ] } },
{ "type": "Feature", "properties": { "id": 43229, "nach": 0.3143292590547262 }, "geometry": { "type": "LineString", "coordinates": [ [ -0.9358146, 51.68961 ], [ -0.9357395, 51.6895518 ], [ -0.9357267, 51.6894681 ], [ -0.9359969, 51.689321400000011 ] ] } },
{ "type": "Feature", "properties": { "id": 78516, "nach": 0.40907607328028212 }, "geometry": { "type": "LineString", "coordinates": [ [ -0.9351479, 51.688508599999984 ], [ -0.9354008, 51.6887927 ] ] } },
{ "type": "Feature", "properties": { "id": 72323, "nach": 0.36517682615559771 }, "geometry": { "type": "LineString", "coordinates": [ [ -0.9335496, 51.6895553 ], [ -0.9338408, 51.6894629 ], [ -0.9337653, 51.6893742 ], [ -0.9342381, 51.6892075 ], [ -0.9343708, 51.6891738 ], [ -0.9346504, 51.6891028 ], [ -0.935118, 51.6889695 ], [ -0.9354008, 51.6887927 ] ] } },
{ "type": "Feature", "properties": { "id": 78517, "nach": 0.3938399057104589 }, "geometry": { "type": "LineString", "coordinates": [ [ -0.9351479, 51.688508599999984 ], [ -0.9349159, 51.6882237 ], [ -0.9347425, 51.6879617 ], [ -0.9346801, 51.6878915 ] ] } },
{ "type": "Feature", "properties": { "id": 78519, "nach": 0.3131056997896744 }, "geometry": { "type": "LineString", "coordinates": [ [ -0.934797, 51.6885589 ], [ -0.9349797, 51.6885326 ], [ -0.9351479, 51.688508599999984 ] ] } },
{ "type": "Feature", "properties": { "id": 55086, "nach": 0.32707319229198217 }, "geometry": { "type": "LineString", "coordinates": [ [ -0.9494514, 51.683673 ], [ -0.9494934, 51.6834035 ] ] } },
{ "type": "Feature", "properties": { "id": 108650, "nach": 0.33746191201749592 }, "geometry": { "type": "LineString", "coordinates": [ [ -0.9497503, 51.6833318 ], [ -0.9494934, 51.6834035 ] ] } },
{ "type": "Feature", "properties": { "id": 93746, "nach": 0.42092035809875378 }, "geometry": { "type": "LineString", "coordinates": [ [ -0.948832, 51.682841399999987 ], [ -0.9490132, 51.6829832 ], [ -0.9494934, 51.6834035 ] ] } },
{ "type": "Feature", "properties": { "id": 76349, "nach": 0.39425134829524178 }, "geometry": { "type": "LineString", "coordinates": [ [ -0.9483411, 51.6846654 ], [ -0.9485159, 51.6846256 ], [ -0.9486708, 51.68456 ], [ -0.9488016, 51.6844586 ], [ -0.9490022, 51.6842845 ], [ -0.9492755, 51.6839722 ], [ -0.9494014, 51.6837864 ], [ -0.9494514, 51.683673 ] ] } },
{ "type": "Feature", "properties": { "id": 108649, "nach": 0.30484280424010562 }, "geometry": { "type": "LineString", "coordinates": [ [ -0.9497503, 51.6833318 ], [ -0.9502804, 51.6831838 ] ] } },
{ "type": "Feature", "properties": { "id": 90189, "nach": 0.33670298094606627 }, "geometry": { "type": "LineString", "coordinates": [ [ -0.9474864, 51.684979399999989 ], [ -0.9474712, 51.6849696 ], [ -0.9474689, 51.6849442 ], [ -0.9474896, 51.684919700000016 ], [ -0.9476583, 51.684855299999988 ], [ -0.9477499, 51.684833500000011 ], [ -0.9478413, 51.6848172 ] ] } },
{ "type": "Feature", "properties": { "id": 76350, "nach": 0.3630709106947036 }, "geometry": { "type": "LineString", "coordinates": [ [ -0.9483411, 51.6846654 ], [ -0.9480128, 51.6847555 ], [ -0.9478961, 51.6847936 ], [ -0.9478413, 51.6848172 ] ] } },
{ "type": "Feature", "properties": { "id": 90191, "nach": 0.2911556341267893 }, "geometry": { "type": "LineString", "coordinates": [ [ -0.9472479, 51.6852056 ], [ -0.9473229, 51.6851638 ], [ -0.9473707, 51.6851318 ], [ -0.947396, 51.6851103 ], [ -0.9474335, 51.6850719 ], [ -0.9474864, 51.684979399999989 ] ] } },
{ "type": "Feature", "properties": { "id": 76352, "nach": 0.29163372571170426 }, "geometry": { "type": "LineString", "coordinates": [ [ -0.9477109, 51.6838952 ], [ -0.9481094, 51.6843811 ], [ -0.9481675, 51.6844084 ], [ -0.9483411, 51.6846654 ] ] } },
{ "type": "Feature", "properties": { "id": 61015, "nach": 0.29318007049737665 }, "geometry": { "type": "LineString", "coordinates": [ [ -0.95388, 51.6890626 ], [ -0.9544378, 51.6890537 ] ] } },
{ "type": "Feature", "properties": { "id": 61016, "nach": 0.0 }, "geometry": { "type": "LineString", "coordinates": [ [ -0.95388, 51.6890626 ], [ -0.9539938, 51.689317399999986 ], [ -0.9541783, 51.6897471 ], [ -0.9543647, 51.6902388 ], [ -0.9542952, 51.691551600000011 ], [ -0.9540882, 51.6917529 ], [ -0.9537531, 51.692997 ], [ -0.9532176, 51.6942501 ], [ -0.9529827, 51.6944214 ], [ -0.9530859, 51.6955012 ], [ -0.9531717, 51.6977356 ], [ -0.9529571, 51.6996507 ], [ -0.952528, 51.7013796 ], [ -0.9518842, 51.7029488 ], [ -0.9508972, 51.7034807 ], [ -0.9497738, 51.70404760000001 ] ] } },
{ "type": "Feature", "properties": { "id": 61014, "nach": 0.32319923530315736 }, "geometry": { "type": "LineString", "coordinates": [ [ -0.95388, 51.6890626 ], [ -0.9538011, 51.6890639 ] ] } },
{ "type": "Feature", "properties": { "id": 78520, "nach": 0.31671023574709906 }, "geometry": { "type": "LineString", "coordinates": [ [ -0.9342754, 51.6880693 ], [ -0.9344644, 51.6879858 ], [ -0.9346801, 51.6878915 ] ] } },
{ "type": "Feature", "properties": { "id": 57875, "nach": 0.30423124119937311 }, "geometry": { "type": "LineString", "coordinates": [ [ -0.9487591, 51.6816197 ], [ -0.9486384, 51.6815349 ], [ -0.9484701, 51.6813781 ] ] } },
{ "type": "Feature", "properties": { "id": 73314, "nach": 0.3061005255543765 }, "geometry": { "type": "LineString", "coordinates": [ [ -0.9519056, 51.6847346 ], [ -0.9515144, 51.6849242 ] ] } },
{ "type": "Feature", "properties": { "id": 88429, "nach": 0.37354626554847536 }, "geometry": { "type": "LineString", "coordinates": [ [ -0.9517457, 51.685162 ], [ -0.9516546, 51.68507 ], [ -0.9515724, 51.6850222 ], [ -0.951506, 51.6849695 ], [ -0.9515144, 51.6849242 ] ] } },
{ "type": "Feature", "properties": { "id": 88431, "nach": 0.35389289554140058 }, "geometry": { "type": "LineString", "coordinates": [ [ -0.9517457, 51.685162 ], [ -0.9514996, 51.6853188 ], [ -0.9513333, 51.6854233 ], [ -0.9512016, 51.685519800000016 ] ] } },
{ "type": "Feature", "properties": { "id": 88430, "nach": 0.3720523996852842 }, "geometry": { "type": "LineString", "coordinates": [ [ -0.9517457, 51.685162 ], [ -0.9518655, 51.6852541 ], [ -0.9520615, 51.6853361 ], [ -0.9521508, 51.6853829 ] ] } },
{ "type": "Feature", "properties": { "id": 73482, "nach": 0.33818880511693949 }, "geometry": { "type": "LineString", "coordinates": [ [ -0.9561521, 51.682718 ], [ -0.9566732, 51.6826654 ] ] } },
{ "type": "Feature", "properties": { "id": 95195, "nach": 0.29801351396404768 }, "geometry": { "type": "LineString", "coordinates": [ [ -0.957057, 51.6835975 ], [ -0.9569063, 51.6833598 ], [ -0.9566166, 51.6829697 ], [ -0.9565479, 51.682882300000017 ], [ -0.9565632, 51.682816100000011 ], [ -0.9565899, 51.6827357 ], [ -0.9566128, 51.6826861 ], [ -0.9566732, 51.6826654 ] ] } },
{ "type": "Feature", "properties": { "id": 95194, "nach": 0.23193239948772656 }, "geometry": { "type": "LineString", "coordinates": [ [ -0.957057, 51.6835975 ], [ -0.957158, 51.6837569 ], [ -0.9572914, 51.6839768 ], [ -0.9573982, 51.684165899999989 ], [ -0.957646, 51.6844921 ], [ -0.957951, 51.6847497 ] ] } },
{ "type": "Feature", "properties": { "id": 95197, "nach": 0.23583544220033914 }, "geometry": { "type": "LineString", "coordinates": [ [ -0.95642, 51.6839704 ], [ -0.9569117, 51.683822 ], [ -0.9570022, 51.6837378 ], [ -0.957057, 51.6835975 ] ] } },
{ "type": "Feature", "properties": { "id": 73481, "nach": 0.33454355942093472 }, "geometry": { "type": "LineString", "coordinates": [ [ -0.9561521, 51.682718 ], [ -0.9560306, 51.6827303 ] ] } },
{ "type": "Feature", "properties": { "id": 73484, "nach": 0.23583549544691179 }, "geometry": { "type": "LineString", "coordinates": [ [ -0.9563452, 51.6829939 ], [ -0.9561623, 51.6827947 ], [ -0.9561521, 51.682718 ] ] } },
{ "type": "Feature", "properties": { "id": 73469, "nach": 0.23541656010891998 }, "geometry": { "type": "LineString", "coordinates": [ [ -0.9553464, 51.6827994 ], [ -0.9546252, 51.6828723 ] ] } },
{ "type": "Feature", "properties": { "id": 73477, "nach": 0.32309516008082412 }, "geometry": { "type": "LineString", "coordinates": [ [ -0.9560306, 51.6827303 ], [ -0.9553464, 51.6827994 ] ] } },
{ "type": "Feature", "properties": { "id": 73475, "nach": 0.2986855431947037 }, "geometry": { "type": "LineString", "coordinates": [ [ -0.9552107, 51.6824108 ], [ -0.9552288, 51.6824304 ], [ -0.9553464, 51.6827994 ] ] } },
{ "type": "Feature", "properties": { "id": 73480, "nach": 0.23562444547364392 }, "geometry": { "type": "LineString", "coordinates": [ [ -0.9555089, 51.6824945 ], [ -0.9558871, 51.682565 ], [ -0.955947, 51.6825841 ], [ -0.9559824, 51.682608899999977 ], [ -0.9559993, 51.682642200000011 ], [ -0.9560116, 51.6826842 ], [ -0.9560306, 51.6827303 ] ] } },
{ "type": "Feature", "properties": { "id": 73474, "nach": 0.23521175065923591 }, "geometry": { "type": "LineString", "coordinates": [ [ -0.9552107, 51.6824108 ], [ -0.9551919, 51.68239040000001 ], [ -0.9551457, 51.6823484 ], [ -0.9547583, 51.682069099999985 ] ] } },
{ "type": "Feature", "properties": { "id": 73476, "nach": 0.23521175065923591 }, "geometry": { "type": "LineString", "coordinates": [ [ -0.9547691, 51.6825991 ], [ -0.9552107, 51.6824108 ] ] } },
{ "type": "Feature", "properties": { "id": 79032, "nach": 0.30646907031084525 }, "geometry": { "type": "LineString", "coordinates": [ [ -0.9516849, 51.685768 ], [ -0.9515146, 51.6856804 ], [ -0.9512016, 51.685519800000016 ] ] } },
{ "type": "Feature", "properties": { "id": 79031, "nach": 0.30620819871941096 }, "geometry": { "type": "LineString", "coordinates": [ [ -0.9516849, 51.685768 ], [ -0.9519093, 51.6858833 ], [ -0.9522077, 51.6860101 ] ] } },
{ "type": "Feature", "properties": { "id": 79036, "nach": 0.3049161428387569 }, "geometry": { "type": "LineString", "coordinates": [ [ -0.9521508, 51.6853829 ], [ -0.9517416, 51.6856765 ], [ -0.9516849, 51.685768 ] ] } },
{ "type": "Feature", "properties": { "id": 79035, "nach": 0.30199583665430146 }, "geometry": { "type": "LineString", "coordinates": [ [ -0.9521508, 51.6853829 ], [ -0.9525902, 51.685613 ], [ -0.9533832, 51.6859916 ] ] } }
]
}
