{
"type": "FeatureCollection",
"name": "SOUOX_79_NACH",
"crs": { "type": "name", "properties": { "name": "urn:ogc:def:crs:OGC:1.3:CRS84" } },
"features": [
{"type":"Feature","properties":{"id":45644,"nach":0.57493191181275649},"geometry":{"type":"LineString","coordinates":[[-1.2833659,51.6634938],[-1.2834444,51.6638014]]}},
{"type":"Feature","properties":{"id":45646,"nach":0.51214271827937563},"geometry":{"type":"LineString","coordinates":[[-1.2833659,51.6634938],[-1.2832902,51.6632022],[-1.2831941,51.6629546]]}},
{"type":"Feature","properties":{"id":45645,"nach":0.54323457166961631},"geometry":{"type":"LineString","coordinates":[[-1.2833659,51.6634938],[-1.2838192,51.6634405],[-1.2847249,51.6630119]]}},
{"type":"Feature","properties":{"id":19888,"nach":0.49987847681391079},"geometry":{"type":"LineString","coordinates":[[-1.2843964,51.657180600000011],[-1.2843738,51.6571787],[-1.284351,51.6571812],[-1.2843262,51.657187],[-1.2843094,51.6571953],[-1.2842893,51.657210700000014],[-1.284214,51.6572896]]}},
{"type":"Feature","properties":{"id":19947,"nach":0.42988800500425489},"geometry":{"type":"LineString","coordinates":[[-1.2825771,51.656988199999986],[-1.2838595,51.6571887],[-1.2839346,51.6572028],[-1.2839644,51.6572126],[-1.283988,51.6572209],[-1.2840056,51.6572307],[-1.2840439,51.6572544],[-1.284074,51.6572677],[-1.2841045,51.6572773],[-1.284133,51.6572835],[-1.2841642,51.6572885],[-1.284214,51.6572896]]}},
{"type":"Feature","properties":{"id":19933,"nach":0.49201138248429721},"geometry":{"type":"LineString","coordinates":[[-1.2837448,51.6591373],[-1.2837733,51.6591004],[-1.2838165,51.6590656],[-1.2839815,51.6589774],[-1.2840298,51.65894990000001],[-1.2840432,51.65893830000001],[-1.2840512,51.6589258],[-1.2840566,51.6589092],[-1.2840539,51.6588917],[-1.2840016,51.6587802],[-1.2839721,51.6587162],[-1.2839574,51.6586679],[-1.2839493,51.6586205],[-1.283956,51.6585623],[-1.2840834,51.6582511],[-1.2841089,51.6581521],[-1.284125,51.6580456],[-1.2841974,51.657703700000013],[-1.2841947,51.6576346],[-1.2841639,51.6573767],[-1.2841646,51.657360099999984],[-1.2841659,51.65734470000001],[-1.2841726,51.6573293],[-1.284186,51.65731430000001],[-1.2842001,51.6573035],[-1.284214,51.6572896]]}},
{"type":"Feature","properties":{"id":19890,"nach":0.50635781465130281},"geometry":{"type":"LineString","coordinates":[[-1.2849196,51.657288800000011],[-1.2843964,51.657180600000011]]}},
{"type":"Feature","properties":{"id":43833,"nach":0.42446964653891478},"geometry":{"type":"LineString","coordinates":[[-1.2849171,51.65470040000001],[-1.2845601,51.6551879],[-1.2842225,51.6566647],[-1.284238,51.657049],[-1.2843964,51.657180600000011]]}},
{"type":"Feature","properties":{"id":19949,"nach":0.34948178352266496},"geometry":{"type":"LineString","coordinates":[[-1.2825055,51.6574224],[-1.2825391,51.65708510000001],[-1.2825771,51.656988199999986]]}},
{"type":"Feature","properties":{"id":19950,"nach":0.37140275796421668},"geometry":{"type":"LineString","coordinates":[[-1.2804007,51.6566885],[-1.2808463,51.6567305],[-1.2825771,51.656988199999986]]}},
{"type":"Feature","properties":{"id":95107,"nach":0.39582797769685302},"geometry":{"type":"LineString","coordinates":[[-1.2835749,51.6594611],[-1.2837448,51.6591373]]}},
{"type":"Feature","properties":{"id":95104,"nach":0.4858236085034226},"geometry":{"type":"LineString","coordinates":[[-1.2837086,51.6596255],[-1.2837139,51.659599300000018],[-1.2837537,51.659389099999984],[-1.2837448,51.6591373]]}},
{"type":"Feature","properties":{"id":31211,"nach":0.32296738816834308},"geometry":{"type":"LineString","coordinates":[[-1.2882095,51.6513489],[-1.2879311,51.6516179],[-1.2875378,51.6520473],[-1.2874804,51.6521033]]}},
{"type":"Feature","properties":{"id":11111,"nach":0.44872239764042515},"geometry":{"type":"LineString","coordinates":[[-1.2843899,51.6628682],[-1.2831941,51.6629546]]}},
{"type":"Feature","properties":{"id":66571,"nach":0.51307783810941898},"geometry":{"type":"LineString","coordinates":[[-1.2833458,51.6617735],[-1.2832506,51.6619956],[-1.283203,51.662158600000012],[-1.2831628,51.66232080000001],[-1.2831393,51.662463099999989],[-1.2831326,51.662622],[-1.2831527,51.6628017],[-1.2831941,51.6629546]]}},
{"type":"Feature","properties":{"id":19769,"nach":0.50432056346165166},"geometry":{"type":"LineString","coordinates":[[-1.2846943,51.6628458],[-1.2843899,51.6628682]]}},
{"type":"Feature","properties":{"id":19997,"nach":0.46747116795709809},"geometry":{"type":"LineString","coordinates":[[-1.2849359,51.6613685],[-1.2848445,51.6614906],[-1.2847754,51.6615622],[-1.2843248,51.661875],[-1.2842564,51.6619394],[-1.2841974,51.6620197],[-1.2841619,51.6621016],[-1.2841458,51.6621869],[-1.2841518,51.6622772],[-1.284184,51.662367],[-1.2842343,51.6624718],[-1.2843094,51.6625945],[-1.2843671,51.6627447],[-1.2843899,51.6628682]]}},
{"type":"Feature","properties":{"id":66570,"nach":0.51478019204991721},"geometry":{"type":"LineString","coordinates":[[-1.2833458,51.6617735],[-1.2834705,51.6614998]]}},
{"type":"Feature","properties":{"id":112320,"nach":0.40508776735633928},"geometry":{"type":"LineString","coordinates":[[-1.283146,51.6617294],[-1.283283,51.661759600000011],[-1.2833458,51.6617735]]}},
{"type":"Feature","properties":{"id":45744,"nach":0.56323571363685276},"geometry":{"type":"LineString","coordinates":[[-1.2849224,51.6628159],[-1.2846943,51.6628458]]}},
{"type":"Feature","properties":{"id":45641,"nach":0.54028823541261295},"geometry":{"type":"LineString","coordinates":[[-1.2847249,51.6630119],[-1.2846943,51.6628458]]}},
{"type":"Feature","properties":{"id":19996,"nach":0.53007639877778456},"geometry":{"type":"LineString","coordinates":[[-1.2849359,51.6613685],[-1.2839292,51.6610788]]}},
{"type":"Feature","properties":{"id":40195,"nach":0.51052916133925386},"geometry":{"type":"LineString","coordinates":[[-1.2865888,51.660924],[-1.2864532,51.660958599999987],[-1.2863465,51.6609724],[-1.2862232,51.6609724],[-1.2856304,51.6609424],[-1.2854695,51.6609416],[-1.2853427,51.6609657],[-1.2852482,51.6610006],[-1.2851771,51.6610497],[-1.2851147,51.6611183],[-1.2849359,51.6613685]]}},
{"type":"Feature","properties":{"id":19902,"nach":0.60223679894478443},"geometry":{"type":"LineString","coordinates":[[-1.2896532,51.6603693],[-1.2891856,51.6605857]]}},
{"type":"Feature","properties":{"id":45527,"nach":0.62054606858484807},"geometry":{"type":"LineString","coordinates":[[-1.2889728,51.6606798],[-1.2891856,51.6605857]]}},
{"type":"Feature","properties":{"id":19909,"nach":0.52806686679247405},"geometry":{"type":"LineString","coordinates":[[-1.2888211,51.659850699999986],[-1.2888452,51.6599618],[-1.2891856,51.6605857]]}},
{"type":"Feature","properties":{"id":19903,"nach":0.60581556114795987},"geometry":{"type":"LineString","coordinates":[[-1.2896532,51.6603693],[-1.2898934,51.6603145],[-1.2902596,51.660302]]}},
{"type":"Feature","properties":{"id":19911,"nach":0.57726055027297141},"geometry":{"type":"LineString","coordinates":[[-1.2893169,51.6597981],[-1.2893906,51.6599197],[-1.2896532,51.6603693]]}},
{"type":"Feature","properties":{"id":45528,"nach":0.59890830859500688},"geometry":{"type":"LineString","coordinates":[[-1.2889728,51.6606798],[-1.2887414,51.6608212]]}},
{"type":"Feature","properties":{"id":45529,"nach":0.54480917396851369},"geometry":{"type":"LineString","coordinates":[[-1.2889728,51.6606798],[-1.2898033,51.661468]]}},
{"type":"Feature","properties":{"id":19908,"nach":0.57188894768172327},"geometry":{"type":"LineString","coordinates":[[-1.2888211,51.659850699999986],[-1.2886586,51.6598183]]}},
{"type":"Feature","properties":{"id":19913,"nach":0.53183182497560944},"geometry":{"type":"LineString","coordinates":[[-1.2893169,51.6597981],[-1.2889029,51.6598528],[-1.2888211,51.659850699999986]]}},
{"type":"Feature","properties":{"id":45760,"nach":0.5961547945159108},"geometry":{"type":"LineString","coordinates":[[-1.2905271,51.6603172],[-1.2902596,51.660302]]}},
{"type":"Feature","properties":{"id":20016,"nach":0.47203126354958364},"geometry":{"type":"LineString","coordinates":[[-1.2897617,51.6593933],[-1.289905,51.659649800000011],[-1.289898,51.6597596],[-1.2898506,51.659780700000013],[-1.2898779,51.6598968],[-1.29013,51.6598711],[-1.290203,51.659964],[-1.2902596,51.660302]]}},
{"type":"Feature","properties":{"id":20035,"nach":0.54679734377011191},"geometry":{"type":"LineString","coordinates":[[-1.2906852,51.659561200000013],[-1.2905566,51.659672300000011],[-1.2904798,51.6597657],[-1.2904148,51.6598601],[-1.2902827,51.6601109],[-1.2902596,51.660302]]}},
{"type":"Feature","properties":{"id":45759,"nach":0.58952549117611075},"geometry":{"type":"LineString","coordinates":[[-1.2905271,51.6603172],[-1.290689,51.660338800000012]]}},
{"type":"Feature","properties":{"id":45764,"nach":0.49143922102877929},"geometry":{"type":"LineString","coordinates":[[-1.2909013,51.6615414],[-1.2908785,51.6615129],[-1.2907312,51.6613286],[-1.2906074,51.6611736],[-1.2905127,51.6610552],[-1.290524,51.6607968],[-1.2905271,51.6603172]]}},
{"type":"Feature","properties":{"id":20019,"nach":0.43551389770550014},"geometry":{"type":"LineString","coordinates":[[-1.2901666,51.65910610000001],[-1.2900742,51.6591605],[-1.2897617,51.6593933]]}},
{"type":"Feature","properties":{"id":63082,"nach":0.48475290836683682},"geometry":{"type":"LineString","coordinates":[[-1.2893468,51.659333600000011],[-1.2896422,51.6593891],[-1.2897617,51.6593933]]}},
{"type":"Feature","properties":{"id":46536,"nach":0.52676413719001713},"geometry":{"type":"LineString","coordinates":[[-1.2908268,51.6594279],[-1.2906852,51.659561200000013]]}},
{"type":"Feature","properties":{"id":20038,"nach":0.45009430721436361},"geometry":{"type":"LineString","coordinates":[[-1.2908885,51.6595402],[-1.2907809,51.659541],[-1.2906852,51.659561200000013]]}},
{"type":"Feature","properties":{"id":45636,"nach":0.61023881073717812},"geometry":{"type":"LineString","coordinates":[[-1.2875384,51.66157650000001],[-1.2873244,51.6617084]]}},
{"type":"Feature","properties":{"id":40186,"nach":0.5994158356367224},"geometry":{"type":"LineString","coordinates":[[-1.2866181,51.6620812],[-1.2873244,51.6617084]]}},
{"type":"Feature","properties":{"id":58812,"nach":0.5193137604501602},"geometry":{"type":"LineString","coordinates":[[-1.2881609,51.662144],[-1.2874939,51.6618313],[-1.2873244,51.6617084]]}},
{"type":"Feature","properties":{"id":45637,"nach":0.53344483033168177},"geometry":{"type":"LineString","coordinates":[[-1.2875384,51.66157650000001],[-1.2873665,51.6614699],[-1.2870711,51.6612674]]}},
{"type":"Feature","properties":{"id":45635,"nach":0.59504828033009449},"geometry":{"type":"LineString","coordinates":[[-1.2875384,51.66157650000001],[-1.2881307,51.6611909]]}},
{"type":"Feature","properties":{"id":45510,"nach":0.58525067863963853},"geometry":{"type":"LineString","coordinates":[[-1.2865928,51.6620945],[-1.2866181,51.6620812]]}},
{"type":"Feature","properties":{"id":40200,"nach":0.55306083537000927},"geometry":{"type":"LineString","coordinates":[[-1.2861706,51.6617471],[-1.2866181,51.6620812]]}},
{"type":"Feature","properties":{"id":45511,"nach":0.56172708201232147},"geometry":{"type":"LineString","coordinates":[[-1.2865928,51.6620945],[-1.2862465,51.6622738]]}},
{"type":"Feature","properties":{"id":45543,"nach":0.50690130931102217},"geometry":{"type":"LineString","coordinates":[[-1.287577,51.6627873],[-1.2865928,51.6620945]]}},
{"type":"Feature","properties":{"id":45745,"nach":0.55043947387556214},"geometry":{"type":"LineString","coordinates":[[-1.2849224,51.6628159],[-1.285143,51.6627707],[-1.2853249,51.6627155]]}},
{"type":"Feature","properties":{"id":45746,"nach":0.46998521071377386},"geometry":{"type":"LineString","coordinates":[[-1.2849224,51.6628159],[-1.2848894,51.6625296],[-1.2849228,51.6622353],[-1.2849753,51.6621054],[-1.2850477,51.6620176],[-1.2852296,51.6618547]]}},
{"type":"Feature","properties":{"id":45465,"nach":0.54091945739229219},"geometry":{"type":"LineString","coordinates":[[-1.2882097,51.661135200000011],[-1.2891516,51.6616916]]}},
{"type":"Feature","properties":{"id":45463,"nach":0.58761463802232128},"geometry":{"type":"LineString","coordinates":[[-1.2882097,51.661135200000011],[-1.2887414,51.6608212]]}},
{"type":"Feature","properties":{"id":45631,"nach":0.61070855681001479},"geometry":{"type":"LineString","coordinates":[[-1.2881307,51.6611909],[-1.2882097,51.661135200000011]]}},
{"type":"Feature","properties":{"id":19916,"nach":0.49467593252786185},"geometry":{"type":"LineString","coordinates":[[-1.2848802,51.6580751],[-1.2849117,51.6578628],[-1.2848173,51.6575561],[-1.2849196,51.657288800000011]]}},
{"type":"Feature","properties":{"id":46577,"nach":0.51124049597877341},"geometry":{"type":"LineString","coordinates":[[-1.286137,51.6574266],[-1.2855379,51.6573247],[-1.2849196,51.657288800000011]]}},
{"type":"Feature","properties":{"id":43834,"nach":0.34157842539028416},"geometry":{"type":"LineString","coordinates":[[-1.2849171,51.65470040000001],[-1.289495,51.655235600000019],[-1.2896868,51.655258]]}},
{"type":"Feature","properties":{"id":87068,"nach":0.42031982346430802},"geometry":{"type":"LineString","coordinates":[[-1.2856374,51.6538933],[-1.285304,51.6542472],[-1.2849171,51.65470040000001]]}},
{"type":"Feature","properties":{"id":19918,"nach":0.47481143954343558},"geometry":{"type":"LineString","coordinates":[[-1.2847937,51.6584368],[-1.2848802,51.6580751]]}},
{"type":"Feature","properties":{"id":19930,"nach":0.36904296976319811},"geometry":{"type":"LineString","coordinates":[[-1.2846915,51.6580358],[-1.2848802,51.6580751]]}},
{"type":"Feature","properties":{"id":46576,"nach":0.47849381445779343},"geometry":{"type":"LineString","coordinates":[[-1.286137,51.6574266],[-1.2860534,51.6574995]]}},
{"type":"Feature","properties":{"id":107340,"nach":0.47934173954133968},"geometry":{"type":"LineString","coordinates":[[-1.2867062,51.6575045],[-1.286137,51.6574266]]}},
{"type":"Feature","properties":{"id":20007,"nach":0.39357560512716372},"geometry":{"type":"LineString","coordinates":[[-1.288052,51.6574364],[-1.2879113,51.6574144],[-1.2878051,51.6574495],[-1.2877453,51.6576194],[-1.2877338,51.6576521]]}},
{"type":"Feature","properties":{"id":19898,"nach":0.50067563721268049},"geometry":{"type":"LineString","coordinates":[[-1.2895724,51.658169],[-1.289442,51.6580333],[-1.2892759,51.6579178],[-1.2888434,51.6578235],[-1.2877338,51.6576521]]}},
{"type":"Feature","properties":{"id":107342,"nach":0.4875288272172833},"geometry":{"type":"LineString","coordinates":[[-1.2867062,51.6575045],[-1.286854,51.6575247],[-1.2877338,51.6576521]]}},
{"type":"Feature","properties":{"id":46597,"nach":0.52265810324537976},"geometry":{"type":"LineString","coordinates":[[-1.2896298,51.6582855],[-1.2895724,51.658169]]}},
{"type":"Feature","properties":{"id":20009,"nach":0.53072666827622239},"geometry":{"type":"LineString","coordinates":[[-1.2902209,51.6580964],[-1.2900194,51.6580706],[-1.2898024,51.6581016],[-1.2895724,51.658169]]}},
{"type":"Feature","properties":{"id":107341,"nach":0.3920293471376331},"geometry":{"type":"LineString","coordinates":[[-1.2867062,51.6575045],[-1.286729,51.657436]]}},
{"type":"Feature","properties":{"id":46598,"nach":0.36801103470676166},"geometry":{"type":"LineString","coordinates":[[-1.2896298,51.6582855],[-1.2891618,51.65826770000001]]}},
{"type":"Feature","properties":{"id":46599,"nach":0.52045050921854041},"geometry":{"type":"LineString","coordinates":[[-1.2896298,51.6582855],[-1.2896456,51.6583926],[-1.2895437,51.6587358]]}},
{"type":"Feature","properties":{"id":20011,"nach":0.50348690178838107},"geometry":{"type":"LineString","coordinates":[[-1.2903656,51.65836],[-1.2902209,51.6580964]]}},
{"type":"Feature","properties":{"id":61878,"nach":0.45554117472609562},"geometry":{"type":"LineString","coordinates":[[-1.2914984,51.658187499999983],[-1.291489,51.6581671],[-1.2914535,51.6581554],[-1.2904792,51.658024],[-1.2903678,51.6580564],[-1.2902209,51.6580964]]}},
{"type":"Feature","properties":{"id":46603,"nach":0.5041285804983201},"geometry":{"type":"LineString","coordinates":[[-1.289137,51.6593639],[-1.2893344,51.6593717]]}},
{"type":"Feature","properties":{"id":63080,"nach":0.52630065022800632},"geometry":{"type":"LineString","coordinates":[[-1.2893468,51.659333600000011],[-1.2893344,51.6593717]]}},
{"type":"Feature","properties":{"id":19912,"nach":0.55796321685470451},"geometry":{"type":"LineString","coordinates":[[-1.2893169,51.6597981],[-1.2892642,51.6596701],[-1.2893344,51.6593717]]}},
{"type":"Feature","properties":{"id":46605,"nach":0.46593520763613089},"geometry":{"type":"LineString","coordinates":[[-1.289137,51.6593639],[-1.2891075,51.6590582],[-1.289177,51.6587613]]}},
{"type":"Feature","properties":{"id":46604,"nach":0.47932367440539736},"geometry":{"type":"LineString","coordinates":[[-1.289137,51.6593639],[-1.2888224,51.659347],[-1.2887594,51.659327800000014],[-1.2886503,51.6593122]]}},
{"type":"Feature","properties":{"id":63081,"nach":0.52186687030648382},"geometry":{"type":"LineString","coordinates":[[-1.2893468,51.659333600000011],[-1.2895437,51.6587358]]}},
{"type":"Feature","properties":{"id":46594,"nach":0.51761870054833592},"geometry":{"type":"LineString","coordinates":[[-1.2886503,51.6593122],[-1.2886445,51.6594779],[-1.2886302,51.6596927],[-1.2886586,51.6598183]]}},
{"type":"Feature","properties":{"id":19981,"nach":0.55969423876808888},"geometry":{"type":"LineString","coordinates":[[-1.2876423,51.6597997],[-1.2877987,51.6598962],[-1.2880655,51.6599449],[-1.2886586,51.6598183]]}},
{"type":"Feature","properties":{"id":46593,"nach":0.40108502746478625},"geometry":{"type":"LineString","coordinates":[[-1.2886503,51.6593122],[-1.2877684,51.659242399999989]]}},
{"type":"Feature","properties":{"id":46596,"nach":0.5122901342428865},"geometry":{"type":"LineString","coordinates":[[-1.2886503,51.6593122],[-1.2886534,51.6592355],[-1.2885772,51.6591795],[-1.2885219,51.659139],[-1.2884667,51.6590638]]}},
{"type":"Feature","properties":{"id":19983,"nach":0.55561603333223542},"geometry":{"type":"LineString","coordinates":[[-1.2876423,51.6597997],[-1.287655,51.65977250000001],[-1.2876534,51.6597356],[-1.2876316,51.6597012],[-1.2875901,51.6596725],[-1.2875373,51.659655300000018],[-1.2874783,51.6596504],[-1.2874218,51.6596579],[-1.2873711,51.6596774],[-1.2873395,51.6596989]]}},
{"type":"Feature","properties":{"id":19921,"nach":0.44999892081859988},"geometry":{"type":"LineString","coordinates":[[-1.2847308,51.6586884],[-1.2847937,51.6584368]]}},
{"type":"Feature","properties":{"id":19929,"nach":0.3591122047360879},"geometry":{"type":"LineString","coordinates":[[-1.2846129,51.6584525],[-1.2847937,51.6584368]]}},
{"type":"Feature","properties":{"id":19923,"nach":0.41348358346158942},"geometry":{"type":"LineString","coordinates":[[-1.2846994,51.6589637],[-1.2847308,51.6586884]]}},
{"type":"Feature","properties":{"id":19928,"nach":0.35371087275206498},"geometry":{"type":"LineString","coordinates":[[-1.2844949,51.6586727],[-1.2847308,51.6586884]]}},
{"type":"Feature","properties":{"id":19926,"nach":0.33411999363135098},"geometry":{"type":"LineString","coordinates":[[-1.2853127,51.658657],[-1.285242,51.659003],[-1.2849117,51.6589794],[-1.2846994,51.6589637]]}},
{"type":"Feature","properties":{"id":19927,"nach":0.34422651223376233},"geometry":{"type":"LineString","coordinates":[[-1.2842433,51.6589479],[-1.284432,51.6589558],[-1.2846994,51.6589637]]}},
{"type":"Feature","properties":{"id":95106,"nach":0.50476333583871691},"geometry":{"type":"LineString","coordinates":[[-1.2835749,51.6594611],[-1.2835671,51.6594748]]}},
{"type":"Feature","properties":{"id":95108,"nach":0.50493224254706059},"geometry":{"type":"LineString","coordinates":[[-1.2835749,51.6594611],[-1.2836746,51.6595837],[-1.2837086,51.6596255]]}},
{"type":"Feature","properties":{"id":95103,"nach":0.54608171698382402},"geometry":{"type":"LineString","coordinates":[[-1.2837086,51.6596255],[-1.2836852,51.6597417]]}},
{"type":"Feature","properties":{"id":19957,"nach":0.39035096682069303},"geometry":{"type":"LineString","coordinates":[[-1.2834983,51.6599412],[-1.2835671,51.6594748]]}},
{"type":"Feature","properties":{"id":19939,"nach":0.47680100508171441},"geometry":{"type":"LineString","coordinates":[[-1.2825763,51.6594905],[-1.2832875,51.659548],[-1.2835671,51.6594748]]}},
{"type":"Feature","properties":{"id":19942,"nach":0.44460698854737207},"geometry":{"type":"LineString","coordinates":[[-1.2825134,51.6597893],[-1.2825763,51.6594905]]}},
{"type":"Feature","properties":{"id":19940,"nach":0.36023748143836454},"geometry":{"type":"LineString","coordinates":[[-1.2814046,51.6590502],[-1.2818012,51.6594041],[-1.2825763,51.6594905]]}},
{"type":"Feature","properties":{"id":19944,"nach":0.374378912477702},"geometry":{"type":"LineString","coordinates":[[-1.2827257,51.6598444],[-1.2825134,51.6597893]]}},
{"type":"Feature","properties":{"id":19945,"nach":0.36952211122851125},"geometry":{"type":"LineString","coordinates":[[-1.2819787,51.6597893],[-1.2825134,51.6597893]]}},
{"type":"Feature","properties":{"id":48270,"nach":0.31964778541696559},"geometry":{"type":"LineString","coordinates":[[-1.2800389,51.6570808],[-1.2802456,51.6568308],[-1.2803675,51.6568118],[-1.2804007,51.6566885]]}},
{"type":"Feature","properties":{"id":31202,"nach":0.07120934646086563},"geometry":{"type":"LineString","coordinates":[[-1.2840323,51.6514513],[-1.2825944,51.6511472],[-1.282577,51.6512249],[-1.2821137,51.6516707],[-1.281641,51.6523687],[-1.2812675,51.6530668],[-1.2809508,51.6537706],[-1.2808371,51.6541889],[-1.2807097,51.65443350000001],[-1.2804119,51.6550053],[-1.2802559,51.6554541],[-1.2800574,51.6558001],[-1.279821,51.6564893],[-1.2799439,51.6566154],[-1.2804007,51.6566885]]}},
{"type":"Feature","properties":{"id":48269,"nach":0.0},"geometry":{"type":"LineString","coordinates":[[-1.2800389,51.6570808],[-1.2801624,51.6572501],[-1.2801468,51.6573329],[-1.2800098,51.6575782],[-1.279963,51.657703],[-1.279963,51.657858],[-1.2800566,51.6581539],[-1.2800393,51.6582216],[-1.2799387,51.658308800000015],[-1.2797608,51.6583913],[-1.2795121,51.6584615],[-1.2793778,51.6584649],[-1.2786979,51.6579364],[-1.2789492,51.657373399999983],[-1.279856,51.657221600000014],[-1.2800389,51.6570808]]}},
{"type":"Feature","properties":{"id":31203,"nach":0.27460829302467998},"geometry":{"type":"LineString","coordinates":[[-1.2840323,51.6514513],[-1.2840005,51.6515125],[-1.2873862,51.6520758],[-1.2874804,51.6521033]]}},
{"type":"Feature","properties":{"id":31206,"nach":0.24962940130994746},"geometry":{"type":"LineString","coordinates":[[-1.2845681,51.65130030000001],[-1.2843408,51.6515103],[-1.2840323,51.6514513]]}},
{"type":"Feature","properties":{"id":19959,"nach":0.53349930852547423},"geometry":{"type":"LineString","coordinates":[[-1.2836223,51.6601375],[-1.2835774,51.6603515]]}},
{"type":"Feature","properties":{"id":19956,"nach":0.38161385074289195},"geometry":{"type":"LineString","coordinates":[[-1.2830557,51.6608271],[-1.2828735,51.660814],[-1.2826011,51.660782099999984],[-1.2826883,51.6604648],[-1.2828279,51.6603712],[-1.2831133,51.6603115],[-1.2835774,51.6603515]]}},
{"type":"Feature","properties":{"id":19991,"nach":0.53562984127140079},"geometry":{"type":"LineString","coordinates":[[-1.2836222,51.6609474],[-1.2835068,51.66066690000001],[-1.2835774,51.6603515]]}},
{"type":"Feature","properties":{"id":69965,"nach":0.53598564709106489},"geometry":{"type":"LineString","coordinates":[[-1.2836408,51.660021100000016],[-1.2836223,51.6601375]]}},
{"type":"Feature","properties":{"id":19963,"nach":0.45798484964308406},"geometry":{"type":"LineString","coordinates":[[-1.2843178,51.6604815],[-1.2843032,51.660409199999989],[-1.2842271,51.6602313],[-1.2840615,51.6601634],[-1.2836223,51.6601375]]}},
{"type":"Feature","properties":{"id":20006,"nach":0.49617856841839852},"geometry":{"type":"LineString","coordinates":[[-1.2836298,51.6611617],[-1.2836435,51.6610468],[-1.2836222,51.6609474]]}},
{"type":"Feature","properties":{"id":19993,"nach":0.49334269614577431},"geometry":{"type":"LineString","coordinates":[[-1.2836222,51.6609474],[-1.2837482,51.6609586],[-1.283834,51.660972400000013],[-1.283893,51.6610094],[-1.2839225,51.6610435],[-1.2839292,51.6610788]]}},
{"type":"Feature","properties":{"id":69964,"nach":0.5379549808709807},"geometry":{"type":"LineString","coordinates":[[-1.2836408,51.660021100000016],[-1.2836852,51.6597417]]}},
{"type":"Feature","properties":{"id":69967,"nach":0.38827519061192473},"geometry":{"type":"LineString","coordinates":[[-1.2823842,51.659918299999987],[-1.2836408,51.660021100000016]]}},
{"type":"Feature","properties":{"id":19965,"nach":0.38662426513996229},"geometry":{"type":"LineString","coordinates":[[-1.2840712,51.6605306],[-1.2843178,51.6604815]]}},
{"type":"Feature","properties":{"id":19964,"nach":0.38396639494609219},"geometry":{"type":"LineString","coordinates":[[-1.2846299,51.660680100000015],[-1.2844764,51.6606552],[-1.2843178,51.6604815]]}},
{"type":"Feature","properties":{"id":59974,"nach":0.54945994667463027},"geometry":{"type":"LineString","coordinates":[[-1.2845041,51.6597728],[-1.2841641,51.6597607],[-1.2836852,51.6597417]]}},
{"type":"Feature","properties":{"id":59973,"nach":0.55518964095008405},"geometry":{"type":"LineString","coordinates":[[-1.2845041,51.6597728],[-1.2845878,51.6597758],[-1.2849819,51.6597196]]}},
{"type":"Feature","properties":{"id":59972,"nach":0.40808497542341554},"geometry":{"type":"LineString","coordinates":[[-1.2845041,51.6597728],[-1.284484,51.6599352]]}},
{"type":"Feature","properties":{"id":61875,"nach":0.56121012675781423},"geometry":{"type":"LineString","coordinates":[[-1.285292,51.659652800000018],[-1.2849819,51.6597196]]}},
{"type":"Feature","properties":{"id":19990,"nach":0.40492255126097682},"geometry":{"type":"LineString","coordinates":[[-1.2845421,51.6594709],[-1.2849595,51.6594875],[-1.2849609,51.659623300000014],[-1.2849819,51.6597196]]}},
{"type":"Feature","properties":{"id":61876,"nach":0.54022951860016044},"geometry":{"type":"LineString","coordinates":[[-1.285292,51.659652800000018],[-1.2856423,51.6595708],[-1.2861223,51.6595793],[-1.2863044,51.659622]]}},
{"type":"Feature","properties":{"id":61877,"nach":0.51377866571319697},"geometry":{"type":"LineString","coordinates":[[-1.285292,51.659652800000018],[-1.2853472,51.659815099999989],[-1.2853348,51.6601218],[-1.285322,51.6603658],[-1.2856117,51.6603752],[-1.2860054,51.6603982],[-1.2863521,51.6604217],[-1.2865432,51.6604646],[-1.2869466,51.6607215]]}},
{"type":"Feature","properties":{"id":19975,"nach":0.54461327247104918},"geometry":{"type":"LineString","coordinates":[[-1.2867283,51.6596389],[-1.2863044,51.659622]]}},
{"type":"Feature","properties":{"id":19986,"nach":0.47491365351075016},"geometry":{"type":"LineString","coordinates":[[-1.2862886,51.659817100000012],[-1.2863044,51.659622]]}},
{"type":"Feature","properties":{"id":19984,"nach":0.40415631944252212},"geometry":{"type":"LineString","coordinates":[[-1.2867523,51.6594056],[-1.2867283,51.6596389]]}},
{"type":"Feature","properties":{"id":19978,"nach":0.55172605212788661},"geometry":{"type":"LineString","coordinates":[[-1.2873395,51.6596989],[-1.287285,51.6596746],[-1.2867283,51.6596389]]}},
{"type":"Feature","properties":{"id":19988,"nach":0.40415521074736466},"geometry":{"type":"LineString","coordinates":[[-1.2864902,51.6598326],[-1.2862886,51.659817100000012]]}},
{"type":"Feature","properties":{"id":19989,"nach":0.40415521074736466},"geometry":{"type":"LineString","coordinates":[[-1.2859166,51.659812],[-1.2862886,51.659817100000012]]}},
{"type":"Feature","properties":{"id":19995,"nach":0.469626738034289},"geometry":{"type":"LineString","coordinates":[[-1.2839292,51.6610788],[-1.2838923,51.6611175],[-1.283834,51.661146600000016],[-1.2837408,51.6611633],[-1.2836298,51.6611617]]}},
{"type":"Feature","properties":{"id":59975,"nach":0.52552026711091226},"geometry":{"type":"LineString","coordinates":[[-1.2835992,51.6612417],[-1.2836298,51.6611617]]}},
{"type":"Feature","properties":{"id":40193,"nach":0.5315160293103024},"geometry":{"type":"LineString","coordinates":[[-1.2865888,51.660924],[-1.2869466,51.6607215]]}},
{"type":"Feature","properties":{"id":45547,"nach":0.51421531705185242},"geometry":{"type":"LineString","coordinates":[[-1.2870711,51.6612674],[-1.2865888,51.660924]]}},
{"type":"Feature","properties":{"id":40196,"nach":0.52846180262193743},"geometry":{"type":"LineString","coordinates":[[-1.2872207,51.6605792],[-1.2869466,51.6607215]]}},
{"type":"Feature","properties":{"id":40198,"nach":0.48055253715489082},"geometry":{"type":"LineString","coordinates":[[-1.2872207,51.6605792],[-1.2874938,51.6604975],[-1.2878041,51.660468099999989],[-1.2881385,51.6605044],[-1.2884014,51.6606018],[-1.2887414,51.6608212]]}},
{"type":"Feature","properties":{"id":45550,"nach":0.49888009511978404},"geometry":{"type":"LineString","coordinates":[[-1.2878265,51.6609854],[-1.2872207,51.6605792]]}},
{"type":"Feature","properties":{"id":66567,"nach":0.51823671741051658},"geometry":{"type":"LineString","coordinates":[[-1.2834705,51.6614998],[-1.2835992,51.6612417]]}},
{"type":"Feature","properties":{"id":59978,"nach":0.40849161878822804},"geometry":{"type":"LineString","coordinates":[[-1.2833628,51.6612064],[-1.2835992,51.6612417]]}},
{"type":"Feature","properties":{"id":46519,"nach":0.49917156316779965},"geometry":{"type":"LineString","coordinates":[[-1.2914502,51.658562100000012],[-1.290996,51.658484],[-1.2907377,51.658453],[-1.2903656,51.65836]]}},
{"type":"Feature","properties":{"id":20014,"nach":0.39496163136960022},"geometry":{"type":"LineString","coordinates":[[-1.2901279,51.6584375],[-1.2901744,51.6584271],[-1.2903656,51.65836]]}},
{"type":"Feature","properties":{"id":76294,"nach":0.46543054121068139},"geometry":{"type":"LineString","coordinates":[[-1.2917001,51.658270499999986],[-1.2915427,51.6582528],[-1.2914971,51.6582353],[-1.2914984,51.658187499999983]]}},
{"type":"Feature","properties":{"id":46517,"nach":0.53993330835437037},"geometry":{"type":"LineString","coordinates":[[-1.2914502,51.658562100000012],[-1.291313,51.6588804]]}},
{"type":"Feature","properties":{"id":76293,"nach":0.48464592148406643},"geometry":{"type":"LineString","coordinates":[[-1.2917001,51.658270499999986],[-1.2916317,51.6582944],[-1.2915681,51.6583543],[-1.2915361,51.6584147],[-1.2914502,51.658562100000012]]}},
{"type":"Feature","properties":{"id":20021,"nach":0.40304961642032322},"geometry":{"type":"LineString","coordinates":[[-1.290903,51.6591816],[-1.290799,51.6591878],[-1.2905028,51.6591484],[-1.2901666,51.65910610000001]]}},
{"type":"Feature","properties":{"id":46574,"nach":0.3426993563198098},"geometry":{"type":"LineString","coordinates":[[-1.2895437,51.6587358],[-1.2895698,51.6587364],[-1.2899493,51.65874440000001],[-1.2901076,51.6590007],[-1.2901666,51.65910610000001]]}},
{"type":"Feature","properties":{"id":46572,"nach":0.45754291970133737},"geometry":{"type":"LineString","coordinates":[[-1.2895437,51.6587358],[-1.2893128,51.6587098]]}},
{"type":"Feature","properties":{"id":46564,"nach":0.43938349621456119},"geometry":{"type":"LineString","coordinates":[[-1.2913988,51.659647700000015],[-1.2916493,51.6597037],[-1.2918196,51.659765],[-1.2919054,51.6597881],[-1.2923157,51.6598809]]}},
{"type":"Feature","properties":{"id":46546,"nach":0.38766456101215074},"geometry":{"type":"LineString","coordinates":[[-1.2928618,51.6589066],[-1.2929459,51.6587652]]}},
{"type":"Feature","properties":{"id":101523,"nach":0.33439434419798902},"geometry":{"type":"LineString","coordinates":[[-1.2922991,51.6586254],[-1.2929459,51.6587652]]}},
{"type":"Feature","properties":{"id":46545,"nach":0.41906024946782067},"geometry":{"type":"LineString","coordinates":[[-1.2928618,51.6589066],[-1.2928125,51.6589894]]}},
{"type":"Feature","properties":{"id":101525,"nach":0.44094573982535562},"geometry":{"type":"LineString","coordinates":[[-1.2922991,51.6586254],[-1.2922224,51.658763700000016],[-1.2922145,51.658821],[-1.292236,51.658873],[-1.2922736,51.6589154]]}},
{"type":"Feature","properties":{"id":101524,"nach":0.43673087053953707},"geometry":{"type":"LineString","coordinates":[[-1.2922991,51.6586254],[-1.2919193,51.6585434]]}},
{"type":"Feature","properties":{"id":46537,"nach":0.40066473351650256},"geometry":{"type":"LineString","coordinates":[[-1.2908268,51.6594279],[-1.2908885,51.6595402]]}},
{"type":"Feature","properties":{"id":46538,"nach":0.52959001920152649},"geometry":{"type":"LineString","coordinates":[[-1.2908268,51.6594279],[-1.2910644,51.6592468],[-1.291313,51.6588804]]}},
{"type":"Feature","properties":{"id":46548,"nach":0.45960490750877803},"geometry":{"type":"LineString","coordinates":[[-1.2912031,51.6596079],[-1.2909626,51.6595523],[-1.2908885,51.6595402]]}},
{"type":"Feature","properties":{"id":46547,"nach":0.42841111584573122},"geometry":{"type":"LineString","coordinates":[[-1.2912031,51.6596079],[-1.2913952,51.6596551]]}},
{"type":"Feature","properties":{"id":46549,"nach":0.34990488458642133},"geometry":{"type":"LineString","coordinates":[[-1.2912031,51.6596079],[-1.2911452,51.6596975],[-1.2910629,51.6597027],[-1.290892,51.6599384]]}},
{"type":"Feature","properties":{"id":46521,"nach":0.39827361383539545},"geometry":{"type":"LineString","coordinates":[[-1.2922615,51.6599719],[-1.2918444,51.6598844],[-1.2916771,51.6598204],[-1.2915353,51.6597401],[-1.2913872,51.6596714],[-1.2913952,51.6596551]]}},
{"type":"Feature","properties":{"id":46583,"nach":0.44860357524356137},"geometry":{"type":"LineString","coordinates":[[-1.2910828,51.6603973],[-1.2912977,51.6600293]]}},
{"type":"Feature","properties":{"id":46535,"nach":0.3747501361402753},"geometry":{"type":"LineString","coordinates":[[-1.2912977,51.6600293],[-1.2918632,51.6601579],[-1.292012,51.660209900000012]]}},
{"type":"Feature","properties":{"id":46533,"nach":0.44277735747205949},"geometry":{"type":"LineString","coordinates":[[-1.2912977,51.6600293],[-1.290892,51.6599384]]}},
{"type":"Feature","properties":{"id":46561,"nach":0.41633519541591085},"geometry":{"type":"LineString","coordinates":[[-1.2926732,51.659239399999983],[-1.2928125,51.6589894]]}},
{"type":"Feature","properties":{"id":46511,"nach":0.40552180721803682},"geometry":{"type":"LineString","coordinates":[[-1.2922736,51.6589154],[-1.2923379,51.6588984],[-1.2923926,51.658899600000012],[-1.2928125,51.6589894]]}},
{"type":"Feature","properties":{"id":46560,"nach":0.46775420597840217},"geometry":{"type":"LineString","coordinates":[[-1.2926732,51.659239399999983],[-1.2926012,51.6593686]]}},
{"type":"Feature","properties":{"id":101535,"nach":0.3920470007821652},"geometry":{"type":"LineString","coordinates":[[-1.292825,51.6593021],[-1.2928401,51.6592744],[-1.2926732,51.659239399999983]]}},
{"type":"Feature","properties":{"id":46512,"nach":0.48192838290140083},"geometry":{"type":"LineString","coordinates":[[-1.2922736,51.6589154],[-1.2921374,51.6590065],[-1.2920858,51.6590248],[-1.2920261,51.6590319]]}},
{"type":"Feature","properties":{"id":63079,"nach":0.38648609353156083},"geometry":{"type":"LineString","coordinates":[[-1.2919193,51.6585434],[-1.2917143,51.6589083]]}},
{"type":"Feature","properties":{"id":101506,"nach":0.45715361756765638},"geometry":{"type":"LineString","coordinates":[[-1.291955,51.6584653],[-1.2919193,51.6585434]]}},
{"type":"Feature","properties":{"id":101527,"nach":0.54175587425982519},"geometry":{"type":"LineString","coordinates":[[-1.2925869,51.65939430000001],[-1.2924752,51.659594599999984]]}},
{"type":"Feature","properties":{"id":101521,"nach":0.39079857472989388},"geometry":{"type":"LineString","coordinates":[[-1.2918229,51.6594545],[-1.2921412,51.659526],[-1.2924752,51.659594599999984]]}},
{"type":"Feature","properties":{"id":101528,"nach":0.53404557444075795},"geometry":{"type":"LineString","coordinates":[[-1.2925869,51.65939430000001],[-1.2926012,51.6593686]]}},
{"type":"Feature","properties":{"id":101538,"nach":0.39375793955602606},"geometry":{"type":"LineString","coordinates":[[-1.2927671,51.6594083],[-1.2927555,51.659429600000017],[-1.2925869,51.65939430000001]]}},
{"type":"Feature","properties":{"id":101520,"nach":0.37662938731630263},"geometry":{"type":"LineString","coordinates":[[-1.2918229,51.6594545],[-1.2914229,51.659365]]}},
{"type":"Feature","properties":{"id":101522,"nach":0.37829447636975033},"geometry":{"type":"LineString","coordinates":[[-1.2918229,51.6594545],[-1.291892,51.6593339],[-1.2919302,51.6592894],[-1.2919792,51.6592511],[-1.2920368,51.6592245],[-1.2921032,51.6592074]]}},
{"type":"Feature","properties":{"id":46563,"nach":0.4143139271708326},"geometry":{"type":"LineString","coordinates":[[-1.2913988,51.659647700000015],[-1.2914337,51.659584700000011],[-1.291304,51.6595026],[-1.2914229,51.659365]]}},
{"type":"Feature","properties":{"id":20057,"nach":0.38567384525168441},"geometry":{"type":"LineString","coordinates":[[-1.291666,51.6590078],[-1.2915326,51.6592361],[-1.2914229,51.659365]]}},
{"type":"Feature","properties":{"id":20061,"nach":0.40086392231177531},"geometry":{"type":"LineString","coordinates":[[-1.2907152,51.6601891],[-1.290892,51.6599384]]}},
{"type":"Feature","properties":{"id":87070,"nach":0.35184264902803236},"geometry":{"type":"LineString","coordinates":[[-1.2856374,51.6538933],[-1.2857075,51.6538189],[-1.286113,51.6533893],[-1.2865507,51.6529792],[-1.2871063,51.6524687],[-1.2874804,51.6521033]]}},
{"type":"Feature","properties":{"id":87069,"nach":0.42051153930165136},"geometry":{"type":"LineString","coordinates":[[-1.2856374,51.6538933],[-1.2857857,51.6538776],[-1.2859015,51.653864300000016],[-1.2860565,51.6538416],[-1.2863372,51.6538201]]}},
{"type":"Feature","properties":{"id":31208,"nach":0.22662876637279827},"geometry":{"type":"LineString","coordinates":[[-1.283822,51.6501738],[-1.2841312,51.6509789],[-1.2841312,51.6510387],[-1.2841414,51.6510764],[-1.2841616,51.6511173],[-1.2843672,51.6511711],[-1.2845027,51.65121820000001],[-1.2845681,51.65130030000001]]}},
{"type":"Feature","properties":{"id":31215,"nach":0.23418722654164853},"geometry":{"type":"LineString","coordinates":[[-1.2861626,51.650711799999989],[-1.2858356,51.6508107],[-1.2854341,51.6509969],[-1.2852313,51.6510875],[-1.2849799,51.6511831],[-1.284838,51.65123340000001],[-1.2847123,51.6512661],[-1.2845681,51.65130030000001]]}},
{"type":"Feature","properties":{"id":40199,"nach":0.51721083295158832},"geometry":{"type":"LineString","coordinates":[[-1.2861706,51.6617471],[-1.2860554,51.6618084]]}},
{"type":"Feature","properties":{"id":112364,"nach":0.47594142262049899},"geometry":{"type":"LineString","coordinates":[[-1.2860039,51.6616632],[-1.2861749,51.661699],[-1.2861706,51.6617471]]}},
{"type":"Feature","properties":{"id":45638,"nach":0.42115979962729994},"geometry":{"type":"LineString","coordinates":[[-1.2855174,51.6620949],[-1.2854312,51.6621407]]}},
{"type":"Feature","properties":{"id":45640,"nach":0.42135171948854411},"geometry":{"type":"LineString","coordinates":[[-1.2855174,51.6620949],[-1.285587,51.6621459]]}},
{"type":"Feature","properties":{"id":45747,"nach":0.49238217639160681},"geometry":{"type":"LineString","coordinates":[[-1.2855393,51.6620832],[-1.2855174,51.6620949]]}},
{"type":"Feature","properties":{"id":45748,"nach":0.50662667651079096},"geometry":{"type":"LineString","coordinates":[[-1.2855393,51.6620832],[-1.2860554,51.6618084]]}},
{"type":"Feature","properties":{"id":112363,"nach":0.20279764982373563},"geometry":{"type":"LineString","coordinates":[[-1.2860039,51.6616632],[-1.2860554,51.6618084]]}},
{"type":"Feature","properties":{"id":45749,"nach":0.46212289322272293},"geometry":{"type":"LineString","coordinates":[[-1.2855393,51.6620832],[-1.2852296,51.6618547]]}},
{"type":"Feature","properties":{"id":112362,"nach":0.45381846523738245},"geometry":{"type":"LineString","coordinates":[[-1.2860039,51.6616632],[-1.285849,51.6615448]]}},
{"type":"Feature","properties":{"id":45548,"nach":0.42219600099535365},"geometry":{"type":"LineString","coordinates":[[-1.2870711,51.6612674],[-1.2869479,51.6613207]]}},
{"type":"Feature","properties":{"id":45553,"nach":0.41859085965491521},"geometry":{"type":"LineString","coordinates":[[-1.2878959,51.6609414],[-1.2878265,51.6609854]]}},
{"type":"Feature","properties":{"id":45633,"nach":0.52177967153309657},"geometry":{"type":"LineString","coordinates":[[-1.2881307,51.6611909],[-1.2879339,51.6610581],[-1.2878265,51.6609854]]}},
{"type":"Feature","properties":{"id":43830,"nach":0.30251541150540956},"geometry":{"type":"LineString","coordinates":[[-1.2896868,51.655258],[-1.2897952,51.6552443],[-1.2898682,51.6552033],[-1.2899239,51.6550752],[-1.2901647,51.6545384],[-1.2902995,51.6544942],[-1.2904297,51.6545106],[-1.2906204,51.65452]]}},
{"type":"Feature","properties":{"id":43840,"nach":0.31851584730436067},"geometry":{"type":"LineString","coordinates":[[-1.289883,51.6554439],[-1.2896868,51.655258]]}},
{"type":"Feature","properties":{"id":43843,"nach":0.22989385197945636},"geometry":{"type":"LineString","coordinates":[[-1.2907977,51.6565019],[-1.290912,51.6561206],[-1.2908529,51.6558355],[-1.2907699,51.6557529]]}},
{"type":"Feature","properties":{"id":43841,"nach":0.27934203708722244},"geometry":{"type":"LineString","coordinates":[[-1.289883,51.6554439],[-1.2899,51.6555523],[-1.2906847,51.6556921],[-1.2907699,51.6557529]]}},
{"type":"Feature","properties":{"id":61880,"nach":0.19698099141851111},"geometry":{"type":"LineString","coordinates":[[-1.2847615,51.655271800000016],[-1.285011,51.655003],[-1.2850973,51.65491],[-1.289883,51.6554439]]}},
{"type":"Feature","properties":{"id":45752,"nach":0.42460245191641882},"geometry":{"type":"LineString","coordinates":[[-1.2853345,51.6617205],[-1.2853819,51.6617253],[-1.2854342,51.6617151],[-1.285849,51.6615448]]}},
{"type":"Feature","properties":{"id":45750,"nach":0.3931100910335445},"geometry":{"type":"LineString","coordinates":[[-1.2853345,51.6617205],[-1.2852296,51.6618547]]}},
{"type":"Feature","properties":{"id":46506,"nach":0.52470419583679662},"geometry":{"type":"LineString","coordinates":[[-1.291313,51.6588804],[-1.2920261,51.6590319]]}},
{"type":"Feature","properties":{"id":46515,"nach":0.51585791863564823},"geometry":{"type":"LineString","coordinates":[[-1.2921032,51.6592074],[-1.2920918,51.6590951],[-1.292061,51.659061],[-1.2920261,51.6590319]]}},
{"type":"Feature","properties":{"id":46514,"nach":0.50576161513473683},"geometry":{"type":"LineString","coordinates":[[-1.2921032,51.6592074],[-1.2921341,51.659250299999989],[-1.2921951,51.6592794],[-1.2926012,51.6593686]]}},
{"type":"Feature","properties":{"id":101504,"nach":0.49530685456779322},"geometry":{"type":"LineString","coordinates":[[-1.291778,51.6582628],[-1.2917001,51.658270499999986]]}},
{"type":"Feature","properties":{"id":46557,"nach":0.47662741155074878},"geometry":{"type":"LineString","coordinates":[[-1.2875291,51.65771860000001],[-1.2860534,51.6574995]]}},
{"type":"Feature","properties":{"id":46531,"nach":0.0},"geometry":{"type":"LineString","coordinates":[[-1.2877684,51.659242399999989],[-1.2867747,51.6591881],[-1.2866404,51.6591564],[-1.286214,51.658940099999988],[-1.2861279,51.6588707],[-1.2860812,51.6587338],[-1.2860642,51.6586098],[-1.2861603,51.6583328],[-1.2861401,51.6581132],[-1.2860369,51.6579201],[-1.2860252,51.657710700000017],[-1.2860534,51.6574995]]}},
{"type":"Feature","properties":{"id":46558,"nach":0.40050992660783319},"geometry":{"type":"LineString","coordinates":[[-1.2875291,51.65771860000001],[-1.2882893,51.6578328],[-1.2884742,51.6578703],[-1.2886454,51.657943],[-1.2891618,51.65826770000001]]}},
{"type":"Feature","properties":{"id":46588,"nach":0.47286265832391233},"geometry":{"type":"LineString","coordinates":[[-1.2877228,51.658300699999984],[-1.2875202,51.6578286],[-1.2875291,51.65771860000001]]}},
{"type":"Feature","properties":{"id":46585,"nach":0.25398751450662294},"geometry":{"type":"LineString","coordinates":[[-1.2877678,51.6587572],[-1.2876577,51.6591017],[-1.2876882,51.659186],[-1.2877684,51.659242399999989]]}},
{"type":"Feature","properties":{"id":46584,"nach":0.39872367058187047},"geometry":{"type":"LineString","coordinates":[[-1.2877678,51.6587572],[-1.2878135,51.6587558],[-1.288138,51.658746]]}},
{"type":"Feature","properties":{"id":46589,"nach":0.2993002271463519},"geometry":{"type":"LineString","coordinates":[[-1.2877228,51.658300699999984],[-1.2877778,51.658500600000011],[-1.2877678,51.6587572]]}},
{"type":"Feature","properties":{"id":46600,"nach":0.46483425810008006},"geometry":{"type":"LineString","coordinates":[[-1.2892132,51.6587399],[-1.289177,51.6587613]]}},
{"type":"Feature","properties":{"id":46578,"nach":0.35230974952144223},"geometry":{"type":"LineString","coordinates":[[-1.2884667,51.6590638],[-1.2886252,51.6590267],[-1.2887956,51.6588944],[-1.2889356,51.6587127],[-1.289177,51.6587613]]}},
{"type":"Feature","properties":{"id":46602,"nach":0.40024150939473152},"geometry":{"type":"LineString","coordinates":[[-1.2892132,51.6587399],[-1.2893128,51.6587098]]}},
{"type":"Feature","properties":{"id":46601,"nach":0.41434585759889375},"geometry":{"type":"LineString","coordinates":[[-1.2892132,51.6587399],[-1.2892525,51.6586498]]}},
{"type":"Feature","properties":{"id":46580,"nach":0.50682314354744906},"geometry":{"type":"LineString","coordinates":[[-1.2884667,51.6590638],[-1.2883986,51.6589793],[-1.2882004,51.6588663],[-1.2881505,51.6588062],[-1.288138,51.658746]]}},
{"type":"Feature","properties":{"id":46587,"nach":0.47849224657165845},"geometry":{"type":"LineString","coordinates":[[-1.2877228,51.658300699999984],[-1.2878286,51.658302],[-1.2879124,51.6583157],[-1.2879661,51.6583245],[-1.2880954,51.6583734],[-1.2881779,51.6586081],[-1.288138,51.658746]]}},
{"type":"Feature","properties":{"id":46592,"nach":0.41518735699006187},"geometry":{"type":"LineString","coordinates":[[-1.2892525,51.6586498],[-1.2892538,51.658470300000012],[-1.2891618,51.65826770000001]]}},
{"type":"Feature","properties":{"id":46590,"nach":0.39546872942689248},"geometry":{"type":"LineString","coordinates":[[-1.2892525,51.6586498],[-1.2893128,51.6587098]]}},
{"type":"Feature","properties":{"id":101537,"nach":0.0},"geometry":{"type":"LineString","coordinates":[[-1.2927671,51.6594083],[-1.2930465,51.6594669],[-1.2931044,51.6593607],[-1.292825,51.6593021]]}},
{"type":"Feature","properties":{"id":112319,"nach":0.40043522168795986},"geometry":{"type":"LineString","coordinates":[[-1.2828349,51.6613567],[-1.2834705,51.6614998]]}},
{"type":"Feature","properties":{"id":60100,"nach":0.21298157692178901},"geometry":{"type":"LineString","coordinates":[[-1.2891791,51.6543026],[-1.2891224,51.6542139],[-1.2890442,51.6541368],[-1.2889902,51.6540799],[-1.2889902,51.6540146],[-1.2893788,51.6528863],[-1.2895056,51.6528645],[-1.2898672,51.6529147]]}},
{"type":"Feature","properties":{"id":60099,"nach":0.23674446529534401},"geometry":{"type":"LineString","coordinates":[[-1.2891791,51.6543026],[-1.2892453,51.6542714],[-1.2893597,51.6539423]]}},
{"type":"Feature","properties":{"id":60102,"nach":0.30092361279355168},"geometry":{"type":"LineString","coordinates":[[-1.2888726,51.6543575],[-1.2890125,51.654378],[-1.2891791,51.6543026]]}},
{"type":"Feature","properties":{"id":60086,"nach":0.2920215785983577},"geometry":{"type":"LineString","coordinates":[[-1.2870658,51.6537464],[-1.2875138,51.65369290000001],[-1.2877728,51.6536862],[-1.2879725,51.6537096]]}},
{"type":"Feature","properties":{"id":60088,"nach":0.33381460891271336},"geometry":{"type":"LineString","coordinates":[[-1.2863372,51.6538201],[-1.2870658,51.6537464]]}},
{"type":"Feature","properties":{"id":60096,"nach":0.2083818575298727},"geometry":{"type":"LineString","coordinates":[[-1.2869975,51.65410330000001],[-1.2870319,51.6539991],[-1.2870472,51.6538689],[-1.2870658,51.6537464]]}},
{"type":"Feature","properties":{"id":60091,"nach":0.38986622496714546},"geometry":{"type":"LineString","coordinates":[[-1.2864366,51.6539802],[-1.2863372,51.6538201]]}},
{"type":"Feature","properties":{"id":60094,"nach":0.35343972016290132},"geometry":{"type":"LineString","coordinates":[[-1.2869975,51.65410330000001],[-1.2865701,51.6540441],[-1.2864366,51.6539802]]}},
{"type":"Feature","properties":{"id":60101,"nach":0.33415324802487156},"geometry":{"type":"LineString","coordinates":[[-1.2888726,51.6543575],[-1.2882683,51.654269],[-1.2875738,51.6541885],[-1.2869975,51.65410330000001]]}},
{"type":"Feature","properties":{"id":60097,"nach":0.30488301439160148},"geometry":{"type":"LineString","coordinates":[[-1.2863679,51.6541554],[-1.2864366,51.6539802]]}},
{"type":"Feature","properties":{"id":60115,"nach":0.2368847381413034},"geometry":{"type":"LineString","coordinates":[[-1.2889241,51.6549031],[-1.289005,51.6546587],[-1.2888431,51.6544226],[-1.2888726,51.6543575]]}},
{"type":"Feature","properties":{"id":101507,"nach":0.47364504592800116},"geometry":{"type":"LineString","coordinates":[[-1.291955,51.6584653],[-1.2919792,51.6584566],[-1.2920641,51.6582953]]}},
{"type":"Feature","properties":{"id":101526,"nach":0.38942418535738244},"geometry":{"type":"LineString","coordinates":[[-1.2917545,51.6583767],[-1.291961,51.6584202],[-1.291955,51.6584653]]}},
{"type":"Feature","properties":{"id":101505,"nach":0.48150038907159165},"geometry":{"type":"LineString","coordinates":[[-1.291778,51.6582628],[-1.2918471,51.6582648],[-1.2920641,51.6582953]]}}
]
}
