{
"type": "FeatureCollection",
"name": "fb0e080679af_visibility",
"crs": { "type": "name", "properties": { "name": "urn:ogc:def:crs:OGC:1.3:CRS84" } },
"features": [
{ "type": "Feature", "properties": { "visible_points": 17, "total_points": 70, "visibility_pct": 24.285714285714285 }, "geometry": { "type": "Point", "coordinates": [ -0.648894758688844, 50.799480135313985 ] } },
{ "type": "Feature", "properties": { "visible_points": 14, "total_points": 73, "visibility_pct": 19.17808219178082 }, "geometry": { "type": "Point", "coordinates": [ -0.648698193113471, 50.799477856813468 ] } },
{ "type": "Feature", "properties": { "visible_points": 2, "total_points": 72, "visibility_pct": 2.7777777777777777 }, "geometry": { "type": "Point", "coordinates": [ -0.648501627564379, 50.799475577982136 ] } },
{ "type": "Feature", "properties": { "visible_points": 11, "total_points": 58, "visibility_pct": 18.96551724137931 }, "geometry": { "type": "Point", "coordinates": [ -0.649383067065545, 50.799593713850385 ] } },
{ "type": "Feature", "properties": { "visible_points": 20, "total_points": 68, "visibility_pct": 29.411764705882355 }, "geometry": { "type": "Point", "coordinates": [ -0.649186500952999, 50.799591436160085 ] } },
{ "type": "Feature", "properties": { "visible_points": 9, "total_points": 76, "visibility_pct": 11.842105263157894 }, "geometry": { "type": "Point", "coordinates": [ -0.648989934866731, 50.799589158138978 ] } },
{ "type": "Feature", "properties": { "visible_points": 18, "total_points": 82, "visibility_pct": 21.951219512195124 }, "geometry": { "type": "Point", "coordinates": [ -0.648793368806751, 50.79958687978705 ] } },
{ "type": "Feature", "properties": { "visible_points": 16, "total_points": 85, "visibility_pct": 18.823529411764707 }, "geometry": { "type": "Point", "coordinates": [ -0.648596802773057, 50.799584601104314 ] } },
{ "type": "Feature", "properties": { "visible_points": 0, "total_points": 81, "visibility_pct": 0.0 }, "geometry": { "type": "Point", "coordinates": [ -0.648400236765658, 50.799582322090785 ] } },
{ "type": "Feature", "properties": { "visible_points": 8, "total_points": 75, "visibility_pct": 10.666666666666668 }, "geometry": { "type": "Point", "coordinates": [ -0.648203670784555, 50.799580042746442 ] } },
{ "type": "Feature", "properties": { "visible_points": 9, "total_points": 57, "visibility_pct": 15.789473684210526 }, "geometry": { "type": "Point", "coordinates": [ -0.649478244670938, 50.799702736309868 ] } },
{ "type": "Feature", "properties": { "visible_points": 13, "total_points": 68, "visibility_pct": 19.117647058823529 }, "geometry": { "type": "Point", "coordinates": [ -0.649281678073783, 50.799700458768179 ] } },
{ "type": "Feature", "properties": { "visible_points": 22, "total_points": 79, "visibility_pct": 27.848101265822784 }, "geometry": { "type": "Point", "coordinates": [ -0.649085111502913, 50.799698180895653 ] } },
{ "type": "Feature", "properties": { "visible_points": 22, "total_points": 88, "visibility_pct": 25.0 }, "geometry": { "type": "Point", "coordinates": [ -0.648888544958328, 50.799695902692342 ] } },
{ "type": "Feature", "properties": { "visible_points": 21, "total_points": 95, "visibility_pct": 22.105263157894736 }, "geometry": { "type": "Point", "coordinates": [ -0.648691978440024, 50.799693624158202 ] } },
{ "type": "Feature", "properties": { "visible_points": 17, "total_points": 94, "visibility_pct": 18.085106382978726 }, "geometry": { "type": "Point", "coordinates": [ -0.64849541194802, 50.799691345293262 ] } },
{ "type": "Feature", "properties": { "visible_points": 0, "total_points": 88, "visibility_pct": 0.0 }, "geometry": { "type": "Point", "coordinates": [ -0.648298845482307, 50.799689066097528 ] } },
{ "type": "Feature", "properties": { "visible_points": 8, "total_points": 79, "visibility_pct": 10.126582278481013 }, "geometry": { "type": "Point", "coordinates": [ -0.648102279042891, 50.799686786570966 ] } },
{ "type": "Feature", "properties": { "visible_points": 10, "total_points": 68, "visibility_pct": 14.705882352941178 }, "geometry": { "type": "Point", "coordinates": [ -0.64790571262978, 50.799684506713596 ] } },
{ "type": "Feature", "properties": { "visible_points": 3, "total_points": 67, "visibility_pct": 4.4776119402985071 }, "geometry": { "type": "Point", "coordinates": [ -0.64937685565288, 50.79980948130796 ] } },
{ "type": "Feature", "properties": { "visible_points": 0, "total_points": 79, "visibility_pct": 0.0 }, "geometry": { "type": "Point", "coordinates": [ -0.649180288597401, 50.799807203584052 ] } },
{ "type": "Feature", "properties": { "visible_points": 22, "total_points": 91, "visibility_pct": 24.175824175824175 }, "geometry": { "type": "Point", "coordinates": [ -0.648983721568207, 50.79980492552933 ] } },
{ "type": "Feature", "properties": { "visible_points": 22, "total_points": 100, "visibility_pct": 22.0 }, "geometry": { "type": "Point", "coordinates": [ -0.648787154565296, 50.7998026471438 ] } },
{ "type": "Feature", "properties": { "visible_points": 19, "total_points": 107, "visibility_pct": 17.75700934579439 }, "geometry": { "type": "Point", "coordinates": [ -0.648590587588677, 50.799800368427462 ] } },
{ "type": "Feature", "properties": { "visible_points": 16, "total_points": 100, "visibility_pct": 16.0 }, "geometry": { "type": "Point", "coordinates": [ -0.648394020638355, 50.799798089380324 ] } },
{ "type": "Feature", "properties": { "visible_points": 0, "total_points": 89, "visibility_pct": 0.0 }, "geometry": { "type": "Point", "coordinates": [ -0.648197453714323, 50.799795810002365 ] } },
{ "type": "Feature", "properties": { "visible_points": 9, "total_points": 77, "visibility_pct": 11.688311688311687 }, "geometry": { "type": "Point", "coordinates": [ -0.6480008868166, 50.799793530293584 ] } },
{ "type": "Feature", "properties": { "visible_points": 12, "total_points": 65, "visibility_pct": 18.461538461538463 }, "geometry": { "type": "Point", "coordinates": [ -0.647804319945176, 50.799791250254017 ] } },
{ "type": "Feature", "properties": { "visible_points": 6, "total_points": 75, "visibility_pct": 8.0 }, "geometry": { "type": "Point", "coordinates": [ -0.649275466150195, 50.799916226204154 ] } },
{ "type": "Feature", "properties": { "visible_points": 22, "total_points": 88, "visibility_pct": 25.0 }, "geometry": { "type": "Point", "coordinates": [ -0.649078898636389, 50.799913948298034 ] } },
{ "type": "Feature", "properties": { "visible_points": 27, "total_points": 101, "visibility_pct": 26.732673267326735 }, "geometry": { "type": "Point", "coordinates": [ -0.64888233114887, 50.799911670061107 ] } },
{ "type": "Feature", "properties": { "visible_points": 27, "total_points": 111, "visibility_pct": 24.324324324324326 }, "geometry": { "type": "Point", "coordinates": [ -0.648685763687636, 50.799909391493379 ] } },
{ "type": "Feature", "properties": { "visible_points": 24, "total_points": 111, "visibility_pct": 21.621621621621621 }, "geometry": { "type": "Point", "coordinates": [ -0.6484891962527, 50.799907112594802 ] } },
{ "type": "Feature", "properties": { "visible_points": 20, "total_points": 98, "visibility_pct": 20.408163265306122 }, "geometry": { "type": "Point", "coordinates": [ -0.648292628844051, 50.79990483336546 ] } },
{ "type": "Feature", "properties": { "visible_points": 0, "total_points": 85, "visibility_pct": 0.0 }, "geometry": { "type": "Point", "coordinates": [ -0.64809606146171, 50.799902553805282 ] } },
{ "type": "Feature", "properties": { "visible_points": 11, "total_points": 72, "visibility_pct": 15.277777777777779 }, "geometry": { "type": "Point", "coordinates": [ -0.647899494105666, 50.799900273914297 ] } },
{ "type": "Feature", "properties": { "visible_points": 12, "total_points": 59, "visibility_pct": 20.33898305084746 }, "geometry": { "type": "Point", "coordinates": [ -0.647702926775932, 50.799897993692504 ] } },
{ "type": "Feature", "properties": { "visible_points": 18, "total_points": 82, "visibility_pct": 21.951219512195124 }, "geometry": { "type": "Point", "coordinates": [ -0.649174076162883, 50.800022970998441 ] } },
{ "type": "Feature", "properties": { "visible_points": 25, "total_points": 95, "visibility_pct": 26.315789473684209 }, "geometry": { "type": "Point", "coordinates": [ -0.64897750819075, 50.800020692910124 ] } },
{ "type": "Feature", "properties": { "visible_points": 27, "total_points": 104, "visibility_pct": 25.961538461538463 }, "geometry": { "type": "Point", "coordinates": [ -0.6487809402449, 50.800018414490971 ] } },
{ "type": "Feature", "properties": { "visible_points": 26, "total_points": 110, "visibility_pct": 23.636363636363637 }, "geometry": { "type": "Point", "coordinates": [ -0.648584372325347, 50.800016135741032 ] } },
{ "type": "Feature", "properties": { "visible_points": 27, "total_points": 103, "visibility_pct": 26.21359223300971 }, "geometry": { "type": "Point", "coordinates": [ -0.648387804432083, 50.800013856660271 ] } },
{ "type": "Feature", "properties": { "visible_points": 17, "total_points": 90, "visibility_pct": 18.888888888888889 }, "geometry": { "type": "Point", "coordinates": [ -0.648191236565118, 50.800011577248704 ] } },
{ "type": "Feature", "properties": { "visible_points": 0, "total_points": 77, "visibility_pct": 0.0 }, "geometry": { "type": "Point", "coordinates": [ -0.647994668724455, 50.800009297506307 ] } },
{ "type": "Feature", "properties": { "visible_points": 15, "total_points": 65, "visibility_pct": 23.076923076923077 }, "geometry": { "type": "Point", "coordinates": [ -0.647798100910093, 50.800007017433103 ] } },
{ "type": "Feature", "properties": { "visible_points": 15, "total_points": 83, "visibility_pct": 18.072289156626507 }, "geometry": { "type": "Point", "coordinates": [ -0.649072685690939, 50.800129715690836 ] } },
{ "type": "Feature", "properties": { "visible_points": 15, "total_points": 91, "visibility_pct": 16.483516483516482 }, "geometry": { "type": "Point", "coordinates": [ -0.648876117260472, 50.800127437420294 ] } },
{ "type": "Feature", "properties": { "visible_points": 22, "total_points": 97, "visibility_pct": 22.680412371134022 }, "geometry": { "type": "Point", "coordinates": [ -0.648679548856301, 50.80012515881895 ] } },
{ "type": "Feature", "properties": { "visible_points": 27, "total_points": 98, "visibility_pct": 27.551020408163261 }, "geometry": { "type": "Point", "coordinates": [ -0.648482980478417, 50.800122879886793 ] } },
{ "type": "Feature", "properties": { "visible_points": 20, "total_points": 93, "visibility_pct": 21.50537634408602 }, "geometry": { "type": "Point", "coordinates": [ -0.648286412126824, 50.800120600623814 ] } },
{ "type": "Feature", "properties": { "visible_points": 12, "total_points": 81, "visibility_pct": 14.814814814814813 }, "geometry": { "type": "Point", "coordinates": [ -0.648089843801541, 50.80011832103002 ] } },
{ "type": "Feature", "properties": { "visible_points": 18, "total_points": 69, "visibility_pct": 26.086956521739129 }, "geometry": { "type": "Point", "coordinates": [ -0.647893275502553, 50.800116041105433 ] } },
{ "type": "Feature", "properties": { "visible_points": 16, "total_points": 57, "visibility_pct": 28.07017543859649 }, "geometry": { "type": "Point", "coordinates": [ -0.647696707229881, 50.800113760850017 ] } },
{ "type": "Feature", "properties": { "visible_points": 10, "total_points": 71, "visibility_pct": 14.084507042253522 }, "geometry": { "type": "Point", "coordinates": [ -0.649167863649445, 50.800238738403252 ] } },
{ "type": "Feature", "properties": { "visible_points": 7, "total_points": 78, "visibility_pct": 8.9743589743589745 }, "geometry": { "type": "Point", "coordinates": [ -0.64897129473436, 50.800236460281326 ] } },
{ "type": "Feature", "properties": { "visible_points": 0, "total_points": 84, "visibility_pct": 0.0 }, "geometry": { "type": "Point", "coordinates": [ -0.648774725845566, 50.800234181828593 ] } },
{ "type": "Feature", "properties": { "visible_points": 17, "total_points": 87, "visibility_pct": 19.540229885057471 }, "geometry": { "type": "Point", "coordinates": [ -0.648578156983056, 50.800231903045017 ] } },
{ "type": "Feature", "properties": { "visible_points": 20, "total_points": 86, "visibility_pct": 23.255813953488371 }, "geometry": { "type": "Point", "coordinates": [ -0.648381588146842, 50.800229623930633 ] } },
{ "type": "Feature", "properties": { "visible_points": 13, "total_points": 80, "visibility_pct": 16.25 }, "geometry": { "type": "Point", "coordinates": [ -0.64818501933693, 50.800227344485457 ] } },
{ "type": "Feature", "properties": { "visible_points": 12, "total_points": 70, "visibility_pct": 17.142857142857142 }, "geometry": { "type": "Point", "coordinates": [ -0.64798845055332, 50.800225064709458 ] } },
{ "type": "Feature", "properties": { "visible_points": 0, "total_points": 65, "visibility_pct": 0.0 }, "geometry": { "type": "Point", "coordinates": [ -0.649066472666564, 50.800345483074047 ] } },
{ "type": "Feature", "properties": { "visible_points": 0, "total_points": 71, "visibility_pct": 0.0 }, "geometry": { "type": "Point", "coordinates": [ -0.648869903293139, 50.800343204769902 ] } },
{ "type": "Feature", "properties": { "visible_points": 0, "total_points": 75, "visibility_pct": 0.0 }, "geometry": { "type": "Point", "coordinates": [ -0.648673333946008, 50.800340926134957 ] } },
{ "type": "Feature", "properties": { "visible_points": 13, "total_points": 76, "visibility_pct": 17.105263157894736 }, "geometry": { "type": "Point", "coordinates": [ -0.648476764625171, 50.80033864716917 ] } },
{ "type": "Feature", "properties": { "visible_points": 0, "total_points": 59, "visibility_pct": 0.0 }, "geometry": { "type": "Point", "coordinates": [ -0.648965081199039, 50.80045222764295 ] } },
{ "type": "Feature", "properties": { "visible_points": 0, "total_points": 63, "visibility_pct": 0.0 }, "geometry": { "type": "Point", "coordinates": [ -0.648768511367277, 50.800449949156587 ] } },
{ "type": "Feature", "properties": { "visible_points": 5, "total_points": 65, "visibility_pct": 7.6923076923076925 }, "geometry": { "type": "Point", "coordinates": [ -0.648571941561811, 50.800447670339423 ] } }
]
}
