{
"type": "FeatureCollection",
"name": "35ad3fd151cc_visibility",
"crs": { "type": "name", "properties": { "name": "urn:ogc:def:crs:OGC:1.3:CRS84" } },
"features": [
{ "type": "Feature", "properties": { "visible_points": 4, "total_points": 59, "visibility_pct": 6.7796610169491522 }, "geometry": { "type": "Point", "coordinates": [ 0.667150110928634, 51.371758727944453 ] } },
{ "type": "Feature", "properties": { "visible_points": 2, "total_points": 64, "visibility_pct": 3.125 }, "geometry": { "type": "Point", "coordinates": [ 0.667348956451881, 51.371754200940835 ] } },
{ "type": "Feature", "properties": { "visible_points": 6, "total_points": 66, "visibility_pct": 9.0909090909090917 }, "geometry": { "type": "Point", "coordinates": [ 0.667547801923389, 51.371749673601094 ] } },
{ "type": "Feature", "properties": { "visible_points": 5, "total_points": 65, "visibility_pct": 7.6923076923076925 }, "geometry": { "type": "Point", "coordinates": [ 0.667746647343144, 51.371745145925253 ] } },
{ "type": "Feature", "properties": { "visible_points": 3, "total_points": 62, "visibility_pct": 4.838709677419355 }, "geometry": { "type": "Point", "coordinates": [ 0.667056956514015, 51.371868775911757 ] } },
{ "type": "Feature", "properties": { "visible_points": 7, "total_points": 69, "visibility_pct": 10.144927536231885 }, "geometry": { "type": "Point", "coordinates": [ 0.667255802527989, 51.371864249046055 ] } },
{ "type": "Feature", "properties": { "visible_points": 7, "total_points": 73, "visibility_pct": 9.5890410958904102 }, "geometry": { "type": "Point", "coordinates": [ 0.667454648490226, 51.371859721844253 ] } },
{ "type": "Feature", "properties": { "visible_points": 11, "total_points": 75, "visibility_pct": 14.666666666666666 }, "geometry": { "type": "Point", "coordinates": [ 0.667653494400713, 51.371855194306342 ] } },
{ "type": "Feature", "properties": { "visible_points": 10, "total_points": 72, "visibility_pct": 13.888888888888889 }, "geometry": { "type": "Point", "coordinates": [ 0.667852340259446, 51.371850666432316 ] } },
{ "type": "Feature", "properties": { "visible_points": 4, "total_points": 59, "visibility_pct": 6.7796610169491522 }, "geometry": { "type": "Point", "coordinates": [ 0.666963801660415, 51.371978823821799 ] } },
{ "type": "Feature", "properties": { "visible_points": 3, "total_points": 69, "visibility_pct": 4.3478260869565215 }, "geometry": { "type": "Point", "coordinates": [ 0.667162648165119, 51.371974297094042 ] } },
{ "type": "Feature", "properties": { "visible_points": 8, "total_points": 74, "visibility_pct": 10.810810810810811 }, "geometry": { "type": "Point", "coordinates": [ 0.667361494618087, 51.371969770030169 ] } },
{ "type": "Feature", "properties": { "visible_points": 11, "total_points": 77, "visibility_pct": 14.285714285714285 }, "geometry": { "type": "Point", "coordinates": [ 0.667560341019305, 51.371965242630182 ] } },
{ "type": "Feature", "properties": { "visible_points": 11, "total_points": 78, "visibility_pct": 14.102564102564102 }, "geometry": { "type": "Point", "coordinates": [ 0.667759187368772, 51.37196071489408 ] } },
{ "type": "Feature", "properties": { "visible_points": 9, "total_points": 71, "visibility_pct": 12.676056338028168 }, "geometry": { "type": "Point", "coordinates": [ 0.667958033666491, 51.371956186821876 ] } },
{ "type": "Feature", "properties": { "visible_points": 1, "total_points": 64, "visibility_pct": 1.5625 }, "geometry": { "type": "Point", "coordinates": [ 0.667069493363266, 51.372084345084765 ] } },
{ "type": "Feature", "properties": { "visible_points": 4, "total_points": 74, "visibility_pct": 5.4054054054054053 }, "geometry": { "type": "Point", "coordinates": [ 0.66726834030696, 51.372079818158831 ] } },
{ "type": "Feature", "properties": { "visible_points": 9, "total_points": 77, "visibility_pct": 11.688311688311687 }, "geometry": { "type": "Point", "coordinates": [ 0.667467187198919, 51.372075290896788 ] } },
{ "type": "Feature", "properties": { "visible_points": 11, "total_points": 78, "visibility_pct": 14.102564102564102 }, "geometry": { "type": "Point", "coordinates": [ 0.667666034039122, 51.372070763298616 ] } },
{ "type": "Feature", "properties": { "visible_points": 8, "total_points": 76, "visibility_pct": 10.526315789473683 }, "geometry": { "type": "Point", "coordinates": [ 0.667864880827575, 51.372066235364329 ] } },
{ "type": "Feature", "properties": { "visible_points": 3, "total_points": 66, "visibility_pct": 4.5454545454545459 }, "geometry": { "type": "Point", "coordinates": [ 0.668063727564275, 51.372061707093934 ] } },
{ "type": "Feature", "properties": { "visible_points": 7, "total_points": 67, "visibility_pct": 10.44776119402985 }, "geometry": { "type": "Point", "coordinates": [ 0.667175185556857, 51.372189866230251 ] } },
{ "type": "Feature", "properties": { "visible_points": 8, "total_points": 76, "visibility_pct": 10.526315789473683 }, "geometry": { "type": "Point", "coordinates": [ 0.667374032939543, 51.372185339106132 ] } },
{ "type": "Feature", "properties": { "visible_points": 10, "total_points": 78, "visibility_pct": 12.820512820512819 }, "geometry": { "type": "Point", "coordinates": [ 0.667572880270494, 51.372180811645897 ] } },
{ "type": "Feature", "properties": { "visible_points": 10, "total_points": 75, "visibility_pct": 13.333333333333334 }, "geometry": { "type": "Point", "coordinates": [ 0.667771727549684, 51.372176283849548 ] } },
{ "type": "Feature", "properties": { "visible_points": 6, "total_points": 69, "visibility_pct": 8.695652173913043 }, "geometry": { "type": "Point", "coordinates": [ 0.667970574777122, 51.372171755717062 ] } },
{ "type": "Feature", "properties": { "visible_points": 0, "total_points": 59, "visibility_pct": 0.0 }, "geometry": { "type": "Point", "coordinates": [ 0.668169421952807, 51.372167227248504 ] } },
{ "type": "Feature", "properties": { "visible_points": 7, "total_points": 57, "visibility_pct": 12.280701754385964 }, "geometry": { "type": "Point", "coordinates": [ 0.667082030367758, 51.372299914244429 ] } },
{ "type": "Feature", "properties": { "visible_points": 7, "total_points": 66, "visibility_pct": 10.606060606060606 }, "geometry": { "type": "Point", "coordinates": [ 0.667280878241187, 51.372295387258248 ] } },
{ "type": "Feature", "properties": { "visible_points": 7, "total_points": 71, "visibility_pct": 9.8591549295774641 }, "geometry": { "type": "Point", "coordinates": [ 0.667479726062873, 51.372290859935923 ] } },
{ "type": "Feature", "properties": { "visible_points": 0, "total_points": 70, "visibility_pct": 0.0 }, "geometry": { "type": "Point", "coordinates": [ 0.66767857383281, 51.372286332277504 ] } },
{ "type": "Feature", "properties": { "visible_points": 0, "total_points": 66, "visibility_pct": 0.0 }, "geometry": { "type": "Point", "coordinates": [ 0.667877421550995, 51.372281804282984 ] } },
{ "type": "Feature", "properties": { "visible_points": 2, "total_points": 59, "visibility_pct": 3.3898305084745761 }, "geometry": { "type": "Point", "coordinates": [ 0.66807626921742, 51.372277275952321 ] } },
{ "type": "Feature", "properties": { "visible_points": 0, "total_points": 50, "visibility_pct": 0.0 }, "geometry": { "type": "Point", "coordinates": [ 0.668275116832086, 51.37227274728555 ] } },
{ "type": "Feature", "properties": { "visible_points": 1, "total_points": 56, "visibility_pct": 1.7857142857142856 }, "geometry": { "type": "Point", "coordinates": [ 0.667983116043052, 51.372387324598904 ] } },
{ "type": "Feature", "properties": { "visible_points": 1, "total_points": 49, "visibility_pct": 2.0408163265306123 }, "geometry": { "type": "Point", "coordinates": [ 0.668181964148467, 51.372382796070063 ] } }
]
}
