{
"type": "FeatureCollection",
"name": "WAVER_47_cycling",
"crs": { "type": "name", "properties": { "name": "urn:ogc:def:crs:OGC:1.3:CRS84" } },
"features": [
{"type":"Feature","properties":{"highway":"cycleway","name":null,"category":"Dedicated cycleway"},"geometry":{"type":"MultiLineString","coordinates":[[[-0.6275378,51.1816173],[-0.6276281,51.1816926],[-0.6279112,51.181932],[-0.6282085,51.1821877],[-0.6281678,51.1822148],[-0.6276789,51.1820662],[-0.6277654,51.1821843],[-0.6279346,51.1823375],[-0.6279439,51.1824122],[-0.6276853,51.1826925]]]}},
{"type":"Feature","properties":{"highway":"bridleway","name":"New Way","category":"Bridleway"},"geometry":{"type":"MultiLineString","coordinates":[[[-0.6217366,51.1844099],[-0.6217877,51.1844265],[-0.6223651,51.1846139],[-0.6226902,51.184738],[-0.6229436,51.1848441],[-0.6236801,51.1852136],[-0.6240642,51.1854204],[-0.6247437,51.1857664],[-0.6248984,51.1858431],[-0.6253233,51.1860844],[-0.6261737,51.1863316],[-0.6264242,51.1864208]]]}},
{"type":"Feature","properties":{"highway":"path","name":null,"category":"Shared path"},"geometry":{"type":"MultiLineString","coordinates":[[[-0.6215524,51.1796704],[-0.6217099,51.1796718],[-0.6221059,51.1797335],[-0.6222453,51.1798277],[-0.6224599,51.1798142],[-0.6228676,51.1794309],[-0.6230484,51.1792229],[-0.6234161,51.1780672]]]}}
]
}
