{
"type": "FeatureCollection",
"name": "WAVER_877_cycling",
"crs": { "type": "name", "properties": { "name": "urn:ogc:def:crs:OGC:1.3:CRS84" } },
"features": [
{"type":"Feature","properties":{"highway":"track","name":null,"category":"Track"},"geometry":{"type":"MultiLineString","coordinates":[[[-0.7121045,51.1215496],[-0.7127897,51.1216083],[-0.7131706,51.121598],[-0.7138299,51.1213953],[-0.714288,51.1213544],[-0.7147628,51.121321],[-0.7150895,51.121378]]]}},
{"type":"Feature","properties":{"highway":"bridleway","name":null,"category":"Bridleway"},"geometry":{"type":"MultiLineString","coordinates":[[[-0.7102597,51.1228885],[-0.709763,51.1225092],[-0.7096793,51.122402],[-0.7095411,51.1219639],[-0.7095082,51.1218594],[-0.7092721,51.1213476],[-0.7089503,51.1207684],[-0.7088063,51.1205154],[-0.7086284,51.1202027],[-0.7078017,51.1199225]]]}},
{"type":"Feature","properties":{"highway":"track","name":null,"category":"Track"},"geometry":{"type":"MultiLineString","coordinates":[[[-0.72178,51.131856],[-0.7215131,51.1319836],[-0.721136,51.1321563],[-0.720265,51.1323879],[-0.7195811,51.1325831],[-0.7192367,51.1325072],[-0.7189358,51.1324244],[-0.7186568,51.1324144],[-0.7184444,51.1324975],[-0.7182365,51.1326146],[-0.7180663,51.1327523],[-0.7178674,51.1328699],[-0.7175827,51.1329411],[-0.7173015,51.1329539],[-0.7170006,51.1329622],[-0.7167839,51.1329382],[-0.7163835,51.1329136],[-0.7158297,51.1328572]]]}},
{"type":"Feature","properties":{"highway":"path","name":null,"category":"Shared path"},"geometry":{"type":"MultiLineString","coordinates":[[[-0.7197532,51.127948],[-0.719418,51.128466],[-0.719009,51.128856],[-0.718802,51.129013],[-0.718657,51.129153],[-0.718428,51.129394],[-0.718262,51.129637],[-0.718096,51.130014],[-0.717777,51.131039],[-0.717299,51.132074],[-0.717158,51.132622],[-0.7167839,51.1329382]]]}},
{"type":"Feature","properties":{"highway":"track","name":null,"category":"Track"},"geometry":{"type":"MultiLineString","coordinates":[[[-0.7158297,51.1328572],[-0.7157923,51.1328568],[-0.7156855,51.132855]]]}},
{"type":"Feature","properties":{"highway":"bridleway","name":null,"category":"Bridleway"},"geometry":{"type":"MultiLineString","coordinates":[[[-0.7079013,51.1198148],[-0.7082535,51.1198366],[-0.7084816,51.1197765],[-0.7086807,51.1197241],[-0.7092601,51.1196028],[-0.7096865,51.1195641],[-0.7100567,51.1195607],[-0.7104563,51.1195759],[-0.7107378,51.1196876],[-0.7109962,51.1197965],[-0.7112829,51.1199209],[-0.7115731,51.1200919],[-0.7116107,51.1202243],[-0.7114332,51.1204617],[-0.711195,51.1207373],[-0.7110129,51.1209425],[-0.7109008,51.121133],[-0.7108448,51.1212942],[-0.7108722,51.1214731],[-0.7109608,51.1216843],[-0.7111156,51.1219127],[-0.711467,51.122056]]]}}
]
}
