{
"type": "FeatureCollection",
"name": "MOLVA_0_cycling",
"crs": { "type": "name", "properties": { "name": "urn:ogc:def:crs:OGC:1.3:CRS84" } },
"features": [
{"type":"Feature","properties":{"highway":"bridleway","name":null,"category":"Bridleway"},"geometry":{"type":"MultiLineString","coordinates":[[[-0.2523988,51.242161],[-0.2525909,51.2419129],[-0.2528342,51.241688],[-0.2532673,51.2412875],[-0.2541083,51.2405314],[-0.2550113,51.2396478],[-0.2553758,51.2392497],[-0.2554879,51.2391338],[-0.2554938,51.2391004],[-0.2555066,51.2390671],[-0.2556011,51.2390133],[-0.255981,51.2387523],[-0.256167,51.2382098],[-0.2563721,51.2374623]]]}},
{"type":"Feature","properties":{"highway":"track","name":null,"category":"Track"},"geometry":{"type":"MultiLineString","coordinates":[[[-0.2389337,51.2494379],[-0.2389202,51.2492532],[-0.2385437,51.2489214],[-0.2384,51.2487948],[-0.2382512,51.248627],[-0.237983,51.2483718],[-0.2378864,51.248308],[-0.2377738,51.2482442],[-0.2376573,51.2482084],[-0.23713,51.2481401],[-0.236556,51.2480696],[-0.2363307,51.2480428],[-0.2362664,51.2480125],[-0.2362342,51.2479689],[-0.2362375,51.2479373],[-0.2362395,51.2479185],[-0.2362612,51.2478688],[-0.2363658,51.2476254],[-0.2364141,51.2475095],[-0.2364356,51.247481],[-0.2365026,51.247392],[-0.2365831,51.2473165],[-0.2366662,51.2472476],[-0.2367038,51.2472174],[-0.236736,51.2471838],[-0.2367574,51.2471318],[-0.2368057,51.2468648],[-0.2368164,51.2467792],[-0.2368164,51.2466281],[-0.2368111,51.2462956],[-0.2367896,51.2460572],[-0.2367762,51.2459095],[-0.2367655,51.2458054],[-0.2367548,51.2457533],[-0.2367333,51.2457164],[-0.2367038,51.2456811],[-0.2366555,51.2456459],[-0.2366046,51.245624],[-0.2364678,51.2455871],[-0.234963,51.2451338],[-0.234845,51.2450985],[-0.2347297,51.2450616],[-0.2343649,51.244939],[-0.2343274,51.2449222],[-0.2342998,51.2449087],[-0.234271,51.2448869],[-0.2342281,51.2448416],[-0.2341879,51.2448013],[-0.2341503,51.2447744],[-0.2340779,51.2447476],[-0.2340216,51.2447325],[-0.233976,51.2447241],[-0.2338607,51.2447106],[-0.2337507,51.2447022],[-0.2326027,51.2446502],[-0.2321843,51.2446351],[-0.2320582,51.2446284],[-0.2319402,51.2446149],[-0.2318383,51.2445998],[-0.2307547,51.2443312]]]}},
{"type":"Feature","properties":{"highway":"track","name":null,"category":"Track"},"geometry":{"type":"MultiLineString","coordinates":[[[-0.2510886,51.2444888],[-0.2511234,51.2444529],[-0.2511177,51.2444122],[-0.2510793,51.244346],[-0.2510223,51.2442143],[-0.2509789,51.2440334],[-0.2509889,51.2439834]]]}},
{"type":"Feature","properties":{"highway":"track","name":null,"category":"Track"},"geometry":{"type":"MultiLineString","coordinates":[[[-0.238104,51.2420085],[-0.2380969,51.2420765]]]}},
{"type":"Feature","properties":{"highway":"track","name":null,"category":"Track"},"geometry":{"type":"MultiLineString","coordinates":[[[-0.2380969,51.2420765],[-0.2380865,51.2423036]]]}},
{"type":"Feature","properties":{"highway":"path","name":null,"category":"Shared path"},"geometry":{"type":"MultiLineString","coordinates":[[[-0.2427226,51.2441823],[-0.2424584,51.244205],[-0.2422197,51.2442023],[-0.2420536,51.2441835],[-0.2418879,51.2441498],[-0.2415233,51.243988]]]}},
{"type":"Feature","properties":{"highway":"path","name":null,"category":"Shared path"},"geometry":{"type":"MultiLineString","coordinates":[[[-0.2307562,51.240658],[-0.2306779,51.2406048],[-0.2305508,51.2405981],[-0.2305254,51.2399692]]]}},
{"type":"Feature","properties":{"highway":"path","name":null,"category":"Shared path"},"geometry":{"type":"MultiLineString","coordinates":[[[-0.2379749,51.240654],[-0.2380092,51.2409388],[-0.2380865,51.2418254],[-0.2380856,51.2419453],[-0.23808,51.2420596],[-0.2380969,51.2420765]]]}},
{"type":"Feature","properties":{"highway":"track","name":null,"category":"Track"},"geometry":{"type":"MultiLineString","coordinates":[[[-0.2342998,51.2449087],[-0.2342111,51.2449789],[-0.2341621,51.2450184],[-0.2341317,51.2450447],[-0.2340944,51.2450827],[-0.2340313,51.245166],[-0.2339799,51.2452376],[-0.2339543,51.2452844],[-0.2338865,51.2454203]]]}},
{"type":"Feature","properties":{"highway":"track","name":null,"category":"Track"},"geometry":{"type":"MultiLineString","coordinates":[[[-0.2479336,51.2387128],[-0.2475495,51.2382034],[-0.247219,51.2379054],[-0.2470358,51.2378042],[-0.2467467,51.2377693],[-0.2463372,51.2377907],[-0.2455254,51.23783],[-0.2453027,51.2377974],[-0.2451285,51.2377761],[-0.2446723,51.2378469],[-0.244094,51.2379436],[-0.2437294,51.2379088],[-0.2433451,51.2378323],[-0.2431529,51.2377243],[-0.2429571,51.2375748],[-0.2428045,51.2375422],[-0.2426356,51.2375737],[-0.2424973,51.2376726],[-0.2420609,51.2380785],[-0.241752,51.2382348],[-0.2416496,51.2383552],[-0.241682,51.238489],[-0.241655,51.238643],[-0.2416191,51.2387993],[-0.2418059,51.2392963],[-0.2418418,51.2395482],[-0.2420017,51.2396943],[-0.2422154,51.2398293],[-0.2423142,51.2401655],[-0.2422678,51.240482],[-0.2423505,51.2405879],[-0.2426362,51.240642],[-0.2429295,51.240642],[-0.2431626,51.2407997],[-0.2433845,51.2413647],[-0.2435236,51.2418166],[-0.2434822,51.2419837],[-0.243483,51.2420449]]]}},
{"type":"Feature","properties":{"highway":"track","name":null,"category":"Track"},"geometry":{"type":"MultiLineString","coordinates":[[[-0.2338848,51.2427426],[-0.2340566,51.2428889],[-0.2343607,51.2430545],[-0.2344114,51.243148],[-0.2345831,51.2432308],[-0.2347464,51.2432819],[-0.2353424,51.2434061]]]}},
{"type":"Feature","properties":{"highway":"path","name":null,"category":"Shared path"},"geometry":{"type":"MultiLineString","coordinates":[[[-0.2511282,51.2435177],[-0.2511459,51.2435082],[-0.2512009,51.2435031],[-0.2513511,51.2435367],[-0.2516184,51.2436383],[-0.2516409,51.2436468],[-0.2516575,51.2436531],[-0.2516552,51.2437762]]]}},
{"type":"Feature","properties":{"highway":"path","name":null,"category":"Shared path"},"geometry":{"type":"MultiLineString","coordinates":[[[-0.2516184,51.2436383],[-0.2515883,51.2436544],[-0.2512467,51.2436915],[-0.2510514,51.2437098],[-0.2509966,51.2437149],[-0.2509371,51.2437129],[-0.2508872,51.2436641],[-0.250867,51.2436113],[-0.2508673,51.2435677],[-0.2508675,51.2435415],[-0.2510286,51.243511],[-0.2511459,51.2435082]]]}},
{"type":"Feature","properties":{"highway":"track","name":null,"category":"Track"},"geometry":{"type":"MultiLineString","coordinates":[[[-0.2381758,51.2436386],[-0.2378256,51.2437744],[-0.2376996,51.2438871],[-0.2376353,51.2440255],[-0.2376482,51.2441365],[-0.2377561,51.2442459],[-0.2379387,51.2443135],[-0.2383191,51.2443939],[-0.2384836,51.24441],[-0.2385607,51.2444519]]]}},
{"type":"Feature","properties":{"highway":"cycle_lane_on_street","name":"Buckland Road","category":"Cycle lane on street"},"geometry":{"type":"MultiLineString","coordinates":[[[-0.2274367,51.2409],[-0.2277658,51.2408937],[-0.2280596,51.240872],[-0.2285736,51.2407965],[-0.2290668,51.2407224],[-0.2293386,51.2406849],[-0.229478,51.2406769],[-0.2296207,51.2406826],[-0.2299061,51.2406935],[-0.2301724,51.2407469],[-0.2305286,51.2408336],[-0.2309276,51.2410086],[-0.2311733,51.2412322],[-0.2316197,51.2416126],[-0.2316738,51.2416587]]]}}
]
}
