{
"type": "FeatureCollection",
"name": "ROTHE_108_NACH_800m",
"crs": { "type": "name", "properties": { "name": "urn:ogc:def:crs:OGC:1.3:CRS84" } },
"features": [
{ "type": "Feature", "properties": { "id": 59324, "nach": 0.0 }, "geometry": { "type": "LineString", "coordinates": [ [ 0.6566415, 50.9721833 ], [ 0.6563994, 50.9725644 ], [ 0.6563192, 50.9728585 ], [ 0.6563177, 50.9731454 ], [ 0.6562853, 50.9734192 ], [ 0.6561204, 50.9737534 ], [ 0.6560685, 50.974032099999988 ], [ 0.6558629, 50.9742938 ], [ 0.655348, 50.9746992 ], [ 0.6552527, 50.9747845 ], [ 0.6551512, 50.9749408 ], [ 0.6551266, 50.9751093 ], [ 0.6551119, 50.9752261 ], [ 0.6548236, 50.9760645 ], [ 0.6548302, 50.9764087 ], [ 0.654872, 50.9765807 ], [ 0.6548791, 50.9766923 ], [ 0.65482, 50.977122499999986 ], [ 0.6547636, 50.9773425 ], [ 0.6546995, 50.9776398 ], [ 0.6547292, 50.977908700000015 ], [ 0.6548135, 50.9780981 ], [ 0.655305, 50.9787253 ], [ 0.6555196, 50.9793738 ], [ 0.655584, 50.979752 ], [ 0.6555196, 50.9803194 ], [ 0.6557557, 50.9816298 ], [ 0.6559702, 50.9822107 ], [ 0.6560292, 50.982578300000014 ], [ 0.6560373, 50.9826287 ] ] } },
{ "type": "Feature", "properties": { "id": 68110, "nach": 0.27844092807457532 }, "geometry": { "type": "LineString", "coordinates": [ [ 0.6679556, 50.9615757 ], [ 0.6685077, 50.962065700000011 ], [ 0.669372, 50.9622085 ], [ 0.66965, 50.9623814 ], [ 0.6708374, 50.962697 ], [ 0.6709839, 50.962847 ], [ 0.6710629, 50.9630502 ], [ 0.6711401, 50.9633132 ], [ 0.6712583, 50.9637266 ], [ 0.6713426, 50.9639277 ] ] } },
{ "type": "Feature", "properties": { "id": 21987, "nach": 0.22530486017448387 }, "geometry": { "type": "LineString", "coordinates": [ [ 0.6654441, 50.9604464 ], [ 0.6661304, 50.9604715 ], [ 0.6669535, 50.9606655 ], [ 0.6670645, 50.9606612 ], [ 0.6675296, 50.9607818 ], [ 0.6676501, 50.9607732 ], [ 0.6682997, 50.9608756 ], [ 0.6687998, 50.9610145 ], [ 0.6694009, 50.9611502 ], [ 0.6699818, 50.961192 ], [ 0.6713661, 50.9611591 ], [ 0.6728141, 50.9613069 ] ] } },
{ "type": "Feature", "properties": { "id": 68109, "nach": 0.30674104294246485 }, "geometry": { "type": "LineString", "coordinates": [ [ 0.6679556, 50.9615757 ], [ 0.6679065, 50.9615321 ], [ 0.6668324, 50.9611682 ], [ 0.6660993, 50.960754 ], [ 0.6654441, 50.9604464 ] ] } },
{ "type": "Feature", "properties": { "id": 68111, "nach": 0.25991000839061351 }, "geometry": { "type": "LineString", "coordinates": [ [ 0.6679556, 50.9615757 ], [ 0.6680488, 50.9615004 ], [ 0.6680394, 50.9614475 ] ] } },
{ "type": "Feature", "properties": { "id": 21985, "nach": 0.33341666810096432 }, "geometry": { "type": "LineString", "coordinates": [ [ 0.6654441, 50.9604464 ], [ 0.6652501, 50.9603553 ] ] } },
{ "type": "Feature", "properties": { "id": 68115, "nach": 0.34130553289053833 }, "geometry": { "type": "LineString", "coordinates": [ [ 0.6642932, 50.9596201 ], [ 0.6643412, 50.9596968 ], [ 0.6646064, 50.9600434 ], [ 0.6652501, 50.9603553 ] ] } },
{ "type": "Feature", "properties": { "id": 21938, "nach": 0.31980421317729046 }, "geometry": { "type": "LineString", "coordinates": [ [ 0.6635997, 50.9614344 ], [ 0.6638315, 50.961374 ], [ 0.6640262, 50.961337 ], [ 0.6643381, 50.9613212 ], [ 0.6646054, 50.9612945 ], [ 0.6648913, 50.9612184 ], [ 0.6649555, 50.961179100000017 ], [ 0.6651224, 50.9610075 ], [ 0.6652573, 50.960403900000017 ], [ 0.6652501, 50.9603553 ] ] } },
{ "type": "Feature", "properties": { "id": 37610, "nach": 0.25720250681162432 }, "geometry": { "type": "LineString", "coordinates": [ [ 0.6656943, 50.9600673 ], [ 0.6655668, 50.9599226 ], [ 0.6655288, 50.9599128 ], [ 0.6650889, 50.9600935 ], [ 0.6650691, 50.9601255 ], [ 0.6652803, 50.960272 ], [ 0.6652735, 50.9603124 ], [ 0.6652501, 50.9603553 ] ] } },
{ "type": "Feature", "properties": { "id": 68114, "nach": 0.34127046767667352 }, "geometry": { "type": "LineString", "coordinates": [ [ 0.6642932, 50.9596201 ], [ 0.664181, 50.959441 ], [ 0.664058, 50.95930220000001 ], [ 0.6638605, 50.9591886 ], [ 0.6634314, 50.9589832 ], [ 0.6630339, 50.9589002 ] ] } },
{ "type": "Feature", "properties": { "id": 68113, "nach": 0.27132605954037736 }, "geometry": { "type": "LineString", "coordinates": [ [ 0.6642932, 50.9596201 ], [ 0.6645677, 50.9595292 ] ] } },
{ "type": "Feature", "properties": { "id": 68116, "nach": 0.2394805429980614 }, "geometry": { "type": "LineString", "coordinates": [ [ 0.6603026, 50.9628244 ], [ 0.6614512, 50.962325700000015 ], [ 0.6627109, 50.9617875 ], [ 0.6632072, 50.9615692 ], [ 0.6634312, 50.9614907 ], [ 0.6635997, 50.9614344 ] ] } },
{ "type": "Feature", "properties": { "id": 21972, "nach": 0.29546728694968349 }, "geometry": { "type": "LineString", "coordinates": [ [ 0.6626757, 50.9640223 ], [ 0.6627711, 50.9639906 ], [ 0.6628553, 50.9639012 ], [ 0.6630566, 50.9634464 ], [ 0.6632337, 50.963024100000013 ], [ 0.6633678, 50.9625714 ], [ 0.6634213, 50.9623435 ], [ 0.6634659, 50.9621536 ], [ 0.6635971, 50.9617551 ], [ 0.663623, 50.9616122 ], [ 0.6635997, 50.9614344 ] ] } },
{ "type": "Feature", "properties": { "id": 66769, "nach": 0.27956228374432679 }, "geometry": { "type": "LineString", "coordinates": [ [ 0.6564794, 50.9568108 ], [ 0.6567909, 50.9568134 ], [ 0.6572623, 50.9568174 ], [ 0.6575169, 50.9568668 ], [ 0.6577936, 50.9570233 ], [ 0.6581503, 50.9571778 ], [ 0.6590917, 50.9575461 ] ] } },
{ "type": "Feature", "properties": { "id": 52080, "nach": 0.31059618444150006 }, "geometry": { "type": "LineString", "coordinates": [ [ 0.6597612, 50.9577782 ], [ 0.6595846, 50.9577416 ], [ 0.6590917, 50.9575461 ] ] } },
{ "type": "Feature", "properties": { "id": 34628, "nach": 0.25119536680654253 }, "geometry": { "type": "LineString", "coordinates": [ [ 0.6586988, 50.9554782 ], [ 0.6587186, 50.955579 ], [ 0.6587638, 50.9556518 ], [ 0.6587964, 50.9557347 ], [ 0.6588541, 50.95599820000001 ], [ 0.6589068, 50.9561965 ], [ 0.6589595, 50.95627180000001 ], [ 0.659065, 50.9563546 ], [ 0.6592227, 50.9564442 ], [ 0.6594296, 50.9565624 ], [ 0.6595736, 50.956680600000013 ], [ 0.6596032, 50.9567655 ], [ 0.6595921, 50.956843099999986 ], [ 0.6595552, 50.956917 ], [ 0.6593671, 50.9571739 ], [ 0.6592267, 50.957338500000013 ], [ 0.6591484, 50.957464 ], [ 0.6590917, 50.9575461 ] ] } },
{ "type": "Feature", "properties": { "id": 66768, "nach": 0.26410191303884406 }, "geometry": { "type": "LineString", "coordinates": [ [ 0.6564794, 50.9568108 ], [ 0.6564301, 50.9568104 ] ] } },
{ "type": "Feature", "properties": { "id": 68119, "nach": 0.0 }, "geometry": { "type": "LineString", "coordinates": [ [ 0.6603026, 50.9628244 ], [ 0.6602712, 50.9628035 ], [ 0.6586487, 50.9621367 ], [ 0.6584717, 50.9620691 ], [ 0.6583268, 50.9619914 ], [ 0.6581444, 50.9619238 ], [ 0.6579205, 50.9618699 ], [ 0.6578399, 50.961822200000015 ], [ 0.6578387, 50.9618078 ], [ 0.6578328, 50.9617382 ], [ 0.6577022, 50.9614852 ], [ 0.6574562, 50.9611861 ], [ 0.6573989, 50.9608324 ], [ 0.6574242, 50.960619399999985 ], [ 0.6573919, 50.960411599999986 ], [ 0.6572817, 50.9601688 ], [ 0.6572289, 50.9600226 ], [ 0.6571724, 50.9599532 ], [ 0.6563435, 50.9595163 ], [ 0.6561542, 50.9593686 ], [ 0.6561234, 50.9592791 ], [ 0.6561309, 50.959169 ], [ 0.6563654, 50.9588226 ], [ 0.6564613, 50.9586682 ], [ 0.6564415, 50.9585982 ], [ 0.6562971, 50.958417 ], [ 0.6562293, 50.958322 ], [ 0.656233, 50.9581632 ], [ 0.6562642, 50.958010099999989 ], [ 0.6563259, 50.95779490000001 ], [ 0.6564386, 50.9575955 ], [ 0.6564517, 50.9574011 ], [ 0.6564582, 50.957197 ], [ 0.6564866, 50.9570436 ], [ 0.6564794, 50.9568108 ] ] } },
{ "type": "Feature", "properties": { "id": 52081, "nach": 0.32368693975152918 }, "geometry": { "type": "LineString", "coordinates": [ [ 0.6597612, 50.9577782 ], [ 0.6600852, 50.957854 ], [ 0.660702, 50.957983 ], [ 0.6610301, 50.9581428 ], [ 0.6613007, 50.958248 ], [ 0.6615603, 50.9583939 ], [ 0.6618435, 50.9585399 ], [ 0.6623413, 50.9587291 ], [ 0.6625315, 50.9588503 ] ] } },
{ "type": "Feature", "properties": { "id": 52083, "nach": 0.25082553299825305 }, "geometry": { "type": "LineString", "coordinates": [ [ 0.6599606, 50.9583055 ], [ 0.6598788, 50.9582347 ], [ 0.6597356, 50.95811230000001 ], [ 0.6596912, 50.9579963 ], [ 0.6596912, 50.957914700000011 ], [ 0.6597612, 50.9577782 ] ] } },
{ "type": "Feature", "properties": { "id": 12424, "nach": 0.15078213621768455 }, "geometry": { "type": "LineString", "coordinates": [ [ 0.6564301, 50.9568104 ], [ 0.6564101, 50.9566928 ], [ 0.6556178, 50.9557809 ], [ 0.6553925, 50.9554667 ], [ 0.6551994, 50.9548686 ], [ 0.6551565, 50.9539528 ], [ 0.6548974, 50.9530966 ], [ 0.6539226, 50.951533800000014 ] ] } },
{ "type": "Feature", "properties": { "id": 12423, "nach": 0.21521345959090429 }, "geometry": { "type": "LineString", "coordinates": [ [ 0.6564301, 50.9568104 ], [ 0.6560103, 50.95679160000001 ], [ 0.6555016, 50.9567263 ], [ 0.6544349, 50.956464 ], [ 0.6533984, 50.9561551 ], [ 0.6530008, 50.9560053 ], [ 0.6525847, 50.9559047 ], [ 0.6520676, 50.95584 ] ] } },
{ "type": "Feature", "properties": { "id": 59287, "nach": 0.11067648974628341 }, "geometry": { "type": "LineString", "coordinates": [ [ 0.6448807, 50.963212900000016 ], [ 0.6449302, 50.9630838 ], [ 0.6450778, 50.9626985 ], [ 0.6451334, 50.9623714 ], [ 0.6453746, 50.9618339 ], [ 0.6453004, 50.9613782 ], [ 0.6447068, 50.9610628 ], [ 0.6428517, 50.9607005 ], [ 0.6406812, 50.9604435 ], [ 0.6394058, 50.9604337 ] ] } },
{ "type": "Feature", "properties": { "id": 59286, "nach": 0.0 }, "geometry": { "type": "LineString", "coordinates": [ [ 0.6448807, 50.963212900000016 ], [ 0.6449946, 50.9631863 ], [ 0.6464216, 50.9629092 ], [ 0.6476983, 50.9626119 ], [ 0.647988, 50.9625173 ], [ 0.6482347, 50.9625105 ], [ 0.6485888, 50.9625376 ], [ 0.6490072, 50.9626051 ], [ 0.6493291, 50.9627335 ], [ 0.6496295, 50.9628214 ], [ 0.6508526, 50.9628416 ], [ 0.651153, 50.9628146 ], [ 0.6516251, 50.9626997 ], [ 0.6518611, 50.9626389 ], [ 0.6530198, 50.9625376 ], [ 0.6534919, 50.9625376 ], [ 0.6538459, 50.9625038 ], [ 0.6539586, 50.96242620000001 ], [ 0.6539532, 50.9623382 ], [ 0.6538888, 50.9622673 ], [ 0.6537601, 50.9622402 ], [ 0.6535402, 50.96222 ], [ 0.6531432, 50.962172700000018 ], [ 0.6526282, 50.9620443 ], [ 0.6518343, 50.9617571 ], [ 0.6503376, 50.9612638 ], [ 0.6495544, 50.9610442 ], [ 0.6486585, 50.9607435 ], [ 0.6480309, 50.9604132 ], [ 0.6478217, 50.9602164 ], [ 0.6477144, 50.9600339 ], [ 0.6476768, 50.959865 ], [ 0.6476339, 50.9597771 ], [ 0.6476393, 50.959584500000012 ], [ 0.6476447, 50.959469600000013 ], [ 0.6474408, 50.9592162 ], [ 0.6469902, 50.9587567 ], [ 0.6466415, 50.9584593 ], [ 0.6461265, 50.9578545 ], [ 0.6456255, 50.9572864 ] ] } },
{ "type": "Feature", "properties": { "id": 22003, "nach": 0.15079240591386919 }, "geometry": { "type": "LineString", "coordinates": [ [ 0.6471833, 50.9609834 ], [ 0.6472584, 50.9608685 ], [ 0.6472906, 50.9606928 ], [ 0.6472048, 50.960409 ], [ 0.6469687, 50.9600441 ], [ 0.6461534, 50.9592872 ], [ 0.6456813, 50.958875 ], [ 0.6453503, 50.9585148 ], [ 0.6451878, 50.9579221 ], [ 0.6449523, 50.9574335 ] ] } },
{ "type": "Feature", "properties": { "id": 58066, "nach": 0.16399200724749019 }, "geometry": { "type": "LineString", "coordinates": [ [ 0.6630339, 50.9589002 ], [ 0.6631021, 50.958694199999989 ], [ 0.6634177, 50.9582561 ], [ 0.663914, 50.9577948 ], [ 0.6643062, 50.95764040000001 ], [ 0.66487, 50.9575709 ], [ 0.6654583, 50.9576327 ], [ 0.6658382, 50.9577408 ], [ 0.6659608, 50.9577504 ], [ 0.6663315, 50.9576153 ], [ 0.6672415, 50.9573721 ], [ 0.6684641, 50.9572872 ], [ 0.6688226, 50.957269900000014 ], [ 0.669371, 50.9571348 ], [ 0.6702351, 50.956936 ], [ 0.6707727, 50.956830600000011 ] ] } },
{ "type": "Feature", "properties": { "id": 59285, "nach": 0.17636661568244377 }, "geometry": { "type": "LineString", "coordinates": [ [ 0.6448807, 50.963212900000016 ], [ 0.6444153, 50.9633214 ], [ 0.6441471, 50.9634836 ], [ 0.6439969, 50.963679499999984 ], [ 0.6439345, 50.9638308 ] ] } },
{ "type": "Feature", "properties": { "id": 68117, "nach": 0.17567084460283042 }, "geometry": { "type": "LineString", "coordinates": [ [ 0.6603026, 50.9628244 ], [ 0.6600911, 50.9629149 ], [ 0.6599278, 50.9629876 ], [ 0.6585596, 50.96358 ], [ 0.6578863, 50.9638754 ], [ 0.6577743, 50.9639045 ], [ 0.6571198, 50.9640118 ], [ 0.657042, 50.9640388 ], [ 0.6569897, 50.9640684 ], [ 0.6569629, 50.9641132 ], [ 0.6569663, 50.964168899999983 ], [ 0.6569871, 50.9642162 ] ] } },
{ "type": "Feature", "properties": { "id": 68118, "nach": 0.16423486194885387 }, "geometry": { "type": "LineString", "coordinates": [ [ 0.6603026, 50.9628244 ], [ 0.6603132, 50.9628519 ], [ 0.6605048, 50.9633462 ], [ 0.6605316, 50.9636672 ], [ 0.6605286, 50.9637886 ], [ 0.6605209, 50.9640965 ], [ 0.6605311, 50.9641559 ], [ 0.6605846, 50.9644674 ], [ 0.6605944, 50.9645242 ], [ 0.6605879, 50.9646336 ], [ 0.6604013, 50.9654331 ], [ 0.6605112, 50.9656185 ] ] } },
{ "type": "Feature", "properties": { "id": 21971, "nach": 0.25402997111700298 }, "geometry": { "type": "LineString", "coordinates": [ [ 0.6626757, 50.9640223 ], [ 0.6625391, 50.9640216 ], [ 0.6623661, 50.9640297 ] ] } },
{ "type": "Feature", "properties": { "id": 21974, "nach": 0.24318887640370682 }, "geometry": { "type": "LineString", "coordinates": [ [ 0.6626666, 50.9642956 ], [ 0.6626772, 50.9640941 ], [ 0.6626757, 50.9640223 ] ] } },
{ "type": "Feature", "properties": { "id": 21994, "nach": 0.25084908832771508 }, "geometry": { "type": "LineString", "coordinates": [ [ 0.6606174, 50.967052299999985 ], [ 0.6613792, 50.9670827 ], [ 0.6618083, 50.9670793 ], [ 0.6620336, 50.9670658 ], [ 0.662377, 50.967032 ], [ 0.6625827, 50.9669854 ] ] } },
{ "type": "Feature", "properties": { "id": 21975, "nach": 0.23495141902454264 }, "geometry": { "type": "LineString", "coordinates": [ [ 0.6626666, 50.9642956 ], [ 0.6626846, 50.9644117 ], [ 0.6626437, 50.9645444 ], [ 0.662495, 50.9647483 ], [ 0.6623984, 50.9651571 ], [ 0.6623126, 50.9655254 ], [ 0.6622214, 50.965714600000013 ], [ 0.6622321, 50.965812600000014 ], [ 0.6622321, 50.9659072 ], [ 0.662157, 50.9660626 ], [ 0.662098, 50.9662617 ], [ 0.662098, 50.9664813 ], [ 0.6621731, 50.9666637 ], [ 0.6622697, 50.9667786 ], [ 0.6624413, 50.9669239 ], [ 0.6625827, 50.9669854 ] ] } },
{ "type": "Feature", "properties": { "id": 21998, "nach": 0.27670218216872317 }, "geometry": { "type": "LineString", "coordinates": [ [ 0.6630743, 50.9686096 ], [ 0.6631494, 50.9685623 ], [ 0.6631494, 50.9684678 ], [ 0.6632138, 50.9680083 ], [ 0.6632675, 50.9678766 ], [ 0.6633157, 50.9677583 ], [ 0.6633104, 50.9676604 ], [ 0.6632567, 50.9675793 ], [ 0.6630475, 50.9674171 ], [ 0.6629402, 50.9673259 ], [ 0.6628168, 50.9671536 ], [ 0.6626666, 50.9670219 ], [ 0.6625827, 50.9669854 ] ] } },
{ "type": "Feature", "properties": { "id": 21996, "nach": 0.26068691661596843 }, "geometry": { "type": "LineString", "coordinates": [ [ 0.6606174, 50.967052299999985 ], [ 0.6605836, 50.9669702 ], [ 0.6605638, 50.966461 ], [ 0.6605206, 50.965684 ], [ 0.6605112, 50.9656185 ] ] } },
{ "type": "Feature", "properties": { "id": 22025, "nach": 0.2395743170674669 }, "geometry": { "type": "LineString", "coordinates": [ [ 0.6591648, 50.967965800000016 ], [ 0.6592334, 50.9679103 ], [ 0.6595177, 50.9677448 ], [ 0.6598289, 50.967548900000011 ], [ 0.66014, 50.9673732 ], [ 0.660574, 50.9671182 ], [ 0.6606174, 50.967052299999985 ] ] } },
{ "type": "Feature", "properties": { "id": 21976, "nach": 0.19379359782016897 }, "geometry": { "type": "LineString", "coordinates": [ [ 0.6626666, 50.9642956 ], [ 0.6625944, 50.9643056 ], [ 0.6625143, 50.964296899999987 ], [ 0.6624465, 50.9642648 ], [ 0.662388, 50.9641843 ], [ 0.6623661, 50.9640297 ] ] } },
{ "type": "Feature", "properties": { "id": 21997, "nach": 0.30249852154914342 }, "geometry": { "type": "LineString", "coordinates": [ [ 0.6630743, 50.9686096 ], [ 0.6630529, 50.9686671 ] ] } },
{ "type": "Feature", "properties": { "id": 59308, "nach": 0.17546230743187036 }, "geometry": { "type": "LineString", "coordinates": [ [ 0.6686392, 50.971909 ], [ 0.6685137, 50.9716466 ], [ 0.6682355, 50.9714715 ], [ 0.6671825, 50.9708084 ], [ 0.6667736, 50.9705482 ], [ 0.6666483, 50.970043 ], [ 0.6661636, 50.9690432 ], [ 0.6660299, 50.9689696 ], [ 0.6649185, 50.9690169 ], [ 0.6637069, 50.9687907 ], [ 0.6633575, 50.96869070000001 ], [ 0.6632364, 50.968656 ], [ 0.6630743, 50.9686096 ] ] } },
{ "type": "Feature", "properties": { "id": 21981, "nach": 0.23053085757615213 }, "geometry": { "type": "LineString", "coordinates": [ [ 0.6605112, 50.9656185 ], [ 0.6603902, 50.9656189 ], [ 0.6598359, 50.9656017 ], [ 0.6594207, 50.9655504 ], [ 0.6586194, 50.9653956 ], [ 0.6579798, 50.965255100000014 ], [ 0.6577153, 50.9651639 ], [ 0.6574363, 50.965079400000015 ], [ 0.6574155, 50.9650473 ], [ 0.6573881, 50.9650051 ], [ 0.6572969, 50.9648734 ], [ 0.6572164, 50.9647416 ], [ 0.6572486, 50.9646673 ], [ 0.6572486, 50.9645389 ], [ 0.6571118, 50.964348800000018 ], [ 0.6569871, 50.9642162 ] ] } },
{ "type": "Feature", "properties": { "id": 42105, "nach": 0.2083306686251872 }, "geometry": { "type": "LineString", "coordinates": [ [ 0.6557862, 50.9640555 ], [ 0.656311, 50.964138 ], [ 0.6565855, 50.9641686 ], [ 0.6567827, 50.9642278 ], [ 0.6569871, 50.9642162 ] ] } },
{ "type": "Feature", "properties": { "id": 21982, "nach": 0.24711198344245872 }, "geometry": { "type": "LineString", "coordinates": [ [ 0.6605112, 50.9656185 ], [ 0.6606389, 50.9655254 ], [ 0.6607033, 50.96542070000001 ], [ 0.6606979, 50.9652754 ], [ 0.6607875, 50.9649465 ], [ 0.6608304, 50.9647809 ], [ 0.660832, 50.9646132 ], [ 0.6608687, 50.964517 ], [ 0.6609151, 50.9644322 ], [ 0.6609707, 50.9643668 ], [ 0.661062, 50.9643058 ], [ 0.6611763, 50.9642633 ], [ 0.6616047, 50.9641455 ], [ 0.6620015, 50.9640515 ], [ 0.6621325, 50.9640341 ], [ 0.6623661, 50.9640297 ] ] } },
{ "type": "Feature", "properties": { "id": 59312, "nach": 0.31474797835421198 }, "geometry": { "type": "LineString", "coordinates": [ [ 0.6631783, 50.9689056 ], [ 0.6631494, 50.9688731 ], [ 0.663112, 50.9687579 ], [ 0.6631012, 50.9687245 ], [ 0.6630529, 50.9686671 ] ] } },
{ "type": "Feature", "properties": { "id": 22023, "nach": 0.18552199945556877 }, "geometry": { "type": "LineString", "coordinates": [ [ 0.6591648, 50.967965800000016 ], [ 0.6594247, 50.9680842 ], [ 0.6597875, 50.9681087 ], [ 0.6601502, 50.968072 ], [ 0.6604093, 50.96816170000001 ], [ 0.6607202, 50.9684064 ], [ 0.660934, 50.9684636 ], [ 0.6611413, 50.9685696 ], [ 0.6613939, 50.9687695 ], [ 0.6618862, 50.968949 ], [ 0.6624173, 50.96896120000001 ], [ 0.662644, 50.9688674 ], [ 0.6630529, 50.9686671 ] ] } },
{ "type": "Feature", "properties": { "id": 59313, "nach": 0.30261726434113861 }, "geometry": { "type": "LineString", "coordinates": [ [ 0.6631783, 50.9689056 ], [ 0.663318, 50.9688984 ], [ 0.6634094, 50.9689244 ], [ 0.663416, 50.9689781 ], [ 0.6632667, 50.9691083 ], [ 0.6632192, 50.9692312 ], [ 0.6632514, 50.9693393 ], [ 0.6633908, 50.9695116 ], [ 0.663761, 50.9699238 ], [ 0.663879, 50.970035199999984 ], [ 0.6640185, 50.9701197 ], [ 0.6640989, 50.970194 ], [ 0.6641901, 50.970417 ], [ 0.6642545, 50.9705419 ], [ 0.6643296, 50.9706129 ], [ 0.6644262, 50.97065 ], [ 0.6646193, 50.9707142 ], [ 0.6648124, 50.9708021 ], [ 0.6649143, 50.970886500000013 ], [ 0.6649465, 50.9709574 ], [ 0.6649553, 50.971385199999986 ], [ 0.6649578, 50.9715048 ] ] } },
{ "type": "Feature", "properties": { "id": 59314, "nach": 0.20182136072535117 }, "geometry": { "type": "LineString", "coordinates": [ [ 0.6631783, 50.9689056 ], [ 0.6629669, 50.9692889 ], [ 0.6627602, 50.9693916 ], [ 0.6624229, 50.969432700000013 ], [ 0.6620647, 50.9694678 ], [ 0.6619334, 50.9695424 ], [ 0.6617485, 50.9695766 ], [ 0.661433, 50.9695286 ], [ 0.6612338, 50.969583200000024 ], [ 0.6605647, 50.9699234 ], [ 0.6602793, 50.9699802 ], [ 0.6599477, 50.970007 ], [ 0.6594896, 50.9700069 ], [ 0.6588221, 50.9700698 ], [ 0.6578757, 50.9699808 ], [ 0.6569836, 50.9701658 ], [ 0.6565488, 50.9703431 ] ] } },
{ "type": "Feature", "properties": { "id": 59311, "nach": 0.2354163525119137 }, "geometry": { "type": "LineString", "coordinates": [ [ 0.6565488, 50.9703431 ], [ 0.656591, 50.9701546 ], [ 0.6565989, 50.9699728 ], [ 0.6565222, 50.9696491 ], [ 0.6565828, 50.969012 ], [ 0.6566039, 50.9689346 ], [ 0.6566644, 50.968918 ], [ 0.656998, 50.968921 ], [ 0.6571565, 50.9689032 ], [ 0.6574004, 50.9689195 ], [ 0.6584808, 50.9689296 ], [ 0.658536, 50.9689103 ], [ 0.6586916, 50.9687414 ], [ 0.6589223, 50.9683461 ], [ 0.6590988, 50.96806930000001 ], [ 0.6591471, 50.9679936 ], [ 0.6591648, 50.967965800000016 ] ] } },
{ "type": "Feature", "properties": { "id": 22019, "nach": 0.17620821192784492 }, "geometry": { "type": "LineString", "coordinates": [ [ 0.6464269, 50.9670175 ], [ 0.6463089, 50.9669533 ], [ 0.64581, 50.9667607 ], [ 0.6453219, 50.9664972 ], [ 0.6451287, 50.9664296 ], [ 0.6449249, 50.9663992 ], [ 0.6446138, 50.9663519 ], [ 0.6443831, 50.9662573 ], [ 0.6442329, 50.966135700000024 ], [ 0.6441578, 50.9659803 ], [ 0.6442007, 50.9657776 ], [ 0.6443724, 50.9654296 ], [ 0.6447371, 50.9648958 ], [ 0.6447693, 50.9645985 ], [ 0.6446191, 50.9640782 ], [ 0.6445118, 50.9638552 ] ] } },
{ "type": "Feature", "properties": { "id": 22016, "nach": 0.17619003532038605 }, "geometry": { "type": "LineString", "coordinates": [ [ 0.6468782, 50.96460110000001 ], [ 0.6466522, 50.9645445 ], [ 0.6462553, 50.9644431 ], [ 0.6460675, 50.9643688 ], [ 0.645751, 50.9642066 ], [ 0.6454399, 50.9640411 ], [ 0.6451985, 50.9639498 ], [ 0.6447801, 50.96387210000001 ], [ 0.6445118, 50.9638552 ] ] } },
{ "type": "Feature", "properties": { "id": 22022, "nach": 0.13356555686327964 }, "geometry": { "type": "LineString", "coordinates": [ [ 0.6458369, 50.969014 ], [ 0.6460568, 50.9685782 ], [ 0.6461319, 50.9682573 ], [ 0.6462016, 50.9678519 ], [ 0.646384, 50.9672675 ], [ 0.6464323, 50.9671121 ], [ 0.6464269, 50.9670175 ] ] } },
{ "type": "Feature", "properties": { "id": 59316, "nach": 0.0 }, "geometry": { "type": "LineString", "coordinates": [ [ 0.6564392, 50.9704207 ], [ 0.6563896, 50.9704001 ], [ 0.656311, 50.9703792 ], [ 0.6562486, 50.970376 ], [ 0.6561938, 50.9703582 ], [ 0.6560784, 50.9702587 ], [ 0.6559308, 50.9701877 ], [ 0.6556987, 50.970088 ], [ 0.6552903, 50.9698346 ], [ 0.6552183, 50.9698239 ], [ 0.655069, 50.969878 ], [ 0.6548623, 50.969926 ], [ 0.6546165, 50.9699275 ], [ 0.6544505, 50.9699785 ], [ 0.6543658, 50.970056 ], [ 0.6541805, 50.9701015 ], [ 0.653811, 50.9700863 ], [ 0.6533543, 50.9699461 ], [ 0.6530129, 50.969741 ], [ 0.6521426, 50.9689326 ], [ 0.6509867, 50.9681323 ], [ 0.6499353, 50.9674735 ], [ 0.6496617, 50.96736880000001 ], [ 0.6492111, 50.9672979 ], [ 0.6476661, 50.9670614 ], [ 0.6467434, 50.96698030000001 ], [ 0.6465181, 50.9669904 ], [ 0.6464269, 50.9670175 ] ] } },
{ "type": "Feature", "properties": { "id": 22018, "nach": 0.0 }, "geometry": { "type": "LineString", "coordinates": [ [ 0.6468782, 50.96460110000001 ], [ 0.6470998, 50.96486 ], [ 0.647508, 50.9652222 ], [ 0.6480459, 50.965479200000011 ], [ 0.6493816, 50.9657362 ], [ 0.6498268, 50.965923200000013 ], [ 0.6507173, 50.9661101 ], [ 0.6516831, 50.9661549 ], [ 0.6526016, 50.9661403 ], [ 0.6533144, 50.9660283 ], [ 0.6540936, 50.9659465 ], [ 0.6547614, 50.9658414 ], [ 0.6550397, 50.9656778 ], [ 0.6550211, 50.9653974 ], [ 0.6545573, 50.9651404 ], [ 0.6542049, 50.965117 ], [ 0.6537091, 50.9652615 ], [ 0.653503, 50.9652859 ], [ 0.6529551, 50.9652036 ], [ 0.651348, 50.9649418 ], [ 0.6511136, 50.9648347 ], [ 0.6509664, 50.9647902 ], [ 0.6506809, 50.9647573 ], [ 0.6494203, 50.9647201 ], [ 0.6483474, 50.964683 ], [ 0.6474462, 50.9646289 ], [ 0.6468782, 50.96460110000001 ] ] } },
{ "type": "Feature", "properties": { "id": 59315, "nach": 0.30475234020980102 }, "geometry": { "type": "LineString", "coordinates": [ [ 0.6564392, 50.9704207 ], [ 0.6565488, 50.9703431 ] ] } },
{ "type": "Feature", "properties": { "id": 59325, "nach": 0.32665235089375266 }, "geometry": { "type": "LineString", "coordinates": [ [ 0.6566415, 50.9721833 ], [ 0.6567093, 50.9720881 ], [ 0.6568264, 50.9717698 ], [ 0.6568361, 50.9716665 ], [ 0.6568092, 50.971501 ], [ 0.6568157, 50.97126990000001 ], [ 0.6568028, 50.9710402 ], [ 0.6567491, 50.970914600000015 ], [ 0.6566354, 50.9707673 ], [ 0.6566288, 50.9707338 ], [ 0.6565678, 50.9706798 ], [ 0.6565577, 50.9706708 ], [ 0.6565281, 50.9706409 ], [ 0.6564631, 50.9705226 ], [ 0.6564392, 50.9704207 ] ] } },
{ "type": "Feature", "properties": { "id": 59329, "nach": 0.29214327272311991 }, "geometry": { "type": "LineString", "coordinates": [ [ 0.660437, 50.9730339 ], [ 0.6601403, 50.972955299999988 ], [ 0.6599563, 50.9728457 ], [ 0.6597767, 50.9728092 ], [ 0.6594633, 50.9727801 ], [ 0.658851, 50.972649800000013 ], [ 0.6579387, 50.972434200000016 ], [ 0.6576888, 50.972267 ], [ 0.6571267, 50.972208 ], [ 0.6566415, 50.9721833 ] ] } },
{ "type": "Feature", "properties": { "id": 59370, "nach": 0.36612687493536494 }, "geometry": { "type": "LineString", "coordinates": [ [ 0.6554296, 50.9723734 ], [ 0.6557214, 50.9723359 ], [ 0.6560674, 50.972252 ], [ 0.6563778, 50.9722102 ], [ 0.6566415, 50.9721833 ] ] } },
{ "type": "Feature", "properties": { "id": 58064, "nach": 0.33860552161617913 }, "geometry": { "type": "LineString", "coordinates": [ [ 0.6630339, 50.9589002 ], [ 0.6629414, 50.9588879 ], [ 0.6626789, 50.958880200000017 ], [ 0.6625315, 50.9588503 ] ] } },
{ "type": "Feature", "properties": { "id": 38505, "nach": 0.27659839217889282 }, "geometry": { "type": "LineString", "coordinates": [ [ 0.6584667, 50.9606984 ], [ 0.6595359, 50.9603098 ], [ 0.6597389, 50.960241200000013 ], [ 0.6598416, 50.9602065 ], [ 0.6599745, 50.9601316 ], [ 0.660157, 50.9599826 ], [ 0.6602258, 50.95989860000001 ], [ 0.6604072, 50.9596768 ], [ 0.6605273, 50.9596264 ], [ 0.6607476, 50.9596233 ], [ 0.662094, 50.9596579 ], [ 0.6624593, 50.9596579 ], [ 0.6625444, 50.9596075 ], [ 0.6625957, 50.9595441 ], [ 0.6625281, 50.9591694 ], [ 0.6625079, 50.958911700000016 ], [ 0.6625315, 50.9588503 ] ] } },
{ "type": "Feature", "properties": { "id": 68124, "nach": 0.21431509755832415 }, "geometry": { "type": "LineString", "coordinates": [ [ 0.6577792, 50.9608291 ], [ 0.6580246, 50.960791899999982 ], [ 0.6583224, 50.9607336 ], [ 0.6584667, 50.9606984 ] ] } },
{ "type": "Feature", "properties": { "id": 68125, "nach": 0.21431509755832415 }, "geometry": { "type": "LineString", "coordinates": [ [ 0.6588615, 50.9611931 ], [ 0.658718, 50.961033500000013 ], [ 0.6584913, 50.9607319 ], [ 0.6584667, 50.9606984 ] ] } }
]
}
