{
"type": "FeatureCollection",
"name": "WOKIN_38_toilets",
"crs": { "type": "name", "properties": { "name": "urn:ogc:def:crs:OGC:1.3:CRS84" } },
"features": [
{ "type": "Feature", "properties": { "name": "Twyford Station", "payment_info": "Free", "accessible": "False", "radar": "False", "women": "True", "men": "True", "baby_change": "False", "Mon": "Unknown", "Tue": "Unknown", "Wed": "Unknown", "Thu": "Unknown", "Fri": "Unknown", "Sat": "Unknown", "Sun": "Unknown", "index_right": 66, "park_offical_id": "WOKIN_38" }, "geometry": { "type": "Point", "coordinates": [ -0.862848588, 51.475690451 ] } }
]
}
