{
"type": "FeatureCollection",
"name": "BUCKI_240_toilets",
"crs": { "type": "name", "properties": { "name": "urn:ogc:def:crs:OGC:1.3:CRS84" } },
"features": [
{ "type": "Feature", "properties": { "name": "Horns Lane", "payment_info": "Free", "accessible": "Unknown", "radar": "True", "women": "True", "men": "True", "baby_change": "True", "Mon": "07:30-14:00", "Tue": "07:30-14:00", "Wed": "07:30-14:00", "Thu": "07:30-14:00", "Fri": "07:30-14:00", "Sat": "07:30-14:00", "Sun": "07:30-14:00", "index_right": 415, "park_offical_id": "BUCKI_240" }, "geometry": { "type": "Point", "coordinates": [ -0.829070807, 51.723261643 ] } }
]
}
