{
"type": "FeatureCollection",
"name": "BUCKI_40_toilets",
"crs": { "type": "name", "properties": { "name": "urn:ogc:def:crs:OGC:1.3:CRS84" } },
"features": [
{ "type": "Feature", "properties": { "name": "Stoke Mandeville Station", "payment_info": "Free", "accessible": "False", "radar": "False", "women": "Unknown", "men": "Unknown", "baby_change": "True", "Mon": "Unknown", "Tue": "Unknown", "Wed": "Unknown", "Thu": "Unknown", "Fri": "Unknown", "Sat": "Unknown", "Sun": "Unknown", "index_right": 511, "park_offical_id": "BUCKI_40" }, "geometry": { "type": "Point", "coordinates": [ -0.784084548, 51.787800288 ] } }
]
}
