{
"type": "FeatureCollection",
"name": "ASHFO_338_NACH_800m",
"crs": { "type": "name", "properties": { "name": "urn:ogc:def:crs:OGC:1.3:CRS84" } },
"features": [
{"type":"Feature","properties":{"id":23824,"nach":0.3363862904942253},"geometry":{"type":"LineString","coordinates":[[0.8076659,51.1934809],[0.8081687,51.1930982],[0.8083257,51.192958],[0.8096739,51.1917539],[0.8101149,51.1914274],[0.8110379,51.190801],[0.8118094,51.1902047]]}},
{"type":"Feature","properties":{"id":23822,"nach":0.42094799064833716},"geometry":{"type":"LineString","coordinates":[[0.8076659,51.1934809],[0.8069103,51.1939682]]}},
{"type":"Feature","properties":{"id":23831,"nach":0.41672912235668874},"geometry":{"type":"LineString","coordinates":[[0.80778,51.1935431],[0.8076659,51.1934809]]}},
{"type":"Feature","properties":{"id":38280,"nach":0.31647484506424955},"geometry":{"type":"LineString","coordinates":[[0.7998829,51.2036499],[0.7993648,51.203459]]}},
{"type":"Feature","properties":{"id":424,"nach":0.35864089551987077},"geometry":{"type":"LineString","coordinates":[[0.7993648,51.203459],[0.7988393,51.2039134],[0.798572,51.204214100000016]]}},
{"type":"Feature","properties":{"id":38228,"nach":0.30653787255887821},"geometry":{"type":"LineString","coordinates":[[0.7965812,51.2036668],[0.7968689,51.203638],[0.7989983,51.2034207],[0.7993648,51.203459]]}},
{"type":"Feature","properties":{"id":24128,"nach":0.36822440130037293},"geometry":{"type":"LineString","coordinates":[[0.7996427,51.2033034],[0.7993648,51.203459]]}},
{"type":"Feature","properties":{"id":38279,"nach":0.38948712459225937},"geometry":{"type":"LineString","coordinates":[[0.7998829,51.2036499],[0.8052863,51.2059995]]}},
{"type":"Feature","properties":{"id":38281,"nach":0.35005694954859401},"geometry":{"type":"LineString","coordinates":[[0.7998829,51.2036499],[0.8010341,51.202913]]}},
{"type":"Feature","properties":{"id":45557,"nach":0.36138596026335107},"geometry":{"type":"LineString","coordinates":[[0.7988474,51.2043179],[0.79892,51.2042615],[0.7998829,51.2036499]]}},
{"type":"Feature","properties":{"id":45559,"nach":0.25103122651072934},"geometry":{"type":"LineString","coordinates":[[0.798572,51.204214100000016],[0.7988474,51.2043179]]}},
{"type":"Feature","properties":{"id":45558,"nach":0.37543849107549482},"geometry":{"type":"LineString","coordinates":[[0.798572,51.204214100000016],[0.7978718,51.2051022]]}},
{"type":"Feature","properties":{"id":38230,"nach":0.3313918730270507},"geometry":{"type":"LineString","coordinates":[[0.7965812,51.2036668],[0.7968088,51.2037969],[0.7969093,51.2040696],[0.7969026,51.204275200000012],[0.7968892,51.2043801],[0.7969562,51.2044724],[0.7970968,51.2045269],[0.7972508,51.204615],[0.7973981,51.2047954],[0.7975589,51.2049339],[0.7976928,51.205017799999986],[0.7978718,51.2051022]]}},
{"type":"Feature","properties":{"id":38229,"nach":0.33907333287633151},"geometry":{"type":"LineString","coordinates":[[0.7965812,51.2036668],[0.7964601,51.2036313],[0.7963187,51.2035899],[0.7960635,51.2035152]]}},
{"type":"Feature","properties":{"id":78587,"nach":0.40184168938764758},"geometry":{"type":"LineString","coordinates":[[0.7968359,51.2064449],[0.7962124,51.2071531],[0.7957621,51.2076489],[0.7954733,51.2079646],[0.7952538,51.208217500000011],[0.7950456,51.2083848]]}},
{"type":"Feature","properties":{"id":7642,"nach":0.36561208619312141},"geometry":{"type":"LineString","coordinates":[[0.7978718,51.2051022],[0.7988474,51.2043179]]}},
{"type":"Feature","properties":{"id":38283,"nach":0.44739746141726333},"geometry":{"type":"LineString","coordinates":[[0.7970945,51.2059775],[0.7973814,51.205654400000014],[0.7978718,51.2051022]]}},
{"type":"Feature","properties":{"id":78589,"nach":0.51019449050021104},"geometry":{"type":"LineString","coordinates":[[0.7967231,51.206406599999987],[0.7970945,51.2059775]]}},
{"type":"Feature","properties":{"id":38286,"nach":0.46715384539195004},"geometry":{"type":"LineString","coordinates":[[0.7968848,51.2058913],[0.7969032,51.2059081],[0.7969551,51.2059312],[0.7970945,51.2059775]]}},
{"type":"Feature","properties":{"id":8528,"nach":0.26476524115755634},"geometry":{"type":"LineString","coordinates":[[0.8144443,51.2003275],[0.8148351,51.2000748]]}},
{"type":"Feature","properties":{"id":18941,"nach":0.31909278052383661},"geometry":{"type":"LineString","coordinates":[[0.8180373,51.198334199999984],[0.8173091,51.198541400000011],[0.8170512,51.1986623],[0.8166895,51.1991058],[0.8165942,51.199230300000011],[0.8163182,51.1993599],[0.815753,51.1995662],[0.8151578,51.1999065],[0.8148351,51.2000748]]}},
{"type":"Feature","properties":{"id":58550,"nach":0.28489913385245891},"geometry":{"type":"LineString","coordinates":[[0.8141569,51.200192800000011],[0.8145652,51.2001445],[0.8148351,51.2000748]]}},
{"type":"Feature","properties":{"id":42462,"nach":0.2442150314048018},"geometry":{"type":"LineString","coordinates":[[0.8135337,51.201816],[0.8141751,51.2015743],[0.8147158,51.201355],[0.814985,51.20118630000001],[0.8149921,51.2010668],[0.8143813,51.2004655],[0.8144443,51.2003275]]}},
{"type":"Feature","properties":{"id":58552,"nach":0.19471155100984769},"geometry":{"type":"LineString","coordinates":[[0.8141569,51.200192800000011],[0.8143386,51.2002545],[0.8144443,51.2003275]]}},
{"type":"Feature","properties":{"id":40687,"nach":0.0},"geometry":{"type":"LineString","coordinates":[[0.8050945,51.1967926],[0.8057277,51.1964562],[0.8066825,51.1961335],[0.8075086,51.1957772],[0.8078842,51.1958848],[0.8095364,51.1963554],[0.8120684,51.1971218],[0.8130018,51.197579],[0.8140318,51.1979891],[0.8147184,51.1982648],[0.816081,51.1977538],[0.8166389,51.1979488],[0.817068,51.1981505],[0.8177724,51.198151],[0.8180373,51.198334199999984]]}},
{"type":"Feature","properties":{"id":58551,"nach":0.30010446574571792},"geometry":{"type":"LineString","coordinates":[[0.8141569,51.200192800000011],[0.8138724,51.200246300000018],[0.8127713,51.2007243],[0.812706,51.2007168]]}},
{"type":"Feature","properties":{"id":42463,"nach":0.2613185279559686},"geometry":{"type":"LineString","coordinates":[[0.8135337,51.201816],[0.8129485,51.2011045],[0.812706,51.2007168]]}},
{"type":"Feature","properties":{"id":45562,"nach":0.29054558660124474},"geometry":{"type":"LineString","coordinates":[[0.8110253,51.2028524],[0.8123074,51.2023398],[0.8135337,51.201816]]}},
{"type":"Feature","properties":{"id":8534,"nach":0.34757210724000487},"geometry":{"type":"LineString","coordinates":[[0.8084869,51.2039906],[0.8084531,51.2038473]]}},
{"type":"Feature","properties":{"id":25146,"nach":0.20208568510915609},"geometry":{"type":"LineString","coordinates":[[0.8059853,51.2014538],[0.8069034,51.2023311],[0.8080144,51.2034641],[0.8083116,51.2037266],[0.8084531,51.2038473]]}},
{"type":"Feature","properties":{"id":45561,"nach":0.32782448352199978},"geometry":{"type":"LineString","coordinates":[[0.8110253,51.2028524],[0.8109112,51.2028943],[0.8095001,51.203404],[0.8084531,51.2038473]]}},
{"type":"Feature","properties":{"id":23046,"nach":0.25441102534759208},"geometry":{"type":"LineString","coordinates":[[0.812829,51.2075287],[0.8117632,51.206747099999987],[0.8107026,51.2059132],[0.8102729,51.205597600000011],[0.8095219,51.2046468],[0.8090241,51.2042798],[0.8084869,51.2039906]]}},
{"type":"Feature","properties":{"id":38232,"nach":0.34636933888138843},"geometry":{"type":"LineString","coordinates":[[0.805448,51.205772],[0.805653,51.2054837],[0.8058903,51.2053229],[0.8068228,51.2048805],[0.8079869,51.204347500000011],[0.8083401,51.2041917],[0.8084669,51.2040882],[0.8084869,51.2039906]]}},
{"type":"Feature","properties":{"id":25147,"nach":0.24020733569169467},"geometry":{"type":"LineString","coordinates":[[0.8059853,51.2014538],[0.8054524,51.2009221],[0.8046793,51.20033750000001],[0.8045339,51.200074800000017],[0.8043381,51.1997245],[0.8041321,51.1994876],[0.8039415,51.1991991],[0.8038472,51.1991036],[0.8035831,51.1990318]]}},
{"type":"Feature","properties":{"id":38278,"nach":0.2310983278820945},"geometry":{"type":"LineString","coordinates":[[0.8052863,51.2059995],[0.8038952,51.2039052],[0.8040901,51.2037004],[0.8059853,51.2014538]]}},
{"type":"Feature","properties":{"id":45563,"nach":0.27214450090400699},"geometry":{"type":"LineString","coordinates":[[0.8114841,51.2032369],[0.8110253,51.2028524]]}},
{"type":"Feature","properties":{"id":61960,"nach":0.42955565179109512},"geometry":{"type":"LineString","coordinates":[[0.8053124,51.2059628],[0.805448,51.205772]]}},
{"type":"Feature","properties":{"id":38235,"nach":0.39533810170506856},"geometry":{"type":"LineString","coordinates":[[0.8059519,51.2057982],[0.8059005,51.2057822],[0.8058492,51.2057748],[0.8058071,51.2057807],[0.8057651,51.2057953],[0.8057161,51.2058143],[0.8056647,51.205826],[0.8056227,51.2058319],[0.8055807,51.205826],[0.8055363,51.20581],[0.805448,51.205772]]}},
{"type":"Feature","properties":{"id":38239,"nach":0.46493807750655192},"geometry":{"type":"LineString","coordinates":[[0.8051154,51.2061963],[0.8047506,51.20654540000001]]}},
{"type":"Feature","properties":{"id":8542,"nach":0.47287472015555221},"geometry":{"type":"LineString","coordinates":[[0.8045028,51.206786],[0.8045991,51.20668580000001],[0.8047506,51.20654540000001]]}},
{"type":"Feature","properties":{"id":76566,"nach":0.34131543886315413},"geometry":{"type":"LineString","coordinates":[[0.8050758,51.206807399999988],[0.8051013,51.2066985],[0.8049943,51.2065932],[0.8047506,51.20654540000001]]}},
{"type":"Feature","properties":{"id":38277,"nach":0.45815925675352659},"geometry":{"type":"LineString","coordinates":[[0.8052863,51.2059995],[0.8052064,51.2061119],[0.8051154,51.2061963]]}},
{"type":"Feature","properties":{"id":38244,"nach":0.33882279089305123},"geometry":{"type":"LineString","coordinates":[[0.8053095,51.206334099999985],[0.8052007,51.2062459],[0.8051154,51.2061963]]}},
{"type":"Feature","properties":{"id":32735,"nach":0.45287574743311726},"geometry":{"type":"LineString","coordinates":[[0.8028975,51.207561499999983],[0.8034505,51.2073117],[0.8035608,51.2072433],[0.8038711,51.2070794],[0.8042539,51.2068994],[0.8045028,51.206786]]}},
{"type":"Feature","properties":{"id":8544,"nach":0.39360468546323107},"geometry":{"type":"LineString","coordinates":[[0.8045659,51.2072794],[0.8044848,51.2070143],[0.8044834,51.2068855],[0.8045028,51.206786]]}},
{"type":"Feature","properties":{"id":32733,"nach":0.37834678984904069},"geometry":{"type":"LineString","coordinates":[[0.8028975,51.207561499999983],[0.8038724,51.2077416]]}},
{"type":"Feature","properties":{"id":32734,"nach":0.47862376369050796},"geometry":{"type":"LineString","coordinates":[[0.8028975,51.207561499999983],[0.8026098,51.207702399999988],[0.8022206,51.2078817],[0.8019097,51.2080075],[0.8014693,51.2081883]]}},
{"type":"Feature","properties":{"id":25138,"nach":0.35126890426822727},"geometry":{"type":"LineString","coordinates":[[0.8061189,51.208303199999989],[0.8045659,51.2072794]]}},
{"type":"Feature","properties":{"id":8548,"nach":0.36736236606169903},"geometry":{"type":"LineString","coordinates":[[0.8038724,51.2077416],[0.8044904,51.20738570000001],[0.8045659,51.2072794]]}},
{"type":"Feature","properties":{"id":25140,"nach":0.3379207722071656},"geometry":{"type":"LineString","coordinates":[[0.8061189,51.208303199999989],[0.8060528,51.2083089],[0.8057293,51.2082163],[0.805167,51.208050100000015],[0.8040829,51.2077246],[0.8038724,51.2077416]]}},
{"type":"Feature","properties":{"id":25139,"nach":0.34694741802529866},"geometry":{"type":"LineString","coordinates":[[0.8061189,51.208303199999989],[0.8064996,51.2085602],[0.8070879,51.2088877],[0.8091379,51.2100401],[0.8094654,51.2101311]]}},
{"type":"Feature","properties":{"id":25141,"nach":0.29328351712738482},"geometry":{"type":"LineString","coordinates":[[0.8061189,51.208303199999989],[0.8065049,51.2082406],[0.8068541,51.208215599999988],[0.8081133,51.208092199999989],[0.8082774,51.2080708],[0.8092161,51.2079719],[0.8105308,51.2078349],[0.8118511,51.2077004],[0.8122969,51.207653300000011],[0.8124277,51.2076383],[0.812875,51.2076187],[0.8129444,51.2076127]]}},
{"type":"Feature","properties":{"id":18946,"nach":0.35383360445852602},"geometry":{"type":"LineString","coordinates":[[0.8020519,51.2088773],[0.802388,51.20871240000001],[0.8032156,51.208148],[0.8038724,51.2077416]]}},
{"type":"Feature","properties":{"id":18948,"nach":0.34654154332866621},"geometry":{"type":"LineString","coordinates":[[0.8014693,51.2081883],[0.8020519,51.2088773]]}},
{"type":"Feature","properties":{"id":14685,"nach":0.40052306167524521},"geometry":{"type":"LineString","coordinates":[[0.8056915,51.1950666],[0.8057067,51.19485370000001],[0.8058512,51.1945642]]}},
{"type":"Feature","properties":{"id":9428,"nach":0.40792494663773732},"geometry":{"type":"LineString","coordinates":[[0.8063625,51.1941325],[0.806073,51.1943313],[0.8058512,51.1945642]]}},
{"type":"Feature","properties":{"id":52732,"nach":0.43853152878988938},"geometry":{"type":"LineString","coordinates":[[0.8047476,51.194122],[0.8051172,51.1942941],[0.8058512,51.1945642]]}},
{"type":"Feature","properties":{"id":14687,"nach":0.35255845327798296},"geometry":{"type":"LineString","coordinates":[[0.8056915,51.1950666],[0.8060733,51.1945853],[0.8064828,51.1942413],[0.8069103,51.1939682]]}},
{"type":"Feature","properties":{"id":51886,"nach":0.425398017053771},"geometry":{"type":"LineString","coordinates":[[0.8052139,51.1958182],[0.8055912,51.1952014],[0.8056915,51.1950666]]}},
{"type":"Feature","properties":{"id":9432,"nach":0.39538166062961239},"geometry":{"type":"LineString","coordinates":[[0.8069103,51.1939682],[0.8065673,51.1940382],[0.8063625,51.1941325]]}},
{"type":"Feature","properties":{"id":52717,"nach":0.3078887616721519},"geometry":{"type":"LineString","coordinates":[[0.8059986,51.1940668],[0.8062188,51.1940726],[0.8063089,51.1941101],[0.8063625,51.1941325]]}},
{"type":"Feature","properties":{"id":52730,"nach":0.43700760262847682},"geometry":{"type":"LineString","coordinates":[[0.8047476,51.194122],[0.8045508,51.1940304]]}},
{"type":"Feature","properties":{"id":92651,"nach":0.31872534269493036},"geometry":{"type":"LineString","coordinates":[[0.8046814,51.1941451],[0.8047476,51.194122]]}},
{"type":"Feature","properties":{"id":51885,"nach":0.42148768747645865},"geometry":{"type":"LineString","coordinates":[[0.8052139,51.1958182],[0.8050047,51.1962172],[0.8049155,51.1963793],[0.8048033,51.196616],[0.8047866,51.196654100000018]]}},
{"type":"Feature","properties":{"id":51887,"nach":0.30923236480597155},"geometry":{"type":"LineString","coordinates":[[0.8045059,51.1957017],[0.8052139,51.1958182]]}},
{"type":"Feature","properties":{"id":40688,"nach":0.39994422635149746},"geometry":{"type":"LineString","coordinates":[[0.8050945,51.1967926],[0.8049615,51.1967329],[0.8047866,51.196654100000018]]}},
{"type":"Feature","properties":{"id":46034,"nach":0.36783272305244674},"geometry":{"type":"LineString","coordinates":[[0.8040563,51.198071],[0.8046945,51.1968287],[0.8047866,51.196654100000018]]}},
{"type":"Feature","properties":{"id":40711,"nach":0.33580998319630495},"geometry":{"type":"LineString","coordinates":[[0.7988769,51.1944502],[0.7992242,51.1945822],[0.8005027,51.1951015],[0.8020423,51.19572680000001],[0.8028443,51.1960502],[0.8032305,51.1962048],[0.8036193,51.1963133],[0.8046925,51.1966233],[0.8047866,51.196654100000018]]}},
{"type":"Feature","properties":{"id":52409,"nach":0.3816577297018372},"geometry":{"type":"LineString","coordinates":[[0.8067881,51.197552900000012],[0.8050945,51.1967926]]}},
{"type":"Feature","properties":{"id":46033,"nach":0.32981799514875404},"geometry":{"type":"LineString","coordinates":[[0.8040563,51.198071],[0.8035831,51.1990318]]}},
{"type":"Feature","properties":{"id":46036,"nach":0.28913682458486134},"geometry":{"type":"LineString","coordinates":[[0.8052814,51.1985669],[0.8050038,51.1983146],[0.8049074,51.1982519],[0.8048193,51.1982187],[0.8047536,51.198190699999984],[0.8045746,51.1981386],[0.8044379,51.198114],[0.8042919,51.1980972],[0.8040563,51.198071]]}},
{"type":"Feature","properties":{"id":80501,"nach":0.30748931678000252},"geometry":{"type":"LineString","coordinates":[[0.7981684,51.1938232],[0.7982053,51.193862],[0.7985137,51.1942146],[0.7988769,51.1944502]]}},
{"type":"Feature","properties":{"id":49968,"nach":0.13398240858282262},"geometry":{"type":"LineString","coordinates":[[0.7958982,51.19646190000001],[0.796127,51.19642],[0.7963606,51.1962856],[0.7969998,51.1959628],[0.797548,51.195685],[0.79807,51.1955291],[0.7989546,51.1947326],[0.7989847,51.19464940000001],[0.7989809,51.1945905],[0.798947,51.1945199],[0.7988769,51.1944502]]}},
{"type":"Feature","properties":{"id":80504,"nach":0.3178572796095101},"geometry":{"type":"LineString","coordinates":[[0.7982521,51.193769800000013],[0.7982747,51.1938381],[0.7988769,51.1944502]]}},
{"type":"Feature","properties":{"id":42459,"nach":0.30481180402462005},"geometry":{"type":"LineString","coordinates":[[0.812706,51.2007168],[0.8121261,51.2006504],[0.8115952,51.2004151],[0.8112738,51.2001833],[0.8112794,51.1997364],[0.8111113,51.1994205]]}},
{"type":"Feature","properties":{"id":49098,"nach":0.30642842780240875},"geometry":{"type":"LineString","coordinates":[[0.8077851,51.1979996],[0.8081055,51.198144300000017],[0.8096189,51.1986364],[0.8108694,51.1992525],[0.8111113,51.1994205]]}},
{"type":"Feature","properties":{"id":92224,"nach":0.25450141586553338},"geometry":{"type":"LineString","coordinates":[[0.811696,51.199206],[0.8113848,51.1993554],[0.8111113,51.1994205]]}},
{"type":"Feature","properties":{"id":52408,"nach":0.34819680058227026},"geometry":{"type":"LineString","coordinates":[[0.8067881,51.197552900000012],[0.8077851,51.1979996]]}},
{"type":"Feature","properties":{"id":74698,"nach":0.28204109922780879},"geometry":{"type":"LineString","coordinates":[[0.8088476,51.1973451],[0.8088169,51.197431200000011],[0.8084618,51.1977573],[0.8083693,51.197831200000017],[0.8083221,51.19784150000001],[0.8082677,51.19784150000001],[0.8082024,51.1978267],[0.8081316,51.1977994],[0.8080754,51.1977858],[0.8080409,51.1977914],[0.8080137,51.197805099999982],[0.8078647,51.1979513],[0.8077851,51.1979996]]}},
{"type":"Feature","properties":{"id":17124,"nach":0.29470280479945948},"geometry":{"type":"LineString","coordinates":[[0.8022476,51.201680699999983],[0.8024242,51.201383],[0.8031392,51.1998508],[0.8035831,51.1990318]]}},
{"type":"Feature","properties":{"id":17123,"nach":0.2723913914557719},"geometry":{"type":"LineString","coordinates":[[0.8022476,51.201680699999983],[0.801782,51.2021382],[0.8010416,51.2026611],[0.8008418,51.20278230000001]]}},
{"type":"Feature","properties":{"id":24134,"nach":0.2749355765679356},"geometry":{"type":"LineString","coordinates":[[0.8010341,51.202913],[0.8012751,51.2027509],[0.8016433,51.2024642],[0.8019147,51.202193800000018],[0.8021767,51.2018877],[0.8022476,51.201680699999983]]}},
{"type":"Feature","properties":{"id":24133,"nach":0.29786623788807648},"geometry":{"type":"LineString","coordinates":[[0.8010341,51.202913],[0.8008418,51.20278230000001]]}},
{"type":"Feature","properties":{"id":24131,"nach":0.32404851915450328},"geometry":{"type":"LineString","coordinates":[[0.8008418,51.20278230000001],[0.7999034,51.2031626],[0.7996427,51.2033034]]}},
{"type":"Feature","properties":{"id":38947,"nach":0.30444536712003523},"geometry":{"type":"LineString","coordinates":[[0.7998168,51.201863400000015],[0.8002942,51.2022907],[0.8008418,51.20278230000001]]}},
{"type":"Feature","properties":{"id":18952,"nach":0.38147422549710502},"geometry":{"type":"LineString","coordinates":[[0.8010732,51.2081755],[0.8013144,51.2081203],[0.8014693,51.2081883]]}},
{"type":"Feature","properties":{"id":18955,"nach":0.49399519845340661},"geometry":{"type":"LineString","coordinates":[[0.8007317,51.20838590000001],[0.800876,51.2083447],[0.8014693,51.2081883]]}},
{"type":"Feature","properties":{"id":18982,"nach":0.33567584123514749},"geometry":{"type":"LineString","coordinates":[[0.8007096,51.2067838],[0.8007424,51.2068091],[0.8008409,51.2068479],[0.8008395,51.2069386],[0.8009169,51.2071277],[0.8009877,51.2072858],[0.8010259,51.2073958],[0.8010789,51.2076117],[0.8012138,51.2076401],[0.8012933,51.2076904],[0.8013171,51.207736400000016],[0.8012814,51.2078181],[0.8013235,51.2079368],[0.8013072,51.2079835],[0.8009595,51.2080766],[0.8008488,51.2081121],[0.8007573,51.2081745],[0.8007046,51.20833240000001]]}},
{"type":"Feature","properties":{"id":18985,"nach":0.41544044472934633},"geometry":{"type":"LineString","coordinates":[[0.7995639,51.2071577],[0.799557,51.207174700000017],[0.7995824,51.207206300000017],[0.7999111,51.2074679],[0.7999493,51.2075833],[0.8000284,51.20769640000001],[0.8001401,51.2077895],[0.800148,51.2078675],[0.8001317,51.2079417],[0.8001348,51.2080097],[0.8001629,51.2080589],[0.8005484,51.2082874],[0.8007046,51.20833240000001]]}},
{"type":"Feature","properties":{"id":18984,"nach":0.13229865120161435},"geometry":{"type":"LineString","coordinates":[[0.7995639,51.2071577],[0.8007096,51.2067838]]}},
{"type":"Feature","properties":{"id":18989,"nach":0.0},"geometry":{"type":"LineString","coordinates":[[0.7992054,51.206819],[0.7992066,51.2067883],[0.7992726,51.2067252],[0.7995069,51.2066712],[0.7995519,51.2066517],[0.7997816,51.2065345],[0.8001278,51.2063337],[0.800154,51.2063168],[0.8002561,51.2062492],[0.8004408,51.2062507],[0.8005067,51.2063053],[0.8005251,51.2063385],[0.8007096,51.2067838]]}},
{"type":"Feature","properties":{"id":18988,"nach":0.38360700977157208},"geometry":{"type":"LineString","coordinates":[[0.7992054,51.206819],[0.7992021,51.2068439],[0.7992741,51.2069249],[0.7995639,51.2071577]]}},
{"type":"Feature","properties":{"id":18990,"nach":0.33684989136856142},"geometry":{"type":"LineString","coordinates":[[0.7992054,51.206819],[0.7991774,51.2068177],[0.7991258,51.2068181]]}},
{"type":"Feature","properties":{"id":45961,"nach":0.36679266439767499},"geometry":{"type":"LineString","coordinates":[[0.807991,51.1936987],[0.80778,51.1935431]]}},
{"type":"Feature","properties":{"id":46972,"nach":0.36640054383098986},"geometry":{"type":"LineString","coordinates":[[0.8082057,51.1933593],[0.80778,51.1935431]]}},
{"type":"Feature","properties":{"id":45962,"nach":0.29385322533963776},"geometry":{"type":"LineString","coordinates":[[0.807991,51.1936987],[0.808797,51.1942133],[0.8082514,51.1945507]]}},
{"type":"Feature","properties":{"id":45964,"nach":0.27871284955400349},"geometry":{"type":"LineString","coordinates":[[0.8068396,51.1952384],[0.806117,51.1949971],[0.8063196,51.1947489],[0.8065761,51.1944781],[0.8067787,51.1943088],[0.8071027,51.1940832],[0.8073503,51.193961900000012],[0.807991,51.1936987]]}},
{"type":"Feature","properties":{"id":52814,"nach":0.30207884992889589},"geometry":{"type":"LineString","coordinates":[[0.8122015,51.1910767],[0.8114473,51.1912581],[0.8109617,51.1914226],[0.8105245,51.1916073],[0.8095836,51.1925245],[0.8082847,51.1933231],[0.8082057,51.1933593]]}},
{"type":"Feature","properties":{"id":92650,"nach":0.27914962545746597},"geometry":{"type":"LineString","coordinates":[[0.810333,51.1934196],[0.8099169,51.1937748],[0.8085072,51.1936401],[0.8084042,51.1935963],[0.8083005,51.1935023],[0.8082057,51.1933593]]}},
{"type":"Feature","properties":{"id":38944,"nach":0.23515522539004502},"geometry":{"type":"LineString","coordinates":[[0.7992736,51.201661],[0.7991543,51.2017202],[0.7989652,51.2017846],[0.7987679,51.2017563],[0.7984889,51.2017733],[0.798328,51.2019237],[0.7986158,51.2024076],[0.7996427,51.2033034]]}},
{"type":"Feature","properties":{"id":38946,"nach":0.21465557632224389},"geometry":{"type":"LineString","coordinates":[[0.7998168,51.201863400000015],[0.7997217,51.2018748],[0.7992736,51.201661]]}},
{"type":"Feature","properties":{"id":61959,"nach":0.45175196902679848},"geometry":{"type":"LineString","coordinates":[[0.8053124,51.2059628],[0.8052863,51.2059995]]}},
{"type":"Feature","properties":{"id":78063,"nach":0.43029831458538953},"geometry":{"type":"LineString","coordinates":[[0.8027737,51.1931673],[0.8025169,51.1930395],[0.801309,51.192492500000014]]}},
{"type":"Feature","properties":{"id":32412,"nach":0.30269481077090871},"geometry":{"type":"LineString","coordinates":[[0.7961905,51.1944443],[0.796239,51.1943793],[0.7962346,51.1943282],[0.7961971,51.1942548],[0.7961265,51.194160799999985],[0.7960647,51.194064],[0.7960492,51.1939976],[0.796145,51.1938702]]}},
{"type":"Feature","properties":{"id":78052,"nach":0.40198548822882052},"geometry":{"type":"LineString","coordinates":[[0.7978938,51.1938238],[0.797528,51.1938717],[0.797194,51.1938952],[0.7968632,51.1938952],[0.7965105,51.1938776],[0.7962764,51.1938619],[0.796145,51.1938702]]}},
{"type":"Feature","properties":{"id":78057,"nach":0.41849999744686328},"geometry":{"type":"LineString","coordinates":[[0.7980256,51.1938035],[0.7979548,51.1937993],[0.7978938,51.1938238]]}},
{"type":"Feature","properties":{"id":77965,"nach":0.30521349193996972},"geometry":{"type":"LineString","coordinates":[[0.7938695,51.2034249],[0.7937783,51.203693800000011],[0.7936656,51.2043828],[0.7933679,51.2049004],[0.7930675,51.2055508],[0.792751,51.2061154],[0.7926196,51.206367500000013],[0.7919846,51.2067032],[0.7916439,51.2068704],[0.7914708,51.2069295]]}},
{"type":"Feature","properties":{"id":49967,"nach":0.0},"geometry":{"type":"LineString","coordinates":[[0.7958982,51.19646190000001],[0.7959215,51.1965302],[0.7957606,51.1967252],[0.7955996,51.197007500000019],[0.7955782,51.197323500000017],[0.7954682,51.1975259],[0.7948164,51.1977471],[0.7948087,51.1978793],[0.7948209,51.19800930000001],[0.7948128,51.1982245],[0.7948209,51.1986831],[0.794888,51.1989697],[0.7949957,51.199134],[0.7953027,51.1994715],[0.7953108,51.1995174],[0.7953067,51.1996651],[0.7953738,51.1998651],[0.7954714,51.200153],[0.7954592,51.2003708],[0.7955405,51.200569500000015],[0.7955568,51.2007427],[0.7955466,51.2009223],[0.7954653,51.2011847],[0.7954633,51.201312],[0.7954897,51.20140760000001],[0.7955872,51.201526],[0.7956401,51.2016343],[0.7956828,51.2017655],[0.7957031,51.2019501],[0.7957173,51.2020418],[0.7957702,51.2021361],[0.7958678,51.2023093],[0.7957702,51.202353900000013],[0.7959186,51.2025564],[0.7959267,51.2026596],[0.7959084,51.2028328],[0.7959105,51.2028621],[0.7959633,51.2030646],[0.7959694,51.2031181],[0.7959528,51.2031659],[0.7959823,51.2033373],[0.7960635,51.2035152]]}},
{"type":"Feature","properties":{"id":77966,"nach":0.29863740821983942},"geometry":{"type":"LineString","coordinates":[[0.7938695,51.2034249],[0.7941101,51.2034364],[0.7943355,51.20347],[0.7945903,51.2035406],[0.7947217,51.2035591],[0.794829,51.2035524],[0.7949282,51.203530500000014],[0.7950006,51.203503600000019],[0.795116,51.2033961],[0.795234,51.2032448],[0.7953118,51.2031541],[0.7954888,51.2032129],[0.7956202,51.2032616],[0.7957731,51.2033389],[0.7959582,51.2034499],[0.7960635,51.2035152]]}},
{"type":"Feature","properties":{"id":49966,"nach":0.3164687742566063},"geometry":{"type":"LineString","coordinates":[[0.7958982,51.19646190000001],[0.7959188,51.19636280000001],[0.7958545,51.1961813],[0.795715,51.196013200000017]]}},
{"type":"Feature","properties":{"id":49965,"nach":0.26485321713722237},"geometry":{"type":"LineString","coordinates":[[0.7958982,51.19646190000001],[0.7954977,51.1964022]]}},
{"type":"Feature","properties":{"id":77964,"nach":0.18626545267540584},"geometry":{"type":"LineString","coordinates":[[0.7938695,51.2034249],[0.7932553,51.2034199],[0.7925686,51.2035342],[0.7916084,51.2033981],[0.7898971,51.203235],[0.788328,51.2030266],[0.7876092,51.2030451],[0.7868046,51.2030989],[0.7853611,51.2032987],[0.7847257,51.2035209],[0.7846468,51.2035346]]}},
{"type":"Feature","properties":{"id":61962,"nach":0.33282894427850346},"geometry":{"type":"LineString","coordinates":[[0.8058746,51.2061906],[0.8057516,51.2060704],[0.8057312,51.2060527],[0.8053124,51.2059628]]}},
{"type":"Feature","properties":{"id":38238,"nach":0.32886818210230873},"geometry":{"type":"LineString","coordinates":[[0.8060967,51.2057222],[0.8059519,51.2057982]]}},
{"type":"Feature","properties":{"id":38237,"nach":0.30520341199692286},"geometry":{"type":"LineString","coordinates":[[0.8074883,51.2055013],[0.8064936,51.2060191],[0.8064096,51.206039600000011],[0.8063605,51.2060411],[0.8063068,51.2060323],[0.8062578,51.2060031],[0.806092,51.205881600000012],[0.8060033,51.205826],[0.8059519,51.2057982]]}},
{"type":"Feature","properties":{"id":38243,"nach":0.0},"geometry":{"type":"LineString","coordinates":[[0.8053095,51.206334099999985],[0.8054619,51.2063729],[0.8055356,51.206398],[0.8055925,51.2064316],[0.8056427,51.206483],[0.8056477,51.2065124],[0.805626,51.2065491],[0.8055757,51.2065753],[0.8055155,51.2065858],[0.8054585,51.206569],[0.8054033,51.2065312],[0.8053631,51.2064935],[0.8053347,51.2064494],[0.805328,51.2063844],[0.8053095,51.206334099999985]]}},
{"type":"Feature","properties":{"id":78591,"nach":0.53082337396314994},"geometry":{"type":"LineString","coordinates":[[0.7967231,51.206406599999987],[0.7965833,51.2065729],[0.7958208,51.2074611]]}},
{"type":"Feature","properties":{"id":78590,"nach":0.42592155897598671},"geometry":{"type":"LineString","coordinates":[[0.7967231,51.206406599999987],[0.7968359,51.2064449]]}},
{"type":"Feature","properties":{"id":38288,"nach":0.39591272669998961},"geometry":{"type":"LineString","coordinates":[[0.7967793,51.205870299999987],[0.7968195,51.2058735],[0.7968848,51.2058913]]}},
{"type":"Feature","properties":{"id":38289,"nach":0.3835710796321769},"geometry":{"type":"LineString","coordinates":[[0.7971074,51.2055357],[0.7970398,51.2056186],[0.7969846,51.2056871],[0.7969565,51.2057232],[0.7969326,51.2057536],[0.7969171,51.2057843],[0.7969065,51.2058137],[0.7968881,51.2058504],[0.7968848,51.2058913]]}},
{"type":"Feature","properties":{"id":40719,"nach":0.0},"geometry":{"type":"LineString","coordinates":[[0.7843815,51.2017066],[0.7862629,51.2007529],[0.7888914,51.199852],[0.7907717,51.1989707],[0.7910399,51.1986749],[0.7913725,51.198143700000017],[0.7913832,51.1979488],[0.7912437,51.1974916],[0.7917051,51.1948695],[0.7908548,51.1943323],[0.7916702,51.1938886],[0.7919518,51.1939417],[0.7922388,51.194076799999984],[0.7925634,51.1944459],[0.7927887,51.1947216],[0.7933117,51.1950181],[0.7937087,51.1952803],[0.794052,51.1955627],[0.7943444,51.1957637],[0.7949023,51.1961066],[0.7952885,51.1960394],[0.795715,51.196013200000017]]}},
{"type":"Feature","properties":{"id":52410,"nach":0.30515012710994799},"geometry":{"type":"LineString","coordinates":[[0.8067881,51.197552900000012],[0.8068889,51.1974676],[0.8069504,51.197412300000011],[0.8071335,51.1972273]]}},
{"type":"Feature","properties":{"id":80500,"nach":0.34734002437863198},"geometry":{"type":"LineString","coordinates":[[0.7981684,51.1938232],[0.795715,51.196013200000017]]}},
{"type":"Feature","properties":{"id":80507,"nach":0.39460724837005107},"geometry":{"type":"LineString","coordinates":[[0.798172,51.1937817],[0.7981684,51.1938232]]}},
{"type":"Feature","properties":{"id":80503,"nach":0.46044103762334426},"geometry":{"type":"LineString","coordinates":[[0.7982521,51.193769800000013],[0.7983287,51.19373130000001],[0.7983724,51.1936824],[0.7983825,51.1935834],[0.7983364,51.19333180000001],[0.7983277,51.1931163],[0.7983344,51.1927107]]}},
{"type":"Feature","properties":{"id":80506,"nach":0.44769795876415103},"geometry":{"type":"LineString","coordinates":[[0.798172,51.1937817],[0.7982521,51.193769800000013]]}},
{"type":"Feature","properties":{"id":52720,"nach":0.30345216406956871},"geometry":{"type":"LineString","coordinates":[[0.8038944,51.1937248],[0.8039888,51.19363890000001],[0.8041679,51.1934759],[0.8044402,51.1933318],[0.8047246,51.1931049],[0.8048689,51.1929926],[0.8050486,51.1929136]]}},
{"type":"Feature","properties":{"id":52724,"nach":0.42965678633729121},"geometry":{"type":"LineString","coordinates":[[0.8045508,51.1940304],[0.8038944,51.1937248]]}},
{"type":"Feature","properties":{"id":78058,"nach":0.42626794065276991},"geometry":{"type":"LineString","coordinates":[[0.8030583,51.1933089],[0.8038944,51.1937248]]}},
{"type":"Feature","properties":{"id":52727,"nach":0.39060718502729685},"geometry":{"type":"LineString","coordinates":[[0.8046806,51.1937923],[0.8045508,51.1940304]]}},
{"type":"Feature","properties":{"id":78062,"nach":0.42755322912158061},"geometry":{"type":"LineString","coordinates":[[0.8027737,51.1931673],[0.8026932,51.1932512],[0.802651,51.193322400000014],[0.8029125,51.193437800000012],[0.8029763,51.1933769],[0.8030583,51.1933089]]}},
{"type":"Feature","properties":{"id":52726,"nach":0.31791662542212895},"geometry":{"type":"LineString","coordinates":[[0.8046806,51.1937923],[0.8046511,51.1936956]]}},
{"type":"Feature","properties":{"id":52729,"nach":0.31791662542212895},"geometry":{"type":"LineString","coordinates":[[0.8048047,51.1937438],[0.8046806,51.1937923]]}},
{"type":"Feature","properties":{"id":80505,"nach":0.4320370993452935},"geometry":{"type":"LineString","coordinates":[[0.798172,51.1937817],[0.7980256,51.1938035]]}},
{"type":"Feature","properties":{"id":83490,"nach":0.41303547628203308},"geometry":{"type":"LineString","coordinates":[[0.7972853,51.2074757],[0.7973121,51.2074589],[0.7974717,51.2073657],[0.7976125,51.207290100000016],[0.7977976,51.2071548],[0.7979304,51.2070506],[0.7979491,51.207035500000011],[0.7979558,51.2070212],[0.7979733,51.206996],[0.797925,51.2069288],[0.7978365,51.2068397],[0.7977587,51.2067809],[0.7975897,51.2067137],[0.7968359,51.2064449]]}}
]
}
