{
"type": "FeatureCollection",
"name": "HORSH_793_cycling",
"crs": { "type": "name", "properties": { "name": "urn:ogc:def:crs:OGC:1.3:CRS84" } },
"features": [
{"type":"Feature","properties":{"highway":"bridleway","name":null,"category":"Bridleway"},"geometry":{"type":"MultiLineString","coordinates":[[[-0.2292816,51.073575],[-0.2292301,51.0735229],[-0.2286194,51.0724716],[-0.2285237,51.0723016]]]}},
{"type":"Feature","properties":{"highway":"track","name":null,"category":"Track"},"geometry":{"type":"MultiLineString","coordinates":[[[-0.2423671,51.0677634],[-0.2423466,51.0677077],[-0.2423387,51.067691],[-0.242331,51.0676807],[-0.2423201,51.0676722],[-0.2423021,51.0676649],[-0.2422812,51.0676596],[-0.2422603,51.0676558],[-0.2420267,51.0676272],[-0.2414697,51.0678966],[-0.2414068,51.0679304],[-0.2413705,51.0679553],[-0.2413433,51.0679785],[-0.2413289,51.0679945],[-0.2413162,51.0680128],[-0.2413083,51.0680322],[-0.2413062,51.0680563],[-0.2413086,51.0681051],[-0.2413129,51.0681683],[-0.241313,51.0681981],[-0.2413061,51.0682213],[-0.2412901,51.0682476],[-0.241267,51.0682763],[-0.2412385,51.0683095],[-0.2412154,51.0683378],[-0.2412044,51.0683561],[-0.2411972,51.0683755],[-0.2411904,51.0684126],[-0.2411937,51.0684382],[-0.2412149,51.0684793]]]}},
{"type":"Feature","properties":{"highway":"track","name":null,"category":"Track"},"geometry":{"type":"MultiLineString","coordinates":[[[-0.2449158,51.0675792],[-0.2449894,51.0677128],[-0.2450338,51.0678057],[-0.2450568,51.067838],[-0.2450852,51.067863],[-0.2451303,51.0678818],[-0.2461044,51.0681265],[-0.2462052,51.0681542],[-0.2463381,51.0681942],[-0.2464896,51.0682475],[-0.2467162,51.0683344],[-0.2473898,51.068555]]]}},
{"type":"Feature","properties":{"highway":"track","name":null,"category":"Track"},"geometry":{"type":"MultiLineString","coordinates":[[[-0.2420267,51.0676272],[-0.2420713,51.0676036],[-0.2420876,51.0675933],[-0.2421063,51.0675779],[-0.2421238,51.0675676],[-0.2421449,51.0675588],[-0.2421659,51.0675544],[-0.2421927,51.0675551],[-0.2422137,51.067561],[-0.2422406,51.0675727],[-0.2422593,51.0675837],[-0.2422721,51.0675984],[-0.2422756,51.0676102],[-0.2422744,51.0676241],[-0.2422698,51.0676358],[-0.2422603,51.0676558]]]}}
]
}
