{
"type": "FeatureCollection",
"name": "TESVA_25_cycling",
"crs": { "type": "name", "properties": { "name": "urn:ogc:def:crs:OGC:1.3:CRS84" } },
"features": [
{"type":"Feature","properties":{"highway":"track","name":"Orchard Mews","category":"Track"},"geometry":{"type":"MultiLineString","coordinates":[[[-1.4560454,50.946029],[-1.455621,50.9457635],[-1.4554855,50.9456884],[-1.4553104,50.9455715],[-1.4551643,50.9454839]]]}},
{"type":"Feature","properties":{"highway":"cycleway","name":null,"category":"Dedicated cycleway"},"geometry":{"type":"MultiLineString","coordinates":[[[-1.466926,50.9326758],[-1.4670837,50.9328422],[-1.4674114,50.9331448],[-1.4676561,50.9334527]]]}},
{"type":"Feature","properties":{"highway":"cycleway","name":null,"category":"Dedicated cycleway"},"geometry":{"type":"MultiLineString","coordinates":[[[-1.452093,50.9436708],[-1.4520573,50.9436223],[-1.4520236,50.943582]]]}},
{"type":"Feature","properties":{"highway":"cycleway","name":null,"category":"Dedicated cycleway"},"geometry":{"type":"MultiLineString","coordinates":[[[-1.469696,50.9447976],[-1.4697015,50.9448376],[-1.4697046,50.9448602],[-1.4697179,50.9449256],[-1.4697305,50.945019],[-1.4697267,50.9451725],[-1.4697118,50.9452483],[-1.4697084,50.9452658],[-1.4696731,50.9453298],[-1.4695855,50.9454158],[-1.469398,50.9455303],[-1.4692215,50.9456385],[-1.4691086,50.945704],[-1.4690444,50.9457781],[-1.4690271,50.9458321],[-1.4689649,50.9458918],[-1.4687758,50.9460645],[-1.4686062,50.9461853],[-1.4684411,50.9462828],[-1.4683685,50.94634],[-1.468332,50.9464015],[-1.4682885,50.9464415],[-1.4680207,50.9466812],[-1.4679378,50.9467608],[-1.4678866,50.9467964],[-1.4678481,50.9468041],[-1.4678013,50.9468119],[-1.4677745,50.9468284],[-1.4677668,50.9468501],[-1.4677695,50.9468888],[-1.4677652,50.946915],[-1.467733,50.9469358],[-1.4674965,50.946964],[-1.4672334,50.9469957],[-1.4671938,50.9470114],[-1.4671603,50.9470317],[-1.4671484,50.9470614],[-1.4669121,50.9471127],[-1.4668617,50.9470711]]]}},
{"type":"Feature","properties":{"highway":"bridleway","name":null,"category":"Bridleway"},"geometry":{"type":"MultiLineString","coordinates":[[[-1.4766968,50.942652],[-1.4768622,50.9428049],[-1.4767584,50.9429413],[-1.4767475,50.943091],[-1.4767782,50.9432292],[-1.4772206,50.9439942],[-1.477262,50.9441127],[-1.4772242,50.9441958],[-1.4768291,50.9445541],[-1.4765601,50.9448374]]]}},
{"type":"Feature","properties":{"highway":"bridleway","name":"Dairy Lane","category":"Bridleway"},"geometry":{"type":"MultiLineString","coordinates":[[[-1.4832217,50.942097],[-1.4830605,50.9421044],[-1.4819649,50.942169],[-1.4809323,50.942191],[-1.4800525,50.942173],[-1.4798742,50.9421756],[-1.4796443,50.9421799],[-1.4793173,50.9421859],[-1.4790699,50.9422104],[-1.4784041,50.9423338],[-1.4775867,50.9425208],[-1.4773741,50.942559],[-1.4770947,50.9426511],[-1.4768622,50.9428049]]]}},
{"type":"Feature","properties":{"highway":"track","name":null,"category":"Track"},"geometry":{"type":"MultiLineString","coordinates":[[[-1.4737423,50.9470741],[-1.47302,50.9461882]]]}},
{"type":"Feature","properties":{"highway":"cycleway","name":null,"category":"Dedicated cycleway"},"geometry":{"type":"MultiLineString","coordinates":[[[-1.4631925,50.935173],[-1.4632216,50.9351478],[-1.4633204,50.9351241],[-1.4635165,50.93511],[-1.463742,50.9350721],[-1.4639578,50.9349682],[-1.4639991,50.9349015]]]}},
{"type":"Feature","properties":{"highway":"cycleway","name":"Redbridge Lane","category":"Dedicated cycleway"},"geometry":{"type":"MultiLineString","coordinates":[[[-1.4679891,50.9359683],[-1.4680166,50.9359472],[-1.4681159,50.9358745],[-1.4682944,50.9357362],[-1.4687032,50.9354111],[-1.4687924,50.9353401]]]}},
{"type":"Feature","properties":{"highway":"cycleway","name":null,"category":"Dedicated cycleway"},"geometry":{"type":"MultiLineString","coordinates":[[[-1.4695112,50.9365495],[-1.4696069,50.9365567],[-1.4696757,50.9365408]]]}},
{"type":"Feature","properties":{"highway":"cycleway","name":null,"category":"Dedicated cycleway"},"geometry":{"type":"MultiLineString","coordinates":[[[-1.4671484,50.9470614],[-1.4672059,50.9472106],[-1.4672132,50.9472625],[-1.467212,50.9473131],[-1.4672006,50.9473627],[-1.4671485,50.9474261],[-1.4671021,50.9474759],[-1.4670365,50.9475258],[-1.4669645,50.9475621],[-1.4668499,50.9475938],[-1.4667625,50.9476245],[-1.4667238,50.9476528],[-1.4666969,50.9476724],[-1.4666373,50.9477277],[-1.4665934,50.947777],[-1.4665193,50.947819],[-1.465323,50.9483325],[-1.4648912,50.9484965],[-1.4647731,50.9485303],[-1.4646846,50.9485421],[-1.464623,50.9485388],[-1.464556,50.948527],[-1.4645037,50.9485134],[-1.464441,50.9485376],[-1.4643469,50.9485815]]]}},
{"type":"Feature","properties":{"highway":"track","name":null,"category":"Track"},"geometry":{"type":"MultiLineString","coordinates":[[[-1.4703907,50.9361123],[-1.4708531,50.9359794],[-1.4711146,50.9359431],[-1.4712938,50.9359206],[-1.4714212,50.9359402],[-1.4715124,50.9359889],[-1.471533,50.9360468],[-1.4714976,50.9361074],[-1.4713836,50.9361364],[-1.47125,50.9361378]]]}},
{"type":"Feature","properties":{"highway":"cycleway","name":null,"category":"Dedicated cycleway"},"geometry":{"type":"MultiLineString","coordinates":[[[-1.4524091,50.9406353],[-1.4524202,50.9407759],[-1.4524445,50.9408236],[-1.4524793,50.9408616],[-1.4528629,50.9412841],[-1.4529686,50.9414284],[-1.4530063,50.9414717],[-1.4530425,50.9415111],[-1.4530747,50.9415382],[-1.453131,50.9415694],[-1.4532786,50.9416365],[-1.4533189,50.9416509],[-1.4533671,50.9416602],[-1.4534005,50.9416548],[-1.4534624,50.941634],[-1.4536302,50.9415753],[-1.4536971,50.941617]]]}},
{"type":"Feature","properties":{"highway":"cycleway","name":null,"category":"Dedicated cycleway"},"geometry":{"type":"MultiLineString","coordinates":[[[-1.4576126,50.9411542],[-1.4573259,50.9412512]]]}},
{"type":"Feature","properties":{"highway":"cycleway","name":null,"category":"Dedicated cycleway"},"geometry":{"type":"MultiLineString","coordinates":[[[-1.456782,50.9415032],[-1.4564488,50.941662],[-1.4560846,50.941828],[-1.455624,50.9420582],[-1.4548518,50.9424382],[-1.4548501,50.9424416],[-1.4547758,50.9425911],[-1.4540054,50.9429625],[-1.4538387,50.9430482],[-1.4535544,50.9431889],[-1.4534287,50.9432494],[-1.4533653,50.94328]]]}},
{"type":"Feature","properties":{"highway":"cycleway","name":null,"category":"Dedicated cycleway"},"geometry":{"type":"MultiLineString","coordinates":[[[-1.458798,50.9380056],[-1.4588108,50.9380201],[-1.4589533,50.9381741],[-1.4583498,50.9384136],[-1.4582774,50.9384406],[-1.4581272,50.9385032],[-1.4577865,50.9386806],[-1.4576792,50.9387432],[-1.4575237,50.9388328],[-1.457462,50.9388716],[-1.4572608,50.9390018],[-1.4571777,50.9390677],[-1.457116,50.9391319],[-1.457057,50.9391961],[-1.4570167,50.9392688],[-1.4569738,50.93935],[-1.456947,50.9394159],[-1.4569282,50.9394835],[-1.4569175,50.9395494],[-1.4569121,50.9396119],[-1.4569175,50.9396643],[-1.4569229,50.9397404],[-1.4569443,50.9398046],[-1.4569711,50.9398722],[-1.4570006,50.939955],[-1.4570355,50.9400328],[-1.4570892,50.9401443],[-1.4571455,50.9402271],[-1.4571911,50.9402998],[-1.4572528,50.9403691],[-1.4573629,50.9404776],[-1.4576095,50.9407207],[-1.457698,50.9408001],[-1.4577624,50.940844],[-1.4579126,50.9409336],[-1.4579582,50.9409674],[-1.4579911,50.9410193]]]}},
{"type":"Feature","properties":{"highway":"cycleway","name":null,"category":"Dedicated cycleway"},"geometry":{"type":"MultiLineString","coordinates":[[[-1.4586103,50.9377931],[-1.4586794,50.9378713]]]}},
{"type":"Feature","properties":{"highway":"cycleway","name":null,"category":"Dedicated cycleway"},"geometry":{"type":"MultiLineString","coordinates":[[[-1.4593928,50.9359022],[-1.4595856,50.9358573],[-1.459807,50.9358067],[-1.459883,50.9357893],[-1.4598642,50.9357351]]]}},
{"type":"Feature","properties":{"highway":"cycleway","name":null,"category":"Dedicated cycleway"},"geometry":{"type":"MultiLineString","coordinates":[[[-1.4568871,50.9387514],[-1.4568353,50.9387796],[-1.4568149,50.9388601],[-1.4567941,50.9390964],[-1.4566976,50.9398874],[-1.4566763,50.9401686],[-1.4571129,50.9406703],[-1.4574688,50.9410395],[-1.4579142,50.941502],[-1.4578055,50.9415423]]]}},
{"type":"Feature","properties":{"highway":"cycleway","name":null,"category":"Dedicated cycleway"},"geometry":{"type":"MultiLineString","coordinates":[[[-1.459351,50.9359443],[-1.459055,50.9360108],[-1.4589811,50.9360279],[-1.458766,50.9360787],[-1.4586832,50.9360983],[-1.4583714,50.9361704],[-1.4582109,50.9362087],[-1.4578598,50.9362927],[-1.4577947,50.9363224],[-1.4577426,50.9363543],[-1.4577045,50.9363984],[-1.4576799,50.9364464],[-1.4576791,50.9369224],[-1.457682,50.9370267],[-1.4576882,50.9372548],[-1.457698,50.9372838],[-1.4577041,50.9373037],[-1.4577224,50.9373274],[-1.4577701,50.9373526],[-1.4579563,50.937425],[-1.4583072,50.9375646]]]}},
{"type":"Feature","properties":{"highway":"cycleway","name":null,"category":"Dedicated cycleway"},"geometry":{"type":"MultiLineString","coordinates":[[[-1.4583072,50.9375646],[-1.4583589,50.9375904],[-1.4584616,50.9376416],[-1.4585039,50.9376709],[-1.458576,50.9377538],[-1.4586026,50.9377844],[-1.4586103,50.9377931]]]}},
{"type":"Feature","properties":{"highway":"cycleway","name":null,"category":"Dedicated cycleway"},"geometry":{"type":"MultiLineString","coordinates":[[[-1.4579911,50.9410193],[-1.4576309,50.941148],[-1.4576126,50.9411542]]]}},
{"type":"Feature","properties":{"highway":"cycleway","name":null,"category":"Dedicated cycleway"},"geometry":{"type":"MultiLineString","coordinates":[[[-1.4506587,50.9420884],[-1.4509185,50.9422083],[-1.4509183,50.9422494],[-1.4513218,50.9427111],[-1.4513592,50.942752],[-1.451572,50.9429845],[-1.4517111,50.943128],[-1.4517583,50.9431984],[-1.4517941,50.9432849],[-1.4519176,50.9434242],[-1.4519659,50.9434412],[-1.4519531,50.9434975]]]}},
{"type":"Feature","properties":{"highway":"cycleway","name":null,"category":"Dedicated cycleway"},"geometry":{"type":"MultiLineString","coordinates":[[[-1.4727425,50.9343379],[-1.4726458,50.9342246],[-1.4725744,50.934166],[-1.472504,50.9341056],[-1.4723947,50.9340294],[-1.4722908,50.9339662],[-1.4721751,50.9339013],[-1.4720577,50.93385],[-1.4719141,50.9338067],[-1.4717794,50.9337789],[-1.4716403,50.9337669],[-1.4714235,50.9337532],[-1.4712022,50.9337464],[-1.4709212,50.9337384],[-1.4706692,50.9337248],[-1.4704054,50.93371],[-1.4702103,50.9337037],[-1.4700829,50.9337123],[-1.4700315,50.9337392],[-1.4699736,50.9337902],[-1.4699193,50.9338611],[-1.4698433,50.9339939],[-1.4698027,50.9340544]]]}},
{"type":"Feature","properties":{"highway":"cycleway","name":null,"category":"Dedicated cycleway"},"geometry":{"type":"MultiLineString","coordinates":[[[-1.4723562,50.9388278],[-1.472428,50.9388297],[-1.4725191,50.9388431],[-1.4725209,50.9389658],[-1.4725598,50.9392178],[-1.4726731,50.9396594],[-1.4729208,50.94046],[-1.4730286,50.9408545],[-1.4730199,50.940964],[-1.4730633,50.9411394],[-1.4732658,50.9416309],[-1.4734578,50.9420056],[-1.4734919,50.9421021],[-1.4734884,50.9421824],[-1.4734779,50.9422735],[-1.4734007,50.9423509],[-1.4732545,50.9424877],[-1.4732148,50.9425547],[-1.473218,50.9426517],[-1.4732464,50.9427176],[-1.4733146,50.9428366],[-1.4734337,50.9429777],[-1.4735477,50.9431009],[-1.4737,50.9431854],[-1.4738494,50.9432442],[-1.4739588,50.9433152],[-1.4741538,50.9435256],[-1.474304,50.9437293],[-1.4744923,50.9440267],[-1.4745489,50.9441645],[-1.4744923,50.9442523],[-1.4743927,50.9442981],[-1.4743373,50.9443236],[-1.4742547,50.944348],[-1.4740087,50.9444207],[-1.4736466,50.9445298],[-1.4732733,50.9445905],[-1.4730871,50.9446191],[-1.4730098,50.9446447],[-1.4729616,50.9446606],[-1.47289,50.9447269],[-1.4728034,50.9449674]]]}},
{"type":"Feature","properties":{"highway":"cycleway","name":null,"category":"Dedicated cycleway"},"geometry":{"type":"MultiLineString","coordinates":[[[-1.469377,50.9349144],[-1.4692767,50.934913],[-1.4691685,50.9349104]]]}},
{"type":"Feature","properties":{"highway":"path","name":"Jerrett's Lane","category":"Shared path"},"geometry":{"type":"MultiLineString","coordinates":[[[-1.465154,50.938096],[-1.4652071,50.9381434]]]}},
{"type":"Feature","properties":{"highway":"cycleway","name":null,"category":"Dedicated cycleway"},"geometry":{"type":"MultiLineString","coordinates":[[[-1.4639991,50.9349015],[-1.4639622,50.9348254],[-1.4639105,50.9347425],[-1.4638213,50.934673],[-1.4637124,50.9346112],[-1.4636423,50.9345889],[-1.4635593,50.9345943],[-1.4634678,50.9346212],[-1.4629617,50.9349264]]]}},
{"type":"Feature","properties":{"highway":"track","name":null,"category":"Track"},"geometry":{"type":"MultiLineString","coordinates":[[[-1.4551643,50.9454839],[-1.4552189,50.9454601],[-1.4553894,50.9453972],[-1.4557536,50.9452337]]]}},
{"type":"Feature","properties":{"highway":"cycleway","name":null,"category":"Dedicated cycleway"},"geometry":{"type":"MultiLineString","coordinates":[[[-1.4684246,50.9337131],[-1.4682493,50.9336448],[-1.4679805,50.9335848],[-1.4677794,50.9335596],[-1.4676663,50.9335604],[-1.4673594,50.933589],[-1.4671766,50.933606],[-1.4662428,50.933743],[-1.4656134,50.9338488],[-1.4653214,50.9339192],[-1.4648773,50.9340263],[-1.4644302,50.9341744],[-1.4642252,50.9342477],[-1.4640058,50.9343436],[-1.463979,50.9343593],[-1.4639483,50.9343876],[-1.4639376,50.9344132],[-1.4639394,50.9344637]]]}},
{"type":"Feature","properties":{"highway":"path","name":"Drovesway","category":"Shared path"},"geometry":{"type":"MultiLineString","coordinates":[[[-1.4591469,50.9398599],[-1.4588201,50.939973],[-1.4573629,50.9404776]]]}},
{"type":"Feature","properties":{"highway":"cycleway","name":null,"category":"Dedicated cycleway"},"geometry":{"type":"MultiLineString","coordinates":[[[-1.4676561,50.9334527],[-1.468504,50.9334426],[-1.4693555,50.9334557]]]}},
{"type":"Feature","properties":{"highway":"path","name":null,"category":"Shared path"},"geometry":{"type":"MultiLineString","coordinates":[[[-1.4693555,50.9334557],[-1.4693905,50.9333943]]]}},
{"type":"Feature","properties":{"highway":"cycleway","name":null,"category":"Dedicated cycleway"},"geometry":{"type":"MultiLineString","coordinates":[[[-1.4617624,50.9346328],[-1.4618244,50.9346175],[-1.4623446,50.9344895],[-1.4624511,50.9344647],[-1.462449,50.9344166],[-1.4628904,50.9343071],[-1.4634762,50.9341585],[-1.4636661,50.9341103]]]}},
{"type":"Feature","properties":{"highway":"cycleway","name":null,"category":"Dedicated cycleway"},"geometry":{"type":"MultiLineString","coordinates":[[[-1.4598642,50.9357351],[-1.4599232,50.9357436]]]}},
{"type":"Feature","properties":{"highway":"path","name":null,"category":"Shared path"},"geometry":{"type":"MultiLineString","coordinates":[[[-1.4694078,50.9333365],[-1.4694206,50.9332804],[-1.4696529,50.9332316],[-1.4697011,50.9331618],[-1.4698126,50.9329686]]]}},
{"type":"Feature","properties":{"highway":"track","name":null,"category":"Track"},"geometry":{"type":"MultiLineString","coordinates":[[[-1.466792,50.9470901],[-1.4669756,50.9473505]]]}},
{"type":"Feature","properties":{"highway":"cycleway","name":null,"category":"Dedicated cycleway"},"geometry":{"type":"MultiLineString","coordinates":[[[-1.4533653,50.94328],[-1.4528845,50.9433149],[-1.4526749,50.9433455],[-1.4519659,50.9434412]]]}},
{"type":"Feature","properties":{"highway":"cycleway","name":null,"category":"Dedicated cycleway"},"geometry":{"type":"MultiLineString","coordinates":[[[-1.4526749,50.9433455],[-1.4526605,50.9433995],[-1.4526398,50.9434724]]]}},
{"type":"Feature","properties":{"highway":"cycleway","name":null,"category":"Dedicated cycleway"},"geometry":{"type":"MultiLineString","coordinates":[[[-1.4739796,50.9341901],[-1.4732467,50.9341625]]]}},
{"type":"Feature","properties":{"highway":"cycleway","name":null,"category":"Dedicated cycleway"},"geometry":{"type":"MultiLineString","coordinates":[[[-1.4684246,50.9337131],[-1.4685872,50.9337893],[-1.4686918,50.9338848],[-1.4687334,50.9339583],[-1.4688058,50.9340986],[-1.4688461,50.9341501],[-1.4689507,50.9342059],[-1.4690633,50.9342668],[-1.4691545,50.934331],[-1.4691594,50.9343416],[-1.4691827,50.9343927],[-1.4691399,50.9349097]]]}},
{"type":"Feature","properties":{"highway":"path","name":null,"category":"Shared path"},"geometry":{"type":"MultiLineString","coordinates":[[[-1.462693,50.9420571],[-1.4627997,50.9421009],[-1.462935,50.9421289],[-1.4631586,50.942125],[-1.4633992,50.9421037],[-1.4636064,50.942027],[-1.4638064,50.9419372],[-1.4638207,50.9419307],[-1.4640167,50.9418383],[-1.4641807,50.9417695],[-1.4643025,50.9417053],[-1.464458,50.9416091],[-1.4645076,50.9415753]]]}},
{"type":"Feature","properties":{"highway":"cycleway","name":null,"category":"Dedicated cycleway"},"geometry":{"type":"MultiLineString","coordinates":[[[-1.4694662,50.9343287],[-1.4694066,50.9343198],[-1.4693124,50.9343131],[-1.4692449,50.9343262],[-1.4691891,50.9343362]]]}},
{"type":"Feature","properties":{"highway":"path","name":null,"category":"Shared path"},"geometry":{"type":"MultiLineString","coordinates":[[[-1.466964,50.9407036],[-1.4667427,50.9408152],[-1.4666829,50.9410065],[-1.4663818,50.9411478],[-1.4659598,50.9411738],[-1.4658368,50.9412258],[-1.4657,50.9412836],[-1.4653931,50.9415328],[-1.4651776,50.941557],[-1.4644634,50.9419773],[-1.4644201,50.9420166],[-1.4642155,50.9422023],[-1.4639823,50.9422171],[-1.463778,50.9424956],[-1.4638495,50.9426077],[-1.4636327,50.9428035],[-1.4633157,50.9428989]]]}},
{"type":"Feature","properties":{"highway":"cycleway","name":null,"category":"Dedicated cycleway"},"geometry":{"type":"MultiLineString","coordinates":[[[-1.4732467,50.9341625],[-1.4731214,50.934149],[-1.473027,50.9341315]]]}},
{"type":"Feature","properties":{"highway":"cycleway","name":null,"category":"Dedicated cycleway"},"geometry":{"type":"MultiLineString","coordinates":[[[-1.4729348,50.9342668],[-1.4728381,50.9343041],[-1.4727425,50.9343379]]]}},
{"type":"Feature","properties":{"highway":"cycleway","name":null,"category":"Dedicated cycleway"},"geometry":{"type":"MultiLineString","coordinates":[[[-1.4748286,50.9337891],[-1.4748076,50.9338367],[-1.4747563,50.933914],[-1.4746877,50.9339902],[-1.4745712,50.9340696],[-1.474459,50.9341162],[-1.4743607,50.9341447],[-1.4742538,50.9341704],[-1.4741649,50.9341814],[-1.4739796,50.9341901]]]}},
{"type":"Feature","properties":{"highway":"path","name":null,"category":"Shared path"},"geometry":{"type":"MultiLineString","coordinates":[[[-1.465483,50.9430156],[-1.4651781,50.9428505],[-1.4649375,50.9424967],[-1.4646712,50.9421052],[-1.4644201,50.9420166]]]}},
{"type":"Feature","properties":{"highway":"path","name":null,"category":"Shared path"},"geometry":{"type":"MultiLineString","coordinates":[[[-1.4628607,50.9427761],[-1.4627728,50.9429079]]]}},
{"type":"Feature","properties":{"highway":"cycleway","name":null,"category":"Dedicated cycleway"},"geometry":{"type":"MultiLineString","coordinates":[[[-1.4632137,50.9345136],[-1.4630979,50.9345854],[-1.4630328,50.9346084],[-1.4629536,50.9346084],[-1.4628783,50.9345879],[-1.4628235,50.9345444],[-1.4627604,50.9345085],[-1.462671,50.9345085],[-1.4625978,50.9345226],[-1.4624952,50.9345455]]]}},
{"type":"Feature","properties":{"highway":"cycleway","name":null,"category":"Dedicated cycleway"},"geometry":{"type":"MultiLineString","coordinates":[[[-1.4637534,50.9342519],[-1.4637925,50.9342862],[-1.4638277,50.9343121],[-1.4638826,50.9342832],[-1.4639238,50.9343157],[-1.463979,50.9343593]]]}},
{"type":"Feature","properties":{"highway":"cycleway","name":null,"category":"Dedicated cycleway"},"geometry":{"type":"MultiLineString","coordinates":[[[-1.4653214,50.9339192],[-1.4653991,50.9340936]]]}},
{"type":"Feature","properties":{"highway":"cycleway","name":null,"category":"Dedicated cycleway"},"geometry":{"type":"MultiLineString","coordinates":[[[-1.4639394,50.9344637],[-1.4637681,50.9345362],[-1.4636423,50.9345889]]]}},
{"type":"Feature","properties":{"highway":"cycleway","name":null,"category":"Dedicated cycleway"},"geometry":{"type":"MultiLineString","coordinates":[[[-1.4634678,50.9346212],[-1.4634153,50.9345814],[-1.4633723,50.9345482],[-1.4633113,50.9345828],[-1.4632748,50.9345535],[-1.4632137,50.9345136]]]}},
{"type":"Feature","properties":{"highway":"cycleway","name":null,"category":"Dedicated cycleway"},"geometry":{"type":"MultiLineString","coordinates":[[[-1.4676402,50.9344572],[-1.4675632,50.9343247],[-1.4675141,50.9341849],[-1.4674385,50.93389],[-1.467378,50.9336596],[-1.4673594,50.933589]]]}},
{"type":"Feature","properties":{"highway":"cycleway","name":null,"category":"Dedicated cycleway"},"geometry":{"type":"MultiLineString","coordinates":[[[-1.4684721,50.9335009],[-1.4684521,50.9335375],[-1.4684174,50.9335937]]]}},
{"type":"Feature","properties":{"highway":"cycleway","name":null,"category":"Dedicated cycleway"},"geometry":{"type":"MultiLineString","coordinates":[[[-1.4696988,50.934173],[-1.4695836,50.934271],[-1.4695196,50.9343414],[-1.4694724,50.9343962],[-1.4694295,50.9344824],[-1.4694161,50.9345821],[-1.469377,50.9349144]]]}},
{"type":"Feature","properties":{"highway":"cycleway","name":null,"category":"Dedicated cycleway"},"geometry":{"type":"MultiLineString","coordinates":[[[-1.4698027,50.9340544],[-1.4697809,50.9340879],[-1.4697421,50.9341323],[-1.4696988,50.934173]]]}},
{"type":"Feature","properties":{"highway":"cycleway","name":null,"category":"Dedicated cycleway"},"geometry":{"type":"MultiLineString","coordinates":[[[-1.4691367,50.9354696],[-1.4687032,50.9354111]]]}},
{"type":"Feature","properties":{"highway":"cycleway","name":null,"category":"Dedicated cycleway"},"geometry":{"type":"MultiLineString","coordinates":[[[-1.4691399,50.9349097],[-1.4691335,50.9353422],[-1.4691367,50.9354696],[-1.4691387,50.9355468],[-1.4691563,50.935786],[-1.4691649,50.9358727],[-1.4691751,50.9359282],[-1.4691789,50.9359487],[-1.4692098,50.9360507],[-1.4692454,50.9361324],[-1.4693013,50.9362168],[-1.46937,50.9362935],[-1.469409,50.9363354],[-1.4694535,50.9363752],[-1.4695452,50.9364449],[-1.4696324,50.9365072],[-1.4696757,50.9365408],[-1.4697162,50.9365775],[-1.469739,50.9366117],[-1.4697587,50.9366521],[-1.4697613,50.9366879],[-1.4697628,50.9367642],[-1.4697821,50.9368119],[-1.4698171,50.9368617],[-1.4698743,50.9369119],[-1.4699398,50.9369484],[-1.4700149,50.9369754],[-1.4700973,50.9369921],[-1.470196,50.936998],[-1.4702832,50.9369909],[-1.4703705,50.9369714],[-1.4704392,50.9369329],[-1.4704969,50.9368854],[-1.4705503,50.936843],[-1.4706204,50.9368332],[-1.4707372,50.9368221],[-1.4711235,50.9367892],[-1.4716588,50.9367536],[-1.4718604,50.9367422],[-1.4719757,50.9367643],[-1.472075,50.9367905],[-1.4721593,50.9368401],[-1.4722135,50.9368947],[-1.4722642,50.9369692],[-1.4722854,50.9370735],[-1.4722787,50.9371312],[-1.4722395,50.9371919],[-1.4722061,50.9372471],[-1.4721802,50.9372998],[-1.4721851,50.9373522],[-1.4722072,50.9373967],[-1.4722759,50.93748],[-1.472315,50.937547],[-1.4723467,50.937628],[-1.4724116,50.9379511],[-1.4724367,50.9381622],[-1.4724243,50.9383312],[-1.4723562,50.9388278],[-1.4723216,50.9389017],[-1.4722924,50.9389435],[-1.4722631,50.9389717],[-1.4722546,50.9390075],[-1.4722627,50.939072],[-1.4722723,50.9391344]]]}},
{"type":"Feature","properties":{"highway":"cycleway","name":null,"category":"Dedicated cycleway"},"geometry":{"type":"MultiLineString","coordinates":[[[-1.4593928,50.9359022],[-1.459351,50.9359443]]]}},
{"type":"Feature","properties":{"highway":"cycleway","name":null,"category":"Dedicated cycleway"},"geometry":{"type":"MultiLineString","coordinates":[[[-1.4598642,50.9357351],[-1.4598688,50.935669]]]}},
{"type":"Feature","properties":{"highway":"cycleway","name":null,"category":"Dedicated cycleway"},"geometry":{"type":"MultiLineString","coordinates":[[[-1.4636661,50.9341103],[-1.4638948,50.9340523]]]}},
{"type":"Feature","properties":{"highway":"cycleway","name":null,"category":"Dedicated cycleway"},"geometry":{"type":"MultiLineString","coordinates":[[[-1.4624952,50.9345455],[-1.46247,50.9344994],[-1.4624511,50.9344647]]]}},
{"type":"Feature","properties":{"highway":"cycleway","name":null,"category":"Dedicated cycleway"},"geometry":{"type":"MultiLineString","coordinates":[[[-1.4695196,50.9343414],[-1.4694662,50.9343287]]]}},
{"type":"Feature","properties":{"highway":"cycleway","name":null,"category":"Dedicated cycleway"},"geometry":{"type":"MultiLineString","coordinates":[[[-1.4691891,50.9343362],[-1.4691594,50.9343416]]]}},
{"type":"Feature","properties":{"highway":"cycleway","name":null,"category":"Dedicated cycleway"},"geometry":{"type":"MultiLineString","coordinates":[[[-1.4691685,50.9349104],[-1.4691399,50.9349097]]]}},
{"type":"Feature","properties":{"highway":"cycleway","name":null,"category":"Dedicated cycleway"},"geometry":{"type":"MultiLineString","coordinates":[[[-1.468504,50.933624],[-1.4684658,50.9336615],[-1.4684366,50.933698]]]}},
{"type":"Feature","properties":{"highway":"cycleway","name":null,"category":"Dedicated cycleway"},"geometry":{"type":"MultiLineString","coordinates":[[[-1.4684174,50.9335937],[-1.468504,50.933624]]]}},
{"type":"Feature","properties":{"highway":"cycleway","name":null,"category":"Dedicated cycleway"},"geometry":{"type":"MultiLineString","coordinates":[[[-1.468504,50.9334426],[-1.4684721,50.9335009]]]}},
{"type":"Feature","properties":{"highway":"cycleway","name":null,"category":"Dedicated cycleway"},"geometry":{"type":"MultiLineString","coordinates":[[[-1.4684366,50.933698],[-1.4684246,50.9337131]]]}},
{"type":"Feature","properties":{"highway":"cycleway","name":null,"category":"Dedicated cycleway"},"geometry":{"type":"MultiLineString","coordinates":[[[-1.4636661,50.9341103],[-1.4637071,50.9341822],[-1.4637534,50.9342519]]]}},
{"type":"Feature","properties":{"highway":"cycleway","name":null,"category":"Dedicated cycleway"},"geometry":{"type":"MultiLineString","coordinates":[[[-1.4674615,50.9344962],[-1.4675511,50.9344775],[-1.4676402,50.9344572]]]}},
{"type":"Feature","properties":{"highway":"cycleway","name":null,"category":"Dedicated cycleway"},"geometry":{"type":"MultiLineString","coordinates":[[[-1.4673195,50.9344925],[-1.4674615,50.9344962]]]}},
{"type":"Feature","properties":{"highway":"cycleway","name":null,"category":"Dedicated cycleway"},"geometry":{"type":"MultiLineString","coordinates":[[[-1.4510499,50.9441407],[-1.4510918,50.9441256],[-1.4520394,50.9437335],[-1.4520695,50.9437145],[-1.452091,50.9436917],[-1.452093,50.9436708]]]}},
{"type":"Feature","properties":{"highway":"cycleway","name":null,"category":"Dedicated cycleway"},"geometry":{"type":"MultiLineString","coordinates":[[[-1.473027,50.9341315],[-1.4730019,50.9341822],[-1.4729775,50.9342271]]]}},
{"type":"Feature","properties":{"highway":"cycleway","name":null,"category":"Dedicated cycleway"},"geometry":{"type":"MultiLineString","coordinates":[[[-1.4729775,50.9342271],[-1.4729665,50.9342521],[-1.4729348,50.9342668]]]}},
{"type":"Feature","properties":{"highway":"cycleway","name":null,"category":"Dedicated cycleway"},"geometry":{"type":"MultiLineString","coordinates":[[[-1.4548782,50.9382108],[-1.4553651,50.9383456],[-1.4558366,50.9384575],[-1.456263,50.9385505],[-1.4565825,50.9386041],[-1.4566966,50.9385968]]]}},
{"type":"Feature","properties":{"highway":"cycleway","name":null,"category":"Dedicated cycleway"},"geometry":{"type":"MultiLineString","coordinates":[[[-1.4567672,50.9386912],[-1.4568267,50.9387203],[-1.4568871,50.9387514]]]}},
{"type":"Feature","properties":{"highway":"cycleway","name":null,"category":"Dedicated cycleway"},"geometry":{"type":"MultiLineString","coordinates":[[[-1.4567333,50.9386677],[-1.4567672,50.9386912]]]}},
{"type":"Feature","properties":{"highway":"cycleway","name":null,"category":"Dedicated cycleway"},"geometry":{"type":"MultiLineString","coordinates":[[[-1.4566966,50.9385968],[-1.4567177,50.938639],[-1.4567333,50.9386677]]]}},
{"type":"Feature","properties":{"highway":"cycleway","name":null,"category":"Dedicated cycleway"},"geometry":{"type":"MultiLineString","coordinates":[[[-1.4587032,50.9378982],[-1.458798,50.9380056]]]}},
{"type":"Feature","properties":{"highway":"cycleway","name":null,"category":"Dedicated cycleway"},"geometry":{"type":"MultiLineString","coordinates":[[[-1.4586794,50.9378713],[-1.4586896,50.9378828],[-1.4587032,50.9378982]]]}},
{"type":"Feature","properties":{"highway":"cycleway","name":null,"category":"Dedicated cycleway"},"geometry":{"type":"MultiLineString","coordinates":[[[-1.4530289,50.9417397],[-1.4527328,50.9416815],[-1.4525612,50.9415894],[-1.4523144,50.94157],[-1.4509492,50.9421691],[-1.4509185,50.9422083]]]}},
{"type":"Feature","properties":{"highway":"cycleway","name":null,"category":"Dedicated cycleway"},"geometry":{"type":"MultiLineString","coordinates":[[[-1.4520236,50.943582],[-1.4519531,50.9434975]]]}},
{"type":"Feature","properties":{"highway":"cycleway","name":null,"category":"Dedicated cycleway"},"geometry":{"type":"MultiLineString","coordinates":[[[-1.4573259,50.9412512],[-1.4573112,50.941258],[-1.456782,50.9415032]]]}},
{"type":"Feature","properties":{"highway":"path","name":null,"category":"Shared path"},"geometry":{"type":"MultiLineString","coordinates":[[[-1.4693905,50.9333943],[-1.4694078,50.9333365]]]}},
{"type":"Feature","properties":{"highway":"cycleway","name":null,"category":"Dedicated cycleway"},"geometry":{"type":"MultiLineString","coordinates":[[[-1.4617902,50.9346732],[-1.4617624,50.9346328]]]}},
{"type":"Feature","properties":{"highway":"path","name":null,"category":"Shared path"},"geometry":{"type":"MultiLineString","coordinates":[[[-1.4623541,50.9370594],[-1.4622932,50.936977],[-1.4621869,50.93694],[-1.4620441,50.9369241],[-1.461921,50.9369417],[-1.4617894,50.93697],[-1.4616892,50.9370227],[-1.4614675,50.9371393],[-1.4613767,50.9372052],[-1.4613388,50.9372328],[-1.4612212,50.9372804],[-1.4610756,50.9372998],[-1.4608545,50.9373933],[-1.4607509,50.9374268]]]}},
{"type":"Feature","properties":{"highway":"path","name":null,"category":"Shared path"},"geometry":{"type":"MultiLineString","coordinates":[[[-1.4613767,50.9372052],[-1.4612107,50.9371378],[-1.4610737,50.9370808]]]}},
{"type":"Feature","properties":{"highway":"path","name":null,"category":"Shared path"},"geometry":{"type":"MultiLineString","coordinates":[[[-1.4614827,50.9377254],[-1.461155,50.9376631],[-1.461076,50.9376207],[-1.4608545,50.9373933],[-1.460737,50.9372198],[-1.4607463,50.9371861],[-1.4608067,50.9371568],[-1.4610737,50.9370808],[-1.461278,50.9370398],[-1.4614011,50.9370442],[-1.4615265,50.9370398],[-1.4616892,50.9370227]]]}},
{"type":"Feature","properties":{"highway":"path","name":null,"category":"Shared path"},"geometry":{"type":"MultiLineString","coordinates":[[[-1.4532383,50.9430946],[-1.4534287,50.9432494]]]}},
{"type":"Feature","properties":{"highway":"path","name":null,"category":"Shared path"},"geometry":{"type":"MultiLineString","coordinates":[[[-1.4548501,50.9424416],[-1.4542686,50.9424045],[-1.4541902,50.9423504]]]}},
{"type":"Feature","properties":{"highway":"path","name":null,"category":"Shared path"},"geometry":{"type":"MultiLineString","coordinates":[[[-1.4649261,50.9433815],[-1.4656912,50.9432765],[-1.4663444,50.9432357],[-1.4665432,50.9432606],[-1.4666001,50.9432765],[-1.4668843,50.9442895]]]}},
{"type":"Feature","properties":{"highway":"path","name":null,"category":"Shared path"},"geometry":{"type":"MultiLineString","coordinates":[[[-1.4626497,50.9438432],[-1.4627234,50.9437124],[-1.462769,50.9429925],[-1.4627728,50.9429079]]]}},
{"type":"Feature","properties":{"highway":"path","name":null,"category":"Shared path"},"geometry":{"type":"MultiLineString","coordinates":[[[-1.4726169,50.9420845],[-1.4729499,50.9424902],[-1.4730053,50.9425819],[-1.4729845,50.9426649],[-1.4729898,50.9426843],[-1.4730018,50.9427282],[-1.4730746,50.9427828],[-1.4730885,50.9431191],[-1.4730922,50.9431212],[-1.4732063,50.9431867],[-1.4732375,50.9432435],[-1.4732063,50.9432915],[-1.4736082,50.9434924]]]}},
{"type":"Feature","properties":{"highway":"path","name":null,"category":"Shared path"},"geometry":{"type":"MultiLineString","coordinates":[[[-1.4730922,50.9431212],[-1.4728363,50.9432977],[-1.4727315,50.9432382],[-1.4725977,50.9431622],[-1.4724716,50.9432605],[-1.472298,50.943396],[-1.472219,50.9434575],[-1.4720861,50.9435615],[-1.471964,50.9436565],[-1.4718037,50.9437815],[-1.4716856,50.943719]]]}},
{"type":"Feature","properties":{"highway":"path","name":null,"category":"Shared path"},"geometry":{"type":"MultiLineString","coordinates":[[[-1.4718369,50.943599],[-1.471964,50.9436565]]]}},
{"type":"Feature","properties":{"highway":"path","name":null,"category":"Shared path"},"geometry":{"type":"MultiLineString","coordinates":[[[-1.4720945,50.9433946],[-1.472219,50.9434575]]]}},
{"type":"Feature","properties":{"highway":"path","name":null,"category":"Shared path"},"geometry":{"type":"MultiLineString","coordinates":[[[-1.4723372,50.943202],[-1.4724716,50.9432605]]]}},
{"type":"Feature","properties":{"highway":"path","name":null,"category":"Shared path"},"geometry":{"type":"MultiLineString","coordinates":[[[-1.4724716,50.9430954],[-1.4725977,50.9431622]]]}},
{"type":"Feature","properties":{"highway":"path","name":null,"category":"Shared path"},"geometry":{"type":"MultiLineString","coordinates":[[[-1.4720861,50.9435615],[-1.4722123,50.9436209]]]}},
{"type":"Feature","properties":{"highway":"path","name":null,"category":"Shared path"},"geometry":{"type":"MultiLineString","coordinates":[[[-1.472298,50.943396],[-1.4726396,50.9432867],[-1.4727315,50.9432382]]]}},
{"type":"Feature","properties":{"highway":"path","name":null,"category":"Shared path"},"geometry":{"type":"MultiLineString","coordinates":[[[-1.4728363,50.9432977],[-1.4730421,50.9434132],[-1.4732063,50.9432915]]]}},
{"type":"Feature","properties":{"highway":"path","name":null,"category":"Shared path"},"geometry":{"type":"MultiLineString","coordinates":[[[-1.4743927,50.9442981],[-1.4743461,50.944248]]]}},
{"type":"Feature","properties":{"highway":"path","name":null,"category":"Shared path"},"geometry":{"type":"MultiLineString","coordinates":[[[-1.4743461,50.944248],[-1.4743815,50.9442002],[-1.4744051,50.9441296],[-1.4743859,50.9441022],[-1.4742348,50.943954],[-1.4741228,50.9438337],[-1.4740557,50.9437348],[-1.4740388,50.9437078],[-1.4737756,50.9435221],[-1.4736739,50.9434766],[-1.4736082,50.9434924]]]}},
{"type":"Feature","properties":{"highway":"path","name":null,"category":"Shared path"},"geometry":{"type":"MultiLineString","coordinates":[[[-1.4729025,50.9443555],[-1.4730208,50.9443655],[-1.4731879,50.9443423],[-1.4734538,50.9442879],[-1.4735245,50.9442773],[-1.4737463,50.9442995],[-1.4738023,50.9443019],[-1.474091,50.944269],[-1.4743003,50.9442488],[-1.4743461,50.944248]]]}},
{"type":"Feature","properties":{"highway":"path","name":null,"category":"Shared path"},"geometry":{"type":"MultiLineString","coordinates":[[[-1.4706151,50.9437255],[-1.4706258,50.9437836],[-1.4706166,50.9438264],[-1.4706009,50.9438989]]]}},
{"type":"Feature","properties":{"highway":"path","name":null,"category":"Shared path"},"geometry":{"type":"MultiLineString","coordinates":[[[-1.471363,50.9448415],[-1.4715568,50.9447518],[-1.4716218,50.944692],[-1.4716793,50.9446227],[-1.4717517,50.9445786],[-1.4718392,50.9445409],[-1.4720391,50.9445235],[-1.4728312,50.9444779],[-1.4742547,50.944348]]]}},
{"type":"Feature","properties":{"highway":"path","name":null,"category":"Shared path"},"geometry":{"type":"MultiLineString","coordinates":[[[-1.4730098,50.9446447],[-1.4728986,50.9445865],[-1.4728828,50.944561],[-1.4728312,50.9444779]]]}},
{"type":"Feature","properties":{"highway":"path","name":null,"category":"Shared path"},"geometry":{"type":"MultiLineString","coordinates":[[[-1.4728828,50.944561],[-1.4727162,50.9445566],[-1.4725788,50.9446038],[-1.4724364,50.9446621],[-1.4723164,50.9447314],[-1.4722015,50.9447502],[-1.4721215,50.9447613],[-1.4715568,50.9447518]]]}},
{"type":"Feature","properties":{"highway":"path","name":null,"category":"Shared path"},"geometry":{"type":"MultiLineString","coordinates":[[[-1.4561139,50.9437018],[-1.4562737,50.9436642],[-1.4563519,50.9435965],[-1.4563844,50.9435411],[-1.4564235,50.9435145],[-1.4567198,50.9435062]]]}},
{"type":"Feature","properties":{"highway":"path","name":null,"category":"Shared path"},"geometry":{"type":"MultiLineString","coordinates":[[[-1.4567198,50.9435062],[-1.4566938,50.9434037],[-1.4567159,50.9433397],[-1.4570766,50.9431591],[-1.4571745,50.943109],[-1.4578256,50.9427761],[-1.4579945,50.9426898],[-1.4581153,50.9426477],[-1.4582091,50.9426398],[-1.4584561,50.9426807],[-1.4585319,50.9427273],[-1.458586,50.9427886],[-1.4586599,50.942867],[-1.4589358,50.9432057],[-1.4589629,50.9432579],[-1.4589661,50.943324],[-1.4589665,50.9433318],[-1.4589575,50.9433875],[-1.4589209,50.9434522],[-1.4589088,50.9434738],[-1.4587122,50.9436477],[-1.4583569,50.9439419],[-1.4580396,50.9441453],[-1.4579548,50.9441896],[-1.4579169,50.9442442],[-1.457834,50.9442828],[-1.4577492,50.9443055],[-1.4576807,50.9442896],[-1.4576122,50.9442726],[-1.4575435,50.9442293],[-1.4572497,50.9439953],[-1.4571631,50.9439374],[-1.457091,50.9438545],[-1.457078,50.9438338],[-1.4570333,50.9437624],[-1.4568331,50.9436011],[-1.4567198,50.9435062]]]}},
{"type":"Feature","properties":{"highway":"path","name":null,"category":"Shared path"},"geometry":{"type":"MultiLineString","coordinates":[[[-1.4567198,50.9435062],[-1.4571902,50.9434772],[-1.4572919,50.9434743],[-1.4575058,50.9434681],[-1.4582217,50.9434931],[-1.4587014,50.9434784],[-1.4588096,50.9434659],[-1.4589209,50.9434522]]]}},
{"type":"Feature","properties":{"highway":"path","name":null,"category":"Shared path"},"geometry":{"type":"MultiLineString","coordinates":[[[-1.4589209,50.9434522],[-1.4590981,50.9434386],[-1.4591327,50.943436],[-1.4592045,50.9434306],[-1.4594256,50.943503]]]}},
{"type":"Feature","properties":{"highway":"path","name":null,"category":"Shared path"},"geometry":{"type":"MultiLineString","coordinates":[[[-1.4591327,50.943436],[-1.4590368,50.9433556],[-1.4589661,50.943324]]]}},
{"type":"Feature","properties":{"highway":"path","name":null,"category":"Shared path"},"geometry":{"type":"MultiLineString","coordinates":[[[-1.4589661,50.943324],[-1.4585553,50.9431091],[-1.4581514,50.9429261],[-1.458054,50.942892],[-1.4580195,50.9428743],[-1.4579855,50.9428568],[-1.4578256,50.9427761]]]}},
{"type":"Feature","properties":{"highway":"path","name":null,"category":"Shared path"},"geometry":{"type":"MultiLineString","coordinates":[[[-1.4580195,50.9428743],[-1.4578809,50.9429693],[-1.4578087,50.9430034],[-1.4577727,50.9430682],[-1.4576883,50.9431471],[-1.4576013,50.9432284],[-1.4573886,50.9433772],[-1.4572919,50.9434743],[-1.4571181,50.9436113],[-1.4570567,50.9436715],[-1.4570369,50.9437045],[-1.4570333,50.9437624]]]}},
{"type":"Feature","properties":{"highway":"path","name":null,"category":"Shared path"},"geometry":{"type":"MultiLineString","coordinates":[[[-1.4571745,50.943109],[-1.4575292,50.9431409],[-1.4576883,50.9431471],[-1.4582668,50.9432716],[-1.4587591,50.9434045],[-1.4589209,50.9434522]]]}},
{"type":"Feature","properties":{"highway":"path","name":null,"category":"Shared path"},"geometry":{"type":"MultiLineString","coordinates":[[[-1.4575435,50.9442293],[-1.4575972,50.9443355],[-1.45764,50.9444155]]]}},
{"type":"Feature","properties":{"highway":"path","name":null,"category":"Shared path"},"geometry":{"type":"MultiLineString","coordinates":[[[-1.45764,50.9444155],[-1.457715,50.9443364],[-1.4577492,50.9443055]]]}},
{"type":"Feature","properties":{"highway":"path","name":null,"category":"Shared path"},"geometry":{"type":"MultiLineString","coordinates":[[[-1.45764,50.9444155],[-1.4577258,50.9445351],[-1.4577793,50.944565],[-1.4579274,50.9446236]]]}},
{"type":"Feature","properties":{"highway":"path","name":null,"category":"Shared path"},"geometry":{"type":"MultiLineString","coordinates":[[[-1.457078,50.9438338],[-1.4568814,50.9438783],[-1.4567959,50.9439116],[-1.4567003,50.9439211],[-1.4565415,50.9439811]]]}},
{"type":"Feature","properties":{"highway":"path","name":null,"category":"Shared path"},"geometry":{"type":"MultiLineString","coordinates":[[[-1.4600997,50.9471905],[-1.4603162,50.9470474],[-1.46053,50.9469014],[-1.4610005,50.9465893]]]}},
{"type":"Feature","properties":{"highway":"path","name":null,"category":"Shared path"},"geometry":{"type":"MultiLineString","coordinates":[[[-1.4609414,50.9464304],[-1.4609756,50.9465264],[-1.4610005,50.9465893],[-1.4609328,50.9466881],[-1.4608544,50.9469216],[-1.4609079,50.9470182],[-1.4610148,50.9470833],[-1.4618025,50.9475571],[-1.4619593,50.9476739],[-1.4620734,50.9477637],[-1.4625118,50.9481904],[-1.4626936,50.9483094],[-1.4630805,50.9485405]]]}},
{"type":"Feature","properties":{"highway":"path","name":null,"category":"Shared path"},"geometry":{"type":"MultiLineString","coordinates":[[[-1.4603562,50.9473117],[-1.4608544,50.9469216]]]}},
{"type":"Feature","properties":{"highway":"path","name":null,"category":"Shared path"},"geometry":{"type":"MultiLineString","coordinates":[[[-1.45764,50.9444155],[-1.4574108,50.9444909],[-1.4573207,50.9445183],[-1.4573097,50.9445191],[-1.4572399,50.9445242],[-1.4571685,50.9445046],[-1.4570753,50.9444615],[-1.4569821,50.9443872],[-1.4567988,50.9443285],[-1.4565067,50.9442729]]]}},
{"type":"Feature","properties":{"highway":"path","name":null,"category":"Shared path"},"geometry":{"type":"MultiLineString","coordinates":[[[-1.4573097,50.9445191],[-1.4573269,50.9446162],[-1.4573051,50.944671],[-1.4572523,50.9447121],[-1.4572088,50.9447767],[-1.4572057,50.9448256]]]}},
{"type":"Feature","properties":{"highway":"path","name":null,"category":"Shared path"},"geometry":{"type":"MultiLineString","coordinates":[[[-1.4554535,50.9447139],[-1.4553139,50.9447023],[-1.4552456,50.9447003],[-1.4551648,50.944763]]]}},
{"type":"Feature","properties":{"highway":"path","name":null,"category":"Shared path"},"geometry":{"type":"MultiLineString","coordinates":[[[-1.4640543,50.9430057],[-1.4642721,50.9428385],[-1.46449,50.9426875],[-1.4649375,50.9424967]]]}},
{"type":"Feature","properties":{"highway":"path","name":null,"category":"Shared path"},"geometry":{"type":"MultiLineString","coordinates":[[[-1.4657259,50.9428217],[-1.4660953,50.9429621],[-1.4666001,50.9432765]]]}},
{"type":"Feature","properties":{"highway":"path","name":null,"category":"Shared path"},"geometry":{"type":"MultiLineString","coordinates":[[[-1.466488,50.9399499],[-1.4671341,50.9395889],[-1.4674391,50.9394378],[-1.467628,50.9393325],[-1.4677369,50.9392135],[-1.4676716,50.938438]]]}},
{"type":"Feature","properties":{"highway":"path","name":null,"category":"Shared path"},"geometry":{"type":"MultiLineString","coordinates":[[[-1.4649375,50.9424967],[-1.4653544,50.9422161],[-1.4656014,50.9420239],[-1.4658266,50.9417767],[-1.4660781,50.9415216],[-1.4661244,50.9414746],[-1.4662333,50.9413327],[-1.4663818,50.9411478]]]}},
{"type":"Feature","properties":{"highway":"path","name":null,"category":"Shared path"},"geometry":{"type":"MultiLineString","coordinates":[[[-1.4660781,50.9415216],[-1.4659137,50.9413373],[-1.4658368,50.9412258]]]}},
{"type":"Feature","properties":{"highway":"path","name":null,"category":"Shared path"},"geometry":{"type":"MultiLineString","coordinates":[[[-1.4646208,50.9430878],[-1.4645482,50.942866],[-1.46449,50.9426875]]]}},
{"type":"Feature","properties":{"highway":"path","name":null,"category":"Shared path"},"geometry":{"type":"MultiLineString","coordinates":[[[-1.4706009,50.9438989],[-1.4705261,50.9441878],[-1.4705047,50.9443044],[-1.4704886,50.9444649],[-1.4705149,50.9445661],[-1.4705154,50.944568],[-1.4705369,50.9446018],[-1.470612,50.9446288],[-1.4708131,50.9446542],[-1.4707836,50.9439748],[-1.4707971,50.9438464],[-1.4706166,50.9438264]]]}},
{"type":"Feature","properties":{"highway":"path","name":null,"category":"Shared path"},"geometry":{"type":"MultiLineString","coordinates":[[[-1.4705149,50.9445661],[-1.4702016,50.9445765],[-1.4699522,50.9446187],[-1.469751,50.9446356],[-1.4695566,50.9446594]]]}},
{"type":"Feature","properties":{"highway":"path","name":null,"category":"Shared path"},"geometry":{"type":"MultiLineString","coordinates":[[[-1.4697015,50.9448376],[-1.4698404,50.9449697],[-1.4698824,50.945004],[-1.4699361,50.9450344],[-1.4699334,50.9452136]]]}},
{"type":"Feature","properties":{"highway":"path","name":null,"category":"Shared path"},"geometry":{"type":"MultiLineString","coordinates":[[[-1.4697118,50.9452483],[-1.4699334,50.9452136],[-1.4703303,50.9451899],[-1.4703593,50.9451935],[-1.4705486,50.9452172],[-1.4707622,50.945244],[-1.4709258,50.9453403],[-1.4710519,50.9454654],[-1.4710921,50.9455414],[-1.4711109,50.9455694],[-1.4713201,50.9458811],[-1.4702794,50.9463323],[-1.4699548,50.9464472],[-1.4697456,50.9465199]]]}},
{"type":"Feature","properties":{"highway":"path","name":null,"category":"Shared path"},"geometry":{"type":"MultiLineString","coordinates":[[[-1.4711109,50.9455694],[-1.4708909,50.9455617],[-1.4704966,50.9456648]]]}},
{"type":"Feature","properties":{"highway":"path","name":null,"category":"Shared path"},"geometry":{"type":"MultiLineString","coordinates":[[[-1.4703593,50.9451935],[-1.4703062,50.9450209],[-1.4702096,50.9450006],[-1.4698404,50.9449697]]]}},
{"type":"Feature","properties":{"highway":"path","name":null,"category":"Shared path"},"geometry":{"type":"MultiLineString","coordinates":[[[-1.4705486,50.9452172],[-1.4705583,50.9450801],[-1.4705932,50.9450361],[-1.4707917,50.9450175]]]}},
{"type":"Feature","properties":{"highway":"cycle_lane_on_street","name":"Adanac Drive","category":"Cycle lane on street"},"geometry":{"type":"MultiLineString","coordinates":[[[-1.4706911,50.9367629],[-1.4708439,50.9367625],[-1.4711096,50.9367418],[-1.4714992,50.9366988],[-1.4718458,50.9366781],[-1.4720149,50.9366842],[-1.4721298,50.9367113],[-1.4722437,50.9367591],[-1.4723137,50.9368327],[-1.4723518,50.9369028],[-1.4723554,50.9369934],[-1.4723633,50.9371991],[-1.4723621,50.9372912],[-1.472371,50.9374608],[-1.472452,50.937756],[-1.4725032,50.9380156],[-1.4725103,50.9381491],[-1.4725055,50.9382586],[-1.4724848,50.9384796],[-1.472428,50.9388297],[-1.4724132,50.9389325],[-1.4724195,50.9390699],[-1.4724302,50.9391515],[-1.4724336,50.9391947],[-1.4724886,50.939368]]]}}
]
}
