{
"type": "FeatureCollection",
"name": "RUNNY_40_toilets",
"crs": { "type": "name", "properties": { "name": "urn:ogc:def:crs:OGC:1.3:CRS84" } },
"features": [
{ "type": "Feature", "properties": { "name": "Ottershaw Memorial Fields Park  Ottershaw", "payment_info": "Free", "accessible": "True", "radar": "Unknown", "women": "True", "men": "True", "baby_change": "Unknown", "Mon": "Unknown", "Tue": "Unknown", "Wed": "Unknown", "Thu": "Unknown", "Fri": "Unknown", "Sat": "Unknown", "Sun": "Unknown", "index_right": 40, "park_offical_id": "RUNNY_40" }, "geometry": { "type": "Point", "coordinates": [ -0.537782907, 51.366102655 ] } }
]
}
