{
"type": "FeatureCollection",
"name": "SOUOX_106_cycling",
"crs": { "type": "name", "properties": { "name": "urn:ogc:def:crs:OGC:1.3:CRS84" } },
"features": [
{"type":"Feature","properties":{"highway":"cycleway","name":null,"category":"Dedicated cycleway"},"geometry":{"type":"MultiLineString","coordinates":[[[-1.1066059,51.6077122],[-1.1066373,51.607793],[-1.1063141,51.6082803],[-1.1061934,51.6086414],[-1.1061162,51.6090732],[-1.1060218,51.6096009],[-1.1059359,51.6101072],[-1.105911,51.6104118]]]}},
{"type":"Feature","properties":{"highway":"cycleway","name":null,"category":"Dedicated cycleway"},"geometry":{"type":"MultiLineString","coordinates":[[[-1.1135796,51.6192712],[-1.1136251,51.6192174],[-1.1136559,51.6191483],[-1.1136237,51.6190351],[-1.1134145,51.6188452],[-1.1131773,51.6186461],[-1.1123134,51.6179213],[-1.111841,51.6175286],[-1.1113279,51.6171021],[-1.1107912,51.616656],[-1.1078618,51.6143369],[-1.1072003,51.6136786],[-1.1067023,51.6131181],[-1.1062785,51.6125252],[-1.1060478,51.6120055],[-1.105844,51.6114558],[-1.1057519,51.6109187],[-1.1057331,51.6107088],[-1.1057224,51.6106272],[-1.1056875,51.6105939],[-1.1055918,51.6105351]]]}},
{"type":"Feature","properties":{"highway":"cycleway","name":null,"category":"Dedicated cycleway"},"geometry":{"type":"MultiLineString","coordinates":[[[-1.1057331,51.6107088],[-1.105843,51.6107022],[-1.1059285,51.6106992]]]}},
{"type":"Feature","properties":{"highway":"cycleway","name":null,"category":"Dedicated cycleway"},"geometry":{"type":"MultiLineString","coordinates":[[[-1.105911,51.6104118],[-1.1059102,51.6105017],[-1.1059285,51.6106992],[-1.1059359,51.6107788],[-1.1059726,51.6108992]]]}},
{"type":"Feature","properties":{"highway":"cycle_lane_on_street","name":"Benson Lane","category":"Cycle lane on street"},"geometry":{"type":"MultiLineString","coordinates":[[[-1.1116523,51.5985102],[-1.1116257,51.5985816],[-1.111624,51.5987482],[-1.1115065,51.5991574],[-1.1113816,51.5994149],[-1.1112985,51.5996104],[-1.1111718,51.5998421],[-1.111137,51.5998924],[-1.1110103,51.6000758],[-1.1109351,51.6001584],[-1.1108853,51.6002206],[-1.1106909,51.6004791],[-1.1105452,51.6006105],[-1.1104221,51.6007679],[-1.1103432,51.6008819],[-1.1100848,51.6012553],[-1.1099332,51.6014254],[-1.1096971,51.6018301],[-1.1095832,51.602041],[-1.1093013,51.6025715],[-1.1089955,51.6031886],[-1.1088506,51.6035626],[-1.1087555,51.6039305],[-1.1086992,51.6044442],[-1.1086604,51.6047832],[-1.1086026,51.6049973],[-1.108459,51.6053197],[-1.1083039,51.605552],[-1.1078956,51.6060224],[-1.1075017,51.6065238],[-1.1067126,51.607547],[-1.1066751,51.6075957],[-1.1066059,51.6077122]]]}}
]
}
