{
"type": "FeatureCollection",
"name": "4b928a5720fa_foliage",
"crs": { "type": "name", "properties": { "name": "urn:ogc:def:crs:OGC:1.3:CRS84" } },
"features": [
{ "type": "Feature", "properties": { "max_height": 0.032999992370605469, "mean_height": 0.00085540150757879019, "std_height": 0.0054941358976066113, "count_pixels": 43, "percent_cover": 1.5902366863905326, "percent_above_0.1m": 0.0, "low_level_<0.5": 0.0, "mid_level_0.5-2": 0.0, "tall_2+": 0.0 }, "geometry": { "type": "Point", "coordinates": [ -0.492738871486686, 51.380034862787554 ] } },
{ "type": "Feature", "properties": { "max_height": 8.5202512741088867, "mean_height": 0.60813170671463013, "std_height": 1.6946401596069336, "count_pixels": 42, "percent_cover": 1.5532544378698225, "percent_above_0.1m": 21.428571428571427, "low_level_<0.5": 0.0, "mid_level_0.5-2": 9.5238095238095237, "tall_2+": 9.5238095238095237 }, "geometry": { "type": "Point", "coordinates": [ -0.49253983974074, 51.380032302124192 ] } },
{ "type": "Feature", "properties": { "max_height": 4.5390005111694336, "mean_height": 0.28506013751029968, "std_height": 0.94016391038894653, "count_pixels": 42, "percent_cover": 1.5532544378698225, "percent_above_0.1m": 19.047619047619047, "low_level_<0.5": 9.5238095238095237, "mid_level_0.5-2": 0.0, "tall_2+": 7.1428571428571423 }, "geometry": { "type": "Point", "coordinates": [ -0.492340808023233, 51.380029741123458 ] } },
{ "type": "Feature", "properties": { "max_height": 0.40581798553466797, "mean_height": 0.018441926687955856, "std_height": 0.083496972918510437, "count_pixels": 42, "percent_cover": 1.5532544378698225, "percent_above_0.1m": 4.7619047619047619, "low_level_<0.5": 4.7619047619047619, "mid_level_0.5-2": 0.0, "tall_2+": 0.0 }, "geometry": { "type": "Point", "coordinates": [ -0.49214177633418, 51.380027179785358 ] } },
{ "type": "Feature", "properties": { "max_height": 3.330500602722168, "mean_height": 0.11742747575044632, "std_height": 0.53204578161239624, "count_pixels": 41, "percent_cover": 1.5162721893491125, "percent_above_0.1m": 7.3170731707317067, "low_level_<0.5": 2.4390243902439024, "mid_level_0.5-2": 2.4390243902439024, "tall_2+": 2.4390243902439024 }, "geometry": { "type": "Point", "coordinates": [ -0.492834843720796, 51.380144006417865 ] } },
{ "type": "Feature", "properties": { "max_height": 6.9377517700195312, "mean_height": 1.6284823417663574, "std_height": 1.9969652891159058, "count_pixels": 41, "percent_cover": 1.5162721893491125, "percent_above_0.1m": 78.048780487804876, "low_level_<0.5": 9.7560975609756095, "mid_level_0.5-2": 41.463414634146339, "tall_2+": 26.829268292682929 }, "geometry": { "type": "Point", "coordinates": [ -0.49263581151199, 51.380141445900456 ] } },
{ "type": "Feature", "properties": { "max_height": 12.756752014160156, "mean_height": 4.5308098793029785, "std_height": 4.280552864074707, "count_pixels": 38, "percent_cover": 1.4053254437869822, "percent_above_0.1m": 78.94736842105263, "low_level_<0.5": 7.8947368421052628, "mid_level_0.5-2": 5.2631578947368416, "tall_2+": 63.157894736842103 }, "geometry": { "type": "Point", "coordinates": [ -0.492436779331631, 51.380138885045703 ] } },
{ "type": "Feature", "properties": { "max_height": 15.400751113891602, "mean_height": 7.5617828369140625, "std_height": 4.4993572235107422, "count_pixels": 42, "percent_cover": 1.5532544378698225, "percent_above_0.1m": 100.0, "low_level_<0.5": 0.0, "mid_level_0.5-2": 21.428571428571427, "tall_2+": 78.571428571428569 }, "geometry": { "type": "Point", "coordinates": [ -0.492237747179715, 51.380136323853577 ] } },
{ "type": "Feature", "properties": { "max_height": 10.89961051940918, "mean_height": 0.90297269821166992, "std_height": 2.1063275337219238, "count_pixels": 41, "percent_cover": 1.5162721893491125, "percent_above_0.1m": 39.024390243902438, "low_level_<0.5": 7.3170731707317067, "mid_level_0.5-2": 19.512195121951219, "tall_2+": 12.195121951219512 }, "geometry": { "type": "Point", "coordinates": [ -0.492038715056247, 51.3801337623241 ] } },
{ "type": "Feature", "properties": { "max_height": 0.051000595092773438, "mean_height": 0.0040483018383383751, "std_height": 0.011366302147507668, "count_pixels": 42, "percent_cover": 1.5532544378698225, "percent_above_0.1m": 0.0, "low_level_<0.5": 0.0, "mid_level_0.5-2": 0.0, "tall_2+": 0.0 }, "geometry": { "type": "Point", "coordinates": [ -0.492930816389311, 51.380253149983872 ] } },
{ "type": "Feature", "properties": { "max_height": 8.8317508697509766, "mean_height": 5.0419139862060547, "std_height": 2.956477165222168, "count_pixels": 43, "percent_cover": 1.5902366863905326, "percent_above_0.1m": 93.023255813953483, "low_level_<0.5": 6.9767441860465116, "mid_level_0.5-2": 13.953488372093023, "tall_2+": 72.093023255813947 }, "geometry": { "type": "Point", "coordinates": [ -0.49273178371765, 51.380250589612473 ] } },
{ "type": "Feature", "properties": { "max_height": 8.6132516860961914, "mean_height": 2.7594056129455566, "std_height": 3.0991919040679932, "count_pixels": 42, "percent_cover": 1.5532544378698225, "percent_above_0.1m": 71.428571428571431, "low_level_<0.5": 9.5238095238095237, "mid_level_0.5-2": 16.666666666666664, "tall_2+": 42.857142857142854 }, "geometry": { "type": "Point", "coordinates": [ -0.492532751074431, 51.380248028903694 ] } },
{ "type": "Feature", "properties": { "max_height": 14.698752403259277, "mean_height": 9.7774419784545898, "std_height": 2.2564988136291504, "count_pixels": 42, "percent_cover": 1.5532544378698225, "percent_above_0.1m": 100.0, "low_level_<0.5": 0.0, "mid_level_0.5-2": 0.0, "tall_2+": 100.0 }, "geometry": { "type": "Point", "coordinates": [ -0.492333718459654, 51.380245467857549 ] } },
{ "type": "Feature", "properties": { "max_height": 12.719000816345215, "mean_height": 3.7375433444976807, "std_height": 3.9537436962127686, "count_pixels": 42, "percent_cover": 1.5532544378698225, "percent_above_0.1m": 71.428571428571431, "low_level_<0.5": 4.7619047619047619, "mid_level_0.5-2": 16.666666666666664, "tall_2+": 47.619047619047613 }, "geometry": { "type": "Point", "coordinates": [ -0.492134685873325, 51.380242906474038 ] } },
{ "type": "Feature", "properties": { "max_height": 0.30100059509277344, "mean_height": 0.010503613390028477, "std_height": 0.052383366972208023, "count_pixels": 43, "percent_cover": 1.5902366863905326, "percent_above_0.1m": 4.6511627906976747, "low_level_<0.5": 4.6511627906976747, "mid_level_0.5-2": 0.0, "tall_2+": 0.0 }, "geometry": { "type": "Point", "coordinates": [ -0.491935653315446, 51.380240344753183 ] } },
{ "type": "Feature", "properties": { "max_height": 5.6602506637573242, "mean_height": 0.24954342842102051, "std_height": 0.98093158006668091, "count_pixels": 41, "percent_cover": 1.5162721893491125, "percent_above_0.1m": 12.195121951219512, "low_level_<0.5": 4.8780487804878048, "mid_level_0.5-2": 2.4390243902439024, "tall_2+": 4.8780487804878048 }, "geometry": { "type": "Point", "coordinates": [ -0.492827756357722, 51.380359733260207 ] } },
{ "type": "Feature", "properties": { "max_height": 10.85050106048584, "mean_height": 7.7993416786193848, "std_height": 2.9721715450286865, "count_pixels": 41, "percent_cover": 1.5162721893491125, "percent_above_0.1m": 92.682926829268297, "low_level_<0.5": 0.0, "mid_level_0.5-2": 2.4390243902439024, "tall_2+": 90.243902439024396 }, "geometry": { "type": "Point", "coordinates": [ -0.49262872325164, 51.380357172697416 ] } },
{ "type": "Feature", "properties": { "max_height": 9.8867511749267578, "mean_height": 7.1610727310180664, "std_height": 1.5912297964096069, "count_pixels": 38, "percent_cover": 1.4053254437869822, "percent_above_0.1m": 100.0, "low_level_<0.5": 0.0, "mid_level_0.5-2": 0.0, "tall_2+": 100.0 }, "geometry": { "type": "Point", "coordinates": [ -0.492429690174, 51.380354611797259 ] } },
{ "type": "Feature", "properties": { "max_height": 13.389500617980957, "mean_height": 4.804682731628418, "std_height": 3.9314899444580078, "count_pixels": 42, "percent_cover": 1.5532544378698225, "percent_above_0.1m": 83.333333333333343, "low_level_<0.5": 7.1428571428571423, "mid_level_0.5-2": 9.5238095238095237, "tall_2+": 66.666666666666657 }, "geometry": { "type": "Point", "coordinates": [ -0.492230657124806, 51.380352050559715 ] } },
{ "type": "Feature", "properties": { "max_height": 6.6447505950927734, "mean_height": 1.6593166589736938, "std_height": 2.4713215827941895, "count_pixels": 41, "percent_cover": 1.5162721893491125, "percent_above_0.1m": 36.585365853658537, "low_level_<0.5": 0.0, "mid_level_0.5-2": 4.8780487804878048, "tall_2+": 31.707317073170731 }, "geometry": { "type": "Point", "coordinates": [ -0.492031624104063, 51.38034948898482 ] } },
{ "type": "Feature", "properties": { "max_height": 0.10225009918212891, "mean_height": 0.0040351292118430138, "std_height": 0.015766369178891182, "count_pixels": 43, "percent_cover": 1.5902366863905326, "percent_above_0.1m": 2.3255813953488373, "low_level_<0.5": 0.0, "mid_level_0.5-2": 0.0, "tall_2+": 0.0 }, "geometry": { "type": "Point", "coordinates": [ -0.492724695863264, 51.380466316426876 ] } },
{ "type": "Feature", "properties": { "max_height": 6.6027498245239258, "mean_height": 0.46889415383338928, "std_height": 1.3392390012741089, "count_pixels": 42, "percent_cover": 1.5532544378698225, "percent_above_0.1m": 19.047619047619047, "low_level_<0.5": 4.7619047619047619, "mid_level_0.5-2": 2.3809523809523809, "tall_2+": 9.5238095238095237 }, "geometry": { "type": "Point", "coordinates": [ -0.492525662322757, 51.380463755672686 ] } },
{ "type": "Feature", "properties": { "max_height": 7.1787519454956055, "mean_height": 0.77383261919021606, "std_height": 1.8614423274993896, "count_pixels": 42, "percent_cover": 1.5532544378698225, "percent_above_0.1m": 21.428571428571427, "low_level_<0.5": 2.3809523809523809, "mid_level_0.5-2": 4.7619047619047619, "tall_2+": 14.285714285714285 }, "geometry": { "type": "Point", "coordinates": [ -0.492326628810697, 51.380461194581137 ] } },
{ "type": "Feature", "properties": { "max_height": 5.9651374816894531, "mean_height": 2.4086129665374756, "std_height": 2.4372813701629639, "count_pixels": 42, "percent_cover": 1.5532544378698225, "percent_above_0.1m": 64.285714285714292, "low_level_<0.5": 4.7619047619047619, "mid_level_0.5-2": 14.285714285714285, "tall_2+": 45.238095238095241 }, "geometry": { "type": "Point", "coordinates": [ -0.492127595327087, 51.380458633152216 ] } },
{ "type": "Feature", "properties": { "max_height": 0.025251388549804688, "mean_height": 0.002002006396651268, "std_height": 0.0076399436220526695, "count_pixels": 43, "percent_cover": 1.5902366863905326, "percent_above_0.1m": 0.0, "low_level_<0.5": 0.0, "mid_level_0.5-2": 0.0, "tall_2+": 0.0 }, "geometry": { "type": "Point", "coordinates": [ -0.491928561871923, 51.380456071385929 ] } },
{ "type": "Feature", "properties": { "max_height": 0.28109169006347656, "mean_height": 0.017452217638492584, "std_height": 0.04539022222161293, "count_pixels": 41, "percent_cover": 1.5162721893491125, "percent_above_0.1m": 2.4390243902439024, "low_level_<0.5": 2.4390243902439024, "mid_level_0.5-2": 0.0, "tall_2+": 0.0 }, "geometry": { "type": "Point", "coordinates": [ -0.492621634905929, 51.380572899483866 ] } },
{ "type": "Feature", "properties": { "max_height": 0.10189914703369141, "mean_height": 0.0079357502982020378, "std_height": 0.02430962398648262, "count_pixels": 38, "percent_cover": 1.4053254437869822, "percent_above_0.1m": 2.6315789473684208, "low_level_<0.5": 0.0, "mid_level_0.5-2": 0.0, "tall_2+": 0.0 }, "geometry": { "type": "Point", "coordinates": [ -0.492422600931001, 51.380570338538291 ] } },
{ "type": "Feature", "properties": { "max_height": 0.0592498779296875, "mean_height": 0.0038696697447448969, "std_height": 0.014951873570680618, "count_pixels": 42, "percent_cover": 1.5532544378698225, "percent_above_0.1m": 0.0, "low_level_<0.5": 0.0, "mid_level_0.5-2": 0.0, "tall_2+": 0.0 }, "geometry": { "type": "Point", "coordinates": [ -0.492223566984518, 51.380567777255358 ] } }
]
}
