{
"type": "FeatureCollection",
"name": "15fe2e0d78de_visibility",
"crs": { "type": "name", "properties": { "name": "urn:ogc:def:crs:OGC:1.3:CRS84" } },
"features": [
{ "type": "Feature", "properties": { "visible_points": 0, "total_points": 65, "visibility_pct": 0.0 }, "geometry": { "type": "Point", "coordinates": [ -0.423464827200344, 51.28602495399695 ] } },
{ "type": "Feature", "properties": { "visible_points": 13, "total_points": 72, "visibility_pct": 18.055555555555554 }, "geometry": { "type": "Point", "coordinates": [ -0.42326621413979, 51.286022279564285 ] } },
{ "type": "Feature", "properties": { "visible_points": 6, "total_points": 77, "visibility_pct": 7.7922077922077921 }, "geometry": { "type": "Point", "coordinates": [ -0.4230676011097, 51.286019604794852 ] } },
{ "type": "Feature", "properties": { "visible_points": 0, "total_points": 80, "visibility_pct": 0.0 }, "geometry": { "type": "Point", "coordinates": [ -0.422868988110082, 51.286016929688643 ] } },
{ "type": "Feature", "properties": { "visible_points": 0, "total_points": 79, "visibility_pct": 0.0 }, "geometry": { "type": "Point", "coordinates": [ -0.422670375140932, 51.286014254245629 ] } },
{ "type": "Feature", "properties": { "visible_points": 0, "total_points": 68, "visibility_pct": 0.0 }, "geometry": { "type": "Point", "coordinates": [ -0.423560440121534, 51.286134153384332 ] } },
{ "type": "Feature", "properties": { "visible_points": 18, "total_points": 77, "visibility_pct": 23.376623376623375 }, "geometry": { "type": "Point", "coordinates": [ -0.423361826582133, 51.286131479109237 ] } },
{ "type": "Feature", "properties": { "visible_points": 18, "total_points": 85, "visibility_pct": 21.176470588235293 }, "geometry": { "type": "Point", "coordinates": [ -0.423163213073191, 51.286128804497324 ] } },
{ "type": "Feature", "properties": { "visible_points": 21, "total_points": 90, "visibility_pct": 23.333333333333332 }, "geometry": { "type": "Point", "coordinates": [ -0.422964599594723, 51.286126129548656 ] } },
{ "type": "Feature", "properties": { "visible_points": 16, "total_points": 92, "visibility_pct": 17.391304347826086 }, "geometry": { "type": "Point", "coordinates": [ -0.422765986146727, 51.286123454263191 ] } },
{ "type": "Feature", "properties": { "visible_points": 0, "total_points": 85, "visibility_pct": 0.0 }, "geometry": { "type": "Point", "coordinates": [ -0.422567372729201, 51.286120778640921 ] } },
{ "type": "Feature", "properties": { "visible_points": 0, "total_points": 76, "visibility_pct": 0.0 }, "geometry": { "type": "Point", "coordinates": [ -0.422368759342156, 51.286118102681876 ] } },
{ "type": "Feature", "properties": { "visible_points": 0, "total_points": 67, "visibility_pct": 0.0 }, "geometry": { "type": "Point", "coordinates": [ -0.422170145985592, 51.286115426386054 ] } },
{ "type": "Feature", "properties": { "visible_points": 0, "total_points": 69, "visibility_pct": 0.0 }, "geometry": { "type": "Point", "coordinates": [ -0.423656053491101, 51.286243352696168 ] } },
{ "type": "Feature", "properties": { "visible_points": 12, "total_points": 80, "visibility_pct": 15.0 }, "geometry": { "type": "Point", "coordinates": [ -0.423457439472853, 51.286240678578629 ] } },
{ "type": "Feature", "properties": { "visible_points": 20, "total_points": 90, "visibility_pct": 22.222222222222221 }, "geometry": { "type": "Point", "coordinates": [ -0.423258825485059, 51.286238004124272 ] } },
{ "type": "Feature", "properties": { "visible_points": 20, "total_points": 98, "visibility_pct": 20.408163265306122 }, "geometry": { "type": "Point", "coordinates": [ -0.423060211527738, 51.286235329333131 ] } },
{ "type": "Feature", "properties": { "visible_points": 17, "total_points": 103, "visibility_pct": 16.50485436893204 }, "geometry": { "type": "Point", "coordinates": [ -0.422861597600885, 51.286232654205207 ] } },
{ "type": "Feature", "properties": { "visible_points": 10, "total_points": 98, "visibility_pct": 10.204081632653061 }, "geometry": { "type": "Point", "coordinates": [ -0.422662983704504, 51.286229978740472 ] } },
{ "type": "Feature", "properties": { "visible_points": 12, "total_points": 89, "visibility_pct": 13.48314606741573 }, "geometry": { "type": "Point", "coordinates": [ -0.422464369838602, 51.286227302938968 ] } },
{ "type": "Feature", "properties": { "visible_points": 13, "total_points": 79, "visibility_pct": 16.455696202531644 }, "geometry": { "type": "Point", "coordinates": [ -0.422265756003181, 51.286224626800667 ] } },
{ "type": "Feature", "properties": { "visible_points": 0, "total_points": 68, "visibility_pct": 0.0 }, "geometry": { "type": "Point", "coordinates": [ -0.422067142198243, 51.28622195032559 ] } },
{ "type": "Feature", "properties": { "visible_points": 0, "total_points": 57, "visibility_pct": 0.0 }, "geometry": { "type": "Point", "coordinates": [ -0.421868528423795, 51.286219273513709 ] } },
{ "type": "Feature", "properties": { "visible_points": 0, "total_points": 81, "visibility_pct": 0.0 }, "geometry": { "type": "Point", "coordinates": [ -0.423553052811948, 51.286349877972455 ] } },
{ "type": "Feature", "properties": { "visible_points": 11, "total_points": 92, "visibility_pct": 11.956521739130435 }, "geometry": { "type": "Point", "coordinates": [ -0.423354438345309, 51.286347203675646 ] } },
{ "type": "Feature", "properties": { "visible_points": 14, "total_points": 103, "visibility_pct": 13.592233009708737 }, "geometry": { "type": "Point", "coordinates": [ -0.42315582390913, 51.286344529042047 ] } },
{ "type": "Feature", "properties": { "visible_points": 25, "total_points": 111, "visibility_pct": 22.522522522522522 }, "geometry": { "type": "Point", "coordinates": [ -0.42295720950342, 51.286341854071658 ] } },
{ "type": "Feature", "properties": { "visible_points": 14, "total_points": 111, "visibility_pct": 12.612612612612612 }, "geometry": { "type": "Point", "coordinates": [ -0.422758595128181, 51.286339178764479 ] } },
{ "type": "Feature", "properties": { "visible_points": 0, "total_points": 102, "visibility_pct": 0.0 }, "geometry": { "type": "Point", "coordinates": [ -0.422559980783417, 51.286336503120509 ] } },
{ "type": "Feature", "properties": { "visible_points": 19, "total_points": 91, "visibility_pct": 20.87912087912088 }, "geometry": { "type": "Point", "coordinates": [ -0.422361366469137, 51.28633382713975 ] } },
{ "type": "Feature", "properties": { "visible_points": 11, "total_points": 79, "visibility_pct": 13.924050632911392 }, "geometry": { "type": "Point", "coordinates": [ -0.422162752185335, 51.2863311508222 ] } },
{ "type": "Feature", "properties": { "visible_points": 0, "total_points": 67, "visibility_pct": 0.0 }, "geometry": { "type": "Point", "coordinates": [ -0.421964137932026, 51.28632847416786 ] } },
{ "type": "Feature", "properties": { "visible_points": 0, "total_points": 80, "visibility_pct": 0.0 }, "geometry": { "type": "Point", "coordinates": [ -0.423648666599436, 51.286459077290743 ] } },
{ "type": "Feature", "properties": { "visible_points": 3, "total_points": 92, "visibility_pct": 3.2608695652173911 }, "geometry": { "type": "Point", "coordinates": [ -0.423450051653936, 51.286456403151469 ] } },
{ "type": "Feature", "properties": { "visible_points": 13, "total_points": 104, "visibility_pct": 12.5 }, "geometry": { "type": "Point", "coordinates": [ -0.423251436738905, 51.286453728675411 ] } },
{ "type": "Feature", "properties": { "visible_points": 16, "total_points": 114, "visibility_pct": 14.035087719298245 }, "geometry": { "type": "Point", "coordinates": [ -0.423052821854331, 51.286451053862571 ] } },
{ "type": "Feature", "properties": { "visible_points": 14, "total_points": 120, "visibility_pct": 11.666666666666666 }, "geometry": { "type": "Point", "coordinates": [ -0.422854207000235, 51.286448378712926 ] } },
{ "type": "Feature", "properties": { "visible_points": 9, "total_points": 114, "visibility_pct": 7.8947368421052628 }, "geometry": { "type": "Point", "coordinates": [ -0.422655592176606, 51.286445703226505 ] } },
{ "type": "Feature", "properties": { "visible_points": 22, "total_points": 102, "visibility_pct": 21.568627450980394 }, "geometry": { "type": "Point", "coordinates": [ -0.422456977383462, 51.286443027403287 ] } },
{ "type": "Feature", "properties": { "visible_points": 21, "total_points": 90, "visibility_pct": 23.333333333333332 }, "geometry": { "type": "Point", "coordinates": [ -0.422258362620799, 51.286440351243272 ] } },
{ "type": "Feature", "properties": { "visible_points": 0, "total_points": 77, "visibility_pct": 0.0 }, "geometry": { "type": "Point", "coordinates": [ -0.422059747888615, 51.286437674746466 ] } },
{ "type": "Feature", "properties": { "visible_points": 0, "total_points": 88, "visibility_pct": 0.0 }, "geometry": { "type": "Point", "coordinates": [ -0.423545665410953, 51.286565602551747 ] } },
{ "type": "Feature", "properties": { "visible_points": 0, "total_points": 100, "visibility_pct": 0.0 }, "geometry": { "type": "Point", "coordinates": [ -0.423347050017059, 51.286562928233238 ] } },
{ "type": "Feature", "properties": { "visible_points": 8, "total_points": 110, "visibility_pct": 7.2727272727272725 }, "geometry": { "type": "Point", "coordinates": [ -0.423148434653626, 51.286560253577939 ] } },
{ "type": "Feature", "properties": { "visible_points": 11, "total_points": 118, "visibility_pct": 9.3220338983050848 }, "geometry": { "type": "Point", "coordinates": [ -0.422949819320669, 51.286557578585835 ] } },
{ "type": "Feature", "properties": { "visible_points": 26, "total_points": 118, "visibility_pct": 22.033898305084744 }, "geometry": { "type": "Point", "coordinates": [ -0.422751204018175, 51.286554903256956 ] } },
{ "type": "Feature", "properties": { "visible_points": 32, "total_points": 111, "visibility_pct": 28.828828828828829 }, "geometry": { "type": "Point", "coordinates": [ -0.422552588746166, 51.28655222759128 ] } },
{ "type": "Feature", "properties": { "visible_points": 27, "total_points": 99, "visibility_pct": 27.27272727272727 }, "geometry": { "type": "Point", "coordinates": [ -0.422353973504633, 51.286549551588799 ] } },
{ "type": "Feature", "properties": { "visible_points": 0, "total_points": 86, "visibility_pct": 0.0 }, "geometry": { "type": "Point", "coordinates": [ -0.422155358293581, 51.286546875249527 ] } },
{ "type": "Feature", "properties": { "visible_points": 0, "total_points": 83, "visibility_pct": 0.0 }, "geometry": { "type": "Point", "coordinates": [ -0.423641279616358, 51.28667480187648 ] } },
{ "type": "Feature", "properties": { "visible_points": 5, "total_points": 95, "visibility_pct": 5.2631578947368416 }, "geometry": { "type": "Point", "coordinates": [ -0.423442663743602, 51.286672127715512 ] } },
{ "type": "Feature", "properties": { "visible_points": 7, "total_points": 106, "visibility_pct": 6.6037735849056602 }, "geometry": { "type": "Point", "coordinates": [ -0.423244047901309, 51.286669453217762 ] } },
{ "type": "Feature", "properties": { "visible_points": 12, "total_points": 115, "visibility_pct": 10.434782608695652 }, "geometry": { "type": "Point", "coordinates": [ -0.423045432089481, 51.2866667783832 ] } },
{ "type": "Feature", "properties": { "visible_points": 39, "total_points": 120, "visibility_pct": 32.5 }, "geometry": { "type": "Point", "coordinates": [ -0.422846816308127, 51.286664103211848 ] } },
{ "type": "Feature", "properties": { "visible_points": 37, "total_points": 114, "visibility_pct": 32.456140350877192 }, "geometry": { "type": "Point", "coordinates": [ -0.422648200557244, 51.28666142770372 ] } },
{ "type": "Feature", "properties": { "visible_points": 31, "total_points": 105, "visibility_pct": 29.523809523809526 }, "geometry": { "type": "Point", "coordinates": [ -0.422449584836844, 51.286658751858781 ] } },
{ "type": "Feature", "properties": { "visible_points": 27, "total_points": 93, "visibility_pct": 29.032258064516132 }, "geometry": { "type": "Point", "coordinates": [ -0.422250969146921, 51.286656075677058 ] } },
{ "type": "Feature", "properties": { "visible_points": 0, "total_points": 80, "visibility_pct": 0.0 }, "geometry": { "type": "Point", "coordinates": [ -0.422052353487487, 51.286653399158538 ] } },
{ "type": "Feature", "properties": { "visible_points": 2, "total_points": 90, "visibility_pct": 2.2222222222222223 }, "geometry": { "type": "Point", "coordinates": [ -0.423538277918541, 51.286781327122235 ] } },
{ "type": "Feature", "properties": { "visible_points": 1, "total_points": 102, "visibility_pct": 0.98039215686274506 }, "geometry": { "type": "Point", "coordinates": [ -0.42333966159738, 51.286778652782019 ] } },
{ "type": "Feature", "properties": { "visible_points": 0, "total_points": 112, "visibility_pct": 0.0 }, "geometry": { "type": "Point", "coordinates": [ -0.423141045306685, 51.286775978105005 ] } },
{ "type": "Feature", "properties": { "visible_points": 30, "total_points": 118, "visibility_pct": 25.423728813559322 }, "geometry": { "type": "Point", "coordinates": [ -0.422942429046464, 51.286773303091216 ] } },
{ "type": "Feature", "properties": { "visible_points": 35, "total_points": 117, "visibility_pct": 29.914529914529915 }, "geometry": { "type": "Point", "coordinates": [ -0.422743812816709, 51.286770627740623 ] } },
{ "type": "Feature", "properties": { "visible_points": 27, "total_points": 108, "visibility_pct": 25.0 }, "geometry": { "type": "Point", "coordinates": [ -0.422545196617435, 51.286767952053211 ] } },
{ "type": "Feature", "properties": { "visible_points": 25, "total_points": 97, "visibility_pct": 25.773195876288657 }, "geometry": { "type": "Point", "coordinates": [ -0.422346580448643, 51.286765276029008 ] } },
{ "type": "Feature", "properties": { "visible_points": 25, "total_points": 85, "visibility_pct": 29.411764705882355 }, "geometry": { "type": "Point", "coordinates": [ -0.422147964310333, 51.286762599668045 ] } },
{ "type": "Feature", "properties": { "visible_points": 0, "total_points": 85, "visibility_pct": 0.0 }, "geometry": { "type": "Point", "coordinates": [ -0.423633892541868, 51.286890526453398 ] } },
{ "type": "Feature", "properties": { "visible_points": 1, "total_points": 97, "visibility_pct": 1.0309278350515463 }, "geometry": { "type": "Point", "coordinates": [ -0.423435275741842, 51.286887852270731 ] } },
{ "type": "Feature", "properties": { "visible_points": 0, "total_points": 107, "visibility_pct": 0.0 }, "geometry": { "type": "Point", "coordinates": [ -0.423236658972285, 51.28688517775128 ] } },
{ "type": "Feature", "properties": { "visible_points": 25, "total_points": 114, "visibility_pct": 21.929824561403507 }, "geometry": { "type": "Point", "coordinates": [ -0.423038042233186, 51.286882502895011 ] } },
{ "type": "Feature", "properties": { "visible_points": 25, "total_points": 116, "visibility_pct": 21.551724137931032 }, "geometry": { "type": "Point", "coordinates": [ -0.422839425524564, 51.286879827701952 ] } },
{ "type": "Feature", "properties": { "visible_points": 29, "total_points": 107, "visibility_pct": 27.102803738317753 }, "geometry": { "type": "Point", "coordinates": [ -0.422640808846411, 51.286877152172103 ] } },
{ "type": "Feature", "properties": { "visible_points": 24, "total_points": 96, "visibility_pct": 25.0 }, "geometry": { "type": "Point", "coordinates": [ -0.422442192198742, 51.286874476305464 ] } },
{ "type": "Feature", "properties": { "visible_points": 23, "total_points": 85, "visibility_pct": 27.058823529411764 }, "geometry": { "type": "Point", "coordinates": [ -0.422243575581557, 51.286871800102006 ] } },
{ "type": "Feature", "properties": { "visible_points": 0, "total_points": 74, "visibility_pct": 0.0 }, "geometry": { "type": "Point", "coordinates": [ -0.422044958994855, 51.286869123561765 ] } },
{ "type": "Feature", "properties": { "visible_points": 0, "total_points": 79, "visibility_pct": 0.0 }, "geometry": { "type": "Point", "coordinates": [ -0.423729507613603, 51.286999725709002 ] } },
{ "type": "Feature", "properties": { "visible_points": 0, "total_points": 91, "visibility_pct": 0.0 }, "geometry": { "type": "Point", "coordinates": [ -0.423530890334706, 51.286997051683876 ] } },
{ "type": "Feature", "properties": { "visible_points": 0, "total_points": 100, "visibility_pct": 0.0 }, "geometry": { "type": "Point", "coordinates": [ -0.423332273086273, 51.286994377321975 ] } },
{ "type": "Feature", "properties": { "visible_points": 19, "total_points": 108, "visibility_pct": 17.592592592592592 }, "geometry": { "type": "Point", "coordinates": [ -0.423133655868301, 51.286991702623261 ] } },
{ "type": "Feature", "properties": { "visible_points": 18, "total_points": 112, "visibility_pct": 16.071428571428573 }, "geometry": { "type": "Point", "coordinates": [ -0.422935038680807, 51.286989027587744 ] } },
{ "type": "Feature", "properties": { "visible_points": 22, "total_points": 105, "visibility_pct": 20.952380952380953 }, "geometry": { "type": "Point", "coordinates": [ -0.422736421523781, 51.286986352215436 ] } },
{ "type": "Feature", "properties": { "visible_points": 23, "total_points": 95, "visibility_pct": 24.210526315789473 }, "geometry": { "type": "Point", "coordinates": [ -0.422537804397229, 51.286983676506331 ] } },
{ "type": "Feature", "properties": { "visible_points": 24, "total_points": 84, "visibility_pct": 28.571428571428569 }, "geometry": { "type": "Point", "coordinates": [ -0.422339187301168, 51.286981000460436 ] } },
{ "type": "Feature", "properties": { "visible_points": 22, "total_points": 73, "visibility_pct": 30.136986301369863 }, "geometry": { "type": "Point", "coordinates": [ -0.422140570235583, 51.286978324077737 ] } },
{ "type": "Feature", "properties": { "visible_points": 0, "total_points": 79, "visibility_pct": 0.0 }, "geometry": { "type": "Point", "coordinates": [ -0.423626505375969, 51.287106251021498 ] } },
{ "type": "Feature", "properties": { "visible_points": 0, "total_points": 89, "visibility_pct": 0.0 }, "geometry": { "type": "Point", "coordinates": [ -0.42342788764866, 51.287103576817124 ] } },
{ "type": "Feature", "properties": { "visible_points": 16, "total_points": 98, "visibility_pct": 16.326530612244898 }, "geometry": { "type": "Point", "coordinates": [ -0.42322926995182, 51.287100902275959 ] } },
{ "type": "Feature", "properties": { "visible_points": 29, "total_points": 104, "visibility_pct": 27.884615384615387 }, "geometry": { "type": "Point", "coordinates": [ -0.423030652285442, 51.287098227398005 ] } },
{ "type": "Feature", "properties": { "visible_points": 20, "total_points": 101, "visibility_pct": 19.801980198019802 }, "geometry": { "type": "Point", "coordinates": [ -0.422832034649539, 51.287095552183231 ] } },
{ "type": "Feature", "properties": { "visible_points": 17, "total_points": 93, "visibility_pct": 18.27956989247312 }, "geometry": { "type": "Point", "coordinates": [ -0.422633417044109, 51.287092876631682 ] } },
{ "type": "Feature", "properties": { "visible_points": 19, "total_points": 83, "visibility_pct": 22.891566265060241 }, "geometry": { "type": "Point", "coordinates": [ -0.422434799469162, 51.287090200743314 ] } },
{ "type": "Feature", "properties": { "visible_points": 17, "total_points": 72, "visibility_pct": 23.611111111111111 }, "geometry": { "type": "Point", "coordinates": [ -0.422236181924697, 51.287087524518142 ] } },
{ "type": "Feature", "properties": { "visible_points": 0, "total_points": 68, "visibility_pct": 0.0 }, "geometry": { "type": "Point", "coordinates": [ -0.423722120865635, 51.287215450283547 ] } },
{ "type": "Feature", "properties": { "visible_points": 0, "total_points": 77, "visibility_pct": 0.0 }, "geometry": { "type": "Point", "coordinates": [ -0.423523502659454, 51.287212776236721 ] } },
{ "type": "Feature", "properties": { "visible_points": 10, "total_points": 85, "visibility_pct": 11.76470588235294 }, "geometry": { "type": "Point", "coordinates": [ -0.423324884483732, 51.28721010185312 ] } },
{ "type": "Feature", "properties": { "visible_points": 23, "total_points": 93, "visibility_pct": 24.731182795698924 }, "geometry": { "type": "Point", "coordinates": [ -0.423126266338482, 51.287207427132699 ] } },
{ "type": "Feature", "properties": { "visible_points": 26, "total_points": 95, "visibility_pct": 27.368421052631582 }, "geometry": { "type": "Point", "coordinates": [ -0.422927648223694, 51.287204752075475 ] } },
{ "type": "Feature", "properties": { "visible_points": 23, "total_points": 88, "visibility_pct": 26.136363636363637 }, "geometry": { "type": "Point", "coordinates": [ -0.422729030139382, 51.287202076681474 ] } },
{ "type": "Feature", "properties": { "visible_points": 16, "total_points": 80, "visibility_pct": 20.0 }, "geometry": { "type": "Point", "coordinates": [ -0.422530412085554, 51.287199400950648 ] } },
{ "type": "Feature", "properties": { "visible_points": 19, "total_points": 70, "visibility_pct": 27.142857142857142 }, "geometry": { "type": "Point", "coordinates": [ -0.422331794062196, 51.287196724883017 ] } },
{ "type": "Feature", "properties": { "visible_points": 4, "total_points": 60, "visibility_pct": 6.666666666666667 }, "geometry": { "type": "Point", "coordinates": [ -0.422133176069337, 51.287194048478604 ] } },
{ "type": "Feature", "properties": { "visible_points": 0, "total_points": 65, "visibility_pct": 0.0 }, "geometry": { "type": "Point", "coordinates": [ -0.423619118118652, 51.287321975580781 ] } },
{ "type": "Feature", "properties": { "visible_points": 2, "total_points": 73, "visibility_pct": 2.7397260273972601 }, "geometry": { "type": "Point", "coordinates": [ -0.42342049946405, 51.2873193013547 ] } },
{ "type": "Feature", "properties": { "visible_points": 12, "total_points": 80, "visibility_pct": 15.0 }, "geometry": { "type": "Point", "coordinates": [ -0.423221880839919, 51.287316626791842 ] } },
{ "type": "Feature", "properties": { "visible_points": 22, "total_points": 85, "visibility_pct": 25.882352941176475 }, "geometry": { "type": "Point", "coordinates": [ -0.423023262246249, 51.287313951892173 ] } },
{ "type": "Feature", "properties": { "visible_points": 19, "total_points": 82, "visibility_pct": 23.170731707317074 }, "geometry": { "type": "Point", "coordinates": [ -0.422824643683055, 51.287311276655693 ] } },
{ "type": "Feature", "properties": { "visible_points": 16, "total_points": 75, "visibility_pct": 21.333333333333336 }, "geometry": { "type": "Point", "coordinates": [ -0.422626025150335, 51.287308601082437 ] } },
{ "type": "Feature", "properties": { "visible_points": 14, "total_points": 67, "visibility_pct": 20.8955223880597 }, "geometry": { "type": "Point", "coordinates": [ -0.422427406648096, 51.287305925172348 ] } },
{ "type": "Feature", "properties": { "visible_points": 0, "total_points": 54, "visibility_pct": 0.0 }, "geometry": { "type": "Point", "coordinates": [ -0.423714734026263, 51.287431174849267 ] } },
{ "type": "Feature", "properties": { "visible_points": 0, "total_points": 61, "visibility_pct": 0.0 }, "geometry": { "type": "Point", "coordinates": [ -0.42351611489278, 51.287428500780756 ] } },
{ "type": "Feature", "properties": { "visible_points": 7, "total_points": 67, "visibility_pct": 10.44776119402985 }, "geometry": { "type": "Point", "coordinates": [ -0.423317495789761, 51.28742582637544 ] } },
{ "type": "Feature", "properties": { "visible_points": 8, "total_points": 73, "visibility_pct": 10.95890410958904 }, "geometry": { "type": "Point", "coordinates": [ -0.423118876717211, 51.287423151633305 ] } },
{ "type": "Feature", "properties": { "visible_points": 0, "total_points": 50, "visibility_pct": 0.0 }, "geometry": { "type": "Point", "coordinates": [ -0.423611730769917, 51.287537700131239 ] } },
{ "type": "Feature", "properties": { "visible_points": 0, "total_points": 56, "visibility_pct": 0.0 }, "geometry": { "type": "Point", "coordinates": [ -0.423413111188017, 51.287535025883457 ] } }
]
}
