{
"type": "FeatureCollection",
"name": "3099621f89f8_visibility",
"crs": { "type": "name", "properties": { "name": "urn:ogc:def:crs:OGC:1.3:CRS84" } },
"features": [
{ "type": "Feature", "properties": { "visible_points": 1, "total_points": 66, "visibility_pct": 1.5151515151515151 }, "geometry": { "type": "Point", "coordinates": [ -0.460476475885754, 51.258862103097442 ] } },
{ "type": "Feature", "properties": { "visible_points": 3, "total_points": 71, "visibility_pct": 4.225352112676056 }, "geometry": { "type": "Point", "coordinates": [ -0.460277976568009, 51.258859492445133 ] } },
{ "type": "Feature", "properties": { "visible_points": 3, "total_points": 71, "visibility_pct": 4.225352112676056 }, "geometry": { "type": "Point", "coordinates": [ -0.46007947728002, 51.258856881456289 ] } },
{ "type": "Feature", "properties": { "visible_points": 4, "total_points": 67, "visibility_pct": 5.9701492537313428 }, "geometry": { "type": "Point", "coordinates": [ -0.459880978021783, 51.258854270130868 ] } },
{ "type": "Feature", "properties": { "visible_points": 5, "total_points": 62, "visibility_pct": 8.064516129032258 }, "geometry": { "type": "Point", "coordinates": [ -0.459682478793316, 51.258851658468906 ] } },
{ "type": "Feature", "properties": { "visible_points": 8, "total_points": 55, "visibility_pct": 14.545454545454545 }, "geometry": { "type": "Point", "coordinates": [ -0.459483979594604, 51.258849046470424 ] } },
{ "type": "Feature", "properties": { "visible_points": 0, "total_points": 79, "visibility_pct": 0.0 }, "geometry": { "type": "Point", "coordinates": [ -0.460373622456835, 51.258968662491206 ] } },
{ "type": "Feature", "properties": { "visible_points": 4, "total_points": 82, "visibility_pct": 4.8780487804878048 }, "geometry": { "type": "Point", "coordinates": [ -0.460175122687451, 51.258966051662512 ] } },
{ "type": "Feature", "properties": { "visible_points": 3, "total_points": 78, "visibility_pct": 3.8461538461538463 }, "geometry": { "type": "Point", "coordinates": [ -0.459976622947979, 51.25896344049734 ] } },
{ "type": "Feature", "properties": { "visible_points": 0, "total_points": 72, "visibility_pct": 0.0 }, "geometry": { "type": "Point", "coordinates": [ -0.459778123238434, 51.258960828995676 ] } },
{ "type": "Feature", "properties": { "visible_points": 2, "total_points": 65, "visibility_pct": 3.0769230769230771 }, "geometry": { "type": "Point", "coordinates": [ -0.459579623558813, 51.258958217157556 ] } },
{ "type": "Feature", "properties": { "visible_points": 9, "total_points": 55, "visibility_pct": 16.363636363636363 }, "geometry": { "type": "Point", "coordinates": [ -0.459381123909117, 51.258955604982916 ] } },
{ "type": "Feature", "properties": { "visible_points": 0, "total_points": 83, "visibility_pct": 0.0 }, "geometry": { "type": "Point", "coordinates": [ -0.460469268810186, 51.259077832421724 ] } },
{ "type": "Feature", "properties": { "visible_points": 4, "total_points": 91, "visibility_pct": 4.395604395604396 }, "geometry": { "type": "Point", "coordinates": [ -0.460270768558646, 51.259075221750663 ] } },
{ "type": "Feature", "properties": { "visible_points": 4, "total_points": 87, "visibility_pct": 4.5977011494252871 }, "geometry": { "type": "Point", "coordinates": [ -0.46007226833702, 51.259072610743118 ] } },
{ "type": "Feature", "properties": { "visible_points": 0, "total_points": 80, "visibility_pct": 0.0 }, "geometry": { "type": "Point", "coordinates": [ -0.459873768145311, 51.259069999399088 ] } },
{ "type": "Feature", "properties": { "visible_points": 0, "total_points": 73, "visibility_pct": 0.0 }, "geometry": { "type": "Point", "coordinates": [ -0.459675267983527, 51.259067387718588 ] } },
{ "type": "Feature", "properties": { "visible_points": 7, "total_points": 62, "visibility_pct": 11.29032258064516 }, "geometry": { "type": "Point", "coordinates": [ -0.459476767851667, 51.25906477570161 ] } },
{ "type": "Feature", "properties": { "visible_points": 3, "total_points": 57, "visibility_pct": 5.2631578947368416 }, "geometry": { "type": "Point", "coordinates": [ -0.460961917172906, 51.259192222293926 ] } },
{ "type": "Feature", "properties": { "visible_points": 2, "total_points": 68, "visibility_pct": 2.9411764705882351 }, "geometry": { "type": "Point", "coordinates": [ -0.460763416379387, 51.259189612453468 ] } },
{ "type": "Feature", "properties": { "visible_points": 0, "total_points": 88, "visibility_pct": 0.0 }, "geometry": { "type": "Point", "coordinates": [ -0.460366414882077, 51.259184391763092 ] } },
{ "type": "Feature", "properties": { "visible_points": 4, "total_points": 91, "visibility_pct": 4.395604395604396 }, "geometry": { "type": "Point", "coordinates": [ -0.46016791417829, 51.259181780913188 ] } },
{ "type": "Feature", "properties": { "visible_points": 4, "total_points": 87, "visibility_pct": 4.5977011494252871 }, "geometry": { "type": "Point", "coordinates": [ -0.459969413504418, 51.259179169726799 ] } },
{ "type": "Feature", "properties": { "visible_points": 1, "total_points": 80, "visibility_pct": 1.25 }, "geometry": { "type": "Point", "coordinates": [ -0.459770912860472, 51.259176558203926 ] } },
{ "type": "Feature", "properties": { "visible_points": 4, "total_points": 69, "visibility_pct": 5.7971014492753623 }, "geometry": { "type": "Point", "coordinates": [ -0.459572412246448, 51.259173946344561 ] } },
{ "type": "Feature", "properties": { "visible_points": 0, "total_points": 50, "visibility_pct": 0.0 }, "geometry": { "type": "Point", "coordinates": [ -0.461057565395054, 51.259301391757745 ] } },
{ "type": "Feature", "properties": { "visible_points": 4, "total_points": 61, "visibility_pct": 6.557377049180328 }, "geometry": { "type": "Point", "coordinates": [ -0.460859064119378, 51.259298782074914 ] } },
{ "type": "Feature", "properties": { "visible_points": 0, "total_points": 71, "visibility_pct": 0.0 }, "geometry": { "type": "Point", "coordinates": [ -0.460660562873611, 51.259296172055599 ] } },
{ "type": "Feature", "properties": { "visible_points": 0, "total_points": 81, "visibility_pct": 0.0 }, "geometry": { "type": "Point", "coordinates": [ -0.46046206165775, 51.25929356169982 ] } },
{ "type": "Feature", "properties": { "visible_points": 6, "total_points": 88, "visibility_pct": 6.8181818181818175 }, "geometry": { "type": "Point", "coordinates": [ -0.460263560471797, 51.25929095100755 ] } },
{ "type": "Feature", "properties": { "visible_points": 5, "total_points": 90, "visibility_pct": 5.5555555555555554 }, "geometry": { "type": "Point", "coordinates": [ -0.460065059315764, 51.259288339978795 ] } },
{ "type": "Feature", "properties": { "visible_points": 3, "total_points": 84, "visibility_pct": 3.5714285714285712 }, "geometry": { "type": "Point", "coordinates": [ -0.459866558189644, 51.259285728613548 ] } },
{ "type": "Feature", "properties": { "visible_points": 3, "total_points": 73, "visibility_pct": 4.10958904109589 }, "geometry": { "type": "Point", "coordinates": [ -0.459668057093457, 51.259283116911838 ] } },
{ "type": "Feature", "properties": { "visible_points": 4, "total_points": 53, "visibility_pct": 7.5471698113207548 }, "geometry": { "type": "Point", "coordinates": [ -0.460954712311621, 51.259407951620638 ] } },
{ "type": "Feature", "properties": { "visible_points": 0, "total_points": 62, "visibility_pct": 0.0 }, "geometry": { "type": "Point", "coordinates": [ -0.460756210583687, 51.259405341758985 ] } },
{ "type": "Feature", "properties": { "visible_points": 0, "total_points": 71, "visibility_pct": 0.0 }, "geometry": { "type": "Point", "coordinates": [ -0.460557708885662, 51.25940273156084 ] } },
{ "type": "Feature", "properties": { "visible_points": 6, "total_points": 78, "visibility_pct": 7.6923076923076925 }, "geometry": { "type": "Point", "coordinates": [ -0.460359207217545, 51.259400121026204 ] } },
{ "type": "Feature", "properties": { "visible_points": 1, "total_points": 83, "visibility_pct": 1.2048192771084338 }, "geometry": { "type": "Point", "coordinates": [ -0.460160705579345, 51.259397510155075 ] } },
{ "type": "Feature", "properties": { "visible_points": 4, "total_points": 80, "visibility_pct": 5.0 }, "geometry": { "type": "Point", "coordinates": [ -0.459962203971061, 51.259394898947484 ] } },
{ "type": "Feature", "properties": { "visible_points": 0, "total_points": 72, "visibility_pct": 0.0 }, "geometry": { "type": "Point", "coordinates": [ -0.459763702392697, 51.259392287403379 ] } },
{ "type": "Feature", "properties": { "visible_points": 9, "total_points": 63, "visibility_pct": 14.285714285714285 }, "geometry": { "type": "Point", "coordinates": [ -0.459565200844261, 51.259389675522812 ] } },
{ "type": "Feature", "properties": { "visible_points": 10, "total_points": 68, "visibility_pct": 14.705882352941178 }, "geometry": { "type": "Point", "coordinates": [ -0.460454854415537, 51.259509290969149 ] } },
{ "type": "Feature", "properties": { "visible_points": 9, "total_points": 73, "visibility_pct": 12.328767123287671 }, "geometry": { "type": "Point", "coordinates": [ -0.460256352295169, 51.259506680255662 ] } },
{ "type": "Feature", "properties": { "visible_points": 8, "total_points": 72, "visibility_pct": 11.111111111111111 }, "geometry": { "type": "Point", "coordinates": [ -0.460057850204711, 51.25950406920569 ] } },
{ "type": "Feature", "properties": { "visible_points": 8, "total_points": 60, "visibility_pct": 13.333333333333334 }, "geometry": { "type": "Point", "coordinates": [ -0.459660846113567, 51.259498846096292 ] } },
{ "type": "Feature", "properties": { "visible_points": 10, "total_points": 63, "visibility_pct": 15.873015873015872 }, "geometry": { "type": "Point", "coordinates": [ -0.460351999463238, 51.259615850280518 ] } }
]
}
