{
"type": "FeatureCollection",
"name": "548e850e1ce1_foliage",
"crs": { "type": "name", "properties": { "name": "urn:ogc:def:crs:OGC:1.3:CRS84" } },
"features": [
{ "type": "Feature", "properties": { "max_height": 16.640750885009766, "mean_height": 6.6230025291442871, "std_height": 4.3094463348388672, "count_pixels": 44, "percent_cover": 1.071080817916261, "percent_above_0.1m": 93.181818181818173, "low_level_<0.5": 2.2727272727272729, "mid_level_0.5-2": 4.5454545454545459, "tall_2+": 86.36363636363636 }, "geometry": { "type": "Point", "coordinates": [ -0.511291657737614, 51.222149925156792 ] } },
{ "type": "Feature", "properties": { "max_height": 17.438507080078125, "mean_height": 4.43829345703125, "std_height": 4.9080615043640137, "count_pixels": 43, "percent_cover": 1.0467380720545278, "percent_above_0.1m": 60.465116279069761, "low_level_<0.5": 2.3255813953488373, "mid_level_0.5-2": 4.6511627906976747, "tall_2+": 53.488372093023251 }, "geometry": { "type": "Point", "coordinates": [ -0.51109330727559, 51.222147402080218 ] } },
{ "type": "Feature", "properties": { "max_height": 16.328506469726562, "mean_height": 1.8329606056213379, "std_height": 3.5156600475311279, "count_pixels": 42, "percent_cover": 1.0223953261927945, "percent_above_0.1m": 45.238095238095241, "low_level_<0.5": 2.3809523809523809, "mid_level_0.5-2": 14.285714285714285, "tall_2+": 26.190476190476193 }, "geometry": { "type": "Point", "coordinates": [ -0.510894956842327, 51.2221448786674 ] } },
{ "type": "Feature", "properties": { "max_height": 16.753257751464844, "mean_height": 4.0359306335449219, "std_height": 5.7055864334106445, "count_pixels": 42, "percent_cover": 1.0223953261927945, "percent_above_0.1m": 57.142857142857139, "low_level_<0.5": 7.1428571428571423, "mid_level_0.5-2": 14.285714285714285, "tall_2+": 35.714285714285715 }, "geometry": { "type": "Point", "coordinates": [ -0.510696606437828, 51.222142354918319 ] } },
{ "type": "Feature", "properties": { "max_height": 19.061504364013672, "mean_height": 4.430112361907959, "std_height": 5.8796300888061523, "count_pixels": 41, "percent_cover": 0.99805258033106126, "percent_above_0.1m": 60.975609756097562, "low_level_<0.5": 4.8780487804878048, "mid_level_0.5-2": 12.195121951219512, "tall_2+": 43.902439024390247 }, "geometry": { "type": "Point", "coordinates": [ -0.510498256062096, 51.222139830832994 ] } },
{ "type": "Feature", "properties": { "max_height": 16.170749664306641, "mean_height": 10.164164543151855, "std_height": 3.9477519989013672, "count_pixels": 40, "percent_cover": 0.97370983446932824, "percent_above_0.1m": 100.0, "low_level_<0.5": 0.0, "mid_level_0.5-2": 5.0, "tall_2+": 95.0 }, "geometry": { "type": "Point", "coordinates": [ -0.511585703982009, 51.222261577454326 ] } },
{ "type": "Feature", "properties": { "max_height": 7.4917526245117188, "mean_height": 2.7014336585998535, "std_height": 2.4288523197174072, "count_pixels": 40, "percent_cover": 0.97370983446932824, "percent_above_0.1m": 72.5, "low_level_<0.5": 2.5, "mid_level_0.5-2": 10.0, "tall_2+": 55.000000000000007 }, "geometry": { "type": "Point", "coordinates": [ -0.511387353012991, 51.222259054875913 ] } },
{ "type": "Feature", "properties": { "max_height": 3.2897529602050781, "mean_height": 0.082020953297615051, "std_height": 0.51364904642105103, "count_pixels": 40, "percent_cover": 0.97370983446932824, "percent_above_0.1m": 2.5, "low_level_<0.5": 0.0, "mid_level_0.5-2": 0.0, "tall_2+": 2.5 }, "geometry": { "type": "Point", "coordinates": [ -0.511189002072721, 51.222256531961278 ] } },
{ "type": "Feature", "properties": { "max_height": 1.8822517395019531, "mean_height": 0.13096627593040466, "std_height": 0.37637081742286682, "count_pixels": 41, "percent_cover": 0.99805258033106126, "percent_above_0.1m": 14.634146341463413, "low_level_<0.5": 4.8780487804878048, "mid_level_0.5-2": 9.7560975609756095, "tall_2+": 0.0 }, "geometry": { "type": "Point", "coordinates": [ -0.510990651161214, 51.222254008710372 ] } },
{ "type": "Feature", "properties": { "max_height": 6.4380035400390625, "mean_height": 2.3968777656555176, "std_height": 1.9141072034835815, "count_pixels": 42, "percent_cover": 1.0223953261927945, "percent_above_0.1m": 85.714285714285708, "low_level_<0.5": 7.1428571428571423, "mid_level_0.5-2": 28.571428571428569, "tall_2+": 50.0 }, "geometry": { "type": "Point", "coordinates": [ -0.51079230027847, 51.222251485123223 ] } },
{ "type": "Feature", "properties": { "max_height": 6.1992530822753906, "mean_height": 1.1287047863006592, "std_height": 1.6913273334503174, "count_pixels": 42, "percent_cover": 1.0223953261927945, "percent_above_0.1m": 50.0, "low_level_<0.5": 7.1428571428571423, "mid_level_0.5-2": 19.047619047619047, "tall_2+": 23.809523809523807 }, "geometry": { "type": "Point", "coordinates": [ -0.510593949424488, 51.222248961199796 ] } },
{ "type": "Feature", "properties": { "max_height": 20.801254272460938, "mean_height": 10.790950775146484, "std_height": 7.3381438255310059, "count_pixels": 43, "percent_cover": 1.0467380720545278, "percent_above_0.1m": 83.720930232558146, "low_level_<0.5": 0.0, "mid_level_0.5-2": 9.3023255813953494, "tall_2+": 74.418604651162795 }, "geometry": { "type": "Point", "coordinates": [ -0.510395598599275, 51.222246436940125 ] } },
{ "type": "Feature", "properties": { "max_height": 7.7562522888183594, "mean_height": 3.123133659362793, "std_height": 2.221919059753418, "count_pixels": 42, "percent_cover": 1.0223953261927945, "percent_above_0.1m": 83.333333333333343, "low_level_<0.5": 9.5238095238095237, "mid_level_0.5-2": 2.3809523809523809, "tall_2+": 69.047619047619051 }, "geometry": { "type": "Point", "coordinates": [ -0.511879751661121, 51.222373229011822 ] } },
{ "type": "Feature", "properties": { "max_height": 16.206752777099609, "mean_height": 8.31915283203125, "std_height": 5.3484463691711426, "count_pixels": 43, "percent_cover": 1.0467380720545278, "percent_above_0.1m": 88.372093023255815, "low_level_<0.5": 2.3255813953488373, "mid_level_0.5-2": 6.9767441860465116, "tall_2+": 79.069767441860463 }, "geometry": { "type": "Point", "coordinates": [ -0.511681400185105, 51.222370706931613 ] } },
{ "type": "Feature", "properties": { "max_height": 3.2782516479492188, "mean_height": 0.3819023072719574, "std_height": 0.71182680130004883, "count_pixels": 40, "percent_cover": 0.97370983446932824, "percent_above_0.1m": 30.0, "low_level_<0.5": 2.5, "mid_level_0.5-2": 25.0, "tall_2+": 2.5 }, "geometry": { "type": "Point", "coordinates": [ -0.51148304873784, 51.222368184515148 ] } },
{ "type": "Feature", "properties": { "max_height": 2.8965034484863281, "mean_height": 0.2451959103345871, "std_height": 0.61247432231903076, "count_pixels": 44, "percent_cover": 1.071080817916261, "percent_above_0.1m": 22.727272727272727, "low_level_<0.5": 0.0, "mid_level_0.5-2": 11.363636363636363, "tall_2+": 4.5454545454545459 }, "geometry": { "type": "Point", "coordinates": [ -0.511284697319334, 51.222365661762431 ] } },
{ "type": "Feature", "properties": { "max_height": 3.2110023498535156, "mean_height": 0.089869119226932526, "std_height": 0.48507523536682129, "count_pixels": 43, "percent_cover": 1.0467380720545278, "percent_above_0.1m": 6.9767441860465116, "low_level_<0.5": 4.6511627906976747, "mid_level_0.5-2": 0.0, "tall_2+": 2.3255813953488373 }, "geometry": { "type": "Point", "coordinates": [ -0.511086345929576, 51.222363138673444 ] } },
{ "type": "Feature", "properties": { "max_height": 6.3419990539550781, "mean_height": 1.9934546947479248, "std_height": 2.1811807155609131, "count_pixels": 42, "percent_cover": 1.0223953261927945, "percent_above_0.1m": 71.428571428571431, "low_level_<0.5": 7.1428571428571423, "mid_level_0.5-2": 16.666666666666664, "tall_2+": 42.857142857142854 }, "geometry": { "type": "Point", "coordinates": [ -0.510887994568582, 51.222360615248192 ] } },
{ "type": "Feature", "properties": { "max_height": 14.474605560302734, "mean_height": 5.5992074012756348, "std_height": 4.2650327682495117, "count_pixels": 42, "percent_cover": 1.0223953261927945, "percent_above_0.1m": 88.095238095238088, "low_level_<0.5": 2.3809523809523809, "mid_level_0.5-2": 7.1428571428571423, "tall_2+": 76.19047619047619 }, "geometry": { "type": "Point", "coordinates": [ -0.510689643236352, 51.22235809148669 ] } },
{ "type": "Feature", "properties": { "max_height": 20.873001098632812, "mean_height": 10.760704040527344, "std_height": 6.8489866256713867, "count_pixels": 41, "percent_cover": 0.99805258033106126, "percent_above_0.1m": 92.682926829268297, "low_level_<0.5": 4.8780487804878048, "mid_level_0.5-2": 4.8780487804878048, "tall_2+": 82.926829268292678 }, "geometry": { "type": "Point", "coordinates": [ -0.510491291932888, 51.222355567388981 ] } },
{ "type": "Feature", "properties": { "max_height": 23.425506591796875, "mean_height": 16.994722366333008, "std_height": 4.4549355506896973, "count_pixels": 41, "percent_cover": 0.99805258033106126, "percent_above_0.1m": 100.0, "low_level_<0.5": 0.0, "mid_level_0.5-2": 0.0, "tall_2+": 100.0 }, "geometry": { "type": "Point", "coordinates": [ -0.510292940658195, 51.22235304295495 ] } },
{ "type": "Feature", "properties": { "max_height": 15.682502746582031, "mean_height": 4.7128181457519531, "std_height": 3.4176139831542969, "count_pixels": 42, "percent_cover": 1.0223953261927945, "percent_above_0.1m": 95.238095238095227, "low_level_<0.5": 7.1428571428571423, "mid_level_0.5-2": 11.904761904761903, "tall_2+": 73.80952380952381 }, "geometry": { "type": "Point", "coordinates": [ -0.511975448791945, 51.222482358247284 ] } },
{ "type": "Feature", "properties": { "max_height": 12.809253692626953, "mean_height": 3.1148991584777832, "std_height": 4.2074999809265137, "count_pixels": 41, "percent_cover": 0.99805258033106126, "percent_above_0.1m": 70.731707317073173, "low_level_<0.5": 9.7560975609756095, "mid_level_0.5-2": 21.951219512195124, "tall_2+": 39.024390243902438 }, "geometry": { "type": "Point", "coordinates": [ -0.511777096837693, 51.222479836329015 ] } },
{ "type": "Feature", "properties": { "max_height": 14.731254577636719, "mean_height": 7.078153133392334, "std_height": 4.5889391899108887, "count_pixels": 40, "percent_cover": 0.97370983446932824, "percent_above_0.1m": 90.0, "low_level_<0.5": 0.0, "mid_level_0.5-2": 2.5, "tall_2+": 85.0 }, "geometry": { "type": "Point", "coordinates": [ -0.511578744912181, 51.222477314074482 ] } },
{ "type": "Feature", "properties": { "max_height": 10.797252655029297, "mean_height": 1.6219279766082764, "std_height": 2.7918205261230469, "count_pixels": 40, "percent_cover": 0.97370983446932824, "percent_above_0.1m": 37.5, "low_level_<0.5": 2.5, "mid_level_0.5-2": 5.0, "tall_2+": 27.5 }, "geometry": { "type": "Point", "coordinates": [ -0.511380393015423, 51.22247479148367 ] } },
{ "type": "Feature", "properties": { "max_height": 1.7970008850097656, "mean_height": 0.33828267455101013, "std_height": 0.46104767918586731, "count_pixels": 40, "percent_cover": 0.97370983446932824, "percent_above_0.1m": 50.0, "low_level_<0.5": 27.5, "mid_level_0.5-2": 22.5, "tall_2+": 0.0 }, "geometry": { "type": "Point", "coordinates": [ -0.511182041147419, 51.222472268556608 ] } },
{ "type": "Feature", "properties": { "max_height": 10.348499298095703, "mean_height": 2.7022333145141602, "std_height": 3.0289912223815918, "count_pixels": 41, "percent_cover": 0.99805258033106126, "percent_above_0.1m": 75.609756097560975, "low_level_<0.5": 12.195121951219512, "mid_level_0.5-2": 21.951219512195124, "tall_2+": 41.463414634146339 }, "geometry": { "type": "Point", "coordinates": [ -0.510983689308175, 51.222469745293296 ] } },
{ "type": "Feature", "properties": { "max_height": 19.873752593994141, "mean_height": 10.31334114074707, "std_height": 4.8932681083679199, "count_pixels": 42, "percent_cover": 1.0223953261927945, "percent_above_0.1m": 100.0, "low_level_<0.5": 0.0, "mid_level_0.5-2": 0.0, "tall_2+": 100.0 }, "geometry": { "type": "Point", "coordinates": [ -0.51078533749769, 51.222467221693726 ] } },
{ "type": "Feature", "properties": { "max_height": 19.749000549316406, "mean_height": 14.636820793151855, "std_height": 3.1604583263397217, "count_pixels": 42, "percent_cover": 1.0223953261927945, "percent_above_0.1m": 100.0, "low_level_<0.5": 0.0, "mid_level_0.5-2": 0.0, "tall_2+": 100.0 }, "geometry": { "type": "Point", "coordinates": [ -0.510586985715975, 51.222464697757893 ] } },
{ "type": "Feature", "properties": { "max_height": 27.2030029296875, "mean_height": 16.722127914428711, "std_height": 6.4328446388244629, "count_pixels": 42, "percent_cover": 1.0223953261927945, "percent_above_0.1m": 100.0, "low_level_<0.5": 0.0, "mid_level_0.5-2": 4.7619047619047619, "tall_2+": 95.238095238095227 }, "geometry": { "type": "Point", "coordinates": [ -0.511872793939763, 51.222588965646501 ] } },
{ "type": "Feature", "properties": { "max_height": 27.113750457763672, "mean_height": 19.590940475463867, "std_height": 6.0406198501586914, "count_pixels": 43, "percent_cover": 1.0467380720545278, "percent_above_0.1m": 100.0, "low_level_<0.5": 0.0, "mid_level_0.5-2": 0.0, "tall_2+": 100.0 }, "geometry": { "type": "Point", "coordinates": [ -0.511674441536007, 51.222586443553887 ] } },
{ "type": "Feature", "properties": { "max_height": 24.547752380371094, "mean_height": 20.110622406005859, "std_height": 4.8009467124938965, "count_pixels": 40, "percent_cover": 0.97370983446932824, "percent_above_0.1m": 100.0, "low_level_<0.5": 0.0, "mid_level_0.5-2": 0.0, "tall_2+": 100.0 }, "geometry": { "type": "Point", "coordinates": [ -0.511476089161, 51.222583921125015 ] } },
{ "type": "Feature", "properties": { "max_height": 23.368503570556641, "mean_height": 7.9313335418701172, "std_height": 8.1666707992553711, "count_pixels": 44, "percent_cover": 1.071080817916261, "percent_above_0.1m": 88.63636363636364, "low_level_<0.5": 4.5454545454545459, "mid_level_0.5-2": 22.727272727272727, "tall_2+": 61.363636363636367 }, "geometry": { "type": "Point", "coordinates": [ -0.511277736814747, 51.222581398359885 ] } },
{ "type": "Feature", "properties": { "max_height": 26.101509094238281, "mean_height": 13.509655952453613, "std_height": 7.8177480697631836, "count_pixels": 43, "percent_cover": 1.0467380720545278, "percent_above_0.1m": 90.697674418604649, "low_level_<0.5": 0.0, "mid_level_0.5-2": 2.3255813953488373, "tall_2+": 88.372093023255815 }, "geometry": { "type": "Point", "coordinates": [ -0.511079384497248, 51.222578875258492 ] } },
{ "type": "Feature", "properties": { "max_height": 24.593002319335938, "mean_height": 13.492392539978027, "std_height": 5.3903870582580566, "count_pixels": 42, "percent_cover": 1.0223953261927945, "percent_above_0.1m": 100.0, "low_level_<0.5": 0.0, "mid_level_0.5-2": 0.0, "tall_2+": 100.0 }, "geometry": { "type": "Point", "coordinates": [ -0.510881032208511, 51.222576351820855 ] } },
{ "type": "Feature", "properties": { "max_height": 25.612251281738281, "mean_height": 16.054767608642578, "std_height": 4.1087474822998047, "count_pixels": 40, "percent_cover": 0.97370983446932824, "percent_above_0.1m": 100.0, "low_level_<0.5": 0.0, "mid_level_0.5-2": 0.0, "tall_2+": 100.0 }, "geometry": { "type": "Point", "coordinates": [ -0.511175080135807, 51.222688005143787 ] } }
]
}
