{
"type": "FeatureCollection",
"name": "69c995defe34_foliage",
"crs": { "type": "name", "properties": { "name": "urn:ogc:def:crs:OGC:1.3:CRS84" } },
"features": [
{ "type": "Feature", "properties": { "max_height": 21.433761596679688, "mean_height": 16.360776901245117, "std_height": 5.1642351150512695, "count_pixels": 43, "percent_cover": 0.74497574497574492, "percent_above_0.1m": 100.0, "low_level_<0.5": 2.3255813953488373, "mid_level_0.5-2": 0.0, "tall_2+": 97.674418604651152 }, "geometry": { "type": "Point", "coordinates": [ -0.417351993679209, 51.196998021559665 ] } },
{ "type": "Feature", "properties": { "max_height": 20.77349853515625, "mean_height": 8.5333900451660156, "std_height": 6.8642182350158691, "count_pixels": 43, "percent_cover": 0.74497574497574492, "percent_above_0.1m": 93.023255813953483, "low_level_<0.5": 0.0, "mid_level_0.5-2": 13.953488372093023, "tall_2+": 79.069767441860463 }, "geometry": { "type": "Point", "coordinates": [ -0.417153762979727, 51.196995340558473 ] } },
{ "type": "Feature", "properties": { "max_height": 3.6909942626953125, "mean_height": 0.6768607497215271, "std_height": 0.94389098882675171, "count_pixels": 43, "percent_cover": 0.74497574497574492, "percent_above_0.1m": 58.139534883720934, "low_level_<0.5": 18.604651162790699, "mid_level_0.5-2": 27.906976744186046, "tall_2+": 9.3023255813953494 }, "geometry": { "type": "Point", "coordinates": [ -0.416955532309552, 51.196992659221372 ] } },
{ "type": "Feature", "properties": { "max_height": 10.981002807617188, "mean_height": 3.4642989635467529, "std_height": 3.5817430019378662, "count_pixels": 40, "percent_cover": 0.693000693000693, "percent_above_0.1m": 87.5, "low_level_<0.5": 10.0, "mid_level_0.5-2": 32.5, "tall_2+": 45.0 }, "geometry": { "type": "Point", "coordinates": [ -0.417447415525774, 51.19710722636016 ] } },
{ "type": "Feature", "properties": { "max_height": 3.9235000610351562, "mean_height": 1.5855128765106201, "std_height": 1.2629225254058838, "count_pixels": 41, "percent_cover": 0.71032571032571035, "percent_above_0.1m": 87.804878048780495, "low_level_<0.5": 17.073170731707318, "mid_level_0.5-2": 31.707317073170731, "tall_2+": 36.585365853658537 }, "geometry": { "type": "Point", "coordinates": [ -0.41724918437286, 51.19710454552061 ] } },
{ "type": "Feature", "properties": { "max_height": 3.2517623901367188, "mean_height": 0.98164719343185425, "std_height": 1.1084635257720947, "count_pixels": 41, "percent_cover": 0.71032571032571035, "percent_above_0.1m": 65.853658536585371, "low_level_<0.5": 17.073170731707318, "mid_level_0.5-2": 26.829268292682929, "tall_2+": 19.512195121951219 }, "geometry": { "type": "Point", "coordinates": [ -0.417050953249256, 51.197101864345115 ] } },
{ "type": "Feature", "properties": { "max_height": 1.4197540283203125, "mean_height": 0.080700196325778961, "std_height": 0.23667906224727631, "count_pixels": 41, "percent_cover": 0.71032571032571035, "percent_above_0.1m": 19.512195121951219, "low_level_<0.5": 9.7560975609756095, "mid_level_0.5-2": 4.8780487804878048, "tall_2+": 0.0 }, "geometry": { "type": "Point", "coordinates": [ -0.416852722154965, 51.197099182833668 ] } },
{ "type": "Feature", "properties": { "max_height": 2.81451416015625, "mean_height": 0.27022090554237366, "std_height": 0.61047691106796265, "count_pixels": 43, "percent_cover": 0.74497574497574492, "percent_above_0.1m": 30.232558139534881, "low_level_<0.5": 11.627906976744185, "mid_level_0.5-2": 9.3023255813953494, "tall_2+": 4.6511627906976747 }, "geometry": { "type": "Point", "coordinates": [ -0.417741069432088, 51.197219111422932 ] } },
{ "type": "Feature", "properties": { "max_height": 7.1397552490234375, "mean_height": 1.4475771188735962, "std_height": 1.7053158283233643, "count_pixels": 39, "percent_cover": 0.67567567567567566, "percent_above_0.1m": 69.230769230769226, "low_level_<0.5": 10.256410256410255, "mid_level_0.5-2": 25.641025641025639, "tall_2+": 28.205128205128204 }, "geometry": { "type": "Point", "coordinates": [ -0.417542837796443, 51.197216431080982 ] } },
{ "type": "Feature", "properties": { "max_height": 7.5707626342773438, "mean_height": 2.9216458797454834, "std_height": 2.4591064453125, "count_pixels": 43, "percent_cover": 0.74497574497574492, "percent_above_0.1m": 86.04651162790698, "low_level_<0.5": 9.3023255813953494, "mid_level_0.5-2": 18.604651162790699, "tall_2+": 55.813953488372093 }, "geometry": { "type": "Point", "coordinates": [ -0.417344606190101, 51.197213750403051 ] } },
{ "type": "Feature", "properties": { "max_height": 3.4237518310546875, "mean_height": 0.2779998779296875, "std_height": 0.73996758460998535, "count_pixels": 43, "percent_cover": 0.74497574497574492, "percent_above_0.1m": 23.255813953488371, "low_level_<0.5": 6.9767441860465116, "mid_level_0.5-2": 6.9767441860465116, "tall_2+": 6.9767441860465116 }, "geometry": { "type": "Point", "coordinates": [ -0.417146374613068, 51.197211069389198 ] } },
{ "type": "Feature", "properties": { "max_height": 7.0497512817382812, "mean_height": 2.2913258075714111, "std_height": 2.0212001800537109, "count_pixels": 43, "percent_cover": 0.74497574497574492, "percent_above_0.1m": 72.093023255813947, "low_level_<0.5": 6.9767441860465116, "mid_level_0.5-2": 13.953488372093023, "tall_2+": 51.162790697674424 }, "geometry": { "type": "Point", "coordinates": [ -0.416948143065339, 51.197208388039378 ] } },
{ "type": "Feature", "properties": { "max_height": 4.3262557983398438, "mean_height": 1.6440120935440063, "std_height": 1.4771194458007812, "count_pixels": 41, "percent_cover": 0.71032571032571035, "percent_above_0.1m": 78.048780487804876, "low_level_<0.5": 7.3170731707317067, "mid_level_0.5-2": 24.390243902439025, "tall_2+": 43.902439024390247 }, "geometry": { "type": "Point", "coordinates": [ -0.41674991154693, 51.197205706353607 ] } },
{ "type": "Feature", "properties": { "max_height": 0.3977508544921875, "mean_height": 0.051579173654317856, "std_height": 0.093615472316741943, "count_pixels": 41, "percent_cover": 0.71032571032571035, "percent_above_0.1m": 19.512195121951219, "low_level_<0.5": 14.634146341463413, "mid_level_0.5-2": 0.0, "tall_2+": 0.0 }, "geometry": { "type": "Point", "coordinates": [ -0.4178364925803, 51.197328315902439 ] } },
{ "type": "Feature", "properties": { "max_height": 6.8404998779296875, "mean_height": 2.4288098812103271, "std_height": 2.0317080020904541, "count_pixels": 41, "percent_cover": 0.71032571032571035, "percent_above_0.1m": 85.365853658536579, "low_level_<0.5": 9.7560975609756095, "mid_level_0.5-2": 24.390243902439025, "tall_2+": 51.219512195121951 }, "geometry": { "type": "Point", "coordinates": [ -0.417638260491228, 51.197325635722102 ] } },
{ "type": "Feature", "properties": { "max_height": 8.0785064697265625, "mean_height": 5.153656005859375, "std_height": 2.5165777206420898, "count_pixels": 40, "percent_cover": 0.693000693000693, "percent_above_0.1m": 100.0, "low_level_<0.5": 2.5, "mid_level_0.5-2": 12.5, "tall_2+": 82.5 }, "geometry": { "type": "Point", "coordinates": [ -0.417440028431454, 51.19732295520582 ] } },
{ "type": "Feature", "properties": { "max_height": 1.0940017700195312, "mean_height": 0.13043342530727386, "std_height": 0.2305876612663269, "count_pixels": 41, "percent_cover": 0.71032571032571035, "percent_above_0.1m": 31.707317073170731, "low_level_<0.5": 17.073170731707318, "mid_level_0.5-2": 9.7560975609756095, "tall_2+": 0.0 }, "geometry": { "type": "Point", "coordinates": [ -0.417241796400985, 51.197320274353586 ] } },
{ "type": "Feature", "properties": { "max_height": 5.1357574462890625, "mean_height": 0.42176726460456848, "std_height": 1.1418576240539551, "count_pixels": 41, "percent_cover": 0.71032571032571035, "percent_above_0.1m": 17.073170731707318, "low_level_<0.5": 4.8780487804878048, "mid_level_0.5-2": 0.0, "tall_2+": 12.195121951219512 }, "geometry": { "type": "Point", "coordinates": [ -0.417043564399824, 51.197317593165408 ] } },
{ "type": "Feature", "properties": { "max_height": 5.493255615234375, "mean_height": 3.2344439029693604, "std_height": 1.4199450016021729, "count_pixels": 41, "percent_cover": 0.71032571032571035, "percent_above_0.1m": 95.121951219512198, "low_level_<0.5": 2.4390243902439024, "mid_level_0.5-2": 12.195121951219512, "tall_2+": 80.487804878048792 }, "geometry": { "type": "Point", "coordinates": [ -0.416845332427977, 51.197314911641264 ] } },
{ "type": "Feature", "properties": { "max_height": 13.287750244140625, "mean_height": 3.0353612899780273, "std_height": 3.0074725151062012, "count_pixels": 43, "percent_cover": 0.74497574497574492, "percent_above_0.1m": 74.418604651162795, "low_level_<0.5": 2.3255813953488373, "mid_level_0.5-2": 13.953488372093023, "tall_2+": 58.139534883720934 }, "geometry": { "type": "Point", "coordinates": [ -0.416647100485447, 51.197312229781183 ] } },
{ "type": "Feature", "properties": { "max_height": 3.056243896484375, "mean_height": 0.57436674833297729, "std_height": 0.97074306011199951, "count_pixels": 43, "percent_cover": 0.74497574497574492, "percent_above_0.1m": 34.883720930232556, "low_level_<0.5": 2.3255813953488373, "mid_level_0.5-2": 16.279069767441861, "tall_2+": 13.953488372093023 }, "geometry": { "type": "Point", "coordinates": [ -0.417931916152634, 51.197437520302245 ] } },
{ "type": "Feature", "properties": { "max_height": 9.9580001831054688, "mean_height": 3.800565242767334, "std_height": 2.5227270126342773, "count_pixels": 43, "percent_cover": 0.74497574497574492, "percent_above_0.1m": 90.697674418604649, "low_level_<0.5": 4.6511627906976747, "mid_level_0.5-2": 16.279069767441861, "tall_2+": 69.767441860465112 }, "geometry": { "type": "Point", "coordinates": [ -0.417733683610124, 51.197434840283549 ] } },
{ "type": "Feature", "properties": { "max_height": 6.972503662109375, "mean_height": 2.85109543800354, "std_height": 1.8246523141860962, "count_pixels": 39, "percent_cover": 0.67567567567567566, "percent_above_0.1m": 94.871794871794862, "low_level_<0.5": 5.1282051282051277, "mid_level_0.5-2": 23.076923076923077, "tall_2+": 64.102564102564102 }, "geometry": { "type": "Point", "coordinates": [ -0.417535451096919, 51.197432159928894 ] } },
{ "type": "Feature", "properties": { "max_height": 5.3085098266601562, "mean_height": 1.0985528230667114, "std_height": 1.4792052507400513, "count_pixels": 43, "percent_cover": 0.74497574497574492, "percent_above_0.1m": 72.093023255813947, "low_level_<0.5": 18.604651162790699, "mid_level_0.5-2": 25.581395348837212, "tall_2+": 20.930232558139537 }, "geometry": { "type": "Point", "coordinates": [ -0.417337218613018, 51.197429479238302 ] } },
{ "type": "Feature", "properties": { "max_height": 0.0342559814453125, "mean_height": 0.0022031208500266075, "std_height": 0.0064001772552728653, "count_pixels": 43, "percent_cover": 0.74497574497574492, "percent_above_0.1m": 0.0, "low_level_<0.5": 0.0, "mid_level_0.5-2": 0.0, "tall_2+": 0.0 }, "geometry": { "type": "Point", "coordinates": [ -0.417138986158419, 51.197426798211751 ] } },
{ "type": "Feature", "properties": { "max_height": 0.8012542724609375, "mean_height": 0.04795997217297554, "std_height": 0.13867506384849548, "count_pixels": 43, "percent_cover": 0.74497574497574492, "percent_above_0.1m": 13.953488372093023, "low_level_<0.5": 11.627906976744185, "mid_level_0.5-2": 2.3255813953488373, "tall_2+": 0.0 }, "geometry": { "type": "Point", "coordinates": [ -0.416940753733129, 51.197424116849241 ] } },
{ "type": "Feature", "properties": { "max_height": 0.772003173828125, "mean_height": 0.098529905080795288, "std_height": 0.21451050043106079, "count_pixels": 41, "percent_cover": 0.71032571032571035, "percent_above_0.1m": 14.634146341463413, "low_level_<0.5": 2.4390243902439024, "mid_level_0.5-2": 12.195121951219512, "tall_2+": 0.0 }, "geometry": { "type": "Point", "coordinates": [ -0.416742521337161, 51.197421435150765 ] } },
{ "type": "Feature", "properties": { "max_height": 18.911758422851562, "mean_height": 14.240932464599609, "std_height": 3.4019904136657715, "count_pixels": 41, "percent_cover": 0.71032571032571035, "percent_above_0.1m": 100.0, "low_level_<0.5": 0.0, "mid_level_0.5-2": 0.0, "tall_2+": 100.0 }, "geometry": { "type": "Point", "coordinates": [ -0.416544288970501, 51.197418753116374 ] } },
{ "type": "Feature", "properties": { "max_height": 18.941261291503906, "mean_height": 13.22352409362793, "std_height": 5.784395694732666, "count_pixels": 41, "percent_cover": 0.71032571032571035, "percent_above_0.1m": 97.560975609756099, "low_level_<0.5": 2.4390243902439024, "mid_level_0.5-2": 0.0, "tall_2+": 92.682926829268297 }, "geometry": { "type": "Point", "coordinates": [ -0.416346056633169, 51.197416070745994 ] } },
{ "type": "Feature", "properties": { "max_height": 9.8835067749023438, "mean_height": 1.2862920761108398, "std_height": 2.376960277557373, "count_pixels": 41, "percent_cover": 0.71032571032571035, "percent_above_0.1m": 60.975609756097562, "low_level_<0.5": 24.390243902439025, "mid_level_0.5-2": 14.634146341463413, "tall_2+": 19.512195121951219 }, "geometry": { "type": "Point", "coordinates": [ -0.417829107153149, 51.197544044765323 ] } },
{ "type": "Feature", "properties": { "max_height": 10.503257751464844, "mean_height": 5.3400416374206543, "std_height": 2.9412460327148438, "count_pixels": 41, "percent_cover": 0.71032571032571035, "percent_above_0.1m": 95.121951219512198, "low_level_<0.5": 2.4390243902439024, "mid_level_0.5-2": 7.3170731707317067, "tall_2+": 85.365853658536579 }, "geometry": { "type": "Point", "coordinates": [ -0.417630874186502, 51.197541364572302 ] } },
{ "type": "Feature", "properties": { "max_height": 7.47625732421875, "mean_height": 2.2642195224761963, "std_height": 1.5262292623519897, "count_pixels": 40, "percent_cover": 0.693000693000693, "percent_above_0.1m": 92.5, "low_level_<0.5": 5.0, "mid_level_0.5-2": 32.5, "tall_2+": 55.000000000000007 }, "geometry": { "type": "Point", "coordinates": [ -0.417432641249164, 51.197538684043344 ] } },
{ "type": "Feature", "properties": { "max_height": 3.2385101318359375, "mean_height": 0.36847555637359619, "std_height": 0.71729397773742676, "count_pixels": 41, "percent_cover": 0.71032571032571035, "percent_above_0.1m": 41.463414634146339, "low_level_<0.5": 19.512195121951219, "mid_level_0.5-2": 17.073170731707318, "tall_2+": 4.8780487804878048 }, "geometry": { "type": "Point", "coordinates": [ -0.417234408341127, 51.197536003178413 ] } },
{ "type": "Feature", "properties": { "max_height": 1.22125244140625, "mean_height": 0.076626844704151154, "std_height": 0.20382057130336761, "count_pixels": 41, "percent_cover": 0.71032571032571035, "percent_above_0.1m": 24.390243902439025, "low_level_<0.5": 12.195121951219512, "mid_level_0.5-2": 2.4390243902439024, "tall_2+": 0.0 }, "geometry": { "type": "Point", "coordinates": [ -0.417036175462398, 51.197533321977545 ] } },
{ "type": "Feature", "properties": { "max_height": 0.44100189208984375, "mean_height": 0.023699875921010971, "std_height": 0.090847320854663849, "count_pixels": 41, "percent_cover": 0.71032571032571035, "percent_above_0.1m": 4.8780487804878048, "low_level_<0.5": 4.8780487804878048, "mid_level_0.5-2": 0.0, "tall_2+": 0.0 }, "geometry": { "type": "Point", "coordinates": [ -0.416837942612983, 51.197530640440718 ] } },
{ "type": "Feature", "properties": { "max_height": 19.258766174316406, "mean_height": 5.9110689163208008, "std_height": 6.6949977874755859, "count_pixels": 43, "percent_cover": 0.74497574497574492, "percent_above_0.1m": 58.139534883720934, "low_level_<0.5": 4.6511627906976747, "mid_level_0.5-2": 4.6511627906976747, "tall_2+": 48.837209302325576 }, "geometry": { "type": "Point", "coordinates": [ -0.416639709792886, 51.197527958567917 ] } },
{ "type": "Feature", "properties": { "max_height": 20.898262023925781, "mean_height": 12.015320777893066, "std_height": 5.666081428527832, "count_pixels": 43, "percent_cover": 0.74497574497574492, "percent_above_0.1m": 95.348837209302332, "low_level_<0.5": 2.3255813953488373, "mid_level_0.5-2": 4.6511627906976747, "tall_2+": 88.372093023255815 }, "geometry": { "type": "Point", "coordinates": [ -0.416441477002102, 51.197525276359173 ] } },
{ "type": "Feature", "properties": { "max_height": 18.126258850097656, "mean_height": 10.920045852661133, "std_height": 4.5802145004272461, "count_pixels": 43, "percent_cover": 0.74497574497574492, "percent_above_0.1m": 100.0, "low_level_<0.5": 0.0, "mid_level_0.5-2": 0.0, "tall_2+": 100.0 }, "geometry": { "type": "Point", "coordinates": [ -0.416243244240648, 51.197522593814469 ] } },
{ "type": "Feature", "properties": { "max_height": 9.6814956665039062, "mean_height": 1.3377547264099121, "std_height": 2.6304469108581543, "count_pixels": 43, "percent_cover": 0.74497574497574492, "percent_above_0.1m": 53.488372093023251, "low_level_<0.5": 20.930232558139537, "mid_level_0.5-2": 13.953488372093023, "tall_2+": 16.279069767441861 }, "geometry": { "type": "Point", "coordinates": [ -0.417726297700207, 51.197650569136016 ] } },
{ "type": "Feature", "properties": { "max_height": 10.58074951171875, "mean_height": 6.2732868194580078, "std_height": 3.3412048816680908, "count_pixels": 39, "percent_cover": 0.67567567567567566, "percent_above_0.1m": 97.435897435897431, "low_level_<0.5": 5.1282051282051277, "mid_level_0.5-2": 2.5641025641025639, "tall_2+": 87.179487179487182 }, "geometry": { "type": "Point", "coordinates": [ -0.41752806430943, 51.197647888768699 ] } },
{ "type": "Feature", "properties": { "max_height": 11.0045166015625, "mean_height": 2.3153491020202637, "std_height": 3.4869661331176758, "count_pixels": 43, "percent_cover": 0.74497574497574492, "percent_above_0.1m": 46.511627906976742, "low_level_<0.5": 4.6511627906976747, "mid_level_0.5-2": 4.6511627906976747, "tall_2+": 34.883720930232556 }, "geometry": { "type": "Point", "coordinates": [ -0.417329830947949, 51.197645208065403 ] } },
{ "type": "Feature", "properties": { "max_height": 8.3855133056640625, "mean_height": 2.9331986904144287, "std_height": 2.6003918647766113, "count_pixels": 43, "percent_cover": 0.74497574497574492, "percent_above_0.1m": 81.395348837209298, "low_level_<0.5": 4.6511627906976747, "mid_level_0.5-2": 20.930232558139537, "tall_2+": 53.488372093023251 }, "geometry": { "type": "Point", "coordinates": [ -0.417131597615783, 51.197642527026147 ] } },
{ "type": "Feature", "properties": { "max_height": 14.853507995605469, "mean_height": 2.3185467720031738, "std_height": 3.5865893363952637, "count_pixels": 43, "percent_cover": 0.74497574497574492, "percent_above_0.1m": 60.465116279069761, "low_level_<0.5": 2.3255813953488373, "mid_level_0.5-2": 27.906976744186046, "tall_2+": 27.906976744186046 }, "geometry": { "type": "Point", "coordinates": [ -0.416933364312921, 51.197639845650947 ] } },
{ "type": "Feature", "properties": { "max_height": 18.91351318359375, "mean_height": 6.7521777153015137, "std_height": 6.4626345634460449, "count_pixels": 41, "percent_cover": 0.71032571032571035, "percent_above_0.1m": 68.292682926829272, "low_level_<0.5": 4.8780487804878048, "mid_level_0.5-2": 4.8780487804878048, "tall_2+": 58.536585365853654 }, "geometry": { "type": "Point", "coordinates": [ -0.416735131039378, 51.197637163939795 ] } },
{ "type": "Feature", "properties": { "max_height": 16.537498474121094, "mean_height": 2.6881685256958008, "std_height": 3.8350150585174561, "count_pixels": 41, "percent_cover": 0.71032571032571035, "percent_above_0.1m": 65.853658536585371, "low_level_<0.5": 7.3170731707317067, "mid_level_0.5-2": 14.634146341463413, "tall_2+": 41.463414634146339 }, "geometry": { "type": "Point", "coordinates": [ -0.416536897795149, 51.197634481892685 ] } },
{ "type": "Feature", "properties": { "max_height": 12.781005859375, "mean_height": 6.6488423347473145, "std_height": 4.1325302124023438, "count_pixels": 41, "percent_cover": 0.71032571032571035, "percent_above_0.1m": 85.365853658536579, "low_level_<0.5": 0.0, "mid_level_0.5-2": 2.4390243902439024, "tall_2+": 82.926829268292678 }, "geometry": { "type": "Point", "coordinates": [ -0.416338664580241, 51.197631799509622 ] } },
{ "type": "Feature", "properties": { "max_height": 14.28326416015625, "mean_height": 6.2363314628601074, "std_height": 5.6652603149414062, "count_pixels": 40, "percent_cover": 0.693000693000693, "percent_above_0.1m": 70.0, "low_level_<0.5": 2.5, "mid_level_0.5-2": 5.0, "tall_2+": 62.5 }, "geometry": { "type": "Point", "coordinates": [ -0.417425253978895, 51.197754412872705 ] } },
{ "type": "Feature", "properties": { "max_height": 10.944015502929688, "mean_height": 3.5405302047729492, "std_height": 3.4249696731567383, "count_pixels": 41, "percent_cover": 0.71032571032571035, "percent_above_0.1m": 78.048780487804876, "low_level_<0.5": 2.4390243902439024, "mid_level_0.5-2": 21.951219512195124, "tall_2+": 53.658536585365859 }, "geometry": { "type": "Point", "coordinates": [ -0.417227020193283, 51.197751731995083 ] } },
{ "type": "Feature", "properties": { "max_height": 22.542251586914062, "mean_height": 18.23004150390625, "std_height": 3.4866564273834229, "count_pixels": 41, "percent_cover": 0.71032571032571035, "percent_above_0.1m": 100.0, "low_level_<0.5": 0.0, "mid_level_0.5-2": 0.0, "tall_2+": 100.0 }, "geometry": { "type": "Point", "coordinates": [ -0.417028786436976, 51.197749050781518 ] } },
{ "type": "Feature", "properties": { "max_height": 30.853004455566406, "mean_height": 18.176324844360352, "std_height": 8.1416378021240234, "count_pixels": 41, "percent_cover": 0.71032571032571035, "percent_above_0.1m": 100.0, "low_level_<0.5": 0.0, "mid_level_0.5-2": 0.0, "tall_2+": 100.0 }, "geometry": { "type": "Point", "coordinates": [ -0.416830552709984, 51.197746369231986 ] } },
{ "type": "Feature", "properties": { "max_height": 25.954261779785156, "mean_height": 7.482994556427002, "std_height": 6.9325523376464844, "count_pixels": 43, "percent_cover": 0.74497574497574492, "percent_above_0.1m": 83.720930232558146, "low_level_<0.5": 0.0, "mid_level_0.5-2": 6.9767441860465116, "tall_2+": 76.744186046511629 }, "geometry": { "type": "Point", "coordinates": [ -0.416632319012307, 51.197743687346502 ] } },
{ "type": "Feature", "properties": { "max_height": 20.672760009765625, "mean_height": 9.928065299987793, "std_height": 5.531682014465332, "count_pixels": 43, "percent_cover": 0.74497574497574492, "percent_above_0.1m": 95.348837209302332, "low_level_<0.5": 0.0, "mid_level_0.5-2": 2.3255813953488373, "tall_2+": 93.023255813953483 }, "geometry": { "type": "Point", "coordinates": [ -0.416434085343948, 51.197741005125053 ] } },
{ "type": "Feature", "properties": { "max_height": 13.426498413085938, "mean_height": 5.0489239692687988, "std_height": 3.9224286079406738, "count_pixels": 43, "percent_cover": 0.74497574497574492, "percent_above_0.1m": 88.372093023255815, "low_level_<0.5": 6.9767441860465116, "mid_level_0.5-2": 6.9767441860465116, "tall_2+": 74.418604651162795 }, "geometry": { "type": "Point", "coordinates": [ -0.416235851704919, 51.197738322567666 ] } },
{ "type": "Feature", "properties": { "max_height": 2.8872604370117188, "mean_height": 0.38600584864616394, "std_height": 0.77229827642440796, "count_pixels": 43, "percent_cover": 0.74497574497574492, "percent_above_0.1m": 32.558139534883722, "low_level_<0.5": 16.279069767441861, "mid_level_0.5-2": 6.9767441860465116, "tall_2+": 9.3023255813953494 }, "geometry": { "type": "Point", "coordinates": [ -0.417322443194909, 51.197860936884346 ] } },
{ "type": "Feature", "properties": { "max_height": 16.806259155273438, "mean_height": 3.3701395988464355, "std_height": 4.994971752166748, "count_pixels": 43, "percent_cover": 0.74497574497574492, "percent_above_0.1m": 58.139534883720934, "low_level_<0.5": 9.3023255813953494, "mid_level_0.5-2": 13.953488372093023, "tall_2+": 32.558139534883722 }, "geometry": { "type": "Point", "coordinates": [ -0.41712420898515, 51.197858255832415 ] } },
{ "type": "Feature", "properties": { "max_height": 19.763008117675781, "mean_height": 3.2717852592468262, "std_height": 5.2477378845214844, "count_pixels": 43, "percent_cover": 0.74497574497574492, "percent_above_0.1m": 46.511627906976742, "low_level_<0.5": 2.3255813953488373, "mid_level_0.5-2": 4.6511627906976747, "tall_2+": 37.209302325581397 }, "geometry": { "type": "Point", "coordinates": [ -0.416925974804708, 51.19785557444451 ] } },
{ "type": "Feature", "properties": { "max_height": 18.485015869140625, "mean_height": 2.3252685070037842, "std_height": 3.1963467597961426, "count_pixels": 41, "percent_cover": 0.71032571032571035, "percent_above_0.1m": 78.048780487804876, "low_level_<0.5": 7.3170731707317067, "mid_level_0.5-2": 31.707317073170731, "tall_2+": 39.024390243902438 }, "geometry": { "type": "Point", "coordinates": [ -0.41672774065358, 51.197852892720647 ] } },
{ "type": "Feature", "properties": { "max_height": 16.638015747070312, "mean_height": 6.5186710357666016, "std_height": 4.0474638938903809, "count_pixels": 41, "percent_cover": 0.71032571032571035, "percent_above_0.1m": 95.121951219512198, "low_level_<0.5": 0.0, "mid_level_0.5-2": 7.3170731707317067, "tall_2+": 87.804878048780495 }, "geometry": { "type": "Point", "coordinates": [ -0.41652950653177, 51.197850210660839 ] } },
{ "type": "Feature", "properties": { "max_height": 19.521255493164062, "mean_height": 12.098566055297852, "std_height": 4.4002218246459961, "count_pixels": 41, "percent_cover": 0.71032571032571035, "percent_above_0.1m": 100.0, "low_level_<0.5": 0.0, "mid_level_0.5-2": 0.0, "tall_2+": 100.0 }, "geometry": { "type": "Point", "coordinates": [ -0.416331272439282, 51.197847528265065 ] } },
{ "type": "Feature", "properties": { "max_height": 18.749008178710938, "mean_height": 11.15920352935791, "std_height": 6.2610726356506348, "count_pixels": 43, "percent_cover": 0.74497574497574492, "percent_above_0.1m": 93.023255813953483, "low_level_<0.5": 2.3255813953488373, "mid_level_0.5-2": 6.9767441860465116, "tall_2+": 83.720930232558146 }, "geometry": { "type": "Point", "coordinates": [ -0.416426693597765, 51.197956733882805 ] } }
]
}
