{
"type": "FeatureCollection",
"name": "MILKE_124",
"crs": { "type": "name", "properties": { "name": "urn:ogc:def:crs:OGC:1.3:CRS84" } },
"features": [
{ "type": "Feature", "properties": { "osm_id": 11066613048, "name": null, "amenity": "bench", "man_made": null, "leisure": null, "playground": null, "memorial": null }, "geometry": { "type": "Point", "coordinates": [ -0.7636693, 52.0397745 ] } },
{ "type": "Feature", "properties": { "osm_id": 11066611650, "name": null, "amenity": "bench", "man_made": null, "leisure": null, "playground": null, "memorial": null }, "geometry": { "type": "Point", "coordinates": [ -0.7637228, 52.0397997 ] } },
{ "type": "Feature", "properties": { "osm_id": 11066611651, "name": null, "amenity": "bench", "man_made": null, "leisure": null, "playground": null, "memorial": null }, "geometry": { "type": "Point", "coordinates": [ -0.7636752, 52.0398213 ] } },
{ "type": "Feature", "properties": { "osm_id": 11066611649, "name": null, "amenity": "bench", "man_made": null, "leisure": null, "playground": null, "memorial": null }, "geometry": { "type": "Point", "coordinates": [ -0.7637533, 52.0398332 ] } },
{ "type": "Feature", "properties": { "osm_id": 11066611652, "name": null, "amenity": "bench", "man_made": null, "leisure": null, "playground": null, "memorial": null }, "geometry": { "type": "Point", "coordinates": [ -0.7637094, 52.039852 ] } },
{ "type": "Feature", "properties": { "osm_id": 11066611648, "name": null, "amenity": "bench", "man_made": null, "leisure": null, "playground": null, "memorial": null }, "geometry": { "type": "Point", "coordinates": [ -0.7637931, 52.0398662 ] } },
{ "type": "Feature", "properties": { "osm_id": 11066611653, "name": null, "amenity": "bench", "man_made": null, "leisure": null, "playground": null, "memorial": null }, "geometry": { "type": "Point", "coordinates": [ -0.7637431, 52.0398847 ] } },
{ "type": "Feature", "properties": { "osm_id": 11066611647, "name": null, "amenity": "bench", "man_made": null, "leisure": null, "playground": null, "memorial": null }, "geometry": { "type": "Point", "coordinates": [ -0.7638268, 52.0398969 ] } },
{ "type": "Feature", "properties": { "osm_id": 11066611654, "name": null, "amenity": "bench", "man_made": null, "leisure": null, "playground": null, "memorial": null }, "geometry": { "type": "Point", "coordinates": [ -0.7637801, 52.0399157 ] } },
{ "type": "Feature", "properties": { "osm_id": 11066611646, "name": null, "amenity": "bench", "man_made": null, "leisure": null, "playground": null, "memorial": null }, "geometry": { "type": "Point", "coordinates": [ -0.7638585, 52.039925 ] } },
{ "type": "Feature", "properties": { "osm_id": 11066611655, "name": null, "amenity": "bench", "man_made": null, "leisure": null, "playground": null, "memorial": null }, "geometry": { "type": "Point", "coordinates": [ -0.7638144, 52.0399447 ] } },
{ "type": "Feature", "properties": { "osm_id": 11066613067, "name": null, "amenity": "bench", "man_made": null, "leisure": null, "playground": null, "memorial": null }, "geometry": { "type": "Point", "coordinates": [ -0.7640868, 52.0400254 ] } },
{ "type": "Feature", "properties": { "osm_id": 11066613032, "name": null, "amenity": "bench", "man_made": null, "leisure": null, "playground": null, "memorial": null }, "geometry": { "type": "Point", "coordinates": [ -0.762891, 52.0401823 ] } },
{ "type": "Feature", "properties": { "osm_id": 11066613034, "name": null, "amenity": "bench", "man_made": null, "leisure": null, "playground": null, "memorial": null }, "geometry": { "type": "Point", "coordinates": [ -0.7626908, 52.0402122 ] } },
{ "type": "Feature", "properties": { "osm_id": 11066613033, "name": null, "amenity": "bench", "man_made": null, "leisure": null, "playground": null, "memorial": null }, "geometry": { "type": "Point", "coordinates": [ -0.7627226, 52.0402381 ] } },
{ "type": "Feature", "properties": { "osm_id": 11066613031, "name": null, "amenity": "bench", "man_made": null, "leisure": null, "playground": null, "memorial": null }, "geometry": { "type": "Point", "coordinates": [ -0.7631931, 52.0404441 ] } },
{ "type": "Feature", "properties": { "osm_id": 11066611636, "name": null, "amenity": "bench", "man_made": null, "leisure": null, "playground": null, "memorial": null }, "geometry": { "type": "Point", "coordinates": [ -0.7630402, 52.0405162 ] } },
{ "type": "Feature", "properties": { "osm_id": 11066611634, "name": null, "amenity": "bench", "man_made": null, "leisure": null, "playground": null, "memorial": null }, "geometry": { "type": "Point", "coordinates": [ -0.7630458, 52.0405677 ] } },
{ "type": "Feature", "properties": { "osm_id": 11066611635, "name": null, "amenity": "bench", "man_made": null, "leisure": null, "playground": null, "memorial": null }, "geometry": { "type": "Point", "coordinates": [ -0.7629826, 52.0405917 ] } }
]
}
