{
"type": "FeatureCollection",
"name": "bf74c1762b81_foliage",
"crs": { "type": "name", "properties": { "name": "urn:ogc:def:crs:OGC:1.3:CRS84" } },
"features": [
{ "type": "Feature", "properties": { "max_height": 7.8092517852783203, "mean_height": 1.6006404161453247, "std_height": 2.1256840229034424, "count_pixels": 43, "percent_cover": 1.5716374269005846, "percent_above_0.1m": 74.418604651162795, "low_level_<0.5": 16.279069767441861, "mid_level_0.5-2": 27.906976744186046, "tall_2+": 25.581395348837212 }, "geometry": { "type": "Point", "coordinates": [ -0.559621934966699, 51.34139669457884 ] } },
{ "type": "Feature", "properties": { "max_height": 6.3992519378662109, "mean_height": 0.65903675556182861, "std_height": 1.3642046451568604, "count_pixels": 42, "percent_cover": 1.5350877192982455, "percent_above_0.1m": 40.476190476190474, "low_level_<0.5": 16.666666666666664, "mid_level_0.5-2": 11.904761904761903, "tall_2+": 11.904761904761903 }, "geometry": { "type": "Point", "coordinates": [ -0.559423067884097, 51.341394249034487 ] } },
{ "type": "Feature", "properties": { "max_height": 0.983001708984375, "mean_height": 0.11379144340753555, "std_height": 0.23760904371738434, "count_pixels": 43, "percent_cover": 1.5716374269005846, "percent_above_0.1m": 25.581395348837212, "low_level_<0.5": 11.627906976744185, "mid_level_0.5-2": 6.9767441860465116, "tall_2+": 0.0 }, "geometry": { "type": "Point", "coordinates": [ -0.559224200828632, 51.341391803152447 ] } },
{ "type": "Feature", "properties": { "max_height": 11.558004379272461, "mean_height": 3.2625560760498047, "std_height": 3.142977237701416, "count_pixels": 41, "percent_cover": 1.4985380116959064, "percent_above_0.1m": 70.731707317073173, "low_level_<0.5": 2.4390243902439024, "mid_level_0.5-2": 14.634146341463413, "tall_2+": 53.658536585365859 }, "geometry": { "type": "Point", "coordinates": [ -0.559717985560262, 51.341505785095947 ] } },
{ "type": "Feature", "properties": { "max_height": 7.8925018310546875, "mean_height": 3.801973819732666, "std_height": 2.5962972640991211, "count_pixels": 37, "percent_cover": 1.3523391812865497, "percent_above_0.1m": 94.594594594594597, "low_level_<0.5": 5.4054054054054053, "mid_level_0.5-2": 18.918918918918919, "tall_2+": 67.567567567567565 }, "geometry": { "type": "Point", "coordinates": [ -0.559519118016152, 51.341503339714727 ] } },
{ "type": "Feature", "properties": { "max_height": 8.1347522735595703, "mean_height": 4.2632961273193359, "std_height": 2.3407330513000488, "count_pixels": 41, "percent_cover": 1.4985380116959064, "percent_above_0.1m": 92.682926829268297, "low_level_<0.5": 2.4390243902439024, "mid_level_0.5-2": 9.7560975609756095, "tall_2+": 80.487804878048792 }, "geometry": { "type": "Point", "coordinates": [ -0.559320250499189, 51.341500893995779 ] } },
{ "type": "Feature", "properties": { "max_height": 14.346750259399414, "mean_height": 2.4708642959594727, "std_height": 4.5070357322692871, "count_pixels": 41, "percent_cover": 1.4985380116959064, "percent_above_0.1m": 43.902439024390247, "low_level_<0.5": 9.7560975609756095, "mid_level_0.5-2": 2.4390243902439024, "tall_2+": 31.707317073170731 }, "geometry": { "type": "Point", "coordinates": [ -0.559121383009364, 51.341498447939138 ] } },
{ "type": "Feature", "properties": { "max_height": 5.3790016174316406, "mean_height": 1.0637277364730835, "std_height": 1.1798501014709473, "count_pixels": 43, "percent_cover": 1.5716374269005846, "percent_above_0.1m": 74.418604651162795, "low_level_<0.5": 11.627906976744185, "mid_level_0.5-2": 37.209302325581397, "tall_2+": 23.255813953488371 }, "geometry": { "type": "Point", "coordinates": [ -0.559615168582571, 51.341612430314235 ] } },
{ "type": "Feature", "properties": { "max_height": 4.3675003051757812, "mean_height": 0.29600682854652405, "std_height": 0.78139019012451172, "count_pixels": 42, "percent_cover": 1.5350877192982455, "percent_above_0.1m": 21.428571428571427, "low_level_<0.5": 4.7619047619047619, "mid_level_0.5-2": 14.285714285714285, "tall_2+": 2.3809523809523809 }, "geometry": { "type": "Point", "coordinates": [ -0.559416300604099, 51.341609984758414 ] } },
{ "type": "Feature", "properties": { "max_height": 7.6147499084472656, "mean_height": 1.2443476915359497, "std_height": 1.5008124113082886, "count_pixels": 43, "percent_cover": 1.5716374269005846, "percent_above_0.1m": 74.418604651162795, "low_level_<0.5": 11.627906976744185, "mid_level_0.5-2": 34.883720930232556, "tall_2+": 20.930232558139537 }, "geometry": { "type": "Point", "coordinates": [ -0.55921743265277, 51.341607538864892 ] } },
{ "type": "Feature", "properties": { "max_height": 9.6017494201660156, "mean_height": 2.3983528614044189, "std_height": 2.3969087600708008, "count_pixels": 41, "percent_cover": 1.4985380116959064, "percent_above_0.1m": 75.609756097560975, "low_level_<0.5": 0.0, "mid_level_0.5-2": 24.390243902439025, "tall_2+": 46.341463414634148 }, "geometry": { "type": "Point", "coordinates": [ -0.559711219583356, 51.341721520833026 ] } },
{ "type": "Feature", "properties": { "max_height": 5.6339149475097656, "mean_height": 1.7715905904769897, "std_height": 1.9994405508041382, "count_pixels": 37, "percent_cover": 1.3523391812865497, "percent_above_0.1m": 64.86486486486487, "low_level_<0.5": 10.810810810810811, "mid_level_0.5-2": 16.216216216216218, "tall_2+": 37.837837837837839 }, "geometry": { "type": "Point", "coordinates": [ -0.559512351143371, 51.341719075440324 ] } },
{ "type": "Feature", "properties": { "max_height": 14.227500915527344, "mean_height": 3.0421442985534668, "std_height": 4.3858633041381836, "count_pixels": 41, "percent_cover": 1.4985380116959064, "percent_above_0.1m": 51.219512195121951, "low_level_<0.5": 7.3170731707317067, "mid_level_0.5-2": 7.3170731707317067, "tall_2+": 36.585365853658537 }, "geometry": { "type": "Point", "coordinates": [ -0.559313482730529, 51.341716629709907 ] } },
{ "type": "Feature", "properties": { "max_height": 12.783248901367188, "mean_height": 7.8333969116210938, "std_height": 3.9410574436187744, "count_pixels": 43, "percent_cover": 1.5716374269005846, "percent_above_0.1m": 93.023255813953483, "low_level_<0.5": 4.6511627906976747, "mid_level_0.5-2": 2.3255813953488373, "tall_2+": 86.04651162790698 }, "geometry": { "type": "Point", "coordinates": [ -0.559807271018502, 51.341830611271106 ] } },
{ "type": "Feature", "properties": { "max_height": 10.286001205444336, "mean_height": 1.6410735845565796, "std_height": 2.7763381004333496, "count_pixels": 43, "percent_cover": 1.5716374269005846, "percent_above_0.1m": 39.534883720930232, "low_level_<0.5": 0.0, "mid_level_0.5-2": 11.627906976744185, "tall_2+": 27.906976744186046 }, "geometry": { "type": "Point", "coordinates": [ -0.559608402117009, 51.341828166041502 ] } },
{ "type": "Feature", "properties": { "max_height": 10.804206848144531, "mean_height": 2.577789306640625, "std_height": 3.5290064811706543, "count_pixels": 42, "percent_cover": 1.5350877192982455, "percent_above_0.1m": 50.0, "low_level_<0.5": 2.3809523809523809, "mid_level_0.5-2": 7.1428571428571423, "tall_2+": 38.095238095238095 }, "geometry": { "type": "Point", "coordinates": [ -0.559409533242654, 51.341825720474219 ] } },
{ "type": "Feature", "properties": { "max_height": 3.4972496032714844, "mean_height": 0.30904346704483032, "std_height": 0.85700255632400513, "count_pixels": 41, "percent_cover": 1.4985380116959064, "percent_above_0.1m": 17.073170731707318, "low_level_<0.5": 4.8780487804878048, "mid_level_0.5-2": 2.4390243902439024, "tall_2+": 9.7560975609756095 }, "geometry": { "type": "Point", "coordinates": [ -0.559903322888023, 51.341939701628476 ] } },
{ "type": "Feature", "properties": { "max_height": 8.0375022888183594, "mean_height": 1.5727754831314087, "std_height": 2.2550873756408691, "count_pixels": 41, "percent_cover": 1.4985380116959064, "percent_above_0.1m": 58.536585365853654, "low_level_<0.5": 9.7560975609756095, "mid_level_0.5-2": 19.512195121951219, "tall_2+": 29.268292682926827 }, "geometry": { "type": "Point", "coordinates": [ -0.559704453525015, 51.341937256561991 ] } },
{ "type": "Feature", "properties": { "max_height": 18.321001052856445, "mean_height": 9.8285551071166992, "std_height": 5.3345255851745605, "count_pixels": 37, "percent_cover": 1.3523391812865497, "percent_above_0.1m": 94.594594594594597, "low_level_<0.5": 0.0, "mid_level_0.5-2": 8.1081081081081088, "tall_2+": 86.486486486486484 }, "geometry": { "type": "Point", "coordinates": [ -0.559505584189148, 51.341934811157806 ] } },
{ "type": "Feature", "properties": { "max_height": 16.667503356933594, "mean_height": 11.067577362060547, "std_height": 4.2329254150390625, "count_pixels": 43, "percent_cover": 1.5716374269005846, "percent_above_0.1m": 100.0, "low_level_<0.5": 0.0, "mid_level_0.5-2": 4.6511627906976747, "tall_2+": 95.348837209302332 }, "geometry": { "type": "Point", "coordinates": [ -0.559601635570008, 51.342043901760682 ] } }
]
}
