{
"type": "FeatureCollection",
"name": "GOSPO_41_cycling",
"crs": { "type": "name", "properties": { "name": "urn:ogc:def:crs:OGC:1.3:CRS84" } },
"features": [
{"type":"Feature","properties":{"highway":"path","name":null,"category":"Shared path"},"geometry":{"type":"MultiLineString","coordinates":[[[-1.148546,50.8265625],[-1.149638,50.8262774],[-1.1496606,50.8262664],[-1.1496792,50.8262528],[-1.1496839,50.826241],[-1.1496709,50.8262239],[-1.1496448,50.826214],[-1.1493466,50.8261635],[-1.1492829,50.8261523],[-1.1492531,50.8261401],[-1.149222,50.8261209],[-1.1491106,50.8259721],[-1.1490866,50.8259543],[-1.1490582,50.8259481],[-1.1487777,50.825963],[-1.148733,50.8259599],[-1.1486831,50.825947],[-1.1483918,50.8258687],[-1.1483079,50.8258494],[-1.1482671,50.8258438],[-1.1482183,50.8258423],[-1.1479499,50.8258665],[-1.1473311,50.8259337],[-1.1471221,50.8259488],[-1.1468562,50.8259589],[-1.1467554,50.8259626],[-1.1467023,50.8259635],[-1.146612,50.8259651],[-1.1464512,50.8259623],[-1.146341,50.8259542],[-1.1462425,50.8259405],[-1.1461485,50.825922],[-1.1460853,50.8259051],[-1.1460058,50.8258805],[-1.1459445,50.82586],[-1.1458568,50.8258229],[-1.1457669,50.8257759],[-1.1457159,50.8257447],[-1.1456811,50.8257161],[-1.1456481,50.8256768],[-1.1456171,50.8256312],[-1.1455862,50.8255675],[-1.1455532,50.8254859],[-1.1453848,50.8251786],[-1.1451994,50.8245034],[-1.1450996,50.8243004],[-1.144974,50.8240763],[-1.1447411,50.8237208],[-1.1442111,50.8229119],[-1.1439212,50.8225567],[-1.1434841,50.8220423],[-1.1431759,50.8215711],[-1.1429391,50.8209263],[-1.1428675,50.8206827],[-1.1427121,50.8201545],[-1.1426231,50.8198519],[-1.1426239,50.8197942],[-1.1426388,50.8197275],[-1.1426651,50.8196642],[-1.1427197,50.8195652],[-1.1427322,50.819509],[-1.1427314,50.8194518],[-1.142681,50.8193052],[-1.1426837,50.8192735],[-1.1427124,50.819224],[-1.1427487,50.819172],[-1.1427708,50.8191245],[-1.1427725,50.8190697],[-1.1427284,50.8190218],[-1.1426731,50.8189697],[-1.1425953,50.8188779],[-1.1425227,50.8187749],[-1.1424911,50.8187276],[-1.1424807,50.8186803],[-1.1425004,50.8186329],[-1.1425979,50.818505],[-1.1426377,50.8184771],[-1.142702,50.8184686],[-1.1427835,50.8184805],[-1.1428496,50.8184994]]]}},
{"type":"Feature","properties":{"highway":"cycleway","name":null,"category":"Dedicated cycleway"},"geometry":{"type":"MultiLineString","coordinates":[[[-1.149024,50.8175566],[-1.1491548,50.8176233],[-1.1492278,50.8176427],[-1.1499433,50.8177068],[-1.1506825,50.8177637],[-1.1510794,50.81779],[-1.1513778,50.8178103],[-1.1517684,50.8178216],[-1.1519606,50.8178241],[-1.152186,50.8178192],[-1.1526136,50.8177979],[-1.1531008,50.8177683],[-1.1538126,50.8177801],[-1.1542689,50.8178171],[-1.1544105,50.8177965]]]}},
{"type":"Feature","properties":{"highway":"path","name":null,"category":"Shared path"},"geometry":{"type":"MultiLineString","coordinates":[[[-1.1536712,50.8151528],[-1.1532657,50.8151145]]]}},
{"type":"Feature","properties":{"highway":"path","name":null,"category":"Shared path"},"geometry":{"type":"MultiLineString","coordinates":[[[-1.1532657,50.8151145],[-1.153103,50.8151062]]]}},
{"type":"Feature","properties":{"highway":"cycleway","name":null,"category":"Dedicated cycleway"},"geometry":{"type":"MultiLineString","coordinates":[[[-1.1444728,50.8181656],[-1.1446555,50.8180364],[-1.1449198,50.8179085]]]}},
{"type":"Feature","properties":{"highway":"cycleway","name":null,"category":"Dedicated cycleway"},"geometry":{"type":"MultiLineString","coordinates":[[[-1.1456829,50.8169543],[-1.1455249,50.817015],[-1.1451557,50.8174772]]]}},
{"type":"Feature","properties":{"highway":"path","name":null,"category":"Shared path"},"geometry":{"type":"MultiLineString","coordinates":[[[-1.152853,50.8165411],[-1.153045,50.8165505],[-1.1541846,50.8165908],[-1.1547509,50.8166154],[-1.1552757,50.8166359],[-1.1553562,50.8166189],[-1.1560965,50.8158834],[-1.156193,50.8156225],[-1.156354,50.8155648],[-1.1564398,50.8155199],[-1.1565162,50.8154572],[-1.156543,50.8154021],[-1.1565565,50.8153377],[-1.1565444,50.8152615],[-1.1565189,50.8151861],[-1.1569038,50.8148734],[-1.1571801,50.8141955],[-1.1571774,50.8140803],[-1.1558417,50.8131143],[-1.1558202,50.8130482],[-1.1557585,50.8129872],[-1.1555305,50.8129516],[-1.1553749,50.8129821],[-1.1552918,50.8130516],[-1.155265,50.8131719],[-1.1543307,50.8137665]]]}},
{"type":"Feature","properties":{"highway":"path","name":null,"category":"Shared path"},"geometry":{"type":"MultiLineString","coordinates":[[[-1.1422401,50.8085224],[-1.1422983,50.8082451]]]}},
{"type":"Feature","properties":{"highway":"cycleway","name":null,"category":"Dedicated cycleway"},"geometry":{"type":"MultiLineString","coordinates":[[[-1.1338093,50.811284],[-1.1339207,50.8109086]]]}},
{"type":"Feature","properties":{"highway":"path","name":null,"category":"Shared path"},"geometry":{"type":"MultiLineString","coordinates":[[[-1.1479368,50.8111559],[-1.1462808,50.8112041]]]}},
{"type":"Feature","properties":{"highway":"path","name":null,"category":"Shared path"},"geometry":{"type":"MultiLineString","coordinates":[[[-1.1446349,50.8080893],[-1.1446676,50.8078636],[-1.144677,50.8077924],[-1.1447466,50.8077661]]]}},
{"type":"Feature","properties":{"highway":"cycleway","name":null,"category":"Dedicated cycleway"},"geometry":{"type":"MultiLineString","coordinates":[[[-1.1427308,50.8162778],[-1.1427972,50.8163277],[-1.1428848,50.8164075],[-1.1429479,50.8164576],[-1.1430498,50.816555],[-1.1430924,50.816592],[-1.1439919,50.8172973],[-1.1440463,50.8173397],[-1.1441527,50.817411],[-1.1443207,50.8174607],[-1.1445027,50.8174823],[-1.1447391,50.8174799],[-1.1451557,50.8174772]]]}},
{"type":"Feature","properties":{"highway":"cycleway","name":null,"category":"Dedicated cycleway"},"geometry":{"type":"MultiLineString","coordinates":[[[-1.1403522,50.8135166],[-1.1406682,50.8140118],[-1.1409809,50.814443],[-1.1412732,50.8148243],[-1.141577,50.8151984],[-1.1418472,50.8154776],[-1.1421404,50.8157534],[-1.1427308,50.8162778]]]}},
{"type":"Feature","properties":{"highway":"path","name":null,"category":"Shared path"},"geometry":{"type":"MultiLineString","coordinates":[[[-1.1347308,50.8133785],[-1.135025,50.8135371],[-1.1357975,50.814004],[-1.1371158,50.814676],[-1.1386058,50.8153496],[-1.1393233,50.8156036]]]}},
{"type":"Feature","properties":{"highway":"cycleway","name":null,"category":"Dedicated cycleway"},"geometry":{"type":"MultiLineString","coordinates":[[[-1.1451557,50.8174772],[-1.1456413,50.8174878],[-1.1464743,50.8175063],[-1.1475041,50.8175301],[-1.1484394,50.8175843],[-1.1486008,50.8175936],[-1.1487,50.8175234]]]}},
{"type":"Feature","properties":{"highway":"cycleway","name":null,"category":"Dedicated cycleway"},"geometry":{"type":"MultiLineString","coordinates":[[[-1.1487,50.8175234],[-1.1487745,50.8175384],[-1.1488208,50.8175476],[-1.1488677,50.8175572],[-1.148947,50.8175605],[-1.149024,50.8175566]]]}},
{"type":"Feature","properties":{"highway":"cycleway","name":null,"category":"Dedicated cycleway"},"geometry":{"type":"MultiLineString","coordinates":[[[-1.148433,50.8177083],[-1.1484378,50.8176418],[-1.1484394,50.8175843]]]}},
{"type":"Feature","properties":{"highway":"cycleway","name":null,"category":"Dedicated cycleway"},"geometry":{"type":"MultiLineString","coordinates":[[[-1.148433,50.8177083],[-1.1482777,50.8177013],[-1.1482251,50.817721],[-1.1481782,50.8177429],[-1.1481469,50.8177895]]]}},
{"type":"Feature","properties":{"highway":"cycleway","name":null,"category":"Dedicated cycleway"},"geometry":{"type":"MultiLineString","coordinates":[[[-1.1481469,50.8177895],[-1.1480023,50.8178475]]]}},
{"type":"Feature","properties":{"highway":"cycleway","name":null,"category":"Dedicated cycleway"},"geometry":{"type":"MultiLineString","coordinates":[[[-1.1451874,50.8176878],[-1.1451452,50.8176568],[-1.1451225,50.8176331],[-1.1451144,50.8176072],[-1.1451072,50.8175699],[-1.1451073,50.8175366],[-1.1451091,50.8175022],[-1.1451557,50.8174772]]]}},
{"type":"Feature","properties":{"highway":"cycleway","name":null,"category":"Dedicated cycleway"},"geometry":{"type":"MultiLineString","coordinates":[[[-1.1449198,50.8179085],[-1.145035,50.8178416],[-1.1451874,50.8176878]]]}},
{"type":"Feature","properties":{"highway":"cycleway","name":null,"category":"Dedicated cycleway"},"geometry":{"type":"MultiLineString","coordinates":[[[-1.1444088,50.81816],[-1.1444728,50.8181656]]]}},
{"type":"Feature","properties":{"highway":"cycleway","name":null,"category":"Dedicated cycleway"},"geometry":{"type":"MultiLineString","coordinates":[[[-1.1403358,50.813485],[-1.1403522,50.8135166]]]}},
{"type":"Feature","properties":{"highway":"cycleway","name":null,"category":"Dedicated cycleway"},"geometry":{"type":"MultiLineString","coordinates":[[[-1.1403677,50.8134072],[-1.1403526,50.8134463],[-1.1403358,50.813485]]]}},
{"type":"Feature","properties":{"highway":"cycleway","name":null,"category":"Dedicated cycleway"},"geometry":{"type":"MultiLineString","coordinates":[[[-1.1370534,50.8107879],[-1.1370807,50.8108142],[-1.1371202,50.8108215],[-1.1375752,50.8109052],[-1.1378743,50.8109812],[-1.1380298,50.8110322],[-1.1381368,50.811067],[-1.1382334,50.8111095],[-1.1383315,50.8111564],[-1.1385092,50.8112478],[-1.1386433,50.8113254],[-1.1387613,50.8113983],[-1.1388881,50.8114877],[-1.1390105,50.8115874],[-1.1392015,50.8117631],[-1.1392938,50.8118695],[-1.1393766,50.8119857],[-1.1395459,50.8122542],[-1.1397095,50.8125135],[-1.139845,50.8127228],[-1.1399764,50.8129355],[-1.1401009,50.8131178],[-1.1401092,50.8131558],[-1.1401185,50.8131719],[-1.1402148,50.8133073],[-1.1402657,50.8133787],[-1.1403677,50.8134072]]]}},
{"type":"Feature","properties":{"highway":"cycleway","name":null,"category":"Dedicated cycleway"},"geometry":{"type":"MultiLineString","coordinates":[[[-1.1369465,50.8107766],[-1.1369989,50.8107824],[-1.1370534,50.8107879]]]}},
{"type":"Feature","properties":{"highway":"cycleway","name":null,"category":"Dedicated cycleway"},"geometry":{"type":"MultiLineString","coordinates":[[[-1.1352174,50.8106545],[-1.1352285,50.8106095],[-1.1352419,50.8105551]]]}},
{"type":"Feature","properties":{"highway":"cycleway","name":null,"category":"Dedicated cycleway"},"geometry":{"type":"MultiLineString","coordinates":[[[-1.1350553,50.8106581],[-1.1351166,50.8106477],[-1.1352174,50.8106545]]]}},
{"type":"Feature","properties":{"highway":"cycleway","name":null,"category":"Dedicated cycleway"},"geometry":{"type":"MultiLineString","coordinates":[[[-1.1348829,50.810506],[-1.1352419,50.8105551],[-1.1358234,50.8106459],[-1.1368715,50.810778],[-1.1369198,50.8107841],[-1.1369465,50.8107766]]]}},
{"type":"Feature","properties":{"highway":"cycleway","name":null,"category":"Dedicated cycleway"},"geometry":{"type":"MultiLineString","coordinates":[[[-1.1343591,50.8103864],[-1.1343698,50.8104317],[-1.134444,50.8104641],[-1.1348829,50.810506]]]}},
{"type":"Feature","properties":{"highway":"cycleway","name":null,"category":"Dedicated cycleway"},"geometry":{"type":"MultiLineString","coordinates":[[[-1.1350553,50.8106581],[-1.1349749,50.8106934],[-1.1349492,50.8107195],[-1.1349335,50.8107485],[-1.1349101,50.8108268]]]}},
{"type":"Feature","properties":{"highway":"cycleway","name":null,"category":"Dedicated cycleway"},"geometry":{"type":"MultiLineString","coordinates":[[[-1.1349101,50.8108268],[-1.1348436,50.8108188]]]}}
]
}
