{
"type": "FeatureCollection",
"name": "ASHFO_504_cycling",
"crs": { "type": "name", "properties": { "name": "urn:ogc:def:crs:OGC:1.3:CRS84" } },
"features": [
{"type":"Feature","properties":{"highway":"bridleway","name":null,"category":"Bridleway"},"geometry":{"type":"MultiLineString","coordinates":[[[0.8584481,51.0682001],[0.8583993,51.0681866]]]}},
{"type":"Feature","properties":{"highway":"bridleway","name":null,"category":"Bridleway"},"geometry":{"type":"MultiLineString","coordinates":[[[0.8583993,51.0681866],[0.8582883,51.0681754],[0.8582215,51.0681791],[0.8579888,51.0681672]]]}},
{"type":"Feature","properties":{"highway":"bridleway","name":null,"category":"Bridleway"},"geometry":{"type":"MultiLineString","coordinates":[[[0.8591038,51.0690841],[0.8588601,51.0687942],[0.8587631,51.0686281],[0.8587048,51.0684432],[0.8586275,51.0682595],[0.8584481,51.0682001]]]}},
{"type":"Feature","properties":{"highway":"path","name":null,"category":"Shared path"},"geometry":{"type":"MultiLineString","coordinates":[[[0.8579888,51.0681672],[0.8579888,51.0682265],[0.8562007,51.06835],[0.8556958,51.0682943],[0.8553759,51.0682557],[0.8549112,51.0681779],[0.8547819,51.0681593],[0.8547127,51.0681722],[0.8546284,51.0681329],[0.8545682,51.0681418],[0.8545572,51.0681464]]]}},
{"type":"Feature","properties":{"highway":"path","name":null,"category":"Shared path"},"geometry":{"type":"MultiLineString","coordinates":[[[0.8519151,51.0762097],[0.8508049,51.0746469],[0.8505112,51.0741248],[0.8495815,51.0736312]]]}},
{"type":"Feature","properties":{"highway":"path","name":null,"category":"Shared path"},"geometry":{"type":"MultiLineString","coordinates":[[[0.8486727,51.0607842],[0.8502857,51.061955],[0.8503144,51.0619758],[0.8520525,51.0624911]]]}},
{"type":"Feature","properties":{"highway":"path","name":null,"category":"Shared path"},"geometry":{"type":"MultiLineString","coordinates":[[[0.8462832,51.0677138],[0.848514,51.0696826],[0.8488834,51.0698207]]]}},
{"type":"Feature","properties":{"highway":"bridleway","name":null,"category":"Bridleway"},"geometry":{"type":"MultiLineString","coordinates":[[[0.8368653,51.076509],[0.8372326,51.0765009],[0.837792,51.0765547],[0.8378365,51.0765566],[0.8379535,51.0765175],[0.8393891,51.0742768],[0.8394506,51.0742371],[0.839835,51.074148],[0.8399956,51.0740782],[0.8402006,51.0739097],[0.8404464,51.0733289],[0.8405185,51.0732416],[0.8405559,51.0731393],[0.8405772,51.0730303],[0.8405105,51.0727368],[0.8403557,51.0725741],[0.8403824,51.0723174],[0.8404438,51.0722218],[0.8407534,51.0718947],[0.8408549,51.0717538],[0.8409483,51.071519],[0.8409821,51.0710229],[0.8412553,51.0705209],[0.8413033,51.0703247],[0.8413567,51.0702072],[0.8416798,51.0699707],[0.8427724,51.0690655],[0.8429931,51.0688619],[0.8430747,51.0687555],[0.8432173,51.0685742],[0.8433444,51.0683019],[0.8433772,51.068119],[0.8434346,51.0679996],[0.8435754,51.0678484],[0.8436984,51.0677505],[0.8438938,51.0673906],[0.8440401,51.067017],[0.8442109,51.0668109],[0.8451305,51.06628],[0.8451555,51.0662408],[0.8454967,51.0658313],[0.8456156,51.0657093],[0.8457905,51.0654636],[0.845904,51.0652815],[0.84596,51.0651243],[0.8459696,51.0649809],[0.8459614,51.0646777],[0.845852,51.064341],[0.8457837,51.0641563],[0.8457804,51.0640781]]]}},
{"type":"Feature","properties":{"highway":"path","name":null,"category":"Shared path"},"geometry":{"type":"MultiLineString","coordinates":[[[0.8549124,51.0678741],[0.8548685,51.0679046],[0.8548113,51.0679229],[0.8547809,51.0679618],[0.8547879,51.0680095],[0.8548078,51.0680682],[0.8548008,51.0681283],[0.8547819,51.0681593]]]}},
{"type":"Feature","properties":{"highway":"path","name":null,"category":"Shared path"},"geometry":{"type":"MultiLineString","coordinates":[[[0.8545202,51.0681622],[0.8544977,51.0681718],[0.854471,51.0681832],[0.8544393,51.0681966],[0.8544682,51.068266],[0.8543222,51.0683244]]]}},
{"type":"Feature","properties":{"highway":"path","name":null,"category":"Shared path"},"geometry":{"type":"MultiLineString","coordinates":[[[0.8545572,51.0681464],[0.8545202,51.0681622]]]}},
{"type":"Feature","properties":{"highway":"track","name":null,"category":"Track"},"geometry":{"type":"MultiLineString","coordinates":[[[0.8532492,51.0685037],[0.8531925,51.0684885],[0.8531052,51.0684697],[0.8529639,51.0684381],[0.8528155,51.0684088],[0.8527031,51.0683933],[0.8526281,51.0683791],[0.8525942,51.0683655],[0.8525798,51.0683491],[0.8525809,51.0683239],[0.8526101,51.0682597],[0.8526558,51.0681464],[0.8527139,51.0680073],[0.8527508,51.067876],[0.8528191,51.0677198],[0.8528643,51.0675791],[0.852889,51.0675097]]]}},
{"type":"Feature","properties":{"highway":"path","name":null,"category":"Shared path"},"geometry":{"type":"MultiLineString","coordinates":[[[0.8526281,51.0683791],[0.8525728,51.0683739],[0.8525353,51.0683551],[0.8525234,51.0683365],[0.8525397,51.0682903],[0.8525564,51.0682319],[0.8525751,51.0681803],[0.8526133,51.0680759],[0.8526385,51.0679956],[0.852641,51.0678693],[0.8526616,51.0677453],[0.8526472,51.0676834],[0.8526143,51.0676201],[0.8524664,51.0674962],[0.8523206,51.0673736],[0.851994,51.0671529],[0.8516613,51.066936],[0.8515503,51.0668199],[0.8514374,51.0666533],[0.8513778,51.0665062],[0.851308,51.066359],[0.8511375,51.066177],[0.8509136,51.0659834],[0.850799,51.0658556],[0.8507658,51.065742],[0.8507541,51.0657289]]]}},
{"type":"Feature","properties":{"highway":"track","name":null,"category":"Track"},"geometry":{"type":"MultiLineString","coordinates":[[[0.8523589,51.063251],[0.8524832,51.0631623],[0.8524809,51.0629913],[0.8523368,51.0628906],[0.8521263,51.06279],[0.8518884,51.0627023]]]}},
{"type":"Feature","properties":{"highway":"path","name":null,"category":"Shared path"},"geometry":{"type":"MultiLineString","coordinates":[[[0.8506946,51.0656625],[0.85075,51.0653494],[0.8506986,51.0651431],[0.8505957,51.0649617],[0.8504653,51.064825],[0.8503229,51.0646908],[0.8502952,51.0645989],[0.8503269,51.0644771],[0.8503888,51.0643793]]]}},
{"type":"Feature","properties":{"highway":"path","name":null,"category":"Shared path"},"geometry":{"type":"MultiLineString","coordinates":[[[0.8502952,51.0645989],[0.8502478,51.0647008],[0.8502399,51.0647927],[0.8502201,51.0649194],[0.8501252,51.0650338],[0.8499789,51.0650934],[0.8498128,51.0651406],[0.84971,51.0651754]]]}},
{"type":"Feature","properties":{"highway":"path","name":null,"category":"Shared path"},"geometry":{"type":"MultiLineString","coordinates":[[[0.8506985,51.0656668],[0.8506946,51.0656625],[0.8505681,51.0656177],[0.8504692,51.0655531],[0.8504455,51.0654885],[0.8504059,51.0653941],[0.8503229,51.0652673],[0.8502636,51.0652027],[0.8501015,51.0651853],[0.8499037,51.0651704],[0.84971,51.0651754],[0.8495836,51.0652056]]]}},
{"type":"Feature","properties":{"highway":"path","name":null,"category":"Shared path"},"geometry":{"type":"MultiLineString","coordinates":[[[0.8507541,51.0657289],[0.8506985,51.0656668]]]}},
{"type":"Feature","properties":{"highway":"track","name":null,"category":"Track"},"geometry":{"type":"MultiLineString","coordinates":[[[0.8470482,51.0640337],[0.8470137,51.0641444],[0.8469117,51.0642248],[0.8468788,51.0644032],[0.8469663,51.0648826],[0.8471641,51.065416]]]}},
{"type":"Feature","properties":{"highway":"path","name":null,"category":"Shared path"},"geometry":{"type":"MultiLineString","coordinates":[[[0.8451305,51.06628],[0.8451508,51.0663076],[0.8462104,51.0676599]]]}},
{"type":"Feature","properties":{"highway":"path","name":null,"category":"Shared path"},"geometry":{"type":"MultiLineString","coordinates":[[[0.8462104,51.0676599],[0.8462832,51.0677138]]]}}
]
}
