{
"type": "FeatureCollection",
"name": "ASHFO_34_cycling",
"crs": { "type": "name", "properties": { "name": "urn:ogc:def:crs:OGC:1.3:CRS84" } },
"features": [
{"type":"Feature","properties":{"highway":"track","name":null,"category":"Track"},"geometry":{"type":"MultiLineString","coordinates":[[[0.8613123,51.1220403],[0.861305,51.1221364],[0.8612439,51.1224421],[0.8612012,51.1226324],[0.8611842,51.1227689]]]}},
{"type":"Feature","properties":{"highway":"cycleway","name":null,"category":"Dedicated cycleway"},"geometry":{"type":"MultiLineString","coordinates":[[[0.873241,51.1188091],[0.8732026,51.1187614],[0.8732804,51.1187341],[0.8732539,51.1186994]]]}},
{"type":"Feature","properties":{"highway":"cycleway","name":null,"category":"Dedicated cycleway"},"geometry":{"type":"MultiLineString","coordinates":[[[0.875204,51.1204354],[0.8751815,51.1204222],[0.8751885,51.1203804]]]}},
{"type":"Feature","properties":{"highway":"bridleway","name":null,"category":"Bridleway"},"geometry":{"type":"MultiLineString","coordinates":[[[0.8709774,51.1173327],[0.8708962,51.1173392],[0.8707909,51.1173797],[0.8707806,51.1173872],[0.8707437,51.1173966],[0.8704799,51.1173657],[0.8703316,51.1173722],[0.8701927,51.1174011],[0.8700948,51.1174086],[0.8700015,51.1173955],[0.8699673,51.1173834],[0.8698878,51.1173554],[0.8698327,51.1173309],[0.8697041,51.1172737],[0.8696845,51.117265],[0.8695073,51.1171969],[0.8692845,51.1171092],[0.8688214,51.1169511],[0.8686491,51.116889]]]}},
{"type":"Feature","properties":{"highway":"cycleway","name":null,"category":"Dedicated cycleway"},"geometry":{"type":"MultiLineString","coordinates":[[[0.871007,51.1173863],[0.8709774,51.1173327]]]}},
{"type":"Feature","properties":{"highway":"cycleway","name":null,"category":"Dedicated cycleway"},"geometry":{"type":"MultiLineString","coordinates":[[[0.8741754,51.1157296],[0.8743201,51.1157063],[0.8746718,51.1156112],[0.8750271,51.1155268],[0.8759022,51.1153793],[0.8760285,51.1153633],[0.8761769,51.115354],[0.8763509,51.1153607],[0.876597,51.115375],[0.8767641,51.1153895],[0.876918,51.1153969],[0.8770438,51.1153861],[0.8771356,51.11537],[0.8772328,51.1153423],[0.8773224,51.1153144],[0.8773939,51.1152796],[0.8774775,51.1152213],[0.8776369,51.1150978],[0.8777269,51.1150116],[0.8778015,51.1149004],[0.8778593,51.1147511],[0.8778749,51.1145513],[0.8778679,51.114437],[0.8778323,51.114377],[0.8778228,51.1142847],[0.8778189,51.1141803],[0.8778111,51.1140794],[0.8778389,51.1139953],[0.8778967,51.1139251],[0.877994,51.1138344],[0.8781255,51.1137465],[0.8781754,51.1137133],[0.8784773,51.1135124],[0.8785569,51.113481],[0.8787103,51.1134715],[0.8795915,51.1134532],[0.8797122,51.1134846]]]}},
{"type":"Feature","properties":{"highway":"cycleway","name":"Great Oak Row","category":"Dedicated cycleway"},"geometry":{"type":"MultiLineString","coordinates":[[[0.8668639,51.1228175],[0.8669195,51.1227765],[0.8669901,51.1227367]]]}},
{"type":"Feature","properties":{"highway":"cycleway","name":null,"category":"Dedicated cycleway"},"geometry":{"type":"MultiLineString","coordinates":[[[0.8650652,51.1210864],[0.8651624,51.1210023]]]}},
{"type":"Feature","properties":{"highway":"cycleway","name":null,"category":"Dedicated cycleway"},"geometry":{"type":"MultiLineString","coordinates":[[[0.865921,51.1213666],[0.8659062,51.1214299],[0.8658977,51.1214663],[0.8659067,51.121503],[0.8659258,51.1215803]]]}},
{"type":"Feature","properties":{"highway":"cycleway","name":null,"category":"Dedicated cycleway"},"geometry":{"type":"MultiLineString","coordinates":[[[0.8627755,51.1235564],[0.8627079,51.1235747],[0.8625508,51.1235995],[0.8623288,51.1232338],[0.8622211,51.1230595],[0.8621954,51.1229489],[0.8621752,51.1228369]]]}},
{"type":"Feature","properties":{"highway":"cycleway","name":null,"category":"Dedicated cycleway"},"geometry":{"type":"MultiLineString","coordinates":[[[0.8624335,51.1248022],[0.862493,51.1247522],[0.8625952,51.1246738],[0.8626958,51.1245862],[0.8628093,51.1244598],[0.8628694,51.124372],[0.8629239,51.1242911],[0.8629677,51.1241952],[0.8629718,51.1240586],[0.8629608,51.1239709],[0.862934,51.123856],[0.8628848,51.1237463],[0.8627755,51.1235564],[0.8626917,51.1234381],[0.8626378,51.1233526],[0.8626062,51.1232997],[0.8625499,51.1232007],[0.8625217,51.1231192],[0.8625129,51.1230603],[0.8625185,51.1230168],[0.862542,51.1229824],[0.8625846,51.1229337],[0.8626516,51.1229072],[0.8627374,51.122898],[0.8627812,51.1229044],[0.8628221,51.1229112],[0.8628608,51.1229217],[0.8628951,51.1229405],[0.8630512,51.1230167],[0.8631795,51.1230833],[0.8632974,51.1231824],[0.8633752,51.1231559]]]}},
{"type":"Feature","properties":{"highway":"cycleway","name":null,"category":"Dedicated cycleway"},"geometry":{"type":"MultiLineString","coordinates":[[[0.8634654,51.1229121],[0.8634286,51.122806],[0.8634233,51.122758],[0.8634294,51.1227153],[0.8634392,51.1226648],[0.8634633,51.1226214],[0.8635124,51.1225338],[0.8635964,51.1224604],[0.8637565,51.1223693],[0.8641498,51.1221897],[0.8643346,51.1221059],[0.8646568,51.1219598],[0.8648904,51.1218394],[0.8650278,51.1217855],[0.8651265,51.1217651],[0.8652253,51.1217602],[0.8653182,51.1217662],[0.8654819,51.1218273]]]}},
{"type":"Feature","properties":{"highway":"cycleway","name":null,"category":"Dedicated cycleway"},"geometry":{"type":"MultiLineString","coordinates":[[[0.8636745,51.1232444],[0.8636564,51.1231544],[0.8635753,51.1230499],[0.8634654,51.1229121]]]}},
{"type":"Feature","properties":{"highway":"cycleway","name":null,"category":"Dedicated cycleway"},"geometry":{"type":"MultiLineString","coordinates":[[[0.8637565,51.1223693],[0.8636991,51.1223264],[0.8635917,51.122243],[0.8635246,51.1221826]]]}},
{"type":"Feature","properties":{"highway":"cycleway","name":null,"category":"Dedicated cycleway"},"geometry":{"type":"MultiLineString","coordinates":[[[0.8633752,51.1231559],[0.8634536,51.1231208],[0.8633805,51.1230617],[0.8632991,51.1229549],[0.8633688,51.1229342]]]}},
{"type":"Feature","properties":{"highway":"cycleway","name":null,"category":"Dedicated cycleway"},"geometry":{"type":"MultiLineString","coordinates":[[[0.8633688,51.1229342],[0.8634654,51.1229121]]]}},
{"type":"Feature","properties":{"highway":"cycleway","name":null,"category":"Dedicated cycleway"},"geometry":{"type":"MultiLineString","coordinates":[[[0.8714615,51.1171481],[0.8715972,51.1171788],[0.8721286,51.116965],[0.8721951,51.1169299],[0.8722995,51.1168493],[0.8723902,51.1167566],[0.8724836,51.1166277]]]}},
{"type":"Feature","properties":{"highway":"cycleway","name":null,"category":"Dedicated cycleway"},"geometry":{"type":"MultiLineString","coordinates":[[[0.8726333,51.1164032],[0.872648,51.1164216],[0.8726994,51.1164165]]]}},
{"type":"Feature","properties":{"highway":"cycleway","name":null,"category":"Dedicated cycleway"},"geometry":{"type":"MultiLineString","coordinates":[[[0.8709774,51.1173327],[0.871226,51.1172937],[0.8713707,51.117168]]]}},
{"type":"Feature","properties":{"highway":"cycleway","name":"Great Oak Row","category":"Dedicated cycleway"},"geometry":{"type":"MultiLineString","coordinates":[[[0.8744684,51.1200419],[0.874613,51.1199999]]]}},
{"type":"Feature","properties":{"highway":"cycleway","name":"Great Oak Row","category":"Dedicated cycleway"},"geometry":{"type":"MultiLineString","coordinates":[[[0.874613,51.1199999],[0.8747877,51.1199387]]]}},
{"type":"Feature","properties":{"highway":"cycleway","name":null,"category":"Dedicated cycleway"},"geometry":{"type":"MultiLineString","coordinates":[[[0.8621752,51.1228369],[0.8622876,51.1226878],[0.8623998,51.1225197],[0.8624392,51.1223995],[0.8623725,51.1222554],[0.8624478,51.1222337],[0.8625332,51.1222071],[0.8626049,51.1221863],[0.8626412,51.1221555],[0.8626862,51.1221219],[0.8629114,51.1221962],[0.8631212,51.1222421],[0.8632917,51.1222443],[0.8634273,51.1222159],[0.8635246,51.1221826],[0.8638201,51.1220739],[0.8641086,51.1219159],[0.8642854,51.1218122],[0.8643945,51.1217408],[0.8645279,51.1216381],[0.8646191,51.1215644],[0.864661,51.1215091],[0.8646539,51.1214532],[0.8647366,51.12128],[0.8648001,51.1212012],[0.8648402,51.1211321]]]}},
{"type":"Feature","properties":{"highway":"cycleway","name":null,"category":"Dedicated cycleway"},"geometry":{"type":"MultiLineString","coordinates":[[[0.8632974,51.1231824],[0.8633981,51.1232771],[0.8635202,51.1232932]]]}},
{"type":"Feature","properties":{"highway":"cycleway","name":null,"category":"Dedicated cycleway"},"geometry":{"type":"MultiLineString","coordinates":[[[0.8729233,51.120355],[0.8729465,51.120479]]]}},
{"type":"Feature","properties":{"highway":"path","name":null,"category":"Shared path"},"geometry":{"type":"MultiLineString","coordinates":[[[0.8715031,51.1128262],[0.8715656,51.1128132],[0.871626,51.112802],[0.8716413,51.1127906],[0.8717475,51.1127115],[0.8719854,51.1125065],[0.8721439,51.1124412],[0.872396,51.1123685],[0.8726955,51.1123122],[0.8728625,51.1122559],[0.8732542,51.1120949],[0.8735261,51.1119588],[0.8736298,51.1118353],[0.8736921,51.1117962],[0.873721,51.1117781],[0.8737703,51.1117333],[0.8737871,51.1116948],[0.8738039,51.1116562],[0.873842,51.1116084],[0.8739066,51.1115625],[0.8739941,51.1115249],[0.8745295,51.1113733],[0.8748221,51.1112999],[0.8749495,51.1112586]]]}},
{"type":"Feature","properties":{"highway":"path","name":null,"category":"Shared path"},"geometry":{"type":"MultiLineString","coordinates":[[[0.8563856,51.1144653],[0.8563395,51.1143952],[0.8565495,51.1143178],[0.8575945,51.1127356],[0.8588189,51.1109676],[0.8589086,51.1109246]]]}},
{"type":"Feature","properties":{"highway":"path","name":null,"category":"Shared path"},"geometry":{"type":"MultiLineString","coordinates":[[[0.8545374,51.1120394],[0.8559705,51.1123266],[0.8575945,51.1127356],[0.8607154,51.11347]]]}},
{"type":"Feature","properties":{"highway":"path","name":null,"category":"Shared path"},"geometry":{"type":"MultiLineString","coordinates":[[[0.8629212,51.1127665],[0.8628458,51.1128634],[0.8628448,51.1130107],[0.8629911,51.114669]]]}},
{"type":"Feature","properties":{"highway":"path","name":null,"category":"Shared path"},"geometry":{"type":"MultiLineString","coordinates":[[[0.8662433,51.122237],[0.866194,51.1222601],[0.8661486,51.1222772],[0.86607,51.1223156],[0.8660633,51.1223257],[0.8660068,51.1224105],[0.865905,51.1224561],[0.8651605,51.1227874],[0.8650812,51.1228194]]]}},
{"type":"Feature","properties":{"highway":"bridleway","name":null,"category":"Bridleway"},"geometry":{"type":"MultiLineString","coordinates":[[[0.873501,51.1115718],[0.873721,51.1117781]]]}},
{"type":"Feature","properties":{"highway":"path","name":null,"category":"Shared path"},"geometry":{"type":"MultiLineString","coordinates":[[[0.8625749,51.1125591],[0.8629372,51.1123534],[0.8631453,51.1122446],[0.8634805,51.1118405],[0.8642513,51.1111776],[0.8644671,51.1110566],[0.8644132,51.1108122],[0.8649989,51.1105485],[0.8661435,51.1097138],[0.8662091,51.1095541],[0.866764,51.1087968],[0.8669584,51.1085184],[0.8670313,51.1084952]]]}},
{"type":"Feature","properties":{"highway":"cycleway","name":"Bramble Walk","category":"Dedicated cycleway"},"geometry":{"type":"MultiLineString","coordinates":[[[0.8758469,51.1141599],[0.875619,51.1140775],[0.8754773,51.1140327],[0.8754231,51.1140059],[0.875382,51.1139825],[0.875354,51.1139481],[0.8753474,51.1139099],[0.8753611,51.1138528],[0.8753525,51.1138221],[0.8753207,51.1137885],[0.8752778,51.1137713],[0.8752321,51.1137621],[0.8751864,51.1137472],[0.8751828,51.1137208],[0.8751956,51.1136956],[0.8753198,51.1136244],[0.8754349,51.1135522],[0.8755172,51.1134971],[0.8755849,51.1134547],[0.8756191,51.1134005],[0.875668,51.1133361],[0.8757151,51.1132969],[0.8757909,51.1132599],[0.87587,51.1132261],[0.875965,51.1131782],[0.8760414,51.1131419],[0.8761338,51.1131153],[0.8762653,51.1131094],[0.8763455,51.1131065],[0.8763967,51.1130805],[0.8764622,51.1130424],[0.8765178,51.1129836],[0.876571,51.1129025],[0.8766191,51.1128009]]]}},
{"type":"Feature","properties":{"highway":"path","name":null,"category":"Shared path"},"geometry":{"type":"MultiLineString","coordinates":[[[0.870374,51.1122006],[0.8704175,51.1121403],[0.8706266,51.1120064]]]}},
{"type":"Feature","properties":{"highway":"path","name":null,"category":"Shared path"},"geometry":{"type":"MultiLineString","coordinates":[[[0.8705865,51.1125389],[0.8706107,51.1125883],[0.8706369,51.1128856]]]}},
{"type":"Feature","properties":{"highway":"path","name":null,"category":"Shared path"},"geometry":{"type":"MultiLineString","coordinates":[[[0.8743966,51.1110989],[0.8744934,51.1112506],[0.874508,51.1112863]]]}},
{"type":"Feature","properties":{"highway":"path","name":null,"category":"Shared path"},"geometry":{"type":"MultiLineString","coordinates":[[[0.8583624,51.1184696],[0.8584358,51.1184488],[0.8584485,51.1184452],[0.8585468,51.1184195],[0.8586511,51.11841],[0.858787,51.1184422],[0.8588599,51.1184946],[0.8589157,51.1184771],[0.8589385,51.1185102]]]}},
{"type":"Feature","properties":{"highway":"cycleway","name":null,"category":"Dedicated cycleway"},"geometry":{"type":"MultiLineString","coordinates":[[[0.87019,51.1163905],[0.870545,51.1162442],[0.8709614,51.1160746],[0.8711369,51.1160281],[0.8713426,51.1159492],[0.8718287,51.1157462],[0.872006,51.1156695],[0.872135,51.1156328],[0.8725366,51.1154641],[0.8732488,51.1151212],[0.8732854,51.1150744],[0.8733009,51.1150276],[0.8732981,51.1149958],[0.8733907,51.1149672]]]}},
{"type":"Feature","properties":{"highway":"track","name":null,"category":"Track"},"geometry":{"type":"MultiLineString","coordinates":[[[0.8611842,51.1227689],[0.8612,51.1229824],[0.8612211,51.1232519],[0.861773,51.1236889],[0.8628878,51.1242705]]]}},
{"type":"Feature","properties":{"highway":"path","name":null,"category":"Shared path"},"geometry":{"type":"MultiLineString","coordinates":[[[0.8629911,51.114669],[0.8607154,51.11347]]]}},
{"type":"Feature","properties":{"highway":"path","name":null,"category":"Shared path"},"geometry":{"type":"MultiLineString","coordinates":[[[0.8652381,51.1164574],[0.864979,51.1161746],[0.8646089,51.1159024],[0.8629911,51.114669]]]}},
{"type":"Feature","properties":{"highway":"cycleway","name":null,"category":"Dedicated cycleway"},"geometry":{"type":"MultiLineString","coordinates":[[[0.8648402,51.1211321],[0.8649062,51.1211301],[0.8649562,51.1211177]]]}},
{"type":"Feature","properties":{"highway":"cycleway","name":null,"category":"Dedicated cycleway"},"geometry":{"type":"MultiLineString","coordinates":[[[0.8659258,51.1215803],[0.8657778,51.121659],[0.8657205,51.1217308],[0.8657462,51.1217943],[0.8659371,51.1219739],[0.8662433,51.122237],[0.866476,51.1224538],[0.8667035,51.1226409],[0.8667353,51.1226583],[0.8668278,51.1227091],[0.8669195,51.1227765]]]}},
{"type":"Feature","properties":{"highway":"cycleway","name":null,"category":"Dedicated cycleway"},"geometry":{"type":"MultiLineString","coordinates":[[[0.8654819,51.1218273],[0.8655411,51.1217795],[0.8655672,51.1217491],[0.8656188,51.121741],[0.865675,51.1217396],[0.8657205,51.1217308]]]}},
{"type":"Feature","properties":{"highway":"path","name":null,"category":"Shared path"},"geometry":{"type":"MultiLineString","coordinates":[[[0.8645944,51.1223917],[0.8640543,51.1226265]]]}},
{"type":"Feature","properties":{"highway":"cycleway","name":"Great Oak Row","category":"Dedicated cycleway"},"geometry":{"type":"MultiLineString","coordinates":[[[0.8669901,51.1227367],[0.8670727,51.1227007],[0.867262,51.1226214]]]}},
{"type":"Feature","properties":{"highway":"cycleway","name":"Great Oak Row","category":"Dedicated cycleway"},"geometry":{"type":"MultiLineString","coordinates":[[[0.8688116,51.1225218],[0.86901,51.1224641],[0.8692083,51.1224319],[0.8692585,51.1224238],[0.8693926,51.1223975],[0.8694637,51.1223632],[0.8696031,51.1222886],[0.8697396,51.1222052],[0.8698404,51.1221367],[0.8699221,51.1220956],[0.8699978,51.1220576],[0.8704501,51.1218669],[0.8707669,51.1216391],[0.8708467,51.1215129],[0.8708701,51.1214017],[0.8709453,51.1212465],[0.8710496,51.121131],[0.8711591,51.1210361],[0.8713135,51.1209568],[0.8713794,51.1209345],[0.8715226,51.1208859],[0.8716978,51.1208227],[0.8720911,51.1206674],[0.8722875,51.1205127],[0.8724843,51.1203876],[0.8725821,51.1203531],[0.872712,51.1203464],[0.8729233,51.120355],[0.8729978,51.1203608],[0.8730763,51.1203609],[0.8731424,51.1203578],[0.8732116,51.1203516],[0.8733135,51.1203308],[0.8733772,51.1203112],[0.8734369,51.1202904],[0.873568,51.120244],[0.8741194,51.1201148],[0.874251,51.1200801],[0.8744684,51.1200419]]]}},
{"type":"Feature","properties":{"highway":"cycleway","name":"Great Oak Row","category":"Dedicated cycleway"},"geometry":{"type":"MultiLineString","coordinates":[[[0.867262,51.1226214],[0.8674465,51.1225753],[0.8675188,51.122566],[0.8676518,51.122549],[0.8678185,51.1225448]]]}},
{"type":"Feature","properties":{"highway":"cycleway","name":"Great Oak Row","category":"Dedicated cycleway"},"geometry":{"type":"MultiLineString","coordinates":[[[0.8678185,51.1225448],[0.8680633,51.1225798],[0.8682648,51.1225926],[0.8684161,51.1225897],[0.8686445,51.1225699],[0.8688116,51.1225218]]]}},
{"type":"Feature","properties":{"highway":"cycleway","name":null,"category":"Dedicated cycleway"},"geometry":{"type":"MultiLineString","coordinates":[[[0.8735389,51.1219344],[0.8736347,51.1219344],[0.8737693,51.1218044],[0.8737512,51.121733]]]}},
{"type":"Feature","properties":{"highway":"cycleway","name":null,"category":"Dedicated cycleway"},"geometry":{"type":"MultiLineString","coordinates":[[[0.8701437,51.1200867],[0.8702265,51.1200714],[0.8703509,51.1199313],[0.8703308,51.1198721]]]}},
{"type":"Feature","properties":{"highway":"cycleway","name":null,"category":"Dedicated cycleway"},"geometry":{"type":"MultiLineString","coordinates":[[[0.8651624,51.1210023],[0.8653015,51.1210276],[0.8653686,51.121039],[0.8655153,51.1210459],[0.8656775,51.1210875],[0.8658139,51.1211682],[0.8658635,51.1212184],[0.865921,51.1213666]]]}},
{"type":"Feature","properties":{"highway":"cycleway","name":null,"category":"Dedicated cycleway"},"geometry":{"type":"MultiLineString","coordinates":[[[0.8762939,51.1209912],[0.8762267,51.1209849],[0.8761911,51.1209748],[0.8761569,51.1209527],[0.8761364,51.1209409],[0.876051,51.1208804],[0.8759817,51.1208324],[0.8758988,51.1207577],[0.8758028,51.1206796],[0.8755787,51.120571],[0.8754695,51.1205629]]]}},
{"type":"Feature","properties":{"highway":"cycleway","name":null,"category":"Dedicated cycleway"},"geometry":{"type":"MultiLineString","coordinates":[[[0.8735311,51.1188784],[0.8734284,51.1188921]]]}},
{"type":"Feature","properties":{"highway":"cycleway","name":null,"category":"Dedicated cycleway"},"geometry":{"type":"MultiLineString","coordinates":[[[0.8736111,51.1189205],[0.8735759,51.1188761],[0.8735311,51.1188784]]]}},
{"type":"Feature","properties":{"highway":"cycleway","name":null,"category":"Dedicated cycleway"},"geometry":{"type":"MultiLineString","coordinates":[[[0.8726854,51.1183334],[0.8726459,51.1183128],[0.8726105,51.1182906]]]}},
{"type":"Feature","properties":{"highway":"cycleway","name":null,"category":"Dedicated cycleway"},"geometry":{"type":"MultiLineString","coordinates":[[[0.8734284,51.1188921],[0.8733276,51.1189082],[0.8733099,51.1188888]]]}},
{"type":"Feature","properties":{"highway":"cycleway","name":null,"category":"Dedicated cycleway"},"geometry":{"type":"MultiLineString","coordinates":[[[0.8732539,51.1186994],[0.8730103,51.1185382],[0.8726854,51.1183334]]]}},
{"type":"Feature","properties":{"highway":"cycleway","name":null,"category":"Dedicated cycleway"},"geometry":{"type":"MultiLineString","coordinates":[[[0.8753837,51.1205402],[0.8753361,51.1205088],[0.8753164,51.1204981],[0.8752862,51.1204816],[0.8752365,51.1204545]]]}},
{"type":"Feature","properties":{"highway":"cycleway","name":null,"category":"Dedicated cycleway"},"geometry":{"type":"MultiLineString","coordinates":[[[0.8743307,51.118451],[0.8744294,51.1184605],[0.8745912,51.1183861],[0.8746024,51.1183324]]]}},
{"type":"Feature","properties":{"highway":"cycleway","name":null,"category":"Dedicated cycleway"},"geometry":{"type":"MultiLineString","coordinates":[[[0.8752924,51.1179688],[0.8752142,51.1179588],[0.8750573,51.1180503],[0.8750555,51.1181033]]]}},
{"type":"Feature","properties":{"highway":"cycleway","name":null,"category":"Dedicated cycleway"},"geometry":{"type":"MultiLineString","coordinates":[[[0.8751885,51.1203804],[0.8751641,51.1202505],[0.8749385,51.1200617],[0.8747877,51.1199387],[0.8746141,51.1197926],[0.8745092,51.11977],[0.8742123,51.1195376],[0.8740107,51.1193663],[0.8738557,51.1192255],[0.8737513,51.1191016],[0.8736111,51.1189205]]]}},
{"type":"Feature","properties":{"highway":"cycleway","name":null,"category":"Dedicated cycleway"},"geometry":{"type":"MultiLineString","coordinates":[[[0.8726105,51.1182906],[0.8722461,51.1180968],[0.8718737,51.1179547],[0.8716921,51.1178577],[0.8715986,51.1178051],[0.8714193,51.1177019],[0.8711747,51.1175302],[0.8710974,51.1174883],[0.8710453,51.1174526],[0.8710356,51.1174379]]]}},
{"type":"Feature","properties":{"highway":"cycleway","name":null,"category":"Dedicated cycleway"},"geometry":{"type":"MultiLineString","coordinates":[[[0.8726994,51.1164165],[0.8730125,51.1164264],[0.8731952,51.1164312],[0.8733549,51.1164226],[0.8734606,51.1164129],[0.8735535,51.1163942],[0.8736683,51.1163593],[0.8737501,51.1163171],[0.8738106,51.1162798],[0.87392,51.1161924],[0.8739712,51.1161436],[0.8740127,51.1160897],[0.8740351,51.116037],[0.8741042,51.1158731],[0.8740987,51.1157914]]]}},
{"type":"Feature","properties":{"highway":"cycleway","name":null,"category":"Dedicated cycleway"},"geometry":{"type":"MultiLineString","coordinates":[[[0.8724836,51.1166277],[0.8724968,51.1165709],[0.8724873,51.1165381],[0.8724741,51.1165055],[0.8725271,51.1164338]]]}},
{"type":"Feature","properties":{"highway":"cycleway","name":null,"category":"Dedicated cycleway"},"geometry":{"type":"MultiLineString","coordinates":[[[0.8733907,51.1149672],[0.8734565,51.1149623],[0.8737088,51.1149162],[0.8739565,51.1148521],[0.8742948,51.114712],[0.874791,51.1145237],[0.8752253,51.1143124],[0.8755726,51.1141052],[0.875619,51.1140775]]]}},
{"type":"Feature","properties":{"highway":"bridleway","name":null,"category":"Bridleway"},"geometry":{"type":"MultiLineString","coordinates":[[[0.8523071,51.1219549],[0.8524529,51.1217471],[0.8527561,51.1214755],[0.8536198,51.1211355],[0.8540865,51.1209604],[0.8546622,51.1207362],[0.8547859,51.1206696],[0.8549117,51.1206433],[0.8552125,51.1205419],[0.8553501,51.1205633]]]}},
{"type":"Feature","properties":{"highway":"path","name":null,"category":"Shared path"},"geometry":{"type":"MultiLineString","coordinates":[[[0.8697586,51.1165682],[0.8695366,51.1166195],[0.8691735,51.1167166],[0.8687462,51.1168256],[0.8686978,51.1168553],[0.8686491,51.116889]]]}},
{"type":"Feature","properties":{"highway":"cycleway","name":null,"category":"Dedicated cycleway"},"geometry":{"type":"MultiLineString","coordinates":[[[0.8650652,51.1210864],[0.8649562,51.1211177]]]}},
{"type":"Feature","properties":{"highway":"path","name":"Hillary's Way","category":"Shared path"},"geometry":{"type":"MultiLineString","coordinates":[[[0.8686491,51.116889],[0.8685662,51.1169191],[0.8681692,51.1170538],[0.8677937,51.1171615],[0.8672702,51.1173134],[0.8669055,51.1173572],[0.8668489,51.1173674],[0.8667476,51.1173855],[0.8666711,51.117435],[0.8665713,51.1176434],[0.8664978,51.117805],[0.8664396,51.1179598],[0.8663695,51.1180926],[0.8662638,51.1182374],[0.8660958,51.1183856],[0.8660374,51.118428],[0.8659923,51.1184607],[0.8658674,51.1185057],[0.8657617,51.1185368],[0.8657028,51.11855],[0.8656229,51.1185807],[0.8654682,51.1186666],[0.865351,51.1186908],[0.8651193,51.1187214],[0.8647371,51.1187521],[0.8646284,51.1187082],[0.864558,51.1186761],[0.8644986,51.118641],[0.864464,51.1186301],[0.8644428,51.1186235],[0.8644064,51.1186293]]]}},
{"type":"Feature","properties":{"highway":"bridleway","name":null,"category":"Bridleway"},"geometry":{"type":"MultiLineString","coordinates":[[[0.8686491,51.116889],[0.8683284,51.1168042],[0.8675627,51.1166089],[0.8670232,51.1164755],[0.8665591,51.1163846],[0.8664001,51.1163527],[0.8661067,51.1162937],[0.8660508,51.1162779],[0.8659288,51.1162454]]]}},
{"type":"Feature","properties":{"highway":"cycleway","name":null,"category":"Dedicated cycleway"},"geometry":{"type":"MultiLineString","coordinates":[[[0.8710356,51.1174379],[0.871007,51.1173863]]]}},
{"type":"Feature","properties":{"highway":"path","name":null,"category":"Shared path"},"geometry":{"type":"MultiLineString","coordinates":[[[0.8692611,51.1251871],[0.8689458,51.1250562],[0.8688765,51.1250467],[0.8686237,51.1250344],[0.8685893,51.1250191]]]}},
{"type":"Feature","properties":{"highway":"path","name":null,"category":"Shared path"},"geometry":{"type":"MultiLineString","coordinates":[[[0.8640813,51.1186882],[0.864137,51.1187438],[0.8642356,51.118756],[0.8642215,51.1188023],[0.8642477,51.1188074]]]}},
{"type":"Feature","properties":{"highway":"path","name":null,"category":"Shared path"},"geometry":{"type":"MultiLineString","coordinates":[[[0.8570446,51.1160971],[0.8569863,51.1161042],[0.8569534,51.1161206],[0.8569117,51.1161403],[0.8568499,51.1161682],[0.8567934,51.116191],[0.856753,51.1162048]]]}},
{"type":"Feature","properties":{"highway":"path","name":null,"category":"Shared path"},"geometry":{"type":"MultiLineString","coordinates":[[[0.8650278,51.1217855],[0.864979,51.1217404],[0.8648801,51.1216714],[0.8647097,51.121591],[0.8646191,51.1215644]]]}},
{"type":"Feature","properties":{"highway":"path","name":null,"category":"Shared path"},"geometry":{"type":"MultiLineString","coordinates":[[[0.874251,51.1200801],[0.8743094,51.1200372],[0.8744331,51.1199502],[0.8744721,51.1199105],[0.874495,51.1198548],[0.8745098,51.1198126],[0.8745092,51.11977]]]}},
{"type":"Feature","properties":{"highway":"path","name":null,"category":"Shared path"},"geometry":{"type":"MultiLineString","coordinates":[[[0.8706221,51.1210378],[0.8708112,51.1210823],[0.8709027,51.121101],[0.8710496,51.121131]]]}},
{"type":"Feature","properties":{"highway":"path","name":null,"category":"Shared path"},"geometry":{"type":"MultiLineString","coordinates":[[[0.8728357,51.1175981],[0.87278,51.1174831],[0.8726748,51.117376],[0.8726897,51.1173107]]]}},
{"type":"Feature","properties":{"highway":"path","name":null,"category":"Shared path"},"geometry":{"type":"MultiLineString","coordinates":[[[0.8728225,51.1173526],[0.8728182,51.1173947],[0.8727834,51.1174363],[0.87278,51.1174831]]]}},
{"type":"Feature","properties":{"highway":"path","name":null,"category":"Shared path"},"geometry":{"type":"MultiLineString","coordinates":[[[0.8762533,51.1193329],[0.876041,51.1193408],[0.8758406,51.1194088],[0.8757878,51.1194492],[0.8757236,51.1195003],[0.8756866,51.1195123]]]}},
{"type":"Feature","properties":{"highway":"path","name":null,"category":"Shared path"},"geometry":{"type":"MultiLineString","coordinates":[[[0.8760947,51.1195257],[0.8760304,51.1195425],[0.8758262,51.1195629],[0.8757341,51.1195816],[0.8757148,51.1195452]]]}},
{"type":"Feature","properties":{"highway":"path","name":null,"category":"Shared path"},"geometry":{"type":"MultiLineString","coordinates":[[[0.8760947,51.1195257],[0.8761685,51.1194979],[0.8762855,51.1194437],[0.8763488,51.1194004],[0.8763612,51.119386],[0.8764667,51.1193553],[0.876577,51.1193083],[0.8765805,51.1192812]]]}},
{"type":"Feature","properties":{"highway":"path","name":null,"category":"Shared path"},"geometry":{"type":"MultiLineString","coordinates":[[[0.8755931,51.1176258],[0.8755277,51.1176706],[0.8754426,51.1177287],[0.8754311,51.1177366],[0.875383,51.1177695],[0.8753494,51.1177491]]]}},
{"type":"Feature","properties":{"highway":"path","name":null,"category":"Shared path"},"geometry":{"type":"MultiLineString","coordinates":[[[0.8754426,51.1177287],[0.8754093,51.1177077]]]}},
{"type":"Feature","properties":{"highway":"path","name":null,"category":"Shared path"},"geometry":{"type":"MultiLineString","coordinates":[[[0.8755277,51.1176706],[0.8754945,51.1176487]]]}},
{"type":"Feature","properties":{"highway":"path","name":null,"category":"Shared path"},"geometry":{"type":"MultiLineString","coordinates":[[[0.8754311,51.1177366],[0.8754799,51.1177648]]]}},
{"type":"Feature","properties":{"highway":"path","name":null,"category":"Shared path"},"geometry":{"type":"MultiLineString","coordinates":[[[0.8740643,51.1173928],[0.8739829,51.1173949],[0.873859,51.1174098],[0.8737906,51.1174373],[0.8737214,51.1174742],[0.8736383,51.1175275],[0.8735975,51.1175748],[0.8735768,51.1176119]]]}},
{"type":"Feature","properties":{"highway":"track","name":null,"category":"Track"},"geometry":{"type":"MultiLineString","coordinates":[[[0.8685725,51.1105407],[0.8690105,51.1104307],[0.869681,51.1102965],[0.8697842,51.1102703],[0.869857,51.1102298],[0.869882,51.1101798],[0.8698653,51.1101212],[0.8696188,51.1097931],[0.8695937,51.1097464],[0.8695945,51.109704],[0.8696119,51.1096769],[0.869637,51.1096645],[0.8698069,51.1096349]]]}},
{"type":"Feature","properties":{"highway":"track","name":null,"category":"Track"},"geometry":{"type":"MultiLineString","coordinates":[[[0.8653683,51.1129251],[0.8653958,51.1127784],[0.8655571,51.1124956],[0.8658059,51.1122191]]]}},
{"type":"Feature","properties":{"highway":"path","name":null,"category":"Shared path"},"geometry":{"type":"MultiLineString","coordinates":[[[0.8570283,51.1161137],[0.8570591,51.1160996],[0.8570789,51.1160976],[0.857108,51.116099],[0.8571416,51.1161028],[0.8571833,51.11611],[0.8572466,51.1160985],[0.8572803,51.1160831],[0.8573126,51.1160637]]]}},
{"type":"Feature","properties":{"highway":"path","name":null,"category":"Shared path"},"geometry":{"type":"MultiLineString","coordinates":[[[0.857108,51.116099],[0.8571142,51.1160899],[0.8571655,51.1160636]]]}},
{"type":"Feature","properties":{"highway":"path","name":null,"category":"Shared path"},"geometry":{"type":"MultiLineString","coordinates":[[[0.8663794,51.1163812],[0.8664001,51.1163527],[0.8664218,51.1163254],[0.8665184,51.1162774],[0.8666814,51.1159987],[0.8667874,51.1158917],[0.8670245,51.1157016],[0.8672784,51.1155349],[0.8674923,51.1154044],[0.8677104,51.1152844],[0.8679862,51.1151531],[0.8680762,51.1151345],[0.8681942,51.1151318],[0.8684288,51.1151142],[0.8685018,51.1150945]]]}},
{"type":"Feature","properties":{"highway":"path","name":null,"category":"Shared path"},"geometry":{"type":"MultiLineString","coordinates":[[[0.8686748,51.1145559],[0.8687477,51.1144155],[0.8688894,51.1142884]]]}},
{"type":"Feature","properties":{"highway":"path","name":null,"category":"Shared path"},"geometry":{"type":"MultiLineString","coordinates":[[[0.8715656,51.1128132],[0.8715685,51.1128307],[0.8715927,51.1129791]]]}},
{"type":"Feature","properties":{"highway":"path","name":null,"category":"Shared path"},"geometry":{"type":"MultiLineString","coordinates":[[[0.8688894,51.1142884],[0.8690595,51.1141238],[0.8693087,51.1138622],[0.8696811,51.1133903],[0.8698885,51.113192],[0.8701044,51.1130501],[0.8702542,51.1129878],[0.8703953,51.1129431],[0.8706369,51.1128856],[0.8706645,51.112879],[0.8708559,51.1128679],[0.870968,51.1128649],[0.8711439,51.1128787],[0.8712127,51.1128757],[0.8714648,51.1128234]]]}},
{"type":"Feature","properties":{"highway":"path","name":null,"category":"Shared path"},"geometry":{"type":"MultiLineString","coordinates":[[[0.8714648,51.1128234],[0.8715031,51.1128262]]]}},
{"type":"Feature","properties":{"highway":"path","name":null,"category":"Shared path"},"geometry":{"type":"MultiLineString","coordinates":[[[0.8706369,51.1128856],[0.8706549,51.1129192]]]}},
{"type":"Feature","properties":{"highway":"path","name":null,"category":"Shared path"},"geometry":{"type":"MultiLineString","coordinates":[[[0.8706549,51.1129192],[0.8706721,51.112938],[0.870694,51.1134498],[0.8706517,51.1138255],[0.8705838,51.114192],[0.8705187,51.114507],[0.8704651,51.1147633],[0.8704152,51.1148402],[0.8703841,51.114856],[0.8703607,51.1148678],[0.8703516,51.115015],[0.870223,51.1154006],[0.8701323,51.1156617],[0.870046,51.1158593],[0.8700249,51.1159628]]]}},
{"type":"Feature","properties":{"highway":"path","name":null,"category":"Shared path"},"geometry":{"type":"MultiLineString","coordinates":[[[0.8687477,51.1144155],[0.8682655,51.1141362]]]}},
{"type":"Feature","properties":{"highway":"path","name":null,"category":"Shared path"},"geometry":{"type":"MultiLineString","coordinates":[[[0.8685747,51.1150748],[0.8686081,51.1150658],[0.8686249,51.1150401],[0.8686347,51.1150145],[0.8686205,51.1147416],[0.8686748,51.1145559]]]}},
{"type":"Feature","properties":{"highway":"path","name":null,"category":"Shared path"},"geometry":{"type":"MultiLineString","coordinates":[[[0.8685018,51.1150945],[0.8685747,51.1150748]]]}},
{"type":"Feature","properties":{"highway":"cycleway","name":null,"category":"Dedicated cycleway"},"geometry":{"type":"MultiLineString","coordinates":[[[0.8697041,51.1172737],[0.8697062,51.1172467],[0.8697586,51.1165682],[0.8697862,51.1165568]]]}},
{"type":"Feature","properties":{"highway":"cycleway","name":null,"category":"Dedicated cycleway"},"geometry":{"type":"MultiLineString","coordinates":[[[0.8697862,51.1165568],[0.8698444,51.1165328]]]}},
{"type":"Feature","properties":{"highway":"cycleway","name":null,"category":"Dedicated cycleway"},"geometry":{"type":"MultiLineString","coordinates":[[[0.8698444,51.1165328],[0.8701268,51.1164165]]]}},
{"type":"Feature","properties":{"highway":"cycleway","name":null,"category":"Dedicated cycleway"},"geometry":{"type":"MultiLineString","coordinates":[[[0.8701268,51.1164165],[0.8701534,51.1164055],[0.87019,51.1163905]]]}},
{"type":"Feature","properties":{"highway":"path","name":null,"category":"Shared path"},"geometry":{"type":"MultiLineString","coordinates":[[[0.8646853,51.1185592],[0.8645598,51.11859],[0.8644953,51.1186058],[0.864464,51.1186301]]]}},
{"type":"Feature","properties":{"highway":"path","name":null,"category":"Shared path"},"geometry":{"type":"MultiLineString","coordinates":[[[0.8668489,51.1173674],[0.86707,51.117478],[0.8679011,51.1185602],[0.867932,51.118566],[0.8693687,51.117703],[0.8694459,51.1176836],[0.8698816,51.1174315],[0.8699673,51.1173834]]]}},
{"type":"Feature","properties":{"highway":"path","name":null,"category":"Shared path"},"geometry":{"type":"MultiLineString","coordinates":[[[0.8679011,51.1185602],[0.8679356,51.1186563],[0.8681396,51.1188754],[0.8682103,51.1190033]]]}},
{"type":"Feature","properties":{"highway":"path","name":null,"category":"Shared path"},"geometry":{"type":"MultiLineString","coordinates":[[[0.8668489,51.1173674],[0.8668658,51.1172456],[0.8668146,51.1171053],[0.8667447,51.1169138],[0.8667191,51.1167457],[0.8667331,51.1166522],[0.8666888,51.1165689],[0.8666446,51.1164782],[0.8663559,51.1164154],[0.8663794,51.1163812]]]}},
{"type":"Feature","properties":{"highway":"path","name":null,"category":"Shared path"},"geometry":{"type":"MultiLineString","coordinates":[[[0.8667331,51.1166522],[0.8668146,51.1165952],[0.8668844,51.1165674]]]}},
{"type":"Feature","properties":{"highway":"path","name":null,"category":"Shared path"},"geometry":{"type":"MultiLineString","coordinates":[[[0.8660374,51.118428],[0.8660205,51.1182265],[0.866058,51.1181457],[0.8661197,51.1180935],[0.8663691,51.1179891],[0.8664396,51.1179598]]]}},
{"type":"Feature","properties":{"highway":"path","name":null,"category":"Shared path"},"geometry":{"type":"MultiLineString","coordinates":[[[0.87406,51.1120323],[0.8740929,51.1121011],[0.8741422,51.1121579],[0.8742619,51.1122709],[0.8743615,51.1123632],[0.8744373,51.1124372],[0.8744757,51.1124888],[0.8745214,51.1126253],[0.874525,51.1127005],[0.8745223,51.1128226],[0.8744976,51.1129144],[0.8744519,51.1129941],[0.8743715,51.1131473],[0.874356,51.1132138],[0.874324,51.1133772],[0.8743487,51.1134581],[0.8743847,51.1135211]]]}},
{"type":"Feature","properties":{"highway":"path","name":null,"category":"Shared path"},"geometry":{"type":"MultiLineString","coordinates":[[[0.8739147,51.1120277],[0.8740929,51.1121011]]]}},
{"type":"Feature","properties":{"highway":"path","name":null,"category":"Shared path"},"geometry":{"type":"MultiLineString","coordinates":[[[0.8716545,51.1128295],[0.8717724,51.1127911],[0.8718217,51.1127607],[0.8719661,51.1126489],[0.8720693,51.112568],[0.8722063,51.11249],[0.8723333,51.1124475],[0.8725142,51.1124011],[0.8727518,51.1123455],[0.8729418,51.112291],[0.8731391,51.1122009],[0.8733675,51.1121183],[0.8735119,51.1120673],[0.8737229,51.1120243],[0.8739147,51.1120277],[0.87406,51.1120323],[0.8740753,51.1120203],[0.8741178,51.1119972],[0.8741605,51.1119675]]]}},
{"type":"Feature","properties":{"highway":"path","name":null,"category":"Shared path"},"geometry":{"type":"MultiLineString","coordinates":[[[0.8717454,51.1128637],[0.8717404,51.1128416],[0.8717523,51.112814],[0.8717724,51.1127911]]]}},
{"type":"Feature","properties":{"highway":"path","name":null,"category":"Shared path"},"geometry":{"type":"MultiLineString","coordinates":[[[0.8742857,51.1135051],[0.8742683,51.1135195],[0.8742171,51.1135241],[0.8740892,51.1135195],[0.8739686,51.1135269],[0.8737211,51.1135682],[0.8735447,51.1135889],[0.87331,51.1136124],[0.8731272,51.1136135],[0.873024,51.1136181],[0.8728148,51.1136198],[0.8726549,51.1136256],[0.8725499,51.1136147],[0.8724567,51.1135837],[0.8723279,51.113512],[0.8720711,51.1133658],[0.8720072,51.1133124],[0.8719177,51.1132235],[0.871755,51.1130371],[0.871681,51.112876],[0.8716545,51.1128295],[0.8716413,51.1127906]]]}},
{"type":"Feature","properties":{"highway":"path","name":null,"category":"Shared path"},"geometry":{"type":"MultiLineString","coordinates":[[[0.8744565,51.1135201],[0.8744099,51.1135201],[0.8743847,51.1135211],[0.8742857,51.1135051],[0.8738161,51.1134214],[0.8731638,51.1132608],[0.8727015,51.1131025],[0.872252,51.1129706],[0.8720127,51.1129224],[0.8717733,51.1128743],[0.8717454,51.1128637],[0.8716545,51.1128295]]]}},
{"type":"Feature","properties":{"highway":"path","name":null,"category":"Shared path"},"geometry":{"type":"MultiLineString","coordinates":[[[0.8740582,51.1119428],[0.8741178,51.1119972],[0.8743149,51.1121768],[0.8745871,51.1124533],[0.8746474,51.1126013],[0.8746566,51.1127435],[0.8745963,51.112958],[0.8744885,51.1131278],[0.8744245,51.1132367],[0.8744117,51.113317],[0.8744227,51.1134512],[0.8744565,51.1135201],[0.8745597,51.1135717],[0.8747991,51.1136198],[0.8749507,51.1136405],[0.8749781,51.1136715],[0.8751134,51.1137128],[0.8751828,51.1137208]]]}},
{"type":"Feature","properties":{"highway":"path","name":null,"category":"Shared path"},"geometry":{"type":"MultiLineString","coordinates":[[[0.8748192,51.1125405],[0.8748027,51.1125611],[0.8748046,51.1127079],[0.8747698,51.1128926],[0.8747333,51.1130532],[0.8746456,51.1131863],[0.8745944,51.113278],[0.8745707,51.1133342],[0.874589,51.113395],[0.8746401,51.1134558],[0.8747443,51.1134971],[0.8749032,51.1135556],[0.8749873,51.113574],[0.8750695,51.1135694],[0.8751956,51.1135453],[0.8753016,51.1135063],[0.875392,51.1134507],[0.8754898,51.1133595],[0.8756834,51.1131972],[0.8758607,51.1131065],[0.8759529,51.1130647],[0.8760114,51.1130159],[0.8761229,51.1129081],[0.8761886,51.1128301],[0.8761932,51.1127687],[0.8761758,51.112681],[0.876142,51.11249],[0.8760909,51.1123495],[0.8760461,51.1121854],[0.8759831,51.1120277],[0.8759237,51.1119251],[0.8758305,51.1118367],[0.8756898,51.1117364],[0.8755354,51.1116738],[0.8754066,51.1116239],[0.8752477,51.1115901],[0.8751234,51.1115815],[0.875001,51.111593],[0.8748932,51.1116176],[0.8747899,51.1116469],[0.8746611,51.1117237],[0.8745058,51.1118046],[0.8744145,51.1118442],[0.8742911,51.1119142],[0.8742288,51.1119678]]]}},
{"type":"Feature","properties":{"highway":"path","name":null,"category":"Shared path"},"geometry":{"type":"MultiLineString","coordinates":[[[0.8742573,51.1119767],[0.8743697,51.1120329],[0.8744702,51.112116],[0.8747013,51.1123776],[0.8748192,51.1125405],[0.8749946,51.1126167],[0.8752824,51.1127251],[0.8756131,51.1128628],[0.8758926,51.1130056],[0.8759529,51.1130647],[0.8759669,51.1130789]]]}},
{"type":"Feature","properties":{"highway":"path","name":null,"category":"Shared path"},"geometry":{"type":"MultiLineString","coordinates":[[[0.8742491,51.1119727],[0.8742288,51.1119678],[0.8741605,51.1119675],[0.8740582,51.1119428],[0.8738819,51.1118562],[0.8736921,51.1117962]]]}},
{"type":"Feature","properties":{"highway":"path","name":null,"category":"Shared path"},"geometry":{"type":"MultiLineString","coordinates":[[[0.8703607,51.1148678],[0.8701096,51.1151128],[0.8698297,51.1153483],[0.8696361,51.1155155],[0.8695377,51.1155725],[0.8694046,51.1157197],[0.8692654,51.1158754],[0.869158,51.1159229],[0.8691005,51.115959],[0.8690415,51.1160768],[0.8689386,51.1163398],[0.8688115,51.1166162],[0.868692,51.1168213],[0.8686747,51.116848],[0.8686491,51.116889]]]}},
{"type":"Feature","properties":{"highway":"path","name":null,"category":"Shared path"},"geometry":{"type":"MultiLineString","coordinates":[[[0.8704152,51.1148402],[0.8705453,51.1147852],[0.8709644,51.1145772],[0.8712896,51.1143739],[0.871332,51.1143407],[0.8713698,51.1142856],[0.8714712,51.1141393],[0.8715302,51.1140453],[0.8715846,51.1139171],[0.8716043,51.1138383],[0.8716013,51.1138022],[0.8715861,51.1137642],[0.8715075,51.1136236],[0.871394,51.1134736],[0.8713063,51.1133672],[0.8712427,51.1132219],[0.8712246,51.1131279],[0.871214,51.1130243],[0.8711898,51.112993],[0.8711383,51.1129664],[0.8710808,51.1129531],[0.8708706,51.1129503],[0.8707102,51.1129427],[0.8706721,51.112938]]]}},
{"type":"Feature","properties":{"highway":"path","name":null,"category":"Shared path"},"geometry":{"type":"MultiLineString","coordinates":[[[0.8643346,51.1221059],[0.8645027,51.12225]]]}},
{"type":"Feature","properties":{"highway":"path","name":null,"category":"Shared path"},"geometry":{"type":"MultiLineString","coordinates":[[[0.8676899,51.1238036],[0.8675744,51.1237805],[0.8674734,51.1237931]]]}},
{"type":"Feature","properties":{"highway":"path","name":null,"category":"Shared path"},"geometry":{"type":"MultiLineString","coordinates":[[[0.8679672,51.1236238],[0.86793,51.1235627],[0.8679131,51.1234787]]]}},
{"type":"Feature","properties":{"highway":"path","name":null,"category":"Shared path"},"geometry":{"type":"MultiLineString","coordinates":[[[0.867311,51.1232762],[0.8673862,51.1232649],[0.8674536,51.1232279],[0.8675085,51.1231993]]]}},
{"type":"Feature","properties":{"highway":"path","name":null,"category":"Shared path"},"geometry":{"type":"MultiLineString","coordinates":[[[0.8659275,51.123042],[0.8660539,51.1230581]]]}},
{"type":"Feature","properties":{"highway":"path","name":null,"category":"Shared path"},"geometry":{"type":"MultiLineString","coordinates":[[[0.8659275,51.123042],[0.8658789,51.1230373],[0.8658218,51.1232382],[0.865551,51.1233592],[0.8656193,51.1234402]]]}},
{"type":"Feature","properties":{"highway":"path","name":null,"category":"Shared path"},"geometry":{"type":"MultiLineString","coordinates":[[[0.8658789,51.1230373],[0.865892,51.1230034],[0.8659044,51.1229537],[0.8659076,51.1229158],[0.8658959,51.1228848],[0.8658713,51.1228571],[0.8657664,51.1229025]]]}},
{"type":"Feature","properties":{"highway":"path","name":null,"category":"Shared path"},"geometry":{"type":"MultiLineString","coordinates":[[[0.8685893,51.1250191],[0.8685289,51.124986],[0.8684245,51.1248316],[0.868324,51.1247708],[0.8683678,51.1247406],[0.8684644,51.1246775]]]}},
{"type":"Feature","properties":{"highway":"path","name":null,"category":"Shared path"},"geometry":{"type":"MultiLineString","coordinates":[[[0.868324,51.1247708],[0.8682249,51.1247135],[0.868068,51.1245963],[0.8679294,51.1244725],[0.8680165,51.1244399]]]}},
{"type":"Feature","properties":{"highway":"cycleway","name":null,"category":"Dedicated cycleway"},"geometry":{"type":"MultiLineString","coordinates":[[[0.8754695,51.1205629],[0.8754064,51.1205552],[0.8753837,51.1205402]]]}},
{"type":"Feature","properties":{"highway":"cycleway","name":null,"category":"Dedicated cycleway"},"geometry":{"type":"MultiLineString","coordinates":[[[0.8752365,51.1204545],[0.875204,51.1204354]]]}},
{"type":"Feature","properties":{"highway":"cycleway","name":null,"category":"Dedicated cycleway"},"geometry":{"type":"MultiLineString","coordinates":[[[0.8733099,51.1188888],[0.8732722,51.1188477]]]}},
{"type":"Feature","properties":{"highway":"cycleway","name":null,"category":"Dedicated cycleway"},"geometry":{"type":"MultiLineString","coordinates":[[[0.8732722,51.1188477],[0.873241,51.1188091]]]}},
{"type":"Feature","properties":{"highway":"cycleway","name":null,"category":"Dedicated cycleway"},"geometry":{"type":"MultiLineString","coordinates":[[[0.8713707,51.117168],[0.8714137,51.1171607]]]}},
{"type":"Feature","properties":{"highway":"cycleway","name":null,"category":"Dedicated cycleway"},"geometry":{"type":"MultiLineString","coordinates":[[[0.8714137,51.1171607],[0.8714615,51.1171481]]]}},
{"type":"Feature","properties":{"highway":"cycleway","name":null,"category":"Dedicated cycleway"},"geometry":{"type":"MultiLineString","coordinates":[[[0.8725271,51.1164338],[0.8725694,51.1164186]]]}},
{"type":"Feature","properties":{"highway":"cycleway","name":null,"category":"Dedicated cycleway"},"geometry":{"type":"MultiLineString","coordinates":[[[0.8725694,51.1164186],[0.8726333,51.1164032]]]}},
{"type":"Feature","properties":{"highway":"cycleway","name":null,"category":"Dedicated cycleway"},"geometry":{"type":"MultiLineString","coordinates":[[[0.8740987,51.1157914],[0.8741376,51.1157589]]]}},
{"type":"Feature","properties":{"highway":"cycleway","name":null,"category":"Dedicated cycleway"},"geometry":{"type":"MultiLineString","coordinates":[[[0.8741376,51.1157589],[0.8741754,51.1157296]]]}},
{"type":"Feature","properties":{"highway":"path","name":null,"category":"Shared path"},"geometry":{"type":"MultiLineString","coordinates":[[[0.8682388,51.120841],[0.8682173,51.1208721],[0.8682292,51.1209261],[0.8681803,51.1209643],[0.8681512,51.1209917],[0.8680348,51.121052]]]}},
{"type":"Feature","properties":{"highway":"path","name":null,"category":"Shared path"},"geometry":{"type":"MultiLineString","coordinates":[[[0.8668639,51.1228175],[0.8667962,51.1228593]]]}},
{"type":"Feature","properties":{"highway":"path","name":null,"category":"Shared path"},"geometry":{"type":"MultiLineString","coordinates":[[[0.8671075,51.123602],[0.8671026,51.1235555],[0.8670964,51.1235139],[0.8670761,51.1234611],[0.8671695,51.1233932],[0.8672226,51.1233432],[0.8672363,51.1232759],[0.867311,51.1232762]]]}},
{"type":"Feature","properties":{"highway":"path","name":null,"category":"Shared path"},"geometry":{"type":"MultiLineString","coordinates":[[[0.8672363,51.1232759],[0.8671931,51.1232118],[0.8670063,51.1230877],[0.866732,51.1228971],[0.8667962,51.1228593]]]}},
{"type":"Feature","properties":{"highway":"path","name":null,"category":"Shared path"},"geometry":{"type":"MultiLineString","coordinates":[[[0.866732,51.1228971],[0.866385,51.1226021],[0.8660633,51.1223257],[0.8658757,51.1221511],[0.8655464,51.1218586],[0.8654819,51.1218273]]]}},
{"type":"Feature","properties":{"highway":"path","name":null,"category":"Shared path"},"geometry":{"type":"MultiLineString","coordinates":[[[0.8679131,51.1234787],[0.8679331,51.1234224]]]}},
{"type":"Feature","properties":{"highway":"path","name":null,"category":"Shared path"},"geometry":{"type":"MultiLineString","coordinates":[[[0.8671075,51.123602],[0.8671157,51.1236645],[0.8673168,51.1237601],[0.8674113,51.1238223],[0.8674734,51.1237931]]]}},
{"type":"Feature","properties":{"highway":"path","name":null,"category":"Shared path"},"geometry":{"type":"MultiLineString","coordinates":[[[0.8579311,51.1200123],[0.8581872,51.1197991],[0.858256,51.1197634],[0.8583261,51.119692],[0.8584147,51.1196355],[0.8585288,51.1195597]]]}},
{"type":"Feature","properties":{"highway":"path","name":null,"category":"Shared path"},"geometry":{"type":"MultiLineString","coordinates":[[[0.8579229,51.1199122],[0.8578116,51.1198572],[0.8578844,51.1198074],[0.8578354,51.1197808],[0.8579346,51.1197044],[0.8579809,51.1196862]]]}},
{"type":"Feature","properties":{"highway":"path","name":null,"category":"Shared path"},"geometry":{"type":"MultiLineString","coordinates":[[[0.8578056,51.1198606],[0.8577826,51.1198527],[0.857592,51.1197539],[0.8575186,51.1198174],[0.8574714,51.1198068]]]}},
{"type":"Feature","properties":{"highway":"path","name":null,"category":"Shared path"},"geometry":{"type":"MultiLineString","coordinates":[[[0.8650812,51.1228194],[0.8650562,51.1228283],[0.8645944,51.1223917]]]}},
{"type":"Feature","properties":{"highway":"cycleway","name":null,"category":"Dedicated cycleway"},"geometry":{"type":"MultiLineString","coordinates":[[[0.8640543,51.1226265],[0.8639222,51.1225116],[0.8638132,51.1224169],[0.8637565,51.1223693]]]}}
]
}
