{
"type": "FeatureCollection",
"name": "ASHFO_6_cycling",
"crs": { "type": "name", "properties": { "name": "urn:ogc:def:crs:OGC:1.3:CRS84" } },
"features": [
{"type":"Feature","properties":{"highway":"cycleway","name":null,"category":"Dedicated cycleway"},"geometry":{"type":"MultiLineString","coordinates":[[[0.9102788,51.1410983],[0.9102768,51.1410531],[0.9101657,51.1410283],[0.9101109,51.1409414],[0.9101004,51.14088],[0.9101037,51.1407928],[0.9101052,51.1406768],[0.9100564,51.1405411],[0.910008,51.1403817],[0.9100095,51.140245],[0.9100407,51.1400954],[0.9100845,51.1399724],[0.9101384,51.1398936],[0.9102284,51.1398439],[0.9103072,51.1398073],[0.9103683,51.1397635]]]}},
{"type":"Feature","properties":{"highway":"cycleway","name":"Lees Road","category":"Dedicated cycleway"},"geometry":{"type":"MultiLineString","coordinates":[[[0.9055311,51.1421581],[0.9053519,51.1422022]]]}},
{"type":"Feature","properties":{"highway":"cycleway","name":null,"category":"Dedicated cycleway"},"geometry":{"type":"MultiLineString","coordinates":[[[0.906864,51.1398476],[0.906825,51.1398681],[0.9067106,51.1399277]]]}},
{"type":"Feature","properties":{"highway":"cycleway","name":null,"category":"Dedicated cycleway"},"geometry":{"type":"MultiLineString","coordinates":[[[0.9027402,51.1411272],[0.9027636,51.1411552],[0.9027241,51.1411681],[0.9027289,51.1411743]]]}},
{"type":"Feature","properties":{"highway":"cycleway","name":null,"category":"Dedicated cycleway"},"geometry":{"type":"MultiLineString","coordinates":[[[0.9067422,51.1452066],[0.9067912,51.1451254],[0.9068266,51.1450482],[0.90684,51.145019],[0.9069197,51.1448162],[0.9069833,51.1446212],[0.9070807,51.1443852],[0.9071125,51.1443757],[0.9071406,51.1443565],[0.9071654,51.144308],[0.9071884,51.1442604],[0.9071739,51.1442129],[0.9073123,51.1438802],[0.9073491,51.1438198],[0.9074311,51.1436854],[0.9074649,51.14364],[0.9075293,51.1435535],[0.9076259,51.1434415],[0.907786,51.1432695],[0.9078671,51.1431868],[0.9079996,51.1430799],[0.9081054,51.1430094],[0.9081488,51.1429934],[0.9082258,51.1429439]]]}},
{"type":"Feature","properties":{"highway":"cycleway","name":null,"category":"Dedicated cycleway"},"geometry":{"type":"MultiLineString","coordinates":[[[0.9113929,51.1412731],[0.9114726,51.1412812],[0.911549,51.141276],[0.9115616,51.1412569],[0.911598,51.1412306],[0.9116373,51.141225],[0.9118652,51.1412091],[0.9120228,51.1411883],[0.9122563,51.1411574],[0.9122803,51.1411562],[0.9125974,51.1411219],[0.9126559,51.1411178],[0.9127007,51.1411779],[0.9127419,51.1412203],[0.9127905,51.1412363]]]}},
{"type":"Feature","properties":{"highway":"cycleway","name":null,"category":"Dedicated cycleway"},"geometry":{"type":"MultiLineString","coordinates":[[[0.9038675,51.1486473],[0.9039764,51.1485718],[0.9041225,51.1483993],[0.9042134,51.1482789],[0.9042888,51.1481671],[0.9043658,51.1480914]]]}},
{"type":"Feature","properties":{"highway":"path","name":null,"category":"Shared path"},"geometry":{"type":"MultiLineString","coordinates":[[[0.9122313,51.1490346],[0.9118695,51.1488255],[0.9111384,51.1483975],[0.9103993,51.1480325]]]}},
{"type":"Feature","properties":{"highway":"path","name":null,"category":"Shared path"},"geometry":{"type":"MultiLineString","coordinates":[[[0.9069167,51.1446869],[0.9064835,51.1445144],[0.9060065,51.1443653],[0.9057983,51.1443061],[0.9057142,51.1443153]]]}},
{"type":"Feature","properties":{"highway":"path","name":null,"category":"Shared path"},"geometry":{"type":"MultiLineString","coordinates":[[[0.9035045,51.1421668],[0.9034745,51.142219],[0.9034538,51.14224],[0.9034247,51.1422609],[0.9033842,51.1422723],[0.9032556,51.1422714],[0.9030715,51.1422392],[0.9029173,51.1421791],[0.9028945,51.1421702],[0.9027547,51.142099],[0.9026321,51.1420478]]]}},
{"type":"Feature","properties":{"highway":"path","name":null,"category":"Shared path"},"geometry":{"type":"MultiLineString","coordinates":[[[0.9040441,51.1415938],[0.9038212,51.1415625],[0.9038074,51.1416048]]]}},
{"type":"Feature","properties":{"highway":"path","name":null,"category":"Shared path"},"geometry":{"type":"MultiLineString","coordinates":[[[0.9011801,51.1397791],[0.901316,51.1397395],[0.9024426,51.1393984]]]}},
{"type":"Feature","properties":{"highway":"path","name":null,"category":"Shared path"},"geometry":{"type":"MultiLineString","coordinates":[[[0.9040552,51.1415586],[0.9040441,51.1415938],[0.9039815,51.1417654]]]}},
{"type":"Feature","properties":{"highway":"bridleway","name":null,"category":"Bridleway"},"geometry":{"type":"MultiLineString","coordinates":[[[0.901696,51.1423768],[0.9027682,51.1429103],[0.9029334,51.1429929],[0.9032392,51.1431746],[0.9036576,51.1428499],[0.9041699,51.1424393]]]}},
{"type":"Feature","properties":{"highway":"path","name":null,"category":"Shared path"},"geometry":{"type":"MultiLineString","coordinates":[[[0.9040552,51.1415586],[0.9042437,51.1415803],[0.9041828,51.1417478],[0.9041458,51.141852],[0.90396,51.1418284],[0.9039815,51.1417654]]]}},
{"type":"Feature","properties":{"highway":"path","name":null,"category":"Shared path"},"geometry":{"type":"MultiLineString","coordinates":[[[0.9041828,51.1417478],[0.9042691,51.1417611]]]}},
{"type":"Feature","properties":{"highway":"path","name":null,"category":"Shared path"},"geometry":{"type":"MultiLineString","coordinates":[[[0.9029173,51.1421791],[0.9029505,51.1421651],[0.9029907,51.1421264],[0.9030175,51.1421037],[0.9030457,51.1420701],[0.9030725,51.1420465],[0.9031408,51.1420032]]]}},
{"type":"Feature","properties":{"highway":"track","name":null,"category":"Track"},"geometry":{"type":"MultiLineString","coordinates":[[[0.9127513,51.144333],[0.9128307,51.144374],[0.9131458,51.1444843],[0.9133293,51.1446227],[0.9134527,51.1448448],[0.9136619,51.1449963],[0.9139355,51.145077],[0.9145095,51.1451006],[0.9147187,51.1451006],[0.9149762,51.1451948],[0.9151372,51.145252],[0.9152444,51.1453093],[0.9155019,51.1453194]]]}},
{"type":"Feature","properties":{"highway":"path","name":null,"category":"Shared path"},"geometry":{"type":"MultiLineString","coordinates":[[[0.9173177,51.1439502],[0.9177948,51.1441573],[0.9178745,51.1443339],[0.9179871,51.1444438],[0.9181915,51.1445841],[0.9182731,51.1447115],[0.9183035,51.1448726],[0.9182937,51.1449398],[0.9182768,51.145056],[0.9182801,51.1451799],[0.9183131,51.1453152],[0.91829,51.1455035],[0.9182745,51.1458911],[0.9181438,51.1460825],[0.9180737,51.1461526],[0.9180971,51.1462647],[0.9183212,51.1463768],[0.918466,51.1464515],[0.9185501,51.1466476],[0.9185454,51.1468344],[0.918494,51.1469512],[0.9183773,51.147096],[0.9185314,51.1472594],[0.9187135,51.1473902],[0.9189704,51.1475069],[0.9191198,51.147521],[0.9192179,51.147563],[0.9193253,51.1476797],[0.9193487,51.1477825],[0.9190778,51.1478198],[0.9187929,51.1478292],[0.9185174,51.1479459],[0.9183819,51.1479459],[0.9182465,51.1478339],[0.9180457,51.1477264],[0.9179196,51.1476657],[0.9176721,51.1476517],[0.9175086,51.147563],[0.9173125,51.1475256],[0.9170816,51.1476255],[0.9169045,51.1475682],[0.9167724,51.1475135],[0.9165092,51.147591],[0.9163924,51.1477731],[0.9162285,51.1477749],[0.9161204,51.1477194],[0.9160597,51.1476611],[0.915978,51.1476097],[0.9159091,51.1475513],[0.9158122,51.1474801],[0.9156919,51.1474486],[0.9156125,51.1474346],[0.9155401,51.1474299],[0.915428,51.1473738],[0.9152868,51.1472944],[0.9151747,51.1472244],[0.9151081,51.1471567],[0.9150299,51.1471135],[0.9149412,51.1469769],[0.9148793,51.1469138],[0.9148198,51.1467364],[0.9148396,51.1466208],[0.9148127,51.1465075],[0.9147754,51.1464398],[0.9147158,51.1463242],[0.9146493,51.1462507],[0.9145536,51.1461771],[0.914494,51.1461129],[0.9143971,51.1460837],[0.91432,51.1460557],[0.914201,51.1460662],[0.9141216,51.1460347],[0.9139546,51.1460335],[0.9138355,51.1460463],[0.9137818,51.1460242],[0.9135892,51.146023],[0.9134385,51.1460288],[0.913316,51.1461117],[0.9131922,51.1461351],[0.9128793,51.1461117],[0.9127719,51.1460942],[0.9126154,51.1460557],[0.9124426,51.146058],[0.9123387,51.146079],[0.9122091,51.1461082],[0.9120083,51.1461491],[0.9118495,51.1461643],[0.9116802,51.1461456],[0.9115144,51.1461386],[0.9114397,51.1461304],[0.9113486,51.146072],[0.9112996,51.1460312],[0.911156,51.1459996],[0.9110859,51.1460195],[0.9109047,51.1461449],[0.9108401,51.1462774],[0.9105511,51.1464055]]]}},
{"type":"Feature","properties":{"highway":"cycleway","name":null,"category":"Dedicated cycleway"},"geometry":{"type":"MultiLineString","coordinates":[[[0.9097466,51.1368145],[0.9097477,51.1368251],[0.909739,51.1368871],[0.9097127,51.1369653],[0.9095062,51.137197],[0.909156,51.137578],[0.9089023,51.1379471],[0.9087547,51.1382662],[0.9084142,51.1386952],[0.9081062,51.1390342],[0.9078193,51.1393381],[0.9076497,51.1394892],[0.9073542,51.1396764],[0.9072585,51.1397426],[0.9070254,51.1398262],[0.906864,51.1398476]]]}},
{"type":"Feature","properties":{"highway":"cycleway","name":null,"category":"Dedicated cycleway"},"geometry":{"type":"MultiLineString","coordinates":[[[0.9030512,51.1412758],[0.9032843,51.1413246],[0.9035427,51.1413673],[0.9038054,51.141405],[0.904101,51.141454],[0.9041541,51.1414601],[0.9042159,51.1414673],[0.9043114,51.1414855],[0.9043526,51.1415211],[0.9043744,51.1415591],[0.9044304,51.1415669],[0.9044909,51.141577],[0.9045149,51.1415469],[0.9045854,51.1415212],[0.9046577,51.1415232],[0.9047256,51.1415427],[0.9048449,51.1416108],[0.904891,51.1416469],[0.9049598,51.1417153],[0.9051906,51.1420537],[0.9053056,51.1422251],[0.9053519,51.1422022]]]}},
{"type":"Feature","properties":{"highway":"cycleway","name":null,"category":"Dedicated cycleway"},"geometry":{"type":"MultiLineString","coordinates":[[[0.9027857,51.1412538],[0.9027975,51.1412685],[0.9028645,51.1412587],[0.9030512,51.1412758]]]}},
{"type":"Feature","properties":{"highway":"cycleway","name":null,"category":"Dedicated cycleway"},"geometry":{"type":"MultiLineString","coordinates":[[[0.9102829,51.1412006],[0.910278,51.1411632],[0.9102788,51.1410983]]]}},
{"type":"Feature","properties":{"highway":"cycleway","name":null,"category":"Dedicated cycleway"},"geometry":{"type":"MultiLineString","coordinates":[[[0.9082258,51.1429439],[0.9083629,51.1428509],[0.9085899,51.1427113],[0.9088052,51.1425978],[0.9088804,51.142537]]]}},
{"type":"Feature","properties":{"highway":"cycleway","name":null,"category":"Dedicated cycleway"},"geometry":{"type":"MultiLineString","coordinates":[[[0.9088804,51.142537],[0.9089171,51.142518],[0.9092159,51.1423211],[0.9093962,51.14219],[0.9094885,51.1420827],[0.9096852,51.1418414],[0.9097835,51.1417172],[0.9099832,51.1413724],[0.9100432,51.1412755],[0.9101302,51.1412293],[0.9102829,51.1412006]]]}},
{"type":"Feature","properties":{"highway":"track","name":null,"category":"Track"},"geometry":{"type":"MultiLineString","coordinates":[[[0.9109708,51.1466937],[0.9105511,51.1464055],[0.9099441,51.1466231],[0.9095267,51.1467359]]]}},
{"type":"Feature","properties":{"highway":"path","name":null,"category":"Shared path"},"geometry":{"type":"MultiLineString","coordinates":[[[0.9025166,51.1455525],[0.9024723,51.1456426],[0.902454,51.1457385],[0.902468,51.1457981],[0.9024851,51.1458717],[0.9024225,51.1458832]]]}},
{"type":"Feature","properties":{"highway":"path","name":null,"category":"Shared path"},"geometry":{"type":"MultiLineString","coordinates":[[[0.9024723,51.1456426],[0.9023927,51.1456262]]]}},
{"type":"Feature","properties":{"highway":"path","name":null,"category":"Shared path"},"geometry":{"type":"MultiLineString","coordinates":[[[0.9035868,51.1421115],[0.9037439,51.1421239],[0.9038686,51.1421214],[0.9040134,51.1420895],[0.9041864,51.1420179],[0.9042629,51.141943]]]}},
{"type":"Feature","properties":{"highway":"path","name":null,"category":"Shared path"},"geometry":{"type":"MultiLineString","coordinates":[[[0.9122803,51.1411562],[0.9122658,51.1411131]]]}},
{"type":"Feature","properties":{"highway":"path","name":null,"category":"Shared path"},"geometry":{"type":"MultiLineString","coordinates":[[[0.9122658,51.1411131],[0.9122594,51.1410757],[0.912373,51.1410634],[0.9123493,51.140982],[0.9122993,51.1409859],[0.9122916,51.1409635]]]}},
{"type":"Feature","properties":{"highway":"path","name":null,"category":"Shared path"},"geometry":{"type":"MultiLineString","coordinates":[[[0.9123493,51.140982],[0.9126938,51.1409376]]]}},
{"type":"Feature","properties":{"highway":"path","name":null,"category":"Shared path"},"geometry":{"type":"MultiLineString","coordinates":[[[0.9122993,51.1409859],[0.9121494,51.1409328],[0.9121027,51.1408959],[0.9121517,51.1408681],[0.9120595,51.1408019]]]}},
{"type":"Feature","properties":{"highway":"path","name":null,"category":"Shared path"},"geometry":{"type":"MultiLineString","coordinates":[[[0.9120595,51.1408019],[0.9121055,51.1407676],[0.9121449,51.1407383],[0.9121873,51.1407067]]]}},
{"type":"Feature","properties":{"highway":"path","name":null,"category":"Shared path"},"geometry":{"type":"MultiLineString","coordinates":[[[0.9121055,51.1407676],[0.9119442,51.1406951]]]}},
{"type":"Feature","properties":{"highway":"path","name":null,"category":"Shared path"},"geometry":{"type":"MultiLineString","coordinates":[[[0.9115956,51.1408532],[0.911547,51.1408072],[0.9116265,51.1407031],[0.9116335,51.1406939],[0.912146,51.1405206]]]}},
{"type":"Feature","properties":{"highway":"path","name":null,"category":"Shared path"},"geometry":{"type":"MultiLineString","coordinates":[[[0.911738,51.1407894],[0.9116265,51.1407031]]]}},
{"type":"Feature","properties":{"highway":"path","name":null,"category":"Shared path"},"geometry":{"type":"MultiLineString","coordinates":[[[0.9121354,51.1404925],[0.912146,51.1405206],[0.9121858,51.1406445],[0.9121976,51.1406836],[0.9121873,51.1407067]]]}},
{"type":"Feature","properties":{"highway":"path","name":null,"category":"Shared path"},"geometry":{"type":"MultiLineString","coordinates":[[[0.9097901,51.1410455],[0.9097999,51.1409869],[0.9098078,51.1406701],[0.9098082,51.1405815]]]}},
{"type":"Feature","properties":{"highway":"path","name":null,"category":"Shared path"},"geometry":{"type":"MultiLineString","coordinates":[[[0.901124,51.1445766],[0.9011398,51.144587],[0.9010653,51.1446432],[0.9008786,51.1445373],[0.9008612,51.1445274],[0.9007707,51.1444907],[0.9006074,51.1444556],[0.9004965,51.1444411],[0.9004219,51.1444339],[0.9004079,51.144401]]]}},
{"type":"Feature","properties":{"highway":"path","name":null,"category":"Shared path"},"geometry":{"type":"MultiLineString","coordinates":[[[0.9098787,51.1412366],[0.9100022,51.1412618],[0.9100432,51.1412755]]]}},
{"type":"Feature","properties":{"highway":"path","name":null,"category":"Shared path"},"geometry":{"type":"MultiLineString","coordinates":[[[0.9100118,51.1409562],[0.9100713,51.1409524],[0.9101109,51.1409414]]]}},
{"type":"Feature","properties":{"highway":"path","name":null,"category":"Shared path"},"geometry":{"type":"MultiLineString","coordinates":[[[0.9098363,51.1398383],[0.9098545,51.1398808]]]}},
{"type":"Feature","properties":{"highway":"cycleway","name":null,"category":"Dedicated cycleway"},"geometry":{"type":"MultiLineString","coordinates":[[[0.9102829,51.1412006],[0.9105311,51.141174],[0.9107779,51.1411728],[0.9111725,51.1412028],[0.9112976,51.141211],[0.9113516,51.1412242],[0.9113774,51.1412457],[0.9113929,51.1412731],[0.9113945,51.1413185],[0.9113905,51.141395],[0.9113945,51.1414514],[0.9114052,51.1415002],[0.9114267,51.1415641],[0.9114629,51.1416289],[0.9115918,51.1417849],[0.9117591,51.1419408],[0.9120865,51.1422692],[0.9123521,51.1425376],[0.9124461,51.1426278],[0.9125277,51.1426916],[0.9126592,51.1427825],[0.9127758,51.1428456],[0.9129783,51.1429339],[0.9134799,51.1431334],[0.9142569,51.1434339]]]}},
{"type":"Feature","properties":{"highway":"cycleway","name":null,"category":"Dedicated cycleway"},"geometry":{"type":"MultiLineString","coordinates":[[[0.9043658,51.1480914],[0.9044788,51.1480571]]]}},
{"type":"Feature","properties":{"highway":"cycleway","name":null,"category":"Dedicated cycleway"},"geometry":{"type":"MultiLineString","coordinates":[[[0.9027523,51.1412068],[0.9027857,51.1412538]]]}},
{"type":"Feature","properties":{"highway":"cycleway","name":null,"category":"Dedicated cycleway"},"geometry":{"type":"MultiLineString","coordinates":[[[0.9027289,51.1411743],[0.9027523,51.1412068]]]}}
]
}
