{
"type": "FeatureCollection",
"name": "3e64d6ff7e7c_visibility",
"crs": { "type": "name", "properties": { "name": "urn:ogc:def:crs:OGC:1.3:CRS84" } },
"features": [
{ "type": "Feature", "properties": { "visible_points": 2, "total_points": 57, "visibility_pct": 3.5087719298245612 }, "geometry": { "type": "Point", "coordinates": [ -1.167903751876288, 51.718580283945109 ] } },
{ "type": "Feature", "properties": { "visible_points": 1, "total_points": 55, "visibility_pct": 1.8181818181818181 }, "geometry": { "type": "Point", "coordinates": [ -1.167703192291585, 51.718578863675944 ] } },
{ "type": "Feature", "properties": { "visible_points": 1, "total_points": 51, "visibility_pct": 1.9607843137254901 }, "geometry": { "type": "Point", "coordinates": [ -1.167502632723258, 51.718577443064468 ] } },
{ "type": "Feature", "properties": { "visible_points": 0, "total_points": 46, "visibility_pct": 0.0 }, "geometry": { "type": "Point", "coordinates": [ -1.167302073171301, 51.718576022110682 ] } },
{ "type": "Feature", "properties": { "visible_points": 1, "total_points": 66, "visibility_pct": 1.5151515151515151 }, "geometry": { "type": "Point", "coordinates": [ -1.168002051655618, 51.718688877646457 ] } },
{ "type": "Feature", "properties": { "visible_points": 0, "total_points": 64, "visibility_pct": 0.0 }, "geometry": { "type": "Point", "coordinates": [ -1.167801491590918, 51.718687457542892 ] } },
{ "type": "Feature", "properties": { "visible_points": 1, "total_points": 60, "visibility_pct": 1.6666666666666667 }, "geometry": { "type": "Point", "coordinates": [ -1.16760093154259, 51.718686037096994 ] } },
{ "type": "Feature", "properties": { "visible_points": 0, "total_points": 55, "visibility_pct": 0.0 }, "geometry": { "type": "Point", "coordinates": [ -1.167400371510634, 51.718684616308813 ] } },
{ "type": "Feature", "properties": { "visible_points": 3, "total_points": 75, "visibility_pct": 4.0 }, "geometry": { "type": "Point", "coordinates": [ -1.168100352021716, 51.718797471323406 ] } },
{ "type": "Feature", "properties": { "visible_points": 4, "total_points": 73, "visibility_pct": 5.4794520547945202 }, "geometry": { "type": "Point", "coordinates": [ -1.167899791353872, 51.718796051327743 ] } },
{ "type": "Feature", "properties": { "visible_points": 0, "total_points": 69, "visibility_pct": 0.0 }, "geometry": { "type": "Point", "coordinates": [ -1.167699230825541, 51.718794631047459 ] } },
{ "type": "Feature", "properties": { "visible_points": 0, "total_points": 64, "visibility_pct": 0.0 }, "geometry": { "type": "Point", "coordinates": [ -1.167498670313585, 51.718793210424877 ] } },
{ "type": "Feature", "properties": { "visible_points": 0, "total_points": 81, "visibility_pct": 0.0 }, "geometry": { "type": "Point", "coordinates": [ -1.168198652963493, 51.718906065096817 ] } },
{ "type": "Feature", "properties": { "visible_points": 4, "total_points": 81, "visibility_pct": 4.9382716049382713 }, "geometry": { "type": "Point", "coordinates": [ -1.167998091580447, 51.718904645030548 ] } },
{ "type": "Feature", "properties": { "visible_points": 4, "total_points": 77, "visibility_pct": 5.1948051948051948 }, "geometry": { "type": "Point", "coordinates": [ -1.167797530572116, 51.718903224915877 ] } },
{ "type": "Feature", "properties": { "visible_points": 0, "total_points": 72, "visibility_pct": 0.0 }, "geometry": { "type": "Point", "coordinates": [ -1.167596969580155, 51.718901804458888 ] } },
{ "type": "Feature", "properties": { "visible_points": 0, "total_points": 77, "visibility_pct": 0.0 }, "geometry": { "type": "Point", "coordinates": [ -1.168296954496564, 51.719014658945184 ] } },
{ "type": "Feature", "properties": { "visible_points": 5, "total_points": 81, "visibility_pct": 6.1728395061728394 }, "geometry": { "type": "Point", "coordinates": [ -1.168096392382064, 51.719013238704264 ] } },
{ "type": "Feature", "properties": { "visible_points": 10, "total_points": 81, "visibility_pct": 12.345679012345679 }, "geometry": { "type": "Point", "coordinates": [ -1.167895830782316, 51.719011818702185 ] } },
{ "type": "Feature", "properties": { "visible_points": 6, "total_points": 78, "visibility_pct": 7.6923076923076925 }, "geometry": { "type": "Point", "coordinates": [ -1.167695269310349, 51.719010398410823 ] } },
{ "type": "Feature", "properties": { "visible_points": 0, "total_points": 72, "visibility_pct": 0.0 }, "geometry": { "type": "Point", "coordinates": [ -1.167494707854751, 51.719008977777143 ] } },
{ "type": "Feature", "properties": { "visible_points": 0, "total_points": 70, "visibility_pct": 0.0 }, "geometry": { "type": "Point", "coordinates": [ -1.16839525657516, 51.719123252750848 ] } },
{ "type": "Feature", "properties": { "visible_points": 6, "total_points": 75, "visibility_pct": 8.0 }, "geometry": { "type": "Point", "coordinates": [ -1.168194693762681, 51.719121832466428 ] } },
{ "type": "Feature", "properties": { "visible_points": 7, "total_points": 78, "visibility_pct": 8.9743589743589745 }, "geometry": { "type": "Point", "coordinates": [ -1.167994131456149, 51.719120412406475 ] } },
{ "type": "Feature", "properties": { "visible_points": 5, "total_points": 77, "visibility_pct": 6.4935064935064926 }, "geometry": { "type": "Point", "coordinates": [ -1.167793569504174, 51.719118992280698 ] } },
{ "type": "Feature", "properties": { "visible_points": 0, "total_points": 72, "visibility_pct": 0.0 }, "geometry": { "type": "Point", "coordinates": [ -1.167593007568566, 51.71911757181261 ] } },
{ "type": "Feature", "properties": { "visible_points": 3, "total_points": 61, "visibility_pct": 4.918032786885246 }, "geometry": { "type": "Point", "coordinates": [ -1.168493559104205, 51.71923184646883 ] } },
{ "type": "Feature", "properties": { "visible_points": 6, "total_points": 67, "visibility_pct": 8.9552238805970141 }, "geometry": { "type": "Point", "coordinates": [ -1.168292995724598, 51.719230426307405 ] } },
{ "type": "Feature", "properties": { "visible_points": 7, "total_points": 71, "visibility_pct": 9.8591549295774641 }, "geometry": { "type": "Point", "coordinates": [ -1.16809243269376, 51.719229006077057 ] } },
{ "type": "Feature", "properties": { "visible_points": 5, "total_points": 73, "visibility_pct": 6.8493150684931505 }, "geometry": { "type": "Point", "coordinates": [ -1.16789187016163, 51.719227586068492 ] } },
{ "type": "Feature", "properties": { "visible_points": 6, "total_points": 70, "visibility_pct": 8.5714285714285712 }, "geometry": { "type": "Point", "coordinates": [ -1.167691307746007, 51.71922616576601 ] } },
{ "type": "Feature", "properties": { "visible_points": 0, "total_points": 52, "visibility_pct": 0.0 }, "geometry": { "type": "Point", "coordinates": [ -1.168591862083711, 51.719340440099081 ] } },
{ "type": "Feature", "properties": { "visible_points": 3, "total_points": 59, "visibility_pct": 5.0847457627118651 }, "geometry": { "type": "Point", "coordinates": [ -1.168391298237634, 51.719339020109061 ] } },
{ "type": "Feature", "properties": { "visible_points": 4, "total_points": 63, "visibility_pct": 6.3492063492063489 }, "geometry": { "type": "Point", "coordinates": [ -1.168190734513337, 51.719337599828251 ] } },
{ "type": "Feature", "properties": { "visible_points": 4, "total_points": 66, "visibility_pct": 6.0606060606060606 }, "geometry": { "type": "Point", "coordinates": [ -1.167990171282723, 51.719336179774224 ] } },
{ "type": "Feature", "properties": { "visible_points": 0, "total_points": 66, "visibility_pct": 0.0 }, "geometry": { "type": "Point", "coordinates": [ -1.167789608387087, 51.719334759637341 ] } },
{ "type": "Feature", "properties": { "visible_points": 0, "total_points": 50, "visibility_pct": 0.0 }, "geometry": { "type": "Point", "coordinates": [ -1.168489601201125, 51.719447613823 ] } }
]
}
