{
"type": "FeatureCollection",
"name": "0f5a65cb765b_foliage",
"crs": { "type": "name", "properties": { "name": "urn:ogc:def:crs:OGC:1.3:CRS84" } },
"features": [
{ "type": "Feature", "properties": { "max_height": 9.1007461547851562, "mean_height": 0.53559094667434692, "std_height": 1.8008745908737183, "count_pixels": 41, "percent_cover": 0.38899430740037949, "percent_above_0.1m": 19.512195121951219, "low_level_<0.5": 4.8780487804878048, "mid_level_0.5-2": 7.3170731707317067, "tall_2+": 7.3170731707317067 }, "geometry": { "type": "Point", "coordinates": [ -0.471662690056683, 51.099177081776915 ] } },
{ "type": "Feature", "properties": { "max_height": 1.6347503662109375, "mean_height": 0.28575563430786133, "std_height": 0.4970451295375824, "count_pixels": 41, "percent_cover": 0.38899430740037949, "percent_above_0.1m": 26.829268292682929, "low_level_<0.5": 4.8780487804878048, "mid_level_0.5-2": 21.951219512195124, "tall_2+": 0.0 }, "geometry": { "type": "Point", "coordinates": [ -0.471464869975598, 51.099174496079932 ] } },
{ "type": "Feature", "properties": { "max_height": 1.2959976196289062, "mean_height": 0.076986886560916901, "std_height": 0.26369339227676392, "count_pixels": 40, "percent_cover": 0.37950664136622392, "percent_above_0.1m": 10.0, "low_level_<0.5": 0.0, "mid_level_0.5-2": 7.5, "tall_2+": 0.0 }, "geometry": { "type": "Point", "coordinates": [ -0.471267049924524, 51.099171910048675 ] } },
{ "type": "Feature", "properties": { "max_height": 4.3560028076171875, "mean_height": 0.69777995347976685, "std_height": 1.243295431137085, "count_pixels": 41, "percent_cover": 0.38899430740037949, "percent_above_0.1m": 34.146341463414636, "low_level_<0.5": 4.8780487804878048, "mid_level_0.5-2": 7.3170731707317067, "tall_2+": 19.512195121951219 }, "geometry": { "type": "Point", "coordinates": [ -0.471069229903455, 51.099169323683093 ] } },
{ "type": "Feature", "properties": { "max_height": 2.4225006103515625, "mean_height": 0.3937498927116394, "std_height": 0.70297515392303467, "count_pixels": 41, "percent_cover": 0.38899430740037949, "percent_above_0.1m": 36.585365853658537, "low_level_<0.5": 9.7560975609756095, "mid_level_0.5-2": 19.512195121951219, "tall_2+": 4.8780487804878048 }, "geometry": { "type": "Point", "coordinates": [ -0.470871409912409, 51.099166736983236 ] } },
{ "type": "Feature", "properties": { "max_height": 0.33499908447265625, "mean_height": 0.026767548173666, "std_height": 0.082114778459072113, "count_pixels": 42, "percent_cover": 0.39848197343453506, "percent_above_0.1m": 9.5238095238095237, "low_level_<0.5": 9.5238095238095237, "mid_level_0.5-2": 0.0, "tall_2+": 0.0 }, "geometry": { "type": "Point", "coordinates": [ -0.470673589951375, 51.099164149949075 ] } },
{ "type": "Feature", "properties": { "max_height": 0.0254974365234375, "mean_height": -0.0012081691529601812, "std_height": 0.006067983340471983, "count_pixels": 42, "percent_cover": 0.39848197343453506, "percent_above_0.1m": 0.0, "low_level_<0.5": 0.0, "mid_level_0.5-2": 0.0, "tall_2+": 0.0 }, "geometry": { "type": "Point", "coordinates": [ -0.470475770020367, 51.099161562580626 ] } },
{ "type": "Feature", "properties": { "max_height": 4.34649658203125, "mean_height": 0.17365054786205292, "std_height": 0.73918324708938599, "count_pixels": 40, "percent_cover": 0.37950664136622392, "percent_above_0.1m": 7.5, "low_level_<0.5": 0.0, "mid_level_0.5-2": 5.0, "tall_2+": 2.5 }, "geometry": { "type": "Point", "coordinates": [ -0.472747148768409, 51.099299164343719 ] } },
{ "type": "Feature", "properties": { "max_height": 4.342498779296875, "mean_height": 0.30176830291748047, "std_height": 0.87550538778305054, "count_pixels": 40, "percent_cover": 0.37950664136622392, "percent_above_0.1m": 15.0, "low_level_<0.5": 2.5, "mid_level_0.5-2": 5.0, "tall_2+": 7.5 }, "geometry": { "type": "Point", "coordinates": [ -0.472549328047491, 51.099296580469101 ] } },
{ "type": "Feature", "properties": { "max_height": 2.8652496337890625, "mean_height": 0.26967063546180725, "std_height": 0.65469187498092651, "count_pixels": 41, "percent_cover": 0.38899430740037949, "percent_above_0.1m": 24.390243902439025, "low_level_<0.5": 7.3170731707317067, "mid_level_0.5-2": 9.7560975609756095, "tall_2+": 4.8780487804878048 }, "geometry": { "type": "Point", "coordinates": [ -0.472351507356561, 51.099293996260172 ] } },
{ "type": "Feature", "properties": { "max_height": 2.4865036010742188, "mean_height": 0.42824944853782654, "std_height": 0.69486242532730103, "count_pixels": 41, "percent_cover": 0.38899430740037949, "percent_above_0.1m": 43.902439024390247, "low_level_<0.5": 17.073170731707318, "mid_level_0.5-2": 17.073170731707318, "tall_2+": 7.3170731707317067 }, "geometry": { "type": "Point", "coordinates": [ -0.472153686695622, 51.099291411716948 ] } },
{ "type": "Feature", "properties": { "max_height": 4.4917526245117188, "mean_height": 0.79230880737304688, "std_height": 1.2346858978271484, "count_pixels": 42, "percent_cover": 0.39848197343453506, "percent_above_0.1m": 42.857142857142854, "low_level_<0.5": 7.1428571428571423, "mid_level_0.5-2": 14.285714285714285, "tall_2+": 19.047619047619047 }, "geometry": { "type": "Point", "coordinates": [ -0.471955866064677, 51.099288826839427 ] } },
{ "type": "Feature", "properties": { "max_height": 11.302497863769531, "mean_height": 3.3320589065551758, "std_height": 3.6867358684539795, "count_pixels": 43, "percent_cover": 0.40796963946869069, "percent_above_0.1m": 83.720930232558146, "low_level_<0.5": 13.953488372093023, "mid_level_0.5-2": 18.604651162790699, "tall_2+": 48.837209302325576 }, "geometry": { "type": "Point", "coordinates": [ -0.471758045463733, 51.099286241627581 ] } },
{ "type": "Feature", "properties": { "max_height": 14.576255798339844, "mean_height": 8.4448451995849609, "std_height": 4.0189313888549805, "count_pixels": 43, "percent_cover": 0.40796963946869069, "percent_above_0.1m": 93.023255813953483, "low_level_<0.5": 2.3255813953488373, "mid_level_0.5-2": 2.3255813953488373, "tall_2+": 88.372093023255815 }, "geometry": { "type": "Point", "coordinates": [ -0.471560224892786, 51.099283656081461 ] } },
{ "type": "Feature", "properties": { "max_height": 3.71099853515625, "mean_height": 0.35904479026794434, "std_height": 0.87440741062164307, "count_pixels": 39, "percent_cover": 0.37001897533206829, "percent_above_0.1m": 17.948717948717949, "low_level_<0.5": 2.5641025641025639, "mid_level_0.5-2": 7.6923076923076925, "tall_2+": 7.6923076923076925 }, "geometry": { "type": "Point", "coordinates": [ -0.471362404351853, 51.099281070201037 ] } },
{ "type": "Feature", "properties": { "max_height": 3.7665023803710938, "mean_height": 0.62453019618988037, "std_height": 1.0687671899795532, "count_pixels": 43, "percent_cover": 0.40796963946869069, "percent_above_0.1m": 32.558139534883722, "low_level_<0.5": 4.6511627906976747, "mid_level_0.5-2": 11.627906976744185, "tall_2+": 16.279069767441861 }, "geometry": { "type": "Point", "coordinates": [ -0.471164583840923, 51.099278483986303 ] } },
{ "type": "Feature", "properties": { "max_height": 4.5427474975585938, "mean_height": 0.95012116432189941, "std_height": 1.18868088722229, "count_pixels": 43, "percent_cover": 0.40796963946869069, "percent_above_0.1m": 74.418604651162795, "low_level_<0.5": 16.279069767441861, "mid_level_0.5-2": 30.232558139534881, "tall_2+": 18.604651162790699 }, "geometry": { "type": "Point", "coordinates": [ -0.470966763360007, 51.099275897437273 ] } },
{ "type": "Feature", "properties": { "max_height": 6.1819992065429688, "mean_height": 2.5552432537078857, "std_height": 2.1053965091705322, "count_pixels": 42, "percent_cover": 0.39848197343453506, "percent_above_0.1m": 76.19047619047619, "low_level_<0.5": 9.5238095238095237, "mid_level_0.5-2": 11.904761904761903, "tall_2+": 54.761904761904766 }, "geometry": { "type": "Point", "coordinates": [ -0.470768942909113, 51.099273310553968 ] } },
{ "type": "Feature", "properties": { "max_height": 5.6057510375976562, "mean_height": 1.5822677612304688, "std_height": 1.9112218618392944, "count_pixels": 42, "percent_cover": 0.39848197343453506, "percent_above_0.1m": 59.523809523809526, "low_level_<0.5": 7.1428571428571423, "mid_level_0.5-2": 14.285714285714285, "tall_2+": 35.714285714285715 }, "geometry": { "type": "Point", "coordinates": [ -0.470571122488239, 51.099270723336339 ] } },
{ "type": "Feature", "properties": { "max_height": 0.6820068359375, "mean_height": 0.039969652891159058, "std_height": 0.13686664402484894, "count_pixels": 41, "percent_cover": 0.38899430740037949, "percent_above_0.1m": 9.7560975609756095, "low_level_<0.5": 7.3170731707317067, "mid_level_0.5-2": 2.4390243902439024, "tall_2+": 0.0 }, "geometry": { "type": "Point", "coordinates": [ -0.470373302097392, 51.099268135784421 ] } },
{ "type": "Feature", "properties": { "max_height": 0.01125335693359375, "mean_height": -0.0028403678443282843, "std_height": 0.0057374238967895508, "count_pixels": 41, "percent_cover": 0.38899430740037949, "percent_above_0.1m": 0.0, "low_level_<0.5": 0.0, "mid_level_0.5-2": 0.0, "tall_2+": 0.0 }, "geometry": { "type": "Point", "coordinates": [ -0.470175481736574, 51.099265547898213 ] } },
{ "type": "Feature", "properties": { "max_height": 4.3990020751953125, "mean_height": 0.27200016379356384, "std_height": 0.80123180150985718, "count_pixels": 43, "percent_cover": 0.40796963946869069, "percent_above_0.1m": 13.953488372093023, "low_level_<0.5": 0.0, "mid_level_0.5-2": 11.627906976744185, "tall_2+": 2.3255813953488373 }, "geometry": { "type": "Point", "coordinates": [ -0.472842507084572, 51.099408323370483 ] } },
{ "type": "Feature", "properties": { "max_height": 8.8722457885742188, "mean_height": 2.8406379222869873, "std_height": 1.7399475574493408, "count_pixels": 40, "percent_cover": 0.37950664136622392, "percent_above_0.1m": 92.5, "low_level_<0.5": 7.5, "mid_level_0.5-2": 7.5, "tall_2+": 77.5 }, "geometry": { "type": "Point", "coordinates": [ -0.472644685873801, 51.099405739646713 ] } },
{ "type": "Feature", "properties": { "max_height": 3.4507522583007812, "mean_height": 0.22065095603466034, "std_height": 0.65788990259170532, "count_pixels": 43, "percent_cover": 0.40796963946869069, "percent_above_0.1m": 13.953488372093023, "low_level_<0.5": 0.0, "mid_level_0.5-2": 9.3023255813953494, "tall_2+": 4.6511627906976747 }, "geometry": { "type": "Point", "coordinates": [ -0.472446864693022, 51.099403155588632 ] } },
{ "type": "Feature", "properties": { "max_height": 5.6252517700195312, "mean_height": 1.8116052150726318, "std_height": 1.9123811721801758, "count_pixels": 43, "percent_cover": 0.40796963946869069, "percent_above_0.1m": 67.441860465116278, "low_level_<0.5": 4.6511627906976747, "mid_level_0.5-2": 20.930232558139537, "tall_2+": 41.860465116279073 }, "geometry": { "type": "Point", "coordinates": [ -0.472249043542225, 51.099400571196256 ] } },
{ "type": "Feature", "properties": { "max_height": 4.7880020141601562, "mean_height": 0.72002935409545898, "std_height": 1.3389266729354858, "count_pixels": 42, "percent_cover": 0.39848197343453506, "percent_above_0.1m": 33.333333333333329, "low_level_<0.5": 2.3809523809523809, "mid_level_0.5-2": 11.904761904761903, "tall_2+": 16.666666666666664 }, "geometry": { "type": "Point", "coordinates": [ -0.47205122242142, 51.099397986469583 ] } },
{ "type": "Feature", "properties": { "max_height": 4.3692474365234375, "mean_height": 0.50519508123397827, "std_height": 1.1023386716842651, "count_pixels": 41, "percent_cover": 0.38899430740037949, "percent_above_0.1m": 26.829268292682929, "low_level_<0.5": 4.8780487804878048, "mid_level_0.5-2": 9.7560975609756095, "tall_2+": 12.195121951219512 }, "geometry": { "type": "Point", "coordinates": [ -0.471853401330621, 51.099395401408586 ] } },
{ "type": "Feature", "properties": { "max_height": 9.0992507934570312, "mean_height": 2.8310186862945557, "std_height": 2.4109361171722412, "count_pixels": 41, "percent_cover": 0.38899430740037949, "percent_above_0.1m": 85.365853658536579, "low_level_<0.5": 2.4390243902439024, "mid_level_0.5-2": 21.951219512195124, "tall_2+": 60.975609756097562 }, "geometry": { "type": "Point", "coordinates": [ -0.471655580269814, 51.099392816013314 ] } },
{ "type": "Feature", "properties": { "max_height": 8.157501220703125, "mean_height": 1.8155122995376587, "std_height": 2.1002609729766846, "count_pixels": 41, "percent_cover": 0.38899430740037949, "percent_above_0.1m": 63.414634146341463, "low_level_<0.5": 2.4390243902439024, "mid_level_0.5-2": 19.512195121951219, "tall_2+": 39.024390243902438 }, "geometry": { "type": "Point", "coordinates": [ -0.471457759239016, 51.099390230283738 ] } },
{ "type": "Feature", "properties": { "max_height": 7.8324966430664062, "mean_height": 2.8603746891021729, "std_height": 2.268641471862793, "count_pixels": 40, "percent_cover": 0.37950664136622392, "percent_above_0.1m": 87.5, "low_level_<0.5": 10.0, "mid_level_0.5-2": 20.0, "tall_2+": 57.5 }, "geometry": { "type": "Point", "coordinates": [ -0.471259938238222, 51.099387644219838 ] } },
{ "type": "Feature", "properties": { "max_height": 5.6725006103515625, "mean_height": 1.63005530834198, "std_height": 2.0006859302520752, "count_pixels": 41, "percent_cover": 0.38899430740037949, "percent_above_0.1m": 51.219512195121951, "low_level_<0.5": 2.4390243902439024, "mid_level_0.5-2": 12.195121951219512, "tall_2+": 34.146341463414636 }, "geometry": { "type": "Point", "coordinates": [ -0.471062117267444, 51.099385057821657 ] } },
{ "type": "Feature", "properties": { "max_height": 7.5940017700195312, "mean_height": 2.4956660270690918, "std_height": 2.5070407390594482, "count_pixels": 41, "percent_cover": 0.38899430740037949, "percent_above_0.1m": 68.292682926829272, "low_level_<0.5": 2.4390243902439024, "mid_level_0.5-2": 19.512195121951219, "tall_2+": 43.902439024390247 }, "geometry": { "type": "Point", "coordinates": [ -0.470864296326684, 51.099382471089164 ] } },
{ "type": "Feature", "properties": { "max_height": 7.0867462158203125, "mean_height": 2.1011898517608643, "std_height": 1.6033260822296143, "count_pixels": 42, "percent_cover": 0.39848197343453506, "percent_above_0.1m": 92.857142857142861, "low_level_<0.5": 16.666666666666664, "mid_level_0.5-2": 23.809523809523807, "tall_2+": 52.380952380952387 }, "geometry": { "type": "Point", "coordinates": [ -0.470666475415937, 51.099379884022397 ] } },
{ "type": "Feature", "properties": { "max_height": 2.9747467041015625, "mean_height": 0.15021969377994537, "std_height": 0.52093571424484253, "count_pixels": 42, "percent_cover": 0.39848197343453506, "percent_above_0.1m": 14.285714285714285, "low_level_<0.5": 7.1428571428571423, "mid_level_0.5-2": 4.7619047619047619, "tall_2+": 2.3809523809523809 }, "geometry": { "type": "Point", "coordinates": [ -0.470468654535222, 51.099377296621313 ] } },
{ "type": "Feature", "properties": { "max_height": 0.014495849609375, "mean_height": -0.0023885327391326427, "std_height": 0.006750552449375391, "count_pixels": 43, "percent_cover": 0.40796963946869069, "percent_above_0.1m": 0.0, "low_level_<0.5": 0.0, "mid_level_0.5-2": 0.0, "tall_2+": 0.0 }, "geometry": { "type": "Point", "coordinates": [ -0.470270833684532, 51.099374708885932 ] } },
{ "type": "Feature", "properties": { "max_height": 4.8935012817382812, "mean_height": 0.856353759765625, "std_height": 1.3517177104949951, "count_pixels": 43, "percent_cover": 0.40796963946869069, "percent_above_0.1m": 53.488372093023251, "low_level_<0.5": 11.627906976744185, "mid_level_0.5-2": 18.604651162790699, "tall_2+": 16.279069767441861 }, "geometry": { "type": "Point", "coordinates": [ -0.470073012863872, 51.099372120816234 ] } },
{ "type": "Feature", "properties": { "max_height": 10.1407470703125, "mean_height": 2.6418700218200684, "std_height": 3.1329166889190674, "count_pixels": 40, "percent_cover": 0.37950664136622392, "percent_above_0.1m": 65.0, "low_level_<0.5": 5.0, "mid_level_0.5-2": 17.5, "tall_2+": 42.5 }, "geometry": { "type": "Point", "coordinates": [ -0.469875192073251, 51.09936953241224 ] } },
{ "type": "Feature", "properties": { "max_height": 12.206001281738281, "mean_height": 3.4990439414978027, "std_height": 2.8890783786773682, "count_pixels": 40, "percent_cover": 0.37950664136622392, "percent_above_0.1m": 85.0, "low_level_<0.5": 0.0, "mid_level_0.5-2": 25.0, "tall_2+": 60.0 }, "geometry": { "type": "Point", "coordinates": [ -0.47274004415997, 51.099514898754634 ] } },
{ "type": "Feature", "properties": { "max_height": 2.43475341796875, "mean_height": 0.46792507171630859, "std_height": 0.65809893608093262, "count_pixels": 40, "percent_cover": 0.37950664136622392, "percent_above_0.1m": 50.0, "low_level_<0.5": 12.5, "mid_level_0.5-2": 27.5, "tall_2+": 5.0 }, "geometry": { "type": "Point", "coordinates": [ -0.472542222489332, 51.099512314847416 ] } },
{ "type": "Feature", "properties": { "max_height": 2.959747314453125, "mean_height": 0.26218265295028687, "std_height": 0.71265846490859985, "count_pixels": 41, "percent_cover": 0.38899430740037949, "percent_above_0.1m": 19.512195121951219, "low_level_<0.5": 9.7560975609756095, "mid_level_0.5-2": 2.4390243902439024, "tall_2+": 7.3170731707317067 }, "geometry": { "type": "Point", "coordinates": [ -0.472344400848676, 51.099509730605888 ] } },
{ "type": "Feature", "properties": { "max_height": 6.2297439575195312, "mean_height": 1.3529642820358276, "std_height": 1.8622705936431885, "count_pixels": 41, "percent_cover": 0.38899430740037949, "percent_above_0.1m": 60.975609756097562, "low_level_<0.5": 9.7560975609756095, "mid_level_0.5-2": 24.390243902439025, "tall_2+": 24.390243902439025 }, "geometry": { "type": "Point", "coordinates": [ -0.47214657923802, 51.099507146030057 ] } },
{ "type": "Feature", "properties": { "max_height": 4.7060012817382812, "mean_height": 0.65103530883789062, "std_height": 1.1886448860168457, "count_pixels": 42, "percent_cover": 0.39848197343453506, "percent_above_0.1m": 40.476190476190474, "low_level_<0.5": 2.3809523809523809, "mid_level_0.5-2": 19.047619047619047, "tall_2+": 11.904761904761903 }, "geometry": { "type": "Point", "coordinates": [ -0.471948757657351, 51.099504561119922 ] } },
{ "type": "Feature", "properties": { "max_height": 5.3177566528320312, "mean_height": 1.3690937757492065, "std_height": 1.5530362129211426, "count_pixels": 43, "percent_cover": 0.40796963946869069, "percent_above_0.1m": 62.790697674418603, "low_level_<0.5": 9.3023255813953494, "mid_level_0.5-2": 23.255813953488371, "tall_2+": 30.232558139534881 }, "geometry": { "type": "Point", "coordinates": [ -0.471750936106687, 51.099501975875498 ] } },
{ "type": "Feature", "properties": { "max_height": 0.51274871826171875, "mean_height": 0.0295867919921875, "std_height": 0.081504985690116882, "count_pixels": 43, "percent_cover": 0.40796963946869069, "percent_above_0.1m": 4.6511627906976747, "low_level_<0.5": 0.0, "mid_level_0.5-2": 2.3255813953488373, "tall_2+": 0.0 }, "geometry": { "type": "Point", "coordinates": [ -0.471553114586023, 51.099499390296756 ] } },
{ "type": "Feature", "properties": { "max_height": 0.77950286865234375, "mean_height": 0.046960342675447464, "std_height": 0.11773455142974854, "count_pixels": 43, "percent_cover": 0.40796963946869069, "percent_above_0.1m": 4.6511627906976747, "low_level_<0.5": 2.3255813953488373, "mid_level_0.5-2": 2.3255813953488373, "tall_2+": 0.0 }, "geometry": { "type": "Point", "coordinates": [ -0.471157471634717, 51.099494218136364 ] } },
{ "type": "Feature", "properties": { "max_height": 5.093994140625, "mean_height": 0.57562202215194702, "std_height": 1.0768054723739624, "count_pixels": 43, "percent_cover": 0.40796963946869069, "percent_above_0.1m": 37.209302325581397, "low_level_<0.5": 13.953488372093023, "mid_level_0.5-2": 11.627906976744185, "tall_2+": 11.627906976744185 }, "geometry": { "type": "Point", "coordinates": [ -0.470959650204086, 51.09949163155472 ] } },
{ "type": "Feature", "properties": { "max_height": 10.773506164550781, "mean_height": 3.0280535221099854, "std_height": 2.8734936714172363, "count_pixels": 42, "percent_cover": 0.39848197343453506, "percent_above_0.1m": 76.19047619047619, "low_level_<0.5": 4.7619047619047619, "mid_level_0.5-2": 16.666666666666664, "tall_2+": 54.761904761904766 }, "geometry": { "type": "Point", "coordinates": [ -0.470761828803475, 51.099489044638766 ] } },
{ "type": "Feature", "properties": { "max_height": 5.0007476806640625, "mean_height": 1.9297378063201904, "std_height": 1.4846632480621338, "count_pixels": 42, "percent_cover": 0.39848197343453506, "percent_above_0.1m": 88.095238095238088, "low_level_<0.5": 14.285714285714285, "mid_level_0.5-2": 30.952380952380953, "tall_2+": 42.857142857142854 }, "geometry": { "type": "Point", "coordinates": [ -0.47056400743288, 51.099486457388544 ] } },
{ "type": "Feature", "properties": { "max_height": 10.880996704101562, "mean_height": 3.1057863235473633, "std_height": 3.206413745880127, "count_pixels": 41, "percent_cover": 0.38899430740037949, "percent_above_0.1m": 73.170731707317074, "low_level_<0.5": 9.7560975609756095, "mid_level_0.5-2": 2.4390243902439024, "tall_2+": 56.09756097560976 }, "geometry": { "type": "Point", "coordinates": [ -0.470366186092319, 51.099483869803983 ] } },
{ "type": "Feature", "properties": { "max_height": 6.728759765625, "mean_height": 1.5322072505950928, "std_height": 1.8708139657974243, "count_pixels": 41, "percent_cover": 0.38899430740037949, "percent_above_0.1m": 58.536585365853654, "low_level_<0.5": 9.7560975609756095, "mid_level_0.5-2": 17.073170731707318, "tall_2+": 31.707317073170731 }, "geometry": { "type": "Point", "coordinates": [ -0.470168364781781, 51.099481281885126 ] } },
{ "type": "Feature", "properties": { "max_height": 10.851249694824219, "mean_height": 4.8862252235412598, "std_height": 2.5970799922943115, "count_pixels": 40, "percent_cover": 0.37950664136622392, "percent_above_0.1m": 95.0, "low_level_<0.5": 2.5, "mid_level_0.5-2": 7.5, "tall_2+": 85.0 }, "geometry": { "type": "Point", "coordinates": [ -0.469970543501285, 51.099478693631987 ] } },
{ "type": "Feature", "properties": { "max_height": 2.6624984741210938, "mean_height": 0.12776240706443787, "std_height": 0.5481266975402832, "count_pixels": 40, "percent_cover": 0.37950664136622392, "percent_above_0.1m": 5.0, "low_level_<0.5": 0.0, "mid_level_0.5-2": 0.0, "tall_2+": 5.0 }, "geometry": { "type": "Point", "coordinates": [ -0.469772722250821, 51.099476105044523 ] } },
{ "type": "Feature", "properties": { "max_height": 10.301994323730469, "mean_height": 4.256068229675293, "std_height": 2.7107639312744141, "count_pixels": 40, "percent_cover": 0.37950664136622392, "percent_above_0.1m": 95.0, "low_level_<0.5": 5.0, "mid_level_0.5-2": 10.0, "tall_2+": 77.5 }, "geometry": { "type": "Point", "coordinates": [ -0.472637580745497, 51.099621474036532 ] } },
{ "type": "Feature", "properties": { "max_height": 5.9252471923828125, "mean_height": 2.3073956966400146, "std_height": 1.8951170444488525, "count_pixels": 43, "percent_cover": 0.40796963946869069, "percent_above_0.1m": 81.395348837209298, "low_level_<0.5": 6.9767441860465116, "mid_level_0.5-2": 16.279069767441861, "tall_2+": 53.488372093023251 }, "geometry": { "type": "Point", "coordinates": [ -0.472439758614986, 51.099618889945852 ] } },
{ "type": "Feature", "properties": { "max_height": 6.8700027465820312, "mean_height": 2.147540807723999, "std_height": 2.0045650005340576, "count_pixels": 43, "percent_cover": 0.40796963946869069, "percent_above_0.1m": 72.093023255813947, "low_level_<0.5": 2.3255813953488373, "mid_level_0.5-2": 20.930232558139537, "tall_2+": 46.511627906976742 }, "geometry": { "type": "Point", "coordinates": [ -0.472241936514465, 51.099616305520868 ] } },
{ "type": "Feature", "properties": { "max_height": 5.71875, "mean_height": 1.1875654458999634, "std_height": 1.4547605514526367, "count_pixels": 42, "percent_cover": 0.39848197343453506, "percent_above_0.1m": 57.142857142857139, "low_level_<0.5": 0.0, "mid_level_0.5-2": 26.190476190476193, "tall_2+": 23.809523809523807 }, "geometry": { "type": "Point", "coordinates": [ -0.472044114443935, 51.099613720761582 ] } },
{ "type": "Feature", "properties": { "max_height": 4.125, "mean_height": 0.48432251811027527, "std_height": 1.1246687173843384, "count_pixels": 41, "percent_cover": 0.38899430740037949, "percent_above_0.1m": 24.390243902439025, "low_level_<0.5": 7.3170731707317067, "mid_level_0.5-2": 0.0, "tall_2+": 14.634146341463413 }, "geometry": { "type": "Point", "coordinates": [ -0.471846292403406, 51.099611135667992 ] } },
{ "type": "Feature", "properties": { "max_height": 5.9272537231445312, "mean_height": 1.0436468124389648, "std_height": 1.6363420486450195, "count_pixels": 41, "percent_cover": 0.38899430740037949, "percent_above_0.1m": 41.463414634146339, "low_level_<0.5": 0.0, "mid_level_0.5-2": 14.634146341463413, "tall_2+": 24.390243902439025 }, "geometry": { "type": "Point", "coordinates": [ -0.471648470392873, 51.099608550240099 ] } },
{ "type": "Feature", "properties": { "max_height": 1.7027511596679688, "mean_height": 0.17607134580612183, "std_height": 0.37039861083030701, "count_pixels": 42, "percent_cover": 0.39848197343453506, "percent_above_0.1m": 23.809523809523807, "low_level_<0.5": 9.5238095238095237, "mid_level_0.5-2": 11.904761904761903, "tall_2+": 0.0 }, "geometry": { "type": "Point", "coordinates": [ -0.470659360790377, 51.099595618086092 ] } },
{ "type": "Feature", "properties": { "max_height": 8.8287506103515625, "mean_height": 0.91236895322799683, "std_height": 1.831087589263916, "count_pixels": 42, "percent_cover": 0.39848197343453506, "percent_above_0.1m": 52.380952380952387, "low_level_<0.5": 16.666666666666664, "mid_level_0.5-2": 21.428571428571427, "tall_2+": 11.904761904761903 }, "geometry": { "type": "Point", "coordinates": [ -0.470461538959933, 51.099593030652379 ] } },
{ "type": "Feature", "properties": { "max_height": 5.458251953125, "mean_height": 0.60945308208465576, "std_height": 1.084517240524292, "count_pixels": 43, "percent_cover": 0.40796963946869069, "percent_above_0.1m": 46.511627906976742, "low_level_<0.5": 11.627906976744185, "mid_level_0.5-2": 27.906976744186046, "tall_2+": 4.6511627906976747 }, "geometry": { "type": "Point", "coordinates": [ -0.470263717159522, 51.099590442884349 ] } },
{ "type": "Feature", "properties": { "max_height": 9.2967529296875, "mean_height": 3.5999529361724854, "std_height": 2.6439154148101807, "count_pixels": 43, "percent_cover": 0.40796963946869069, "percent_above_0.1m": 81.395348837209298, "low_level_<0.5": 2.3255813953488373, "mid_level_0.5-2": 9.3023255813953494, "tall_2+": 67.441860465116278 }, "geometry": { "type": "Point", "coordinates": [ -0.470065895389142, 51.099587854782044 ] } },
{ "type": "Feature", "properties": { "max_height": 0.0372467041015625, "mean_height": 0.0070867538452148438, "std_height": 0.014101605862379074, "count_pixels": 40, "percent_cover": 0.37950664136622392, "percent_above_0.1m": 0.0, "low_level_<0.5": 0.0, "mid_level_0.5-2": 0.0, "tall_2+": 0.0 }, "geometry": { "type": "Point", "coordinates": [ -0.469868073648799, 51.099585266345429 ] } },
{ "type": "Feature", "properties": { "max_height": 7.64324951171875, "mean_height": 0.8396875262260437, "std_height": 1.650215744972229, "count_pixels": 40, "percent_cover": 0.37950664136622392, "percent_above_0.1m": 30.0, "low_level_<0.5": 2.5, "mid_level_0.5-2": 10.0, "tall_2+": 17.5 }, "geometry": { "type": "Point", "coordinates": [ -0.472732939461525, 51.099730633155964 ] } },
{ "type": "Feature", "properties": { "max_height": 7.7399978637695312, "mean_height": 1.4661815166473389, "std_height": 2.376215934753418, "count_pixels": 40, "percent_cover": 0.37950664136622392, "percent_above_0.1m": 42.5, "low_level_<0.5": 10.0, "mid_level_0.5-2": 5.0, "tall_2+": 27.5 }, "geometry": { "type": "Point", "coordinates": [ -0.472535116841153, 51.099728049216139 ] } },
{ "type": "Feature", "properties": { "max_height": 5.2702484130859375, "mean_height": 0.60037809610366821, "std_height": 1.2228977680206299, "count_pixels": 41, "percent_cover": 0.38899430740037949, "percent_above_0.1m": 31.707317073170731, "low_level_<0.5": 2.4390243902439024, "mid_level_0.5-2": 14.634146341463413, "tall_2+": 12.195121951219512 }, "geometry": { "type": "Point", "coordinates": [ -0.472337294250766, 51.099725464942004 ] } },
{ "type": "Feature", "properties": { "max_height": 6.8430023193359375, "mean_height": 2.7751286029815674, "std_height": 2.1750166416168213, "count_pixels": 41, "percent_cover": 0.38899430740037949, "percent_above_0.1m": 78.048780487804876, "low_level_<0.5": 0.0, "mid_level_0.5-2": 21.951219512195124, "tall_2+": 56.09756097560976 }, "geometry": { "type": "Point", "coordinates": [ -0.472139471690376, 51.099722880333559 ] } },
{ "type": "Feature", "properties": { "max_height": 6.5752487182617188, "mean_height": 1.7987619638442993, "std_height": 2.3772468566894531, "count_pixels": 42, "percent_cover": 0.39848197343453506, "percent_above_0.1m": 47.619047619047613, "low_level_<0.5": 2.3809523809523809, "mid_level_0.5-2": 11.904761904761903, "tall_2+": 33.333333333333329 }, "geometry": { "type": "Point", "coordinates": [ -0.471941649159977, 51.099720295390817 ] } },
{ "type": "Feature", "properties": { "max_height": 3.6855010986328125, "mean_height": 0.50662761926651001, "std_height": 0.91830527782440186, "count_pixels": 43, "percent_cover": 0.40796963946869069, "percent_above_0.1m": 32.558139534883722, "low_level_<0.5": 9.3023255813953494, "mid_level_0.5-2": 13.953488372093023, "tall_2+": 9.3023255813953494 }, "geometry": { "type": "Point", "coordinates": [ -0.471743826659575, 51.099717710113779 ] } },
{ "type": "Feature", "properties": { "max_height": 0.07825469970703125, "mean_height": 0.014162994921207428, "std_height": 0.021659625694155693, "count_pixels": 43, "percent_cover": 0.40796963946869069, "percent_above_0.1m": 0.0, "low_level_<0.5": 0.0, "mid_level_0.5-2": 0.0, "tall_2+": 0.0 }, "geometry": { "type": "Point", "coordinates": [ -0.47154600418918, 51.09971512450241 ] } },
{ "type": "Feature", "properties": { "max_height": 0.753509521484375, "mean_height": 0.041232038289308548, "std_height": 0.1174895316362381, "count_pixels": 41, "percent_cover": 0.38899430740037949, "percent_above_0.1m": 4.8780487804878048, "low_level_<0.5": 2.4390243902439024, "mid_level_0.5-2": 2.4390243902439024, "tall_2+": 0.0 }, "geometry": { "type": "Point", "coordinates": [ -0.470359069997097, 51.099699603813917 ] } },
{ "type": "Feature", "properties": { "max_height": 6.0540008544921875, "mean_height": 0.95975100994110107, "std_height": 1.6116851568222046, "count_pixels": 41, "percent_cover": 0.38899430740037949, "percent_above_0.1m": 41.463414634146339, "low_level_<0.5": 2.4390243902439024, "mid_level_0.5-2": 17.073170731707318, "tall_2+": 19.512195121951219 }, "geometry": { "type": "Point", "coordinates": [ -0.470161247736836, 51.099697015862453 ] } },
{ "type": "Feature", "properties": { "max_height": 6.9027557373046875, "mean_height": 0.39074307680130005, "std_height": 1.389265775680542, "count_pixels": 40, "percent_cover": 0.37950664136622392, "percent_above_0.1m": 7.5, "low_level_<0.5": 0.0, "mid_level_0.5-2": 0.0, "tall_2+": 7.5 }, "geometry": { "type": "Point", "coordinates": [ -0.469963425506608, 51.099694427576665 ] } },
{ "type": "Feature", "properties": { "max_height": 6.118499755859375, "mean_height": 1.0143368244171143, "std_height": 1.7496047019958496, "count_pixels": 40, "percent_cover": 0.37950664136622392, "percent_above_0.1m": 42.5, "low_level_<0.5": 10.0, "mid_level_0.5-2": 12.5, "tall_2+": 20.0 }, "geometry": { "type": "Point", "coordinates": [ -0.472630475527181, 51.099837208416744 ] } },
{ "type": "Feature", "properties": { "max_height": 0.05324554443359375, "mean_height": 0.013917789794504642, "std_height": 0.018462769687175751, "count_pixels": 43, "percent_cover": 0.40796963946869069, "percent_above_0.1m": 0.0, "low_level_<0.5": 0.0, "mid_level_0.5-2": 0.0, "tall_2+": 0.0 }, "geometry": { "type": "Point", "coordinates": [ -0.472432652446929, 51.099834624293443 ] } },
{ "type": "Feature", "properties": { "max_height": 0.04024505615234375, "mean_height": 0.0034875203855335712, "std_height": 0.012830662541091442, "count_pixels": 43, "percent_cover": 0.40796963946869069, "percent_above_0.1m": 0.0, "low_level_<0.5": 0.0, "mid_level_0.5-2": 0.0, "tall_2+": 0.0 }, "geometry": { "type": "Point", "coordinates": [ -0.472234829396669, 51.099832039835867 ] } },
{ "type": "Feature", "properties": { "max_height": 10.342498779296875, "mean_height": 2.8253092765808105, "std_height": 3.0357499122619629, "count_pixels": 42, "percent_cover": 0.39848197343453506, "percent_above_0.1m": 69.047619047619051, "low_level_<0.5": 4.7619047619047619, "mid_level_0.5-2": 11.904761904761903, "tall_2+": 50.0 }, "geometry": { "type": "Point", "coordinates": [ -0.4720370063764, 51.099829455043967 ] } },
{ "type": "Feature", "properties": { "max_height": 8.813995361328125, "mean_height": 3.9852213859558105, "std_height": 3.0102565288543701, "count_pixels": 41, "percent_cover": 0.38899430740037949, "percent_above_0.1m": 80.487804878048792, "low_level_<0.5": 4.8780487804878048, "mid_level_0.5-2": 9.7560975609756095, "tall_2+": 65.853658536585371 }, "geometry": { "type": "Point", "coordinates": [ -0.471839183386133, 51.099826869917763 ] } },
{ "type": "Feature", "properties": { "max_height": 0.0677490234375, "mean_height": 0.023591389879584312, "std_height": 0.025207385420799255, "count_pixels": 41, "percent_cover": 0.38899430740037949, "percent_above_0.1m": 0.0, "low_level_<0.5": 0.0, "mid_level_0.5-2": 0.0, "tall_2+": 0.0 }, "geometry": { "type": "Point", "coordinates": [ -0.471641360425863, 51.09982428445727 ] } },
{ "type": "Feature", "properties": { "max_height": 8.2235031127929688, "mean_height": 0.99236869812011719, "std_height": 2.1629509925842285, "count_pixels": 40, "percent_cover": 0.37950664136622392, "percent_above_0.1m": 27.5, "low_level_<0.5": 2.5, "mid_level_0.5-2": 7.5, "tall_2+": 17.5 }, "geometry": { "type": "Point", "coordinates": [ -0.472725834673076, 51.099946367547652 ] } },
{ "type": "Feature", "properties": { "max_height": 6.576507568359375, "mean_height": 1.0508949756622314, "std_height": 1.9057660102844238, "count_pixels": 40, "percent_cover": 0.37950664136622392, "percent_above_0.1m": 42.5, "low_level_<0.5": 7.5, "mid_level_0.5-2": 20.0, "tall_2+": 15.0 }, "geometry": { "type": "Point", "coordinates": [ -0.472528011102955, 51.09994378357522 ] } },
{ "type": "Feature", "properties": { "max_height": 11.319252014160156, "mean_height": 1.5502864122390747, "std_height": 2.9719958305358887, "count_pixels": 41, "percent_cover": 0.38899430740037949, "percent_above_0.1m": 34.146341463414636, "low_level_<0.5": 0.0, "mid_level_0.5-2": 12.195121951219512, "tall_2+": 21.951219512195124 }, "geometry": { "type": "Point", "coordinates": [ -0.472330187562826, 51.099941199268478 ] } },
{ "type": "Feature", "properties": { "max_height": 5.9175033569335938, "mean_height": 0.33375027775764465, "std_height": 1.1230889558792114, "count_pixels": 41, "percent_cover": 0.38899430740037949, "percent_above_0.1m": 14.634146341463413, "low_level_<0.5": 4.8780487804878048, "mid_level_0.5-2": 2.4390243902439024, "tall_2+": 7.3170731707317067 }, "geometry": { "type": "Point", "coordinates": [ -0.472132364052688, 51.099938614627455 ] } },
{ "type": "Feature", "properties": { "max_height": 9.0742568969726562, "mean_height": 2.1375062465667725, "std_height": 3.0462400913238525, "count_pixels": 42, "percent_cover": 0.39848197343453506, "percent_above_0.1m": 57.142857142857139, "low_level_<0.5": 9.5238095238095237, "mid_level_0.5-2": 11.904761904761903, "tall_2+": 30.952380952380953 }, "geometry": { "type": "Point", "coordinates": [ -0.471934540572546, 51.099936029652092 ] } },
{ "type": "Feature", "properties": { "max_height": 2.4079971313476562, "mean_height": 0.10954675078392029, "std_height": 0.48758789896965027, "count_pixels": 43, "percent_cover": 0.40796963946869069, "percent_above_0.1m": 4.6511627906976747, "low_level_<0.5": 0.0, "mid_level_0.5-2": 0.0, "tall_2+": 4.6511627906976747 }, "geometry": { "type": "Point", "coordinates": [ -0.471736717122403, 51.099933444342433 ] } },
{ "type": "Feature", "properties": { "max_height": 12.7237548828125, "mean_height": 5.4088644981384277, "std_height": 3.881554126739502, "count_pixels": 43, "percent_cover": 0.40796963946869069, "percent_above_0.1m": 90.697674418604649, "low_level_<0.5": 6.9767441860465116, "mid_level_0.5-2": 6.9767441860465116, "tall_2+": 76.744186046511629 }, "geometry": { "type": "Point", "coordinates": [ -0.472227722188836, 51.10004777414126 ] } },
{ "type": "Feature", "properties": { "max_height": 7.17950439453125, "mean_height": 1.3077917098999023, "std_height": 1.8533573150634766, "count_pixels": 42, "percent_cover": 0.39848197343453506, "percent_above_0.1m": 59.523809523809526, "low_level_<0.5": 11.904761904761903, "mid_level_0.5-2": 11.904761904761903, "tall_2+": 30.952380952380953 }, "geometry": { "type": "Point", "coordinates": [ -0.472029898218819, 51.100045189316745 ] } },
{ "type": "Feature", "properties": { "max_height": 5.8990020751953125, "mean_height": 0.41096943616867065, "std_height": 1.2939635515213013, "count_pixels": 41, "percent_cover": 0.38899430740037949, "percent_above_0.1m": 14.634146341463413, "low_level_<0.5": 2.4390243902439024, "mid_level_0.5-2": 4.8780487804878048, "tall_2+": 7.3170731707317067 }, "geometry": { "type": "Point", "coordinates": [ -0.471832074278798, 51.100042604157942 ] } },
{ "type": "Feature", "properties": { "max_height": 14.236000061035156, "mean_height": 3.2487866878509521, "std_height": 4.3273229598999023, "count_pixels": 41, "percent_cover": 0.38899430740037949, "percent_above_0.1m": 48.780487804878049, "low_level_<0.5": 0.0, "mid_level_0.5-2": 9.7560975609756095, "tall_2+": 39.024390243902438 }, "geometry": { "type": "Point", "coordinates": [ -0.472125256324958, 51.100154348911722 ] } },
{ "type": "Feature", "properties": { "max_height": 4.1232528686523438, "mean_height": 0.3195422887802124, "std_height": 0.88890957832336426, "count_pixels": 42, "percent_cover": 0.39848197343453506, "percent_above_0.1m": 14.285714285714285, "low_level_<0.5": 0.0, "mid_level_0.5-2": 7.1428571428571423, "tall_2+": 7.1428571428571423 }, "geometry": { "type": "Point", "coordinates": [ -0.471927431895059, 51.100151763903774 ] } },
{ "type": "Feature", "properties": { "max_height": 0.0944976806640625, "mean_height": 0.010166531428694725, "std_height": 0.023315845057368279, "count_pixels": 42, "percent_cover": 0.39848197343453506, "percent_above_0.1m": 0.0, "low_level_<0.5": 0.0, "mid_level_0.5-2": 0.0, "tall_2+": 0.0 }, "geometry": { "type": "Point", "coordinates": [ -0.472022789971187, 51.10026092357991 ] } }
]
}
