{
"type": "FeatureCollection",
"name": "43bf99b2a760_foliage",
"crs": { "type": "name", "properties": { "name": "urn:ogc:def:crs:OGC:1.3:CRS84" } },
"features": [
{ "type": "Feature", "properties": { "max_height": 9.5575103759765625, "mean_height": 4.3981389999389648, "std_height": 2.7363877296447754, "count_pixels": 42, "percent_cover": 1.4583333333333333, "percent_above_0.1m": 88.095238095238088, "low_level_<0.5": 4.7619047619047619, "mid_level_0.5-2": 7.1428571428571423, "tall_2+": 76.19047619047619 }, "geometry": { "type": "Point", "coordinates": [ -0.463971463343777, 51.169188398886739 ] } },
{ "type": "Feature", "properties": { "max_height": 3.9342498779296875, "mean_height": 0.65217697620391846, "std_height": 1.137762188911438, "count_pixels": 43, "percent_cover": 1.4930555555555556, "percent_above_0.1m": 46.511627906976742, "low_level_<0.5": 13.953488372093023, "mid_level_0.5-2": 16.279069767441861, "tall_2+": 11.627906976744185 }, "geometry": { "type": "Point", "coordinates": [ -0.463773344467825, 51.16918579750277 ] } },
{ "type": "Feature", "properties": { "max_height": 1.928253173828125, "mean_height": 0.26470252871513367, "std_height": 0.39067476987838745, "count_pixels": 44, "percent_cover": 1.5277777777777777, "percent_above_0.1m": 61.363636363636367, "low_level_<0.5": 27.27272727272727, "mid_level_0.5-2": 13.636363636363635, "tall_2+": 0.0 }, "geometry": { "type": "Point", "coordinates": [ -0.463575225621439, 51.16918319578329 ] } },
{ "type": "Feature", "properties": { "max_height": 14.245010375976562, "mean_height": 6.8683371543884277, "std_height": 3.0400054454803467, "count_pixels": 42, "percent_cover": 1.4583333333333333, "percent_above_0.1m": 97.61904761904762, "low_level_<0.5": 2.3809523809523809, "mid_level_0.5-2": 2.3809523809523809, "tall_2+": 92.857142857142861 }, "geometry": { "type": "Point", "coordinates": [ -0.46406694111864, 51.169297564818706 ] } },
{ "type": "Feature", "properties": { "max_height": 8.4112548828125, "mean_height": 2.167607307434082, "std_height": 2.4628281593322754, "count_pixels": 41, "percent_cover": 1.4236111111111112, "percent_above_0.1m": 56.09756097560976, "low_level_<0.5": 2.4390243902439024, "mid_level_0.5-2": 4.8780487804878048, "tall_2+": 46.341463414634148 }, "geometry": { "type": "Point", "coordinates": [ -0.463868821765757, 51.16929496359468 ] } },
{ "type": "Feature", "properties": { "max_height": 4.071258544921875, "mean_height": 0.67238271236419678, "std_height": 0.81421577930450439, "count_pixels": 40, "percent_cover": 1.3888888888888888, "percent_above_0.1m": 75.0, "low_level_<0.5": 22.5, "mid_level_0.5-2": 35.0, "tall_2+": 7.5 }, "geometry": { "type": "Point", "coordinates": [ -0.463670702442447, 51.169292362035129 ] } },
{ "type": "Feature", "properties": { "max_height": 24.224258422851562, "mean_height": 5.2374935150146484, "std_height": 6.2773308753967285, "count_pixels": 36, "percent_cover": 1.25, "percent_above_0.1m": 86.111111111111114, "low_level_<0.5": 16.666666666666664, "mid_level_0.5-2": 11.111111111111111, "tall_2+": 58.333333333333336 }, "geometry": { "type": "Point", "coordinates": [ -0.463472583148699, 51.169289760140039 ] } },
{ "type": "Feature", "properties": { "max_height": 15.82000732421875, "mean_height": 7.6280918121337891, "std_height": 3.6692733764648438, "count_pixels": 42, "percent_cover": 1.4583333333333333, "percent_above_0.1m": 100.0, "low_level_<0.5": 0.0, "mid_level_0.5-2": 2.3809523809523809, "tall_2+": 97.61904761904762 }, "geometry": { "type": "Point", "coordinates": [ -0.464162419340855, 51.169406730672513 ] } },
{ "type": "Feature", "properties": { "max_height": 15.618759155273438, "mean_height": 5.2843079566955566, "std_height": 4.5289502143859863, "count_pixels": 42, "percent_cover": 1.4583333333333333, "percent_above_0.1m": 76.19047619047619, "low_level_<0.5": 0.0, "mid_level_0.5-2": 7.1428571428571423, "tall_2+": 64.285714285714292 }, "geometry": { "type": "Point", "coordinates": [ -0.463964299511042, 51.169404129608438 ] } },
{ "type": "Feature", "properties": { "max_height": 6.71026611328125, "mean_height": 0.70627647638320923, "std_height": 1.4695910215377808, "count_pixels": 43, "percent_cover": 1.4930555555555556, "percent_above_0.1m": 55.813953488372093, "low_level_<0.5": 27.906976744186046, "mid_level_0.5-2": 6.9767441860465116, "tall_2+": 11.627906976744185 }, "geometry": { "type": "Point", "coordinates": [ -0.463766179710796, 51.169401528208844 ] } },
{ "type": "Feature", "properties": { "max_height": 5.133514404296875, "mean_height": 1.944433331489563, "std_height": 1.5818876028060913, "count_pixels": 44, "percent_cover": 1.5277777777777777, "percent_above_0.1m": 81.818181818181827, "low_level_<0.5": 6.8181818181818175, "mid_level_0.5-2": 31.818181818181817, "tall_2+": 43.18181818181818 }, "geometry": { "type": "Point", "coordinates": [ -0.463568059940117, 51.169398926473676 ] } },
{ "type": "Feature", "properties": { "max_height": 10.060256958007812, "mean_height": 2.8877928256988525, "std_height": 2.6763575077056885, "count_pixels": 44, "percent_cover": 1.5277777777777777, "percent_above_0.1m": 86.36363636363636, "low_level_<0.5": 11.363636363636363, "mid_level_0.5-2": 20.454545454545457, "tall_2+": 52.272727272727273 }, "geometry": { "type": "Point", "coordinates": [ -0.463369940199012, 51.169396324402996 ] } },
{ "type": "Feature", "properties": { "max_height": 15.377517700195312, "mean_height": 9.0618667602539062, "std_height": 4.0952777862548828, "count_pixels": 42, "percent_cover": 1.4583333333333333, "percent_above_0.1m": 100.0, "low_level_<0.5": 0.0, "mid_level_0.5-2": 4.7619047619047619, "tall_2+": 95.238095238095227 }, "geometry": { "type": "Point", "coordinates": [ -0.464059777703684, 51.169513295544057 ] } },
{ "type": "Feature", "properties": { "max_height": 9.54351806640625, "mean_height": 4.9921674728393555, "std_height": 2.6640212535858154, "count_pixels": 41, "percent_cover": 1.4236111111111112, "percent_above_0.1m": 95.121951219512198, "low_level_<0.5": 4.8780487804878048, "mid_level_0.5-2": 7.3170731707317067, "tall_2+": 82.926829268292678 }, "geometry": { "type": "Point", "coordinates": [ -0.463861657426499, 51.169510694304385 ] } },
{ "type": "Feature", "properties": { "max_height": 12.42950439453125, "mean_height": 5.5329904556274414, "std_height": 2.9562761783599854, "count_pixels": 40, "percent_cover": 1.3888888888888888, "percent_above_0.1m": 97.5, "low_level_<0.5": 0.0, "mid_level_0.5-2": 12.5, "tall_2+": 85.0 }, "geometry": { "type": "Point", "coordinates": [ -0.463663537178887, 51.169508092729174 ] } },
{ "type": "Feature", "properties": { "max_height": 11.409515380859375, "mean_height": 2.9995443820953369, "std_height": 3.7090961933135986, "count_pixels": 36, "percent_cover": 1.25, "percent_above_0.1m": 77.777777777777786, "low_level_<0.5": 2.7777777777777777, "mid_level_0.5-2": 25.0, "tall_2+": 41.666666666666671 }, "geometry": { "type": "Point", "coordinates": [ -0.463465416960847, 51.169505490818423 ] } },
{ "type": "Feature", "properties": { "max_height": 26.654769897460938, "mean_height": 15.725374221801758, "std_height": 6.3460302352905273, "count_pixels": 40, "percent_cover": 1.3888888888888888, "percent_above_0.1m": 100.0, "low_level_<0.5": 0.0, "mid_level_0.5-2": 2.5, "tall_2+": 97.5 }, "geometry": { "type": "Point", "coordinates": [ -0.46326729677237, 51.169502888572119 ] } },
{ "type": "Feature", "properties": { "max_height": 15.605255126953125, "mean_height": 9.9095802307128906, "std_height": 2.3821442127227783, "count_pixels": 42, "percent_cover": 1.4583333333333333, "percent_above_0.1m": 100.0, "low_level_<0.5": 0.0, "mid_level_0.5-2": 0.0, "tall_2+": 100.0 }, "geometry": { "type": "Point", "coordinates": [ -0.463957135589563, 51.169619860321774 ] } },
{ "type": "Feature", "properties": { "max_height": 17.01251220703125, "mean_height": 8.943659782409668, "std_height": 4.0943536758422852, "count_pixels": 43, "percent_cover": 1.4930555555555556, "percent_above_0.1m": 100.0, "low_level_<0.5": 2.3255813953488373, "mid_level_0.5-2": 6.9767441860465116, "tall_2+": 90.697674418604649 }, "geometry": { "type": "Point", "coordinates": [ -0.463759014865007, 51.169617258906499 ] } },
{ "type": "Feature", "properties": { "max_height": 20.355270385742188, "mean_height": 9.6488885879516602, "std_height": 4.728630542755127, "count_pixels": 44, "percent_cover": 1.5277777777777777, "percent_above_0.1m": 100.0, "low_level_<0.5": 2.2727272727272729, "mid_level_0.5-2": 2.2727272727272729, "tall_2+": 95.454545454545453 }, "geometry": { "type": "Point", "coordinates": [ -0.463560894170024, 51.169614657155698 ] } },
{ "type": "Feature", "properties": { "max_height": 28.254013061523438, "mean_height": 19.714731216430664, "std_height": 4.8220615386962891, "count_pixels": 44, "percent_cover": 1.5277777777777777, "percent_above_0.1m": 100.0, "low_level_<0.5": 0.0, "mid_level_0.5-2": 0.0, "tall_2+": 100.0 }, "geometry": { "type": "Point", "coordinates": [ -0.463362773504612, 51.169612055069344 ] } },
{ "type": "Feature", "properties": { "max_height": 14.332000732421875, "mean_height": 9.3556709289550781, "std_height": 2.3592169284820557, "count_pixels": 42, "percent_cover": 1.4583333333333333, "percent_above_0.1m": 100.0, "low_level_<0.5": 0.0, "mid_level_0.5-2": 0.0, "tall_2+": 100.0 }, "geometry": { "type": "Point", "coordinates": [ -0.464052614199985, 51.169729026261003 ] } },
{ "type": "Feature", "properties": { "max_height": 11.462493896484375, "mean_height": 3.1958825588226318, "std_height": 2.8263537883758545, "count_pixels": 41, "percent_cover": 1.4236111111111112, "percent_above_0.1m": 92.682926829268297, "low_level_<0.5": 17.073170731707318, "mid_level_0.5-2": 21.951219512195124, "tall_2+": 53.658536585365859 }, "geometry": { "type": "Point", "coordinates": [ -0.463854492998487, 51.169726425005685 ] } },
{ "type": "Feature", "properties": { "max_height": 14.3427734375, "mean_height": 4.0380349159240723, "std_height": 3.8258953094482422, "count_pixels": 40, "percent_cover": 1.3888888888888888, "percent_above_0.1m": 80.0, "low_level_<0.5": 5.0, "mid_level_0.5-2": 10.0, "tall_2+": 60.0 }, "geometry": { "type": "Point", "coordinates": [ -0.463656371826562, 51.169723823414813 ] } },
{ "type": "Feature", "properties": { "max_height": 27.32000732421875, "mean_height": 15.710237503051758, "std_height": 4.835442066192627, "count_pixels": 36, "percent_cover": 1.25, "percent_above_0.1m": 100.0, "low_level_<0.5": 0.0, "mid_level_0.5-2": 0.0, "tall_2+": 100.0 }, "geometry": { "type": "Point", "coordinates": [ -0.463458250684206, 51.169721221488409 ] } },
{ "type": "Feature", "properties": { "max_height": 13.467010498046875, "mean_height": 6.9537672996520996, "std_height": 3.8611726760864258, "count_pixels": 42, "percent_cover": 1.4583333333333333, "percent_above_0.1m": 100.0, "low_level_<0.5": 0.0, "mid_level_0.5-2": 16.666666666666664, "tall_2+": 83.333333333333343 }, "geometry": { "type": "Point", "coordinates": [ -0.463949971579329, 51.169835591026704 ] } },
{ "type": "Feature", "properties": { "max_height": 18.35101318359375, "mean_height": 11.734107971191406, "std_height": 4.3185691833496094, "count_pixels": 43, "percent_cover": 1.4930555555555556, "percent_above_0.1m": 100.0, "low_level_<0.5": 0.0, "mid_level_0.5-2": 0.0, "tall_2+": 100.0 }, "geometry": { "type": "Point", "coordinates": [ -0.46375184993046, 51.169832989595797 ] } }
]
}
