{
"type": "FeatureCollection",
"name": "50db67e7d075_foliage",
"crs": { "type": "name", "properties": { "name": "urn:ogc:def:crs:OGC:1.3:CRS84" } },
"features": [
{ "type": "Feature", "properties": { "max_height": 11.304519653320312, "mean_height": 1.3584498167037964, "std_height": 3.0174019336700439, "count_pixels": 41, "percent_cover": 0.83827438151707223, "percent_above_0.1m": 26.829268292682929, "low_level_<0.5": 2.4390243902439024, "mid_level_0.5-2": 7.3170731707317067, "tall_2+": 17.073170731707318 }, "geometry": { "type": "Point", "coordinates": [ -0.496412306466063, 51.178092919493217 ] } },
{ "type": "Feature", "properties": { "max_height": 13.828750610351562, "mean_height": 5.2090578079223633, "std_height": 4.7156534194946289, "count_pixels": 40, "percent_cover": 0.81782866489470452, "percent_above_0.1m": 72.5, "low_level_<0.5": 10.0, "mid_level_0.5-2": 5.0, "tall_2+": 57.5 }, "geometry": { "type": "Point", "coordinates": [ -0.496214146389671, 51.178090372652107 ] } },
{ "type": "Feature", "properties": { "max_height": 12.750259399414062, "mean_height": 3.7021560668945312, "std_height": 4.0098133087158203, "count_pixels": 40, "percent_cover": 0.81782866489470452, "percent_above_0.1m": 70.0, "low_level_<0.5": 12.5, "mid_level_0.5-2": 5.0, "tall_2+": 52.5 }, "geometry": { "type": "Point", "coordinates": [ -0.496015986342035, 51.178087825475409 ] } },
{ "type": "Feature", "properties": { "max_height": 20.763015747070312, "mean_height": 13.062728881835938, "std_height": 3.589439868927002, "count_pixels": 41, "percent_cover": 0.83827438151707223, "percent_above_0.1m": 100.0, "low_level_<0.5": 0.0, "mid_level_0.5-2": 0.0, "tall_2+": 100.0 }, "geometry": { "type": "Point", "coordinates": [ -0.495817826323159, 51.178085277963092 ] } },
{ "type": "Feature", "properties": { "max_height": 0.4824981689453125, "mean_height": 0.0146785918623209, "std_height": 0.073326274752616882, "count_pixels": 42, "percent_cover": 0.85872009813943972, "percent_above_0.1m": 2.3809523809523809, "low_level_<0.5": 2.3809523809523809, "mid_level_0.5-2": 0.0, "tall_2+": 0.0 }, "geometry": { "type": "Point", "coordinates": [ -0.496904198596189, 51.17820715339306 ] } },
{ "type": "Feature", "properties": { "max_height": 0.1320037841796875, "mean_height": 0.010737827979028225, "std_height": 0.024941625073552132, "count_pixels": 42, "percent_cover": 0.85872009813943972, "percent_above_0.1m": 2.3809523809523809, "low_level_<0.5": 0.0, "mid_level_0.5-2": 0.0, "tall_2+": 0.0 }, "geometry": { "type": "Point", "coordinates": [ -0.496706037989926, 51.178204607382 ] } },
{ "type": "Feature", "properties": { "max_height": 0.136260986328125, "mean_height": 0.0077919182367622852, "std_height": 0.026075001806020737, "count_pixels": 43, "percent_cover": 0.87916581476180744, "percent_above_0.1m": 2.3255813953488373, "low_level_<0.5": 0.0, "mid_level_0.5-2": 0.0, "tall_2+": 0.0 }, "geometry": { "type": "Point", "coordinates": [ -0.496507877412405, 51.178202061035357 ] } },
{ "type": "Feature", "properties": { "max_height": 2.113250732421875, "mean_height": 0.095284752547740936, "std_height": 0.36222460865974426, "count_pixels": 43, "percent_cover": 0.87916581476180744, "percent_above_0.1m": 13.953488372093023, "low_level_<0.5": 6.9767441860465116, "mid_level_0.5-2": 2.3255813953488373, "tall_2+": 2.3255813953488373 }, "geometry": { "type": "Point", "coordinates": [ -0.496309716863637, 51.178199514353075 ] } },
{ "type": "Feature", "properties": { "max_height": 7.07049560546875, "mean_height": 2.6754031181335449, "std_height": 2.1061983108520508, "count_pixels": 40, "percent_cover": 0.81782866489470452, "percent_above_0.1m": 85.0, "low_level_<0.5": 7.5, "mid_level_0.5-2": 20.0, "tall_2+": 57.5 }, "geometry": { "type": "Point", "coordinates": [ -0.496111556343627, 51.178196967335232 ] } },
{ "type": "Feature", "properties": { "max_height": 6.7230072021484375, "mean_height": 1.5989609956741333, "std_height": 1.9889926910400391, "count_pixels": 43, "percent_cover": 0.87916581476180744, "percent_above_0.1m": 65.116279069767444, "low_level_<0.5": 6.9767441860465116, "mid_level_0.5-2": 27.906976744186046, "tall_2+": 27.906976744186046 }, "geometry": { "type": "Point", "coordinates": [ -0.49591339585237, 51.178194419981772 ] } },
{ "type": "Feature", "properties": { "max_height": 17.076004028320312, "mean_height": 7.0830411911010742, "std_height": 4.8903069496154785, "count_pixels": 42, "percent_cover": 0.85872009813943972, "percent_above_0.1m": 100.0, "low_level_<0.5": 0.0, "mid_level_0.5-2": 16.666666666666664, "tall_2+": 83.333333333333343 }, "geometry": { "type": "Point", "coordinates": [ -0.495715235389877, 51.178191872292722 ] } },
{ "type": "Feature", "properties": { "max_height": 18.792251586914062, "mean_height": 12.961114883422852, "std_height": 4.5934534072875977, "count_pixels": 42, "percent_cover": 0.85872009813943972, "percent_above_0.1m": 95.238095238095227, "low_level_<0.5": 0.0, "mid_level_0.5-2": 0.0, "tall_2+": 95.238095238095227 }, "geometry": { "type": "Point", "coordinates": [ -0.49551707495615, 51.178189324268061 ] } },
{ "type": "Feature", "properties": { "max_height": 0.02025604248046875, "mean_height": -0.00089263916015625, "std_height": 0.0089461710304021835, "count_pixels": 42, "percent_cover": 0.85872009813943972, "percent_above_0.1m": 0.0, "low_level_<0.5": 0.0, "mid_level_0.5-2": 0.0, "tall_2+": 0.0 }, "geometry": { "type": "Point", "coordinates": [ -0.496999770930904, 51.178316294540366 ] } },
{ "type": "Feature", "properties": { "max_height": 0.4225006103515625, "mean_height": 0.02594829723238945, "std_height": 0.072805017232894897, "count_pixels": 42, "percent_cover": 0.85872009813943972, "percent_above_0.1m": 7.1428571428571423, "low_level_<0.5": 4.7619047619047619, "mid_level_0.5-2": 0.0, "tall_2+": 0.0 }, "geometry": { "type": "Point", "coordinates": [ -0.496801609852265, 51.178313748688183 ] } },
{ "type": "Feature", "properties": { "max_height": 0.6370086669921875, "mean_height": 0.029865916818380356, "std_height": 0.10129600763320923, "count_pixels": 41, "percent_cover": 0.83827438151707223, "percent_above_0.1m": 4.8780487804878048, "low_level_<0.5": 2.4390243902439024, "mid_level_0.5-2": 2.4390243902439024, "tall_2+": 0.0 }, "geometry": { "type": "Point", "coordinates": [ -0.496603448802368, 51.178311202500367 ] } },
{ "type": "Feature", "properties": { "max_height": 0.7649993896484375, "mean_height": 0.10198751091957092, "std_height": 0.20170170068740845, "count_pixels": 41, "percent_cover": 0.83827438151707223, "percent_above_0.1m": 21.951219512195124, "low_level_<0.5": 9.7560975609756095, "mid_level_0.5-2": 9.7560975609756095, "tall_2+": 0.0 }, "geometry": { "type": "Point", "coordinates": [ -0.496405287781221, 51.178308655976977 ] } },
{ "type": "Feature", "properties": { "max_height": 3.3162689208984375, "mean_height": 0.57081872224807739, "std_height": 0.93478012084960938, "count_pixels": 40, "percent_cover": 0.81782866489470452, "percent_above_0.1m": 37.5, "low_level_<0.5": 5.0, "mid_level_0.5-2": 15.0, "tall_2+": 12.5 }, "geometry": { "type": "Point", "coordinates": [ -0.496207126788829, 51.178306109117969 ] } },
{ "type": "Feature", "properties": { "max_height": 7.802764892578125, "mean_height": 3.3999876976013184, "std_height": 2.4664585590362549, "count_pixels": 40, "percent_cover": 0.81782866489470452, "percent_above_0.1m": 92.5, "low_level_<0.5": 10.0, "mid_level_0.5-2": 12.5, "tall_2+": 70.0 }, "geometry": { "type": "Point", "coordinates": [ -0.496008965825191, 51.178303561923357 ] } },
{ "type": "Feature", "properties": { "max_height": 4.0112457275390625, "mean_height": 0.84987586736679077, "std_height": 1.1670224666595459, "count_pixels": 41, "percent_cover": 0.83827438151707223, "percent_above_0.1m": 51.219512195121951, "low_level_<0.5": 4.8780487804878048, "mid_level_0.5-2": 26.829268292682929, "tall_2+": 17.073170731707318 }, "geometry": { "type": "Point", "coordinates": [ -0.495810804890313, 51.17830101439317 ] } },
{ "type": "Feature", "properties": { "max_height": 6.1507568359375, "mean_height": 0.53035229444503784, "std_height": 1.0833934545516968, "count_pixels": 42, "percent_cover": 0.85872009813943972, "percent_above_0.1m": 47.619047619047613, "low_level_<0.5": 19.047619047619047, "mid_level_0.5-2": 19.047619047619047, "tall_2+": 7.1428571428571423 }, "geometry": { "type": "Point", "coordinates": [ -0.495612643984199, 51.178298466527359 ] } },
{ "type": "Feature", "properties": { "max_height": 13.004501342773438, "mean_height": 2.5373082160949707, "std_height": 3.9138758182525635, "count_pixels": 42, "percent_cover": 0.85872009813943972, "percent_above_0.1m": 40.476190476190474, "low_level_<0.5": 0.0, "mid_level_0.5-2": 7.1428571428571423, "tall_2+": 33.333333333333329 }, "geometry": { "type": "Point", "coordinates": [ -0.496897182158226, 51.178422889917229 ] } },
{ "type": "Feature", "properties": { "max_height": 6.9722518920898438, "mean_height": 0.78897058963775635, "std_height": 1.4276169538497925, "count_pixels": 42, "percent_cover": 0.85872009813943972, "percent_above_0.1m": 38.095238095238095, "low_level_<0.5": 9.5238095238095237, "mid_level_0.5-2": 11.904761904761903, "tall_2+": 16.666666666666664 }, "geometry": { "type": "Point", "coordinates": [ -0.496699020635954, 51.178420343888291 ] } },
{ "type": "Feature", "properties": { "max_height": 6.1472549438476562, "mean_height": 1.9963208436965942, "std_height": 1.7484961748123169, "count_pixels": 43, "percent_cover": 0.87916581476180744, "percent_above_0.1m": 74.418604651162795, "low_level_<0.5": 4.6511627906976747, "mid_level_0.5-2": 16.279069767441861, "tall_2+": 51.162790697674424 }, "geometry": { "type": "Point", "coordinates": [ -0.496500859142423, 51.178417797523757 ] } },
{ "type": "Feature", "properties": { "max_height": 5.0760040283203125, "mean_height": 1.3894950151443481, "std_height": 1.1892192363739014, "count_pixels": 43, "percent_cover": 0.87916581476180744, "percent_above_0.1m": 86.04651162790698, "low_level_<0.5": 18.604651162790699, "mid_level_0.5-2": 32.558139534883722, "tall_2+": 32.558139534883722 }, "geometry": { "type": "Point", "coordinates": [ -0.49630269767765, 51.178415250823605 ] } },
{ "type": "Feature", "properties": { "max_height": 4.0495147705078125, "mean_height": 1.4996064901351929, "std_height": 1.4279384613037109, "count_pixels": 40, "percent_cover": 0.81782866489470452, "percent_above_0.1m": 75.0, "low_level_<0.5": 15.0, "mid_level_0.5-2": 17.5, "tall_2+": 40.0 }, "geometry": { "type": "Point", "coordinates": [ -0.496104536241625, 51.178412703787863 ] } },
{ "type": "Feature", "properties": { "max_height": 6.94476318359375, "mean_height": 3.6591627597808838, "std_height": 1.9879735708236694, "count_pixels": 43, "percent_cover": 0.87916581476180744, "percent_above_0.1m": 100.0, "low_level_<0.5": 4.6511627906976747, "mid_level_0.5-2": 16.279069767441861, "tall_2+": 79.069767441860463 }, "geometry": { "type": "Point", "coordinates": [ -0.495906374834366, 51.178410156416525 ] } },
{ "type": "Feature", "properties": { "max_height": 4.1760101318359375, "mean_height": 0.96717214584350586, "std_height": 1.2507781982421875, "count_pixels": 42, "percent_cover": 0.85872009813943972, "percent_above_0.1m": 66.666666666666657, "low_level_<0.5": 16.666666666666664, "mid_level_0.5-2": 28.571428571428569, "tall_2+": 16.666666666666664 }, "geometry": { "type": "Point", "coordinates": [ -0.495708213455865, 51.178407608709591 ] } },
{ "type": "Feature", "properties": { "max_height": 18.435760498046875, "mean_height": 8.0083723068237305, "std_height": 5.9429278373718262, "count_pixels": 42, "percent_cover": 0.85872009813943972, "percent_above_0.1m": 97.61904761904762, "low_level_<0.5": 7.1428571428571423, "mid_level_0.5-2": 9.5238095238095237, "tall_2+": 78.571428571428569 }, "geometry": { "type": "Point", "coordinates": [ -0.495510052106126, 51.178405060667025 ] } },
{ "type": "Feature", "properties": { "max_height": 14.5152587890625, "mean_height": 2.4044220447540283, "std_height": 4.2232980728149414, "count_pixels": 42, "percent_cover": 0.85872009813943972, "percent_above_0.1m": 38.095238095238095, "low_level_<0.5": 7.1428571428571423, "mid_level_0.5-2": 4.7619047619047619, "tall_2+": 26.190476190476193 }, "geometry": { "type": "Point", "coordinates": [ -0.496794592913161, 51.178529485199121 ] } },
{ "type": "Feature", "properties": { "max_height": 5.4372634887695312, "mean_height": 0.9201587438583374, "std_height": 1.5090683698654175, "count_pixels": 41, "percent_cover": 0.83827438151707223, "percent_above_0.1m": 48.780487804878049, "low_level_<0.5": 14.634146341463413, "mid_level_0.5-2": 7.3170731707317067, "tall_2+": 21.951219512195124 }, "geometry": { "type": "Point", "coordinates": [ -0.49659643094725, 51.178526938993443 ] } },
{ "type": "Feature", "properties": { "max_height": 4.9480056762695312, "mean_height": 0.51770728826522827, "std_height": 1.1067560911178589, "count_pixels": 41, "percent_cover": 0.83827438151707223, "percent_above_0.1m": 26.829268292682929, "low_level_<0.5": 2.4390243902439024, "mid_level_0.5-2": 14.634146341463413, "tall_2+": 9.7560975609756095 }, "geometry": { "type": "Point", "coordinates": [ -0.496398269010093, 51.178524392452161 ] } },
{ "type": "Feature", "properties": { "max_height": 0.2050018310546875, "mean_height": 0.022636603564023972, "std_height": 0.048701200634241104, "count_pixels": 40, "percent_cover": 0.81782866489470452, "percent_above_0.1m": 10.0, "low_level_<0.5": 5.0, "mid_level_0.5-2": 0.0, "tall_2+": 0.0 }, "geometry": { "type": "Point", "coordinates": [ -0.496200107101679, 51.178521845575268 ] } },
{ "type": "Feature", "properties": { "max_height": 7.9560089111328125, "mean_height": 3.2339935302734375, "std_height": 2.8876512050628662, "count_pixels": 40, "percent_cover": 0.81782866489470452, "percent_above_0.1m": 77.5, "low_level_<0.5": 15.0, "mid_level_0.5-2": 5.0, "tall_2+": 55.000000000000007 }, "geometry": { "type": "Point", "coordinates": [ -0.496001945222031, 51.178519298362779 ] } },
{ "type": "Feature", "properties": { "max_height": 4.0342559814453125, "mean_height": 0.28868883848190308, "std_height": 0.68557500839233398, "count_pixels": 41, "percent_cover": 0.83827438151707223, "percent_above_0.1m": 36.585365853658537, "low_level_<0.5": 14.634146341463413, "mid_level_0.5-2": 14.634146341463413, "tall_2+": 2.4390243902439024 }, "geometry": { "type": "Point", "coordinates": [ -0.495803783371138, 51.178516750814708 ] } },
{ "type": "Feature", "properties": { "max_height": 2.1697540283203125, "mean_height": 0.1846422404050827, "std_height": 0.40622088313102722, "count_pixels": 42, "percent_cover": 0.85872009813943972, "percent_above_0.1m": 28.571428571428569, "low_level_<0.5": 11.904761904761903, "mid_level_0.5-2": 9.5238095238095237, "tall_2+": 2.3809523809523809 }, "geometry": { "type": "Point", "coordinates": [ -0.495605621549013, 51.178514202931005 ] } },
{ "type": "Feature", "properties": { "max_height": 31.789520263671875, "mean_height": 15.575813293457031, "std_height": 7.9021553993225098, "count_pixels": 42, "percent_cover": 0.85872009813943972, "percent_above_0.1m": 100.0, "low_level_<0.5": 2.3809523809523809, "mid_level_0.5-2": 0.0, "tall_2+": 97.61904761904762 }, "geometry": { "type": "Point", "coordinates": [ -0.495407459755656, 51.178511654711698 ] } },
{ "type": "Feature", "properties": { "max_height": 0.0097503662109375, "mean_height": 0.00036911736242473125, "std_height": 0.0040521286427974701, "count_pixels": 42, "percent_cover": 0.85872009813943972, "percent_above_0.1m": 0.0, "low_level_<0.5": 0.0, "mid_level_0.5-2": 0.0, "tall_2+": 0.0 }, "geometry": { "type": "Point", "coordinates": [ -0.496890165633999, 51.178638626432829 ] } },
{ "type": "Feature", "properties": { "max_height": 2.6907577514648438, "mean_height": 0.52600699663162231, "std_height": 0.62740743160247803, "count_pixels": 42, "percent_cover": 0.85872009813943972, "percent_above_0.1m": 54.761904761904766, "low_level_<0.5": 9.5238095238095237, "mid_level_0.5-2": 40.476190476190474, "tall_2+": 2.3809523809523809 }, "geometry": { "type": "Point", "coordinates": [ -0.496692003195706, 51.178636080386028 ] } },
{ "type": "Feature", "properties": { "max_height": 0.26775360107421875, "mean_height": 0.020726935938000679, "std_height": 0.050505656749010086, "count_pixels": 43, "percent_cover": 0.87916581476180744, "percent_above_0.1m": 4.6511627906976747, "low_level_<0.5": 2.3255813953488373, "mid_level_0.5-2": 0.0, "tall_2+": 0.0 }, "geometry": { "type": "Point", "coordinates": [ -0.496493840786154, 51.178633534003609 ] } },
{ "type": "Feature", "properties": { "max_height": 1.30975341796875, "mean_height": 0.087325692176818848, "std_height": 0.2096845954656601, "count_pixels": 43, "percent_cover": 0.87916581476180744, "percent_above_0.1m": 23.255813953488371, "low_level_<0.5": 13.953488372093023, "mid_level_0.5-2": 2.3255813953488373, "tall_2+": 0.0 }, "geometry": { "type": "Point", "coordinates": [ -0.496295678405361, 51.178630987285587 ] } },
{ "type": "Feature", "properties": { "max_height": 4.4447479248046875, "mean_height": 0.64113730192184448, "std_height": 1.253521203994751, "count_pixels": 40, "percent_cover": 0.81782866489470452, "percent_above_0.1m": 30.0, "low_level_<0.5": 7.5, "mid_level_0.5-2": 7.5, "tall_2+": 15.0 }, "geometry": { "type": "Point", "coordinates": [ -0.496097516053316, 51.178628440231947 ] } },
{ "type": "Feature", "properties": { "max_height": 5.8470077514648438, "mean_height": 0.85408145189285278, "std_height": 1.5177141427993774, "count_pixels": 43, "percent_cover": 0.87916581476180744, "percent_above_0.1m": 46.511627906976742, "low_level_<0.5": 13.953488372093023, "mid_level_0.5-2": 16.279069767441861, "tall_2+": 16.279069767441861 }, "geometry": { "type": "Point", "coordinates": [ -0.495899353730038, 51.17862589284271 ] } },
{ "type": "Feature", "properties": { "max_height": 5.1395034790039062, "mean_height": 1.0901725292205811, "std_height": 1.3431706428527832, "count_pixels": 42, "percent_cover": 0.85872009813943972, "percent_above_0.1m": 69.047619047619051, "low_level_<0.5": 14.285714285714285, "mid_level_0.5-2": 30.952380952380953, "tall_2+": 23.809523809523807 }, "geometry": { "type": "Point", "coordinates": [ -0.495701191435514, 51.178623345117892 ] } },
{ "type": "Feature", "properties": { "max_height": 28.21575927734375, "mean_height": 6.3611364364624023, "std_height": 8.3436508178710938, "count_pixels": 42, "percent_cover": 0.85872009813943972, "percent_above_0.1m": 73.80952380952381, "low_level_<0.5": 4.7619047619047619, "mid_level_0.5-2": 19.047619047619047, "tall_2+": 47.619047619047613 }, "geometry": { "type": "Point", "coordinates": [ -0.495503029169764, 51.178620797057441 ] } },
{ "type": "Feature", "properties": { "max_height": 0.44200897216796875, "mean_height": 0.045303888618946075, "std_height": 0.10320736467838287, "count_pixels": 42, "percent_cover": 0.85872009813943972, "percent_above_0.1m": 14.285714285714285, "low_level_<0.5": 14.285714285714285, "mid_level_0.5-2": 0.0, "tall_2+": 0.0 }, "geometry": { "type": "Point", "coordinates": [ -0.496787575887787, 51.178745221701512 ] } },
{ "type": "Feature", "properties": { "max_height": 1.42425537109375, "mean_height": 0.14933590590953827, "std_height": 0.38058319687843323, "count_pixels": 41, "percent_cover": 0.83827438151707223, "percent_above_0.1m": 19.512195121951219, "low_level_<0.5": 7.3170731707317067, "mid_level_0.5-2": 9.7560975609756095, "tall_2+": 0.0 }, "geometry": { "type": "Point", "coordinates": [ -0.496589413005848, 51.178742675477956 ] } },
{ "type": "Feature", "properties": { "max_height": 1.4680099487304688, "mean_height": 0.15973737835884094, "std_height": 0.32169046998023987, "count_pixels": 41, "percent_cover": 0.83827438151707223, "percent_above_0.1m": 26.829268292682929, "low_level_<0.5": 14.634146341463413, "mid_level_0.5-2": 9.7560975609756095, "tall_2+": 0.0 }, "geometry": { "type": "Point", "coordinates": [ -0.496391250152665, 51.178740128918797 ] } },
{ "type": "Feature", "properties": { "max_height": 17.959999084472656, "mean_height": 2.9879369735717773, "std_height": 4.5897378921508789, "count_pixels": 40, "percent_cover": 0.81782866489470452, "percent_above_0.1m": 62.5, "low_level_<0.5": 12.5, "mid_level_0.5-2": 7.5, "tall_2+": 42.5 }, "geometry": { "type": "Point", "coordinates": [ -0.49619308732823, 51.178737582024034 ] } },
{ "type": "Feature", "properties": { "max_height": 18.047508239746094, "mean_height": 8.5499868392944336, "std_height": 5.5978765487670898, "count_pixels": 40, "percent_cover": 0.81782866489470452, "percent_above_0.1m": 87.5, "low_level_<0.5": 0.0, "mid_level_0.5-2": 10.0, "tall_2+": 77.5 }, "geometry": { "type": "Point", "coordinates": [ -0.495994924532552, 51.178735034793661 ] } },
{ "type": "Feature", "properties": { "max_height": 17.047264099121094, "mean_height": 5.4090628623962402, "std_height": 6.171353816986084, "count_pixels": 41, "percent_cover": 0.83827438151707223, "percent_above_0.1m": 75.609756097560975, "low_level_<0.5": 12.195121951219512, "mid_level_0.5-2": 9.7560975609756095, "tall_2+": 51.219512195121951 }, "geometry": { "type": "Point", "coordinates": [ -0.495796761765639, 51.17873248722767 ] } },
{ "type": "Feature", "properties": { "max_height": 12.876007080078125, "mean_height": 2.5586438179016113, "std_height": 3.3528857231140137, "count_pixels": 42, "percent_cover": 0.85872009813943972, "percent_above_0.1m": 69.047619047619051, "low_level_<0.5": 9.5238095238095237, "mid_level_0.5-2": 19.047619047619047, "tall_2+": 40.476190476190474 }, "geometry": { "type": "Point", "coordinates": [ -0.495598599027487, 51.178729939326089 ] } },
{ "type": "Feature", "properties": { "max_height": 1.4330062866210938, "mean_height": 0.17090407013893127, "std_height": 0.37655791640281677, "count_pixels": 42, "percent_cover": 0.85872009813943972, "percent_above_0.1m": 26.190476190476193, "low_level_<0.5": 7.1428571428571423, "mid_level_0.5-2": 14.285714285714285, "tall_2+": 0.0 }, "geometry": { "type": "Point", "coordinates": [ -0.496684985669176, 51.178851816875209 ] } },
{ "type": "Feature", "properties": { "max_height": 1.9805068969726562, "mean_height": 0.3334941565990448, "std_height": 0.57455646991729736, "count_pixels": 43, "percent_cover": 0.87916581476180744, "percent_above_0.1m": 30.232558139534881, "low_level_<0.5": 4.6511627906976747, "mid_level_0.5-2": 25.581395348837212, "tall_2+": 0.0 }, "geometry": { "type": "Point", "coordinates": [ -0.496486822343595, 51.17884927047492 ] } },
{ "type": "Feature", "properties": { "max_height": 2.6340103149414062, "mean_height": 0.52580296993255615, "std_height": 0.77594280242919922, "count_pixels": 43, "percent_cover": 0.87916581476180744, "percent_above_0.1m": 39.534883720930232, "low_level_<0.5": 4.6511627906976747, "mid_level_0.5-2": 25.581395348837212, "tall_2+": 6.9767441860465116 }, "geometry": { "type": "Point", "coordinates": [ -0.496288659046771, 51.178846723739014 ] } },
{ "type": "Feature", "properties": { "max_height": 14.449012756347656, "mean_height": 4.2152304649353027, "std_height": 4.9441385269165039, "count_pixels": 40, "percent_cover": 0.81782866489470452, "percent_above_0.1m": 65.0, "low_level_<0.5": 0.0, "mid_level_0.5-2": 20.0, "tall_2+": 45.0 }, "geometry": { "type": "Point", "coordinates": [ -0.496090495778698, 51.178844176667489 ] } }
]
}
