{
"type": "FeatureCollection",
"name": "60f04d07c1d8_foliage",
"crs": { "type": "name", "properties": { "name": "urn:ogc:def:crs:OGC:1.3:CRS84" } },
"features": [
{ "type": "Feature", "properties": { "max_height": 15.652023315429688, "mean_height": 5.8338656425476074, "std_height": 4.6492772102355957, "count_pixels": 43, "percent_cover": 1.5506671474936891, "percent_above_0.1m": 86.04651162790698, "low_level_<0.5": 2.3255813953488373, "mid_level_0.5-2": 2.3255813953488373, "tall_2+": 76.744186046511629 }, "geometry": { "type": "Point", "coordinates": [ -0.463573986834864, 51.171735214603004 ] } },
{ "type": "Feature", "properties": { "max_height": 16.399520874023438, "mean_height": 10.140505790710449, "std_height": 3.7092564105987549, "count_pixels": 42, "percent_cover": 1.5146051208077893, "percent_above_0.1m": 100.0, "low_level_<0.5": 0.0, "mid_level_0.5-2": 4.7619047619047619, "tall_2+": 95.238095238095227 }, "geometry": { "type": "Point", "coordinates": [ -0.463375857075474, 51.171732612504186 ] } },
{ "type": "Feature", "properties": { "max_height": 15.031021118164062, "mean_height": 6.7716884613037109, "std_height": 5.5602240562438965, "count_pixels": 42, "percent_cover": 1.5146051208077893, "percent_above_0.1m": 76.19047619047619, "low_level_<0.5": 4.7619047619047619, "mid_level_0.5-2": 4.7619047619047619, "tall_2+": 66.666666666666657 }, "geometry": { "type": "Point", "coordinates": [ -0.463177727345665, 51.171730010069815 ] } },
{ "type": "Feature", "properties": { "max_height": 12.982269287109375, "mean_height": 3.0861170291900635, "std_height": 3.4454224109649658, "count_pixels": 43, "percent_cover": 1.5506671474936891, "percent_above_0.1m": 69.767441860465112, "low_level_<0.5": 4.6511627906976747, "mid_level_0.5-2": 20.930232558139537, "tall_2+": 44.186046511627907 }, "geometry": { "type": "Point", "coordinates": [ -0.462979597645438, 51.171727407299869 ] } },
{ "type": "Feature", "properties": { "max_height": 16.8017578125, "mean_height": 10.514792442321777, "std_height": 4.1094012260437012, "count_pixels": 41, "percent_cover": 1.4785430941218896, "percent_above_0.1m": 100.0, "low_level_<0.5": 0.0, "mid_level_0.5-2": 7.3170731707317067, "tall_2+": 92.682926829268297 }, "geometry": { "type": "Point", "coordinates": [ -0.4636694687971, 51.17184438083045 ] } },
{ "type": "Feature", "properties": { "max_height": 14.706756591796875, "mean_height": 4.569645881652832, "std_height": 4.2022414207458496, "count_pixels": 41, "percent_cover": 1.4785430941218896, "percent_above_0.1m": 97.560975609756099, "low_level_<0.5": 7.3170731707317067, "mid_level_0.5-2": 19.512195121951219, "tall_2+": 68.292682926829272 }, "geometry": { "type": "Point", "coordinates": [ -0.463471338560711, 51.171841778891597 ] } },
{ "type": "Feature", "properties": { "max_height": 15.850250244140625, "mean_height": 5.5473804473876953, "std_height": 4.7773385047912598, "count_pixels": 38, "percent_cover": 1.3703570140641905, "percent_above_0.1m": 100.0, "low_level_<0.5": 7.8947368421052628, "mid_level_0.5-2": 26.315789473684209, "tall_2+": 65.789473684210535 }, "geometry": { "type": "Point", "coordinates": [ -0.463273208353894, 51.171839176617169 ] } },
{ "type": "Feature", "properties": { "max_height": 3.73651123046875, "mean_height": 0.93075597286224365, "std_height": 0.95052927732467651, "count_pixels": 41, "percent_cover": 1.4785430941218896, "percent_above_0.1m": 65.853658536585371, "low_level_<0.5": 9.7560975609756095, "mid_level_0.5-2": 46.341463414634148, "tall_2+": 9.7560975609756095 }, "geometry": { "type": "Point", "coordinates": [ -0.463075078176665, 51.17183657400718 ] } },
{ "type": "Feature", "properties": { "max_height": 17.359024047851562, "mean_height": 10.395969390869141, "std_height": 4.105257511138916, "count_pixels": 41, "percent_cover": 1.4785430941218896, "percent_above_0.1m": 100.0, "low_level_<0.5": 0.0, "mid_level_0.5-2": 7.3170731707317067, "tall_2+": 92.682926829268297 }, "geometry": { "type": "Point", "coordinates": [ -0.462876948029018, 51.171833971061623 ] } },
{ "type": "Feature", "properties": { "max_height": 13.951019287109375, "mean_height": 11.026945114135742, "std_height": 1.9115918874740601, "count_pixels": 41, "percent_cover": 1.4785430941218896, "percent_above_0.1m": 100.0, "low_level_<0.5": 0.0, "mid_level_0.5-2": 0.0, "tall_2+": 100.0 }, "geometry": { "type": "Point", "coordinates": [ -0.462678817910963, 51.171831367780499 ] } },
{ "type": "Feature", "properties": { "max_height": 18.736526489257812, "mean_height": 10.175482749938965, "std_height": 4.4474043846130371, "count_pixels": 43, "percent_cover": 1.5506671474936891, "percent_above_0.1m": 100.0, "low_level_<0.5": 0.0, "mid_level_0.5-2": 4.6511627906976747, "tall_2+": 95.348837209302332 }, "geometry": { "type": "Point", "coordinates": [ -0.463566820493356, 51.171950945200841 ] } },
{ "type": "Feature", "properties": { "max_height": 14.591262817382812, "mean_height": 4.7950716018676758, "std_height": 4.4529991149902344, "count_pixels": 42, "percent_cover": 1.5146051208077893, "percent_above_0.1m": 90.476190476190482, "low_level_<0.5": 4.7619047619047619, "mid_level_0.5-2": 19.047619047619047, "tall_2+": 64.285714285714292 }, "geometry": { "type": "Point", "coordinates": [ -0.463368689809538, 51.171948343086378 ] } },
{ "type": "Feature", "properties": { "max_height": 3.610260009765625, "mean_height": 0.69964200258255005, "std_height": 0.96979528665542603, "count_pixels": 42, "percent_cover": 1.5146051208077893, "percent_above_0.1m": 59.523809523809526, "low_level_<0.5": 21.428571428571427, "mid_level_0.5-2": 23.809523809523807, "tall_2+": 14.285714285714285 }, "geometry": { "type": "Point", "coordinates": [ -0.463170559155297, 51.171945740636332 ] } },
{ "type": "Feature", "properties": { "max_height": 13.911270141601562, "mean_height": 4.7193503379821777, "std_height": 4.4413628578186035, "count_pixels": 43, "percent_cover": 1.5506671474936891, "percent_above_0.1m": 86.04651162790698, "low_level_<0.5": 6.9767441860465116, "mid_level_0.5-2": 18.604651162790699, "tall_2+": 60.465116279069761 }, "geometry": { "type": "Point", "coordinates": [ -0.462972428530645, 51.171943137850725 ] } },
{ "type": "Feature", "properties": { "max_height": 17.246246337890625, "mean_height": 12.649282455444336, "std_height": 3.2709121704101562, "count_pixels": 43, "percent_cover": 1.5506671474936891, "percent_above_0.1m": 100.0, "low_level_<0.5": 0.0, "mid_level_0.5-2": 0.0, "tall_2+": 100.0 }, "geometry": { "type": "Point", "coordinates": [ -0.462774297935574, 51.171940534729536 ] } },
{ "type": "Feature", "properties": { "max_height": 17.812515258789062, "mean_height": 8.8275909423828125, "std_height": 5.384974479675293, "count_pixels": 41, "percent_cover": 1.4785430941218896, "percent_above_0.1m": 87.804878048780495, "low_level_<0.5": 0.0, "mid_level_0.5-2": 2.4390243902439024, "tall_2+": 85.365853658536579 }, "geometry": { "type": "Point", "coordinates": [ -0.462576167370098, 51.171937931272794 ] } },
{ "type": "Feature", "properties": { "max_height": 23.350265502929688, "mean_height": 15.989645004272461, "std_height": 3.8091840744018555, "count_pixels": 41, "percent_cover": 1.4785430941218896, "percent_above_0.1m": 100.0, "low_level_<0.5": 0.0, "mid_level_0.5-2": 0.0, "tall_2+": 100.0 }, "geometry": { "type": "Point", "coordinates": [ -0.463662302873418, 51.172060111431904 ] } },
{ "type": "Feature", "properties": { "max_height": 12.188766479492188, "mean_height": 7.9058151245117188, "std_height": 3.066230297088623, "count_pixels": 41, "percent_cover": 1.4785430941218896, "percent_above_0.1m": 100.0, "low_level_<0.5": 0.0, "mid_level_0.5-2": 4.8780487804878048, "tall_2+": 95.121951219512198 }, "geometry": { "type": "Point", "coordinates": [ -0.463464171712594, 51.172057509477412 ] } },
{ "type": "Feature", "properties": { "max_height": 9.27874755859375, "mean_height": 2.1738734245300293, "std_height": 2.475902795791626, "count_pixels": 38, "percent_cover": 1.3703570140641905, "percent_above_0.1m": 78.94736842105263, "low_level_<0.5": 13.157894736842104, "mid_level_0.5-2": 23.684210526315788, "tall_2+": 39.473684210526315 }, "geometry": { "type": "Point", "coordinates": [ -0.463266040581344, 51.172054907187309 ] } },
{ "type": "Feature", "properties": { "max_height": 8.592010498046875, "mean_height": 3.1793584823608398, "std_height": 1.9008051156997681, "count_pixels": 41, "percent_cover": 1.4785430941218896, "percent_above_0.1m": 100.0, "low_level_<0.5": 0.0, "mid_level_0.5-2": 26.829268292682929, "tall_2+": 73.170731707317074 }, "geometry": { "type": "Point", "coordinates": [ -0.463067909479676, 51.172052304561674 ] } },
{ "type": "Feature", "properties": { "max_height": 15.766494750976562, "mean_height": 7.9390182495117188, "std_height": 4.1353979110717773, "count_pixels": 41, "percent_cover": 1.4785430941218896, "percent_above_0.1m": 97.560975609756099, "low_level_<0.5": 0.0, "mid_level_0.5-2": 2.4390243902439024, "tall_2+": 95.121951219512198 }, "geometry": { "type": "Point", "coordinates": [ -0.462869778407599, 51.172049701600436 ] } },
{ "type": "Feature", "properties": { "max_height": 17.808013916015625, "mean_height": 12.925369262695312, "std_height": 4.2368783950805664, "count_pixels": 41, "percent_cover": 1.4785430941218896, "percent_above_0.1m": 100.0, "low_level_<0.5": 0.0, "mid_level_0.5-2": 2.4390243902439024, "tall_2+": 97.560975609756099 }, "geometry": { "type": "Point", "coordinates": [ -0.462671647365106, 51.172047098303636 ] } },
{ "type": "Feature", "properties": { "max_height": 21.074249267578125, "mean_height": 12.430469512939453, "std_height": 3.4527275562286377, "count_pixels": 42, "percent_cover": 1.5146051208077893, "percent_above_0.1m": 100.0, "low_level_<0.5": 0.0, "mid_level_0.5-2": 0.0, "tall_2+": 100.0 }, "geometry": { "type": "Point", "coordinates": [ -0.463163390876126, 51.172161471194464 ] } },
{ "type": "Feature", "properties": { "max_height": 23.002517700195312, "mean_height": 11.367609977722168, "std_height": 6.3815984725952148, "count_pixels": 43, "percent_cover": 1.5506671474936891, "percent_above_0.1m": 97.674418604651152, "low_level_<0.5": 0.0, "mid_level_0.5-2": 4.6511627906976747, "tall_2+": 93.023255813953483 }, "geometry": { "type": "Point", "coordinates": [ -0.46296525932703, 51.17215886839319 ] } },
{ "type": "Feature", "properties": { "max_height": 23.133010864257812, "mean_height": 12.156162261962891, "std_height": 5.9709844589233398, "count_pixels": 43, "percent_cover": 1.5506671474936891, "percent_above_0.1m": 100.0, "low_level_<0.5": 0.0, "mid_level_0.5-2": 0.0, "tall_2+": 100.0 }, "geometry": { "type": "Point", "coordinates": [ -0.462767127807524, 51.172156265256341 ] } }
]
}
