{
"type": "FeatureCollection",
"name": "c72fe6037fe2_foliage",
"crs": { "type": "name", "properties": { "name": "urn:ogc:def:crs:OGC:1.3:CRS84" } },
"features": [
{ "type": "Feature", "properties": { "max_height": 15.611000061035156, "mean_height": 7.3411006927490234, "std_height": 5.6886239051818848, "count_pixels": 38, "percent_cover": 0.4497573677358267, "percent_above_0.1m": 86.842105263157904, "low_level_<0.5": 5.2631578947368416, "mid_level_0.5-2": 13.157894736842104, "tall_2+": 68.421052631578945 }, "geometry": { "type": "Point", "coordinates": [ -0.533126536975745, 51.193827872496954 ] } },
{ "type": "Feature", "properties": { "max_height": 9.1707534790039062, "mean_height": 5.4841303825378418, "std_height": 2.8703346252441406, "count_pixels": 43, "percent_cover": 0.50893596875369862, "percent_above_0.1m": 93.023255813953483, "low_level_<0.5": 4.6511627906976747, "mid_level_0.5-2": 6.9767441860465116, "tall_2+": 81.395348837209298 }, "geometry": { "type": "Point", "coordinates": [ -0.532928306273864, 51.193825387420411 ] } },
{ "type": "Feature", "properties": { "max_height": 10.058502197265625, "mean_height": 5.551997184753418, "std_height": 3.5889084339141846, "count_pixels": 43, "percent_cover": 0.50893596875369862, "percent_above_0.1m": 79.069767441860463, "low_level_<0.5": 0.0, "mid_level_0.5-2": 2.3255813953488373, "tall_2+": 76.744186046511629 }, "geometry": { "type": "Point", "coordinates": [ -0.53273007560027, 51.193822902008066 ] } },
{ "type": "Feature", "properties": { "max_height": 12.665752410888672, "mean_height": 8.8269920349121094, "std_height": 3.3204400539398193, "count_pixels": 43, "percent_cover": 0.50893596875369862, "percent_above_0.1m": 100.0, "low_level_<0.5": 2.3255813953488373, "mid_level_0.5-2": 6.9767441860465116, "tall_2+": 90.697674418604649 }, "geometry": { "type": "Point", "coordinates": [ -0.532531844954964, 51.19382041625996 ] } },
{ "type": "Feature", "properties": { "max_height": 2.9835014343261719, "mean_height": 1.0645514726638794, "std_height": 1.0873647928237915, "count_pixels": 41, "percent_cover": 0.48526452834654987, "percent_above_0.1m": 68.292682926829272, "low_level_<0.5": 7.3170731707317067, "mid_level_0.5-2": 26.829268292682929, "tall_2+": 29.268292682926827 }, "geometry": { "type": "Point", "coordinates": [ -0.532333614337957, 51.193817930176017 ] } },
{ "type": "Feature", "properties": { "max_height": 1.7995033264160156, "mean_height": 0.090575709939002991, "std_height": 0.32879576086997986, "count_pixels": 41, "percent_cover": 0.48526452834654987, "percent_above_0.1m": 9.7560975609756095, "low_level_<0.5": 4.8780487804878048, "mid_level_0.5-2": 4.8780487804878048, "tall_2+": 0.0 }, "geometry": { "type": "Point", "coordinates": [ -0.532135383749246, 51.193815443756314 ] } },
{ "type": "Feature", "properties": { "max_height": 16.887001037597656, "mean_height": 6.3609843254089355, "std_height": 5.0095458030700684, "count_pixels": 41, "percent_cover": 0.48526452834654987, "percent_above_0.1m": 75.609756097560975, "low_level_<0.5": 0.0, "mid_level_0.5-2": 2.4390243902439024, "tall_2+": 73.170731707317074 }, "geometry": { "type": "Point", "coordinates": [ -0.533222226846011, 51.193936984827815 ] } },
{ "type": "Feature", "properties": { "max_height": 0.34225082397460938, "mean_height": 0.0088623790070414543, "std_height": 0.052805710583925247, "count_pixels": 41, "percent_cover": 0.48526452834654987, "percent_above_0.1m": 2.4390243902439024, "low_level_<0.5": 2.4390243902439024, "mid_level_0.5-2": 0.0, "tall_2+": 0.0 }, "geometry": { "type": "Point", "coordinates": [ -0.533023995667047, 51.193934499910334 ] } },
{ "type": "Feature", "properties": { "max_height": 7.0592498779296875, "mean_height": 0.58749604225158691, "std_height": 1.6051825284957886, "count_pixels": 41, "percent_cover": 0.48526452834654987, "percent_above_0.1m": 17.073170731707318, "low_level_<0.5": 2.4390243902439024, "mid_level_0.5-2": 2.4390243902439024, "tall_2+": 12.195121951219512 }, "geometry": { "type": "Point", "coordinates": [ -0.532825764516374, 51.193932014657079 ] } },
{ "type": "Feature", "properties": { "max_height": 0.000255584716796875, "mean_height": -3.4425315789121669e-06, "std_height": 0.00011696187721099705, "count_pixels": 41, "percent_cover": 0.48526452834654987, "percent_above_0.1m": 0.0, "low_level_<0.5": 0.0, "mid_level_0.5-2": 0.0, "tall_2+": 0.0 }, "geometry": { "type": "Point", "coordinates": [ -0.532627533393986, 51.193929529068001 ] } },
{ "type": "Feature", "properties": { "max_height": 0.94475173950195312, "mean_height": 0.054179400205612183, "std_height": 0.19540241360664368, "count_pixels": 41, "percent_cover": 0.48526452834654987, "percent_above_0.1m": 7.3170731707317067, "low_level_<0.5": 2.4390243902439024, "mid_level_0.5-2": 4.8780487804878048, "tall_2+": 0.0 }, "geometry": { "type": "Point", "coordinates": [ -0.532429302299892, 51.193927043143141 ] } },
{ "type": "Feature", "properties": { "max_height": 6.6002540588378906, "mean_height": 2.2036423683166504, "std_height": 1.6363592147827148, "count_pixels": 43, "percent_cover": 0.50893596875369862, "percent_above_0.1m": 86.04651162790698, "low_level_<0.5": 6.9767441860465116, "mid_level_0.5-2": 23.255813953488371, "tall_2+": 55.813953488372093 }, "geometry": { "type": "Point", "coordinates": [ -0.532231071234095, 51.193924556882479 ] } },
{ "type": "Feature", "properties": { "max_height": 2.98175048828125, "mean_height": 0.98047941923141479, "std_height": 1.1097023487091064, "count_pixels": 43, "percent_cover": 0.50893596875369862, "percent_above_0.1m": 53.488372093023251, "low_level_<0.5": 4.6511627906976747, "mid_level_0.5-2": 13.953488372093023, "tall_2+": 32.558139534883722 }, "geometry": { "type": "Point", "coordinates": [ -0.532032840196597, 51.193922070286021 ] } },
{ "type": "Feature", "properties": { "max_height": 3.2690010070800781, "mean_height": 0.85959625244140625, "std_height": 1.1543577909469604, "count_pixels": 43, "percent_cover": 0.50893596875369862, "percent_above_0.1m": 44.186046511627907, "low_level_<0.5": 4.6511627906976747, "mid_level_0.5-2": 16.279069767441861, "tall_2+": 23.255813953488371 }, "geometry": { "type": "Point", "coordinates": [ -0.531834609187402, 51.193919583353761 ] } },
{ "type": "Feature", "properties": { "max_height": 7.5967521667480469, "mean_height": 0.62177234888076782, "std_height": 1.7243835926055908, "count_pixels": 38, "percent_cover": 0.4497573677358267, "percent_above_0.1m": 18.421052631578945, "low_level_<0.5": 0.0, "mid_level_0.5-2": 7.8947368421052628, "tall_2+": 10.526315789473683 }, "geometry": { "type": "Point", "coordinates": [ -0.531636378206512, 51.19391709608572 ] } },
{ "type": "Feature", "properties": { "max_height": 2.5047531127929688, "mean_height": 0.10920608788728714, "std_height": 0.49143847823143005, "count_pixels": 43, "percent_cover": 0.50893596875369862, "percent_above_0.1m": 4.6511627906976747, "low_level_<0.5": 0.0, "mid_level_0.5-2": 0.0, "tall_2+": 4.6511627906976747 }, "geometry": { "type": "Point", "coordinates": [ -0.531438147253941, 51.193914608481869 ] } },
{ "type": "Feature", "properties": { "max_height": 21.928001403808594, "mean_height": 10.191318511962891, "std_height": 7.5297331809997559, "count_pixels": 38, "percent_cover": 0.4497573677358267, "percent_above_0.1m": 84.210526315789465, "low_level_<0.5": 2.6315789473684208, "mid_level_0.5-2": 10.526315789473683, "tall_2+": 71.05263157894737 }, "geometry": { "type": "Point", "coordinates": [ -0.533119685509021, 51.194043612323014 ] } },
{ "type": "Feature", "properties": { "max_height": 5.6580009460449219, "mean_height": 0.36771190166473389, "std_height": 1.0390124320983887, "count_pixels": 43, "percent_cover": 0.50893596875369862, "percent_above_0.1m": 30.232558139534881, "low_level_<0.5": 16.279069767441861, "mid_level_0.5-2": 6.9767441860465116, "tall_2+": 6.9767441860465116 }, "geometry": { "type": "Point", "coordinates": [ -0.532921453881263, 51.1940411272288 ] } },
{ "type": "Feature", "properties": { "max_height": 0.00250244140625, "mean_height": 0.00010690023918868974, "std_height": 0.00038588824099861085, "count_pixels": 43, "percent_cover": 0.50893596875369862, "percent_above_0.1m": 0.0, "low_level_<0.5": 0.0, "mid_level_0.5-2": 0.0, "tall_2+": 0.0 }, "geometry": { "type": "Point", "coordinates": [ -0.532723222281792, 51.194038641798798 ] } },
{ "type": "Feature", "properties": { "max_height": 4.917999267578125, "mean_height": 0.73036849498748779, "std_height": 1.4632971286773682, "count_pixels": 43, "percent_cover": 0.50893596875369862, "percent_above_0.1m": 27.906976744186046, "low_level_<0.5": 2.3255813953488373, "mid_level_0.5-2": 11.627906976744185, "tall_2+": 13.953488372093023 }, "geometry": { "type": "Point", "coordinates": [ -0.532524990710608, 51.194036156032993 ] } },
{ "type": "Feature", "properties": { "max_height": 4.6015052795410156, "mean_height": 1.3708136081695557, "std_height": 1.0421925783157349, "count_pixels": 41, "percent_cover": 0.48526452834654987, "percent_above_0.1m": 82.926829268292678, "low_level_<0.5": 7.3170731707317067, "mid_level_0.5-2": 51.219512195121951, "tall_2+": 24.390243902439025 }, "geometry": { "type": "Point", "coordinates": [ -0.532326759167724, 51.194033669931407 ] } },
{ "type": "Feature", "properties": { "max_height": 1.5447540283203125, "mean_height": 0.039556920528411865, "std_height": 0.23828467726707458, "count_pixels": 41, "percent_cover": 0.48526452834654987, "percent_above_0.1m": 2.4390243902439024, "low_level_<0.5": 0.0, "mid_level_0.5-2": 2.4390243902439024, "tall_2+": 0.0 }, "geometry": { "type": "Point", "coordinates": [ -0.532128527653135, 51.194031183493998 ] } },
{ "type": "Feature", "properties": { "max_height": 2.3842506408691406, "mean_height": 0.61934381723403931, "std_height": 0.79766827821731567, "count_pixels": 41, "percent_cover": 0.48526452834654987, "percent_above_0.1m": 46.341463414634148, "low_level_<0.5": 4.8780487804878048, "mid_level_0.5-2": 29.268292682926827, "tall_2+": 12.195121951219512 }, "geometry": { "type": "Point", "coordinates": [ -0.531930296166847, 51.194028696720807 ] } },
{ "type": "Feature", "properties": { "max_height": 16.7967529296875, "mean_height": 6.6904177665710449, "std_height": 6.1620030403137207, "count_pixels": 41, "percent_cover": 0.48526452834654987, "percent_above_0.1m": 68.292682926829272, "low_level_<0.5": 2.4390243902439024, "mid_level_0.5-2": 2.4390243902439024, "tall_2+": 63.414634146341463 }, "geometry": { "type": "Point", "coordinates": [ -0.53173206470887, 51.194026209611813 ] } },
{ "type": "Feature", "properties": { "max_height": 15.711254119873047, "mean_height": 5.313990592956543, "std_height": 5.8183159828186035, "count_pixels": 41, "percent_cover": 0.48526452834654987, "percent_above_0.1m": 75.609756097560975, "low_level_<0.5": 7.3170731707317067, "mid_level_0.5-2": 4.8780487804878048, "tall_2+": 60.975609756097562 }, "geometry": { "type": "Point", "coordinates": [ -0.531533833279198, 51.194023722167032 ] } },
{ "type": "Feature", "properties": { "max_height": 3.0132522583007812, "mean_height": 0.84704494476318359, "std_height": 1.0755155086517334, "count_pixels": 41, "percent_cover": 0.48526452834654987, "percent_above_0.1m": 58.536585365853654, "low_level_<0.5": 14.634146341463413, "mid_level_0.5-2": 21.951219512195124, "tall_2+": 19.512195121951219 }, "geometry": { "type": "Point", "coordinates": [ -0.531335601877842, 51.194021234386433 ] } },
{ "type": "Feature", "properties": { "max_height": 3.1980018615722656, "mean_height": 1.1167954206466675, "std_height": 1.1514660120010376, "count_pixels": 41, "percent_cover": 0.48526452834654987, "percent_above_0.1m": 65.853658536585371, "low_level_<0.5": 9.7560975609756095, "mid_level_0.5-2": 34.146341463414636, "tall_2+": 21.951219512195124 }, "geometry": { "type": "Point", "coordinates": [ -0.531137370504804, 51.194018746270046 ] } },
{ "type": "Feature", "properties": { "max_height": 7.2470054626464844, "mean_height": 2.0432157516479492, "std_height": 1.5785293579101562, "count_pixels": 41, "percent_cover": 0.48526452834654987, "percent_above_0.1m": 85.365853658536579, "low_level_<0.5": 2.4390243902439024, "mid_level_0.5-2": 36.585365853658537, "tall_2+": 46.341463414634148 }, "geometry": { "type": "Point", "coordinates": [ -0.530939139160083, 51.194016257817893 ] } },
{ "type": "Feature", "properties": { "max_height": 7.6717529296875, "mean_height": 2.494438648223877, "std_height": 1.8351081609725952, "count_pixels": 43, "percent_cover": 0.50893596875369862, "percent_above_0.1m": 95.348837209302332, "low_level_<0.5": 11.627906976744185, "mid_level_0.5-2": 25.581395348837212, "tall_2+": 58.139534883720934 }, "geometry": { "type": "Point", "coordinates": [ -0.530740907843691, 51.194013769029894 ] } },
{ "type": "Feature", "properties": { "max_height": 18.871006011962891, "mean_height": 4.6515603065490723, "std_height": 5.3883943557739258, "count_pixels": 43, "percent_cover": 0.50893596875369862, "percent_above_0.1m": 95.348837209302332, "low_level_<0.5": 9.3023255813953494, "mid_level_0.5-2": 18.604651162790699, "tall_2+": 62.790697674418603 }, "geometry": { "type": "Point", "coordinates": [ -0.530542676555627, 51.194011279906142 ] } },
{ "type": "Feature", "properties": { "max_height": 19.847999572753906, "mean_height": 9.7959537506103516, "std_height": 4.170619010925293, "count_pixels": 41, "percent_cover": 0.48526452834654987, "percent_above_0.1m": 100.0, "low_level_<0.5": 0.0, "mid_level_0.5-2": 2.4390243902439024, "tall_2+": 97.560975609756099 }, "geometry": { "type": "Point", "coordinates": [ -0.533017143694941, 51.194150239723314 ] } },
{ "type": "Feature", "properties": { "max_height": 13.536754608154297, "mean_height": 2.7687091827392578, "std_height": 4.2337660789489746, "count_pixels": 41, "percent_cover": 0.48526452834654987, "percent_above_0.1m": 46.341463414634148, "low_level_<0.5": 2.4390243902439024, "mid_level_0.5-2": 9.7560975609756095, "tall_2+": 34.146341463414636 }, "geometry": { "type": "Point", "coordinates": [ -0.532818911618382, 51.194147754452366 ] } },
{ "type": "Feature", "properties": { "max_height": 0.25175094604492188, "mean_height": 0.010825645178556442, "std_height": 0.043250825256109238, "count_pixels": 41, "percent_cover": 0.48526452834654987, "percent_above_0.1m": 4.8780487804878048, "low_level_<0.5": 2.4390243902439024, "mid_level_0.5-2": 0.0, "tall_2+": 0.0 }, "geometry": { "type": "Point", "coordinates": [ -0.532620679570114, 51.194145268845617 ] } },
{ "type": "Feature", "properties": { "max_height": 5.6124992370605469, "mean_height": 0.98832553625106812, "std_height": 1.7636699676513672, "count_pixels": 41, "percent_cover": 0.48526452834654987, "percent_above_0.1m": 31.707317073170731, "low_level_<0.5": 4.8780487804878048, "mid_level_0.5-2": 4.8780487804878048, "tall_2+": 21.951219512195124 }, "geometry": { "type": "Point", "coordinates": [ -0.532422447550137, 51.194142782903086 ] } },
{ "type": "Feature", "properties": { "max_height": 1.1697540283203125, "mean_height": 0.10809565335512161, "std_height": 0.25069192051887512, "count_pixels": 43, "percent_cover": 0.50893596875369862, "percent_above_0.1m": 20.930232558139537, "low_level_<0.5": 9.3023255813953494, "mid_level_0.5-2": 9.3023255813953494, "tall_2+": 0.0 }, "geometry": { "type": "Point", "coordinates": [ -0.532224215558458, 51.194140296624745 ] } },
{ "type": "Feature", "properties": { "max_height": 2.2920036315917969, "mean_height": 0.29272282123565674, "std_height": 0.66101956367492676, "count_pixels": 43, "percent_cover": 0.50893596875369862, "percent_above_0.1m": 23.255813953488371, "low_level_<0.5": 2.3255813953488373, "mid_level_0.5-2": 11.627906976744185, "tall_2+": 4.6511627906976747 }, "geometry": { "type": "Point", "coordinates": [ -0.532025983595074, 51.194137810010602 ] } },
{ "type": "Feature", "properties": { "max_height": 2.2312507629394531, "mean_height": 0.3070722222328186, "std_height": 0.67695522308349609, "count_pixels": 43, "percent_cover": 0.50893596875369862, "percent_above_0.1m": 25.581395348837212, "low_level_<0.5": 4.6511627906976747, "mid_level_0.5-2": 6.9767441860465116, "tall_2+": 9.3023255813953494 }, "geometry": { "type": "Point", "coordinates": [ -0.531827751660001, 51.194135323060685 ] } },
{ "type": "Feature", "properties": { "max_height": 1.5537528991699219, "mean_height": 0.083995819091796875, "std_height": 0.3077792227268219, "count_pixels": 38, "percent_cover": 0.4497573677358267, "percent_above_0.1m": 13.157894736842104, "low_level_<0.5": 2.6315789473684208, "mid_level_0.5-2": 5.2631578947368416, "tall_2+": 0.0 }, "geometry": { "type": "Point", "coordinates": [ -0.531629519753232, 51.19413283577493 ] } },
{ "type": "Feature", "properties": { "max_height": 14.902999877929688, "mean_height": 2.0570898056030273, "std_height": 4.1942691802978516, "count_pixels": 43, "percent_cover": 0.50893596875369862, "percent_above_0.1m": 25.581395348837212, "low_level_<0.5": 2.3255813953488373, "mid_level_0.5-2": 0.0, "tall_2+": 23.255813953488371 }, "geometry": { "type": "Point", "coordinates": [ -0.531431287874776, 51.194130348153394 ] } },
{ "type": "Feature", "properties": { "max_height": 0.001750946044921875, "mean_height": 3.743726119864732e-05, "std_height": 0.00030253760633058846, "count_pixels": 43, "percent_cover": 0.50893596875369862, "percent_above_0.1m": 0.0, "low_level_<0.5": 0.0, "mid_level_0.5-2": 0.0, "tall_2+": 0.0 }, "geometry": { "type": "Point", "coordinates": [ -0.531233056024639, 51.194127860196076 ] } },
{ "type": "Feature", "properties": { "max_height": 0.39599990844726562, "mean_height": 0.046757984906435013, "std_height": 0.096656329929828644, "count_pixels": 43, "percent_cover": 0.50893596875369862, "percent_above_0.1m": 18.604651162790699, "low_level_<0.5": 13.953488372093023, "mid_level_0.5-2": 0.0, "tall_2+": 0.0 }, "geometry": { "type": "Point", "coordinates": [ -0.531034824202818, 51.194125371902935 ] } },
{ "type": "Feature", "properties": { "max_height": 2.5305023193359375, "mean_height": 0.42399623990058899, "std_height": 0.76505625247955322, "count_pixels": 41, "percent_cover": 0.48526452834654987, "percent_above_0.1m": 39.024390243902438, "low_level_<0.5": 14.634146341463413, "mid_level_0.5-2": 9.7560975609756095, "tall_2+": 12.195121951219512 }, "geometry": { "type": "Point", "coordinates": [ -0.53083659240932, 51.194122883274019 ] } },
{ "type": "Feature", "properties": { "max_height": 4.8725051879882812, "mean_height": 2.2680082321166992, "std_height": 1.7085132598876953, "count_pixels": 41, "percent_cover": 0.48526452834654987, "percent_above_0.1m": 80.487804878048792, "low_level_<0.5": 2.4390243902439024, "mid_level_0.5-2": 19.512195121951219, "tall_2+": 56.09756097560976 }, "geometry": { "type": "Point", "coordinates": [ -0.530638360644152, 51.194120394309287 ] } },
{ "type": "Feature", "properties": { "max_height": 19.896007537841797, "mean_height": 15.22794246673584, "std_height": 4.0145344734191895, "count_pixels": 41, "percent_cover": 0.48526452834654987, "percent_above_0.1m": 100.0, "low_level_<0.5": 0.0, "mid_level_0.5-2": 0.0, "tall_2+": 100.0 }, "geometry": { "type": "Point", "coordinates": [ -0.530440128907311, 51.194117905008767 ] } },
{ "type": "Feature", "properties": { "max_height": 22.766502380371094, "mean_height": 10.568026542663574, "std_height": 7.5947861671447754, "count_pixels": 43, "percent_cover": 0.50893596875369862, "percent_above_0.1m": 90.697674418604649, "low_level_<0.5": 6.9767441860465116, "mid_level_0.5-2": 9.3023255813953494, "tall_2+": 74.418604651162795 }, "geometry": { "type": "Point", "coordinates": [ -0.532716368878404, 51.194254381580997 ] } },
{ "type": "Feature", "properties": { "max_height": 12.575000762939453, "mean_height": 2.5958395004272461, "std_height": 4.1658339500427246, "count_pixels": 43, "percent_cover": 0.50893596875369862, "percent_above_0.1m": 46.511627906976742, "low_level_<0.5": 4.6511627906976747, "mid_level_0.5-2": 6.9767441860465116, "tall_2+": 30.232558139534881 }, "geometry": { "type": "Point", "coordinates": [ -0.532518136381337, 51.194251895797528 ] } },
{ "type": "Feature", "properties": { "max_height": 1.2207527160644531, "mean_height": 0.059899494051933289, "std_height": 0.24989944696426392, "count_pixels": 41, "percent_cover": 0.48526452834654987, "percent_above_0.1m": 4.8780487804878048, "low_level_<0.5": 0.0, "mid_level_0.5-2": 4.8780487804878048, "tall_2+": 0.0 }, "geometry": { "type": "Point", "coordinates": [ -0.532319903912563, 51.194249409678235 ] } },
{ "type": "Feature", "properties": { "max_height": 0.0202484130859375, "mean_height": 0.00079513178206980228, "std_height": 0.0035511888563632965, "count_pixels": 41, "percent_cover": 0.48526452834654987, "percent_above_0.1m": 0.0, "low_level_<0.5": 0.0, "mid_level_0.5-2": 0.0, "tall_2+": 0.0 }, "geometry": { "type": "Point", "coordinates": [ -0.532121671472085, 51.194246923223162 ] } },
{ "type": "Feature", "properties": { "max_height": 10.032253265380859, "mean_height": 1.3806672096252441, "std_height": 1.844437837600708, "count_pixels": 41, "percent_cover": 0.48526452834654987, "percent_above_0.1m": 60.975609756097562, "low_level_<0.5": 4.8780487804878048, "mid_level_0.5-2": 21.951219512195124, "tall_2+": 34.146341463414636 }, "geometry": { "type": "Point", "coordinates": [ -0.53192343905991, 51.194244436432285 ] } },
{ "type": "Feature", "properties": { "max_height": 0.00025177001953125, "mean_height": 8.4667672126670368e-06, "std_height": 8.6761785496491939e-05, "count_pixels": 41, "percent_cover": 0.48526452834654987, "percent_above_0.1m": 0.0, "low_level_<0.5": 0.0, "mid_level_0.5-2": 0.0, "tall_2+": 0.0 }, "geometry": { "type": "Point", "coordinates": [ -0.531725206676045, 51.194241949305592 ] } },
{ "type": "Feature", "properties": { "max_height": 14.226505279541016, "mean_height": 1.8254718780517578, "std_height": 4.1177082061767578, "count_pixels": 41, "percent_cover": 0.48526452834654987, "percent_above_0.1m": 24.390243902439025, "low_level_<0.5": 0.0, "mid_level_0.5-2": 4.8780487804878048, "tall_2+": 17.073170731707318 }, "geometry": { "type": "Point", "coordinates": [ -0.531526974320487, 51.194239461843139 ] } },
{ "type": "Feature", "properties": { "max_height": 17.763751983642578, "mean_height": 4.8182950019836426, "std_height": 6.383298397064209, "count_pixels": 41, "percent_cover": 0.48526452834654987, "percent_above_0.1m": 56.09756097560976, "low_level_<0.5": 2.4390243902439024, "mid_level_0.5-2": 0.0, "tall_2+": 48.780487804878049 }, "geometry": { "type": "Point", "coordinates": [ -0.531328741993247, 51.194236974044848 ] } },
{ "type": "Feature", "properties": { "max_height": 0.1462554931640625, "mean_height": 0.023282865062355995, "std_height": 0.041946239769458771, "count_pixels": 41, "percent_cover": 0.48526452834654987, "percent_above_0.1m": 12.195121951219512, "low_level_<0.5": 0.0, "mid_level_0.5-2": 0.0, "tall_2+": 0.0 }, "geometry": { "type": "Point", "coordinates": [ -0.531130509694323, 51.194234485910776 ] } },
{ "type": "Feature", "properties": { "max_height": 7.5477523803710938, "mean_height": 3.4055814743041992, "std_height": 2.4528529644012451, "count_pixels": 41, "percent_cover": 0.48526452834654987, "percent_above_0.1m": 87.804878048780495, "low_level_<0.5": 2.4390243902439024, "mid_level_0.5-2": 14.634146341463413, "tall_2+": 68.292682926829272 }, "geometry": { "type": "Point", "coordinates": [ -0.530932277423716, 51.194231997440895 ] } },
{ "type": "Feature", "properties": { "max_height": 6.5360031127929688, "mean_height": 1.4246770143508911, "std_height": 1.8218182325363159, "count_pixels": 43, "percent_cover": 0.50893596875369862, "percent_above_0.1m": 69.767441860465112, "low_level_<0.5": 9.3023255813953494, "mid_level_0.5-2": 34.883720930232556, "tall_2+": 23.255813953488371 }, "geometry": { "type": "Point", "coordinates": [ -0.530734045181439, 51.19422950863521 ] } },
{ "type": "Feature", "properties": { "max_height": 9.8925018310546875, "mean_height": 2.0924568176269531, "std_height": 2.9521923065185547, "count_pixels": 43, "percent_cover": 0.50893596875369862, "percent_above_0.1m": 53.488372093023251, "low_level_<0.5": 4.6511627906976747, "mid_level_0.5-2": 13.953488372093023, "tall_2+": 32.558139534883722 }, "geometry": { "type": "Point", "coordinates": [ -0.530535812967497, 51.194227019493745 ] } },
{ "type": "Feature", "properties": { "max_height": 10.317253112792969, "mean_height": 1.7602310180664062, "std_height": 3.0114691257476807, "count_pixels": 38, "percent_cover": 0.4497573677358267, "percent_above_0.1m": 31.578947368421051, "low_level_<0.5": 0.0, "mid_level_0.5-2": 2.6315789473684208, "tall_2+": 28.947368421052634 }, "geometry": { "type": "Point", "coordinates": [ -0.530337580781876, 51.194224530016463 ] } },
{ "type": "Feature", "properties": { "max_height": 20.03900146484375, "mean_height": 9.2738065719604492, "std_height": 6.0983748435974121, "count_pixels": 41, "percent_cover": 0.48526452834654987, "percent_above_0.1m": 100.0, "low_level_<0.5": 0.0, "mid_level_0.5-2": 7.3170731707317067, "tall_2+": 92.682926829268297 }, "geometry": { "type": "Point", "coordinates": [ -0.532415592715457, 51.19435852265449 ] } },
{ "type": "Feature", "properties": { "max_height": 19.197257995605469, "mean_height": 7.2076706886291504, "std_height": 6.7620882987976074, "count_pixels": 43, "percent_cover": 0.50893596875369862, "percent_above_0.1m": 79.069767441860463, "low_level_<0.5": 2.3255813953488373, "mid_level_0.5-2": 11.627906976744185, "tall_2+": 65.116279069767444 }, "geometry": { "type": "Point", "coordinates": [ -0.532217359797885, 51.194356036358478 ] } },
{ "type": "Feature", "properties": { "max_height": 19.095752716064453, "mean_height": 7.7754793167114258, "std_height": 6.8408408164978027, "count_pixels": 43, "percent_cover": 0.50893596875369862, "percent_above_0.1m": 79.069767441860463, "low_level_<0.5": 0.0, "mid_level_0.5-2": 11.627906976744185, "tall_2+": 67.441860465116278 }, "geometry": { "type": "Point", "coordinates": [ -0.53201912690861, 51.194353549726657 ] } },
{ "type": "Feature", "properties": { "max_height": 19.454753875732422, "mean_height": 7.3590664863586426, "std_height": 6.7410836219787598, "count_pixels": 43, "percent_cover": 0.50893596875369862, "percent_above_0.1m": 83.720930232558146, "low_level_<0.5": 4.6511627906976747, "mid_level_0.5-2": 9.3023255813953494, "tall_2+": 69.767441860465112 }, "geometry": { "type": "Point", "coordinates": [ -0.53182089404764, 51.194351062759033 ] } },
{ "type": "Feature", "properties": { "max_height": 21.251754760742188, "mean_height": 3.9789230823516846, "std_height": 6.3305482864379883, "count_pixels": 38, "percent_cover": 0.4497573677358267, "percent_above_0.1m": 42.105263157894733, "low_level_<0.5": 0.0, "mid_level_0.5-2": 7.8947368421052628, "tall_2+": 34.210526315789473 }, "geometry": { "type": "Point", "coordinates": [ -0.531622661214983, 51.194348575455606 ] } },
{ "type": "Feature", "properties": { "max_height": 20.015750885009766, "mean_height": 2.6610128879547119, "std_height": 5.7268600463867188, "count_pixels": 43, "percent_cover": 0.50893596875369862, "percent_above_0.1m": 34.883720930232556, "low_level_<0.5": 2.3255813953488373, "mid_level_0.5-2": 9.3023255813953494, "tall_2+": 20.930232558139537 }, "geometry": { "type": "Point", "coordinates": [ -0.531424428410632, 51.194346087816385 ] } },
{ "type": "Feature", "properties": { "max_height": 0.0149993896484375, "mean_height": 0.00036328338319435716, "std_height": 0.0022609650623053312, "count_pixels": 43, "percent_cover": 0.50893596875369862, "percent_above_0.1m": 0.0, "low_level_<0.5": 0.0, "mid_level_0.5-2": 0.0, "tall_2+": 0.0 }, "geometry": { "type": "Point", "coordinates": [ -0.531226195634605, 51.194343599841368 ] } },
{ "type": "Feature", "properties": { "max_height": 1.0982513427734375, "mean_height": 0.056815836578607559, "std_height": 0.21122954785823822, "count_pixels": 43, "percent_cover": 0.50893596875369862, "percent_above_0.1m": 9.3023255813953494, "low_level_<0.5": 2.3255813953488373, "mid_level_0.5-2": 4.6511627906976747, "tall_2+": 0.0 }, "geometry": { "type": "Point", "coordinates": [ -0.531027962886887, 51.194341111530527 ] } },
{ "type": "Feature", "properties": { "max_height": 8.6407508850097656, "mean_height": 5.2075152397155762, "std_height": 2.2798810005187988, "count_pixels": 41, "percent_cover": 0.48526452834654987, "percent_above_0.1m": 100.0, "low_level_<0.5": 0.0, "mid_level_0.5-2": 9.7560975609756095, "tall_2+": 90.243902439024396 }, "geometry": { "type": "Point", "coordinates": [ -0.530829730167507, 51.194338622883919 ] } },
{ "type": "Feature", "properties": { "max_height": 7.1265029907226562, "mean_height": 1.9301426410675049, "std_height": 2.4284780025482178, "count_pixels": 41, "percent_cover": 0.48526452834654987, "percent_above_0.1m": 68.292682926829272, "low_level_<0.5": 12.195121951219512, "mid_level_0.5-2": 19.512195121951219, "tall_2+": 31.707317073170731 }, "geometry": { "type": "Point", "coordinates": [ -0.530631497476445, 51.194336133901487 ] } },
{ "type": "Feature", "properties": { "max_height": 1.1242523193359375, "mean_height": 0.12694633007049561, "std_height": 0.25423848628997803, "count_pixels": 41, "percent_cover": 0.48526452834654987, "percent_above_0.1m": 21.951219512195124, "low_level_<0.5": 12.195121951219512, "mid_level_0.5-2": 9.7560975609756095, "tall_2+": 0.0 }, "geometry": { "type": "Point", "coordinates": [ -0.530433264813715, 51.194333644583267 ] } },
{ "type": "Feature", "properties": { "max_height": 17.589256286621094, "mean_height": 7.3174290657043457, "std_height": 5.7344059944152832, "count_pixels": 41, "percent_cover": 0.48526452834654987, "percent_above_0.1m": 90.243902439024396, "low_level_<0.5": 0.0, "mid_level_0.5-2": 14.634146341463413, "tall_2+": 75.609756097560975 }, "geometry": { "type": "Point", "coordinates": [ -0.531718348558256, 51.194457688990852 ] } },
{ "type": "Feature", "properties": { "max_height": 22.167503356933594, "mean_height": 13.008156776428223, "std_height": 6.2214531898498535, "count_pixels": 41, "percent_cover": 0.48526452834654987, "percent_above_0.1m": 100.0, "low_level_<0.5": 0.0, "mid_level_0.5-2": 7.3170731707317067, "tall_2+": 92.682926829268297 }, "geometry": { "type": "Point", "coordinates": [ -0.531520115276804, 51.194455201510685 ] } },
{ "type": "Feature", "properties": { "max_height": 12.929752349853516, "mean_height": 6.2212467193603516, "std_height": 4.0926141738891602, "count_pixels": 41, "percent_cover": 0.48526452834654987, "percent_above_0.1m": 92.682926829268297, "low_level_<0.5": 2.4390243902439024, "mid_level_0.5-2": 12.195121951219512, "tall_2+": 75.609756097560975 }, "geometry": { "type": "Point", "coordinates": [ -0.531321882023664, 51.194452713694723 ] } },
{ "type": "Feature", "properties": { "max_height": 7.9147491455078125, "mean_height": 1.1477769613265991, "std_height": 2.157402515411377, "count_pixels": 41, "percent_cover": 0.48526452834654987, "percent_above_0.1m": 51.219512195121951, "low_level_<0.5": 17.073170731707318, "mid_level_0.5-2": 17.073170731707318, "tall_2+": 17.073170731707318 }, "geometry": { "type": "Point", "coordinates": [ -0.53112364879884, 51.194450225542944 ] } },
{ "type": "Feature", "properties": { "max_height": 8.1292495727539062, "mean_height": 1.4380636215209961, "std_height": 2.3950634002685547, "count_pixels": 41, "percent_cover": 0.48526452834654987, "percent_above_0.1m": 58.536585365853654, "low_level_<0.5": 14.634146341463413, "mid_level_0.5-2": 12.195121951219512, "tall_2+": 24.390243902439025 }, "geometry": { "type": "Point", "coordinates": [ -0.530925415602343, 51.19444773705537 ] } },
{ "type": "Feature", "properties": { "max_height": 8.3682518005371094, "mean_height": 2.792485237121582, "std_height": 3.1580908298492432, "count_pixels": 43, "percent_cover": 0.50893596875369862, "percent_above_0.1m": 72.093023255813947, "low_level_<0.5": 6.9767441860465116, "mid_level_0.5-2": 18.604651162790699, "tall_2+": 41.860465116279073 }, "geometry": { "type": "Point", "coordinates": [ -0.530727182434168, 51.194445248232 ] } },
{ "type": "Feature", "properties": { "max_height": 2.0320014953613281, "mean_height": 0.46656578779220581, "std_height": 0.58376950025558472, "count_pixels": 43, "percent_cover": 0.50893596875369862, "percent_above_0.1m": 53.488372093023251, "low_level_<0.5": 18.604651162790699, "mid_level_0.5-2": 32.558139534883722, "tall_2+": 2.3255813953488373 }, "geometry": { "type": "Point", "coordinates": [ -0.530528949294324, 51.194442759072828 ] } },
{ "type": "Feature", "properties": { "max_height": 13.447502136230469, "mean_height": 9.2994270324707031, "std_height": 2.8772478103637695, "count_pixels": 43, "percent_cover": 0.50893596875369862, "percent_above_0.1m": 100.0, "low_level_<0.5": 0.0, "mid_level_0.5-2": 0.0, "tall_2+": 100.0 }, "geometry": { "type": "Point", "coordinates": [ -0.531219335159574, 51.194559339478111 ] } },
{ "type": "Feature", "properties": { "max_height": 11.528255462646484, "mean_height": 4.0820145606994629, "std_height": 3.4892911911010742, "count_pixels": 43, "percent_cover": 0.50893596875369862, "percent_above_0.1m": 86.04651162790698, "low_level_<0.5": 4.6511627906976747, "mid_level_0.5-2": 16.279069767441861, "tall_2+": 62.790697674418603 }, "geometry": { "type": "Point", "coordinates": [ -0.531021101485962, 51.194556851149592 ] } },
{ "type": "Feature", "properties": { "max_height": 12.100002288818359, "mean_height": 3.9800999164581299, "std_height": 4.1788368225097656, "count_pixels": 41, "percent_cover": 0.48526452834654987, "percent_above_0.1m": 95.121951219512198, "low_level_<0.5": 17.073170731707318, "mid_level_0.5-2": 34.146341463414636, "tall_2+": 43.902439024390247 }, "geometry": { "type": "Point", "coordinates": [ -0.530822867840672, 51.194554362485277 ] } },
{ "type": "Feature", "properties": { "max_height": 4.045501708984375, "mean_height": 0.88256323337554932, "std_height": 1.2069700956344604, "count_pixels": 41, "percent_cover": 0.48526452834654987, "percent_above_0.1m": 53.658536585365859, "low_level_<0.5": 9.7560975609756095, "mid_level_0.5-2": 26.829268292682929, "tall_2+": 14.634146341463413 }, "geometry": { "type": "Point", "coordinates": [ -0.530624634223707, 51.194551873485153 ] } },
{ "type": "Feature", "properties": { "max_height": 0.009502410888671875, "mean_height": 0.00023176611284725368, "std_height": 0.0014658176805824041, "count_pixels": 41, "percent_cover": 0.48526452834654987, "percent_above_0.1m": 0.0, "low_level_<0.5": 0.0, "mid_level_0.5-2": 0.0, "tall_2+": 0.0 }, "geometry": { "type": "Point", "coordinates": [ -0.530426400635081, 51.194549384149227 ] } },
{ "type": "Feature", "properties": { "max_height": 11.340000152587891, "mean_height": 2.7543439865112305, "std_height": 2.7178499698638916, "count_pixels": 41, "percent_cover": 0.48526452834654987, "percent_above_0.1m": 78.048780487804876, "low_level_<0.5": 4.8780487804878048, "mid_level_0.5-2": 21.951219512195124, "tall_2+": 51.219512195121951 }, "geometry": { "type": "Point", "coordinates": [ -0.530918553695955, 51.194663476661319 ] } },
{ "type": "Feature", "properties": { "max_height": 17.919502258300781, "mean_height": 4.994316577911377, "std_height": 5.8339319229125977, "count_pixels": 43, "percent_cover": 0.50893596875369862, "percent_above_0.1m": 60.465116279069761, "low_level_<0.5": 2.3255813953488373, "mid_level_0.5-2": 9.3023255813953494, "tall_2+": 48.837209302325576 }, "geometry": { "type": "Point", "coordinates": [ -0.530720319601873, 51.194660987820257 ] } }
]
}
