{
"type": "FeatureCollection",
"name": "9e9f1df90c3f_visibility",
"crs": { "type": "name", "properties": { "name": "urn:ogc:def:crs:OGC:1.3:CRS84" } },
"features": [
{ "type": "Feature", "properties": { "visible_points": 1, "total_points": 69, "visibility_pct": 1.4492753623188406 }, "geometry": { "type": "Point", "coordinates": [ -0.152681489084364, 51.128408226147599 ] } },
{ "type": "Feature", "properties": { "visible_points": 10, "total_points": 68, "visibility_pct": 14.705882352941178 }, "geometry": { "type": "Point", "coordinates": [ -0.152483580870671, 51.128405100750193 ] } },
{ "type": "Feature", "properties": { "visible_points": 7, "total_points": 66, "visibility_pct": 10.606060606060606 }, "geometry": { "type": "Point", "coordinates": [ -0.152285672692179, 51.128401975018072 ] } },
{ "type": "Feature", "properties": { "visible_points": 0, "total_points": 81, "visibility_pct": 0.0 }, "geometry": { "type": "Point", "coordinates": [ -0.152776139670882, 51.128517637623709 ] } },
{ "type": "Feature", "properties": { "visible_points": 13, "total_points": 80, "visibility_pct": 16.25 }, "geometry": { "type": "Point", "coordinates": [ -0.152578230983572, 51.128514512380164 ] } },
{ "type": "Feature", "properties": { "visible_points": 2, "total_points": 78, "visibility_pct": 2.5641025641025639 }, "geometry": { "type": "Point", "coordinates": [ -0.152380322331456, 51.12851138680189 ] } },
{ "type": "Feature", "properties": { "visible_points": 2, "total_points": 75, "visibility_pct": 2.666666666666667 }, "geometry": { "type": "Point", "coordinates": [ -0.152182413714546, 51.128508260888914 ] } },
{ "type": "Feature", "properties": { "visible_points": 0, "total_points": 72, "visibility_pct": 0.0 }, "geometry": { "type": "Point", "coordinates": [ -0.153662427691508, 51.128639546038947 ] } },
{ "type": "Feature", "properties": { "visible_points": 0, "total_points": 79, "visibility_pct": 0.0 }, "geometry": { "type": "Point", "coordinates": [ -0.153464518389808, 51.128636422288125 ] } },
{ "type": "Feature", "properties": { "visible_points": 0, "total_points": 85, "visibility_pct": 0.0 }, "geometry": { "type": "Point", "coordinates": [ -0.153266609123291, 51.128633298202566 ] } },
{ "type": "Feature", "properties": { "visible_points": 0, "total_points": 90, "visibility_pct": 0.0 }, "geometry": { "type": "Point", "coordinates": [ -0.153068699891963, 51.128630173782305 ] } },
{ "type": "Feature", "properties": { "visible_points": 0, "total_points": 93, "visibility_pct": 0.0 }, "geometry": { "type": "Point", "coordinates": [ -0.152870790695826, 51.128627049027308 ] } },
{ "type": "Feature", "properties": { "visible_points": 13, "total_points": 92, "visibility_pct": 14.130434782608695 }, "geometry": { "type": "Point", "coordinates": [ -0.152672881534884, 51.128623923937617 ] } },
{ "type": "Feature", "properties": { "visible_points": 9, "total_points": 91, "visibility_pct": 9.8901098901098905 }, "geometry": { "type": "Point", "coordinates": [ -0.152474972409141, 51.128620798513211 ] } },
{ "type": "Feature", "properties": { "visible_points": 0, "total_points": 88, "visibility_pct": 0.0 }, "geometry": { "type": "Point", "coordinates": [ -0.152277063318606, 51.128617672754096 ] } },
{ "type": "Feature", "properties": { "visible_points": 0, "total_points": 83, "visibility_pct": 0.0 }, "geometry": { "type": "Point", "coordinates": [ -0.152079154263272, 51.128614546660252 ] } },
{ "type": "Feature", "properties": { "visible_points": 6, "total_points": 78, "visibility_pct": 7.6923076923076925 }, "geometry": { "type": "Point", "coordinates": [ -0.151881245243151, 51.128611420231707 ] } },
{ "type": "Feature", "properties": { "visible_points": 0, "total_points": 74, "visibility_pct": 0.0 }, "geometry": { "type": "Point", "coordinates": [ -0.153954990859863, 51.128752080016874 ] } },
{ "type": "Feature", "properties": { "visible_points": 0, "total_points": 79, "visibility_pct": 0.0 }, "geometry": { "type": "Point", "coordinates": [ -0.153757081049362, 51.12874895675462 ] } },
{ "type": "Feature", "properties": { "visible_points": 0, "total_points": 85, "visibility_pct": 0.0 }, "geometry": { "type": "Point", "coordinates": [ -0.153559171274038, 51.128745833157659 ] } },
{ "type": "Feature", "properties": { "visible_points": 0, "total_points": 92, "visibility_pct": 0.0 }, "geometry": { "type": "Point", "coordinates": [ -0.153361261533899, 51.128742709225953 ] } },
{ "type": "Feature", "properties": { "visible_points": 13, "total_points": 97, "visibility_pct": 13.402061855670103 }, "geometry": { "type": "Point", "coordinates": [ -0.153163351828949, 51.128739584959547 ] } },
{ "type": "Feature", "properties": { "visible_points": 9, "total_points": 102, "visibility_pct": 8.8235294117647065 }, "geometry": { "type": "Point", "coordinates": [ -0.152965442159186, 51.128736460358425 ] } },
{ "type": "Feature", "properties": { "visible_points": 5, "total_points": 104, "visibility_pct": 4.8076923076923084 }, "geometry": { "type": "Point", "coordinates": [ -0.152767532524619, 51.128733335422574 ] } },
{ "type": "Feature", "properties": { "visible_points": 11, "total_points": 103, "visibility_pct": 10.679611650485436 }, "geometry": { "type": "Point", "coordinates": [ -0.152569622925249, 51.128730210152028 ] } },
{ "type": "Feature", "properties": { "visible_points": 19, "total_points": 101, "visibility_pct": 18.811881188118811 }, "geometry": { "type": "Point", "coordinates": [ -0.152371713361078, 51.128727084546775 ] } },
{ "type": "Feature", "properties": { "visible_points": 14, "total_points": 96, "visibility_pct": 14.583333333333334 }, "geometry": { "type": "Point", "coordinates": [ -0.152173803832116, 51.128723958606777 ] } },
{ "type": "Feature", "properties": { "visible_points": 12, "total_points": 91, "visibility_pct": 13.186813186813188 }, "geometry": { "type": "Point", "coordinates": [ -0.151975894338361, 51.128720832332085 ] } },
{ "type": "Feature", "properties": { "visible_points": 8, "total_points": 83, "visibility_pct": 9.6385542168674707 }, "geometry": { "type": "Point", "coordinates": [ -0.151777984879816, 51.128717705722671 ] } },
{ "type": "Feature", "properties": { "visible_points": 0, "total_points": 82, "visibility_pct": 0.0 }, "geometry": { "type": "Point", "coordinates": [ -0.154049645129769, 51.128861490506139 ] } },
{ "type": "Feature", "properties": { "visible_points": 0, "total_points": 87, "visibility_pct": 0.0 }, "geometry": { "type": "Point", "coordinates": [ -0.153851734845647, 51.128858367397768 ] } },
{ "type": "Feature", "properties": { "visible_points": 0, "total_points": 92, "visibility_pct": 0.0 }, "geometry": { "type": "Point", "coordinates": [ -0.153653824596702, 51.128855243954668 ] } },
{ "type": "Feature", "properties": { "visible_points": 7, "total_points": 98, "visibility_pct": 7.1428571428571423 }, "geometry": { "type": "Point", "coordinates": [ -0.153455914382939, 51.12885212017683 ] } },
{ "type": "Feature", "properties": { "visible_points": 26, "total_points": 103, "visibility_pct": 25.242718446601941 }, "geometry": { "type": "Point", "coordinates": [ -0.153258004204362, 51.128848996064285 ] } },
{ "type": "Feature", "properties": { "visible_points": 27, "total_points": 108, "visibility_pct": 25.0 }, "geometry": { "type": "Point", "coordinates": [ -0.153060094060968, 51.128845871617024 ] } },
{ "type": "Feature", "properties": { "visible_points": 0, "total_points": 111, "visibility_pct": 0.0 }, "geometry": { "type": "Point", "coordinates": [ -0.152862183952775, 51.128842746835041 ] } },
{ "type": "Feature", "properties": { "visible_points": 0, "total_points": 114, "visibility_pct": 0.0 }, "geometry": { "type": "Point", "coordinates": [ -0.152664273879772, 51.128839621718363 ] } },
{ "type": "Feature", "properties": { "visible_points": 18, "total_points": 113, "visibility_pct": 15.929203539823009 }, "geometry": { "type": "Point", "coordinates": [ -0.152466363841973, 51.128836496266949 ] } },
{ "type": "Feature", "properties": { "visible_points": 21, "total_points": 109, "visibility_pct": 19.26605504587156 }, "geometry": { "type": "Point", "coordinates": [ -0.152268453839374, 51.128833370480834 ] } },
{ "type": "Feature", "properties": { "visible_points": 18, "total_points": 103, "visibility_pct": 17.475728155339805 }, "geometry": { "type": "Point", "coordinates": [ -0.152070543871984, 51.128830244359982 ] } },
{ "type": "Feature", "properties": { "visible_points": 13, "total_points": 95, "visibility_pct": 13.684210526315791 }, "geometry": { "type": "Point", "coordinates": [ -0.151872633939803, 51.128827117904414 ] } },
{ "type": "Feature", "properties": { "visible_points": 10, "total_points": 87, "visibility_pct": 11.494252873563218 }, "geometry": { "type": "Point", "coordinates": [ -0.151674724042838, 51.128823991114146 ] } },
{ "type": "Feature", "properties": { "visible_points": 0, "total_points": 89, "visibility_pct": 0.0 }, "geometry": { "type": "Point", "coordinates": [ -0.154144299838114, 51.128970900922923 ] } },
{ "type": "Feature", "properties": { "visible_points": 8, "total_points": 94, "visibility_pct": 8.5106382978723403 }, "geometry": { "type": "Point", "coordinates": [ -0.153946389080371, 51.128967777968398 ] } },
{ "type": "Feature", "properties": { "visible_points": 16, "total_points": 99, "visibility_pct": 16.161616161616163 }, "geometry": { "type": "Point", "coordinates": [ -0.153748478357803, 51.128964654679166 ] } },
{ "type": "Feature", "properties": { "visible_points": 19, "total_points": 104, "visibility_pct": 18.269230769230766 }, "geometry": { "type": "Point", "coordinates": [ -0.153550567670408, 51.128961531055211 ] } },
{ "type": "Feature", "properties": { "visible_points": 0, "total_points": 109, "visibility_pct": 0.0 }, "geometry": { "type": "Point", "coordinates": [ -0.153352657018205, 51.128958407096519 ] } },
{ "type": "Feature", "properties": { "visible_points": 34, "total_points": 113, "visibility_pct": 30.088495575221241 }, "geometry": { "type": "Point", "coordinates": [ -0.153154746401188, 51.128955282803133 ] } },
{ "type": "Feature", "properties": { "visible_points": 32, "total_points": 115, "visibility_pct": 27.826086956521738 }, "geometry": { "type": "Point", "coordinates": [ -0.152956835819354, 51.128952158175018 ] } },
{ "type": "Feature", "properties": { "visible_points": 21, "total_points": 117, "visibility_pct": 17.948717948717949 }, "geometry": { "type": "Point", "coordinates": [ -0.152758925272721, 51.128949033212173 ] } },
{ "type": "Feature", "properties": { "visible_points": 10, "total_points": 119, "visibility_pct": 8.4033613445378155 }, "geometry": { "type": "Point", "coordinates": [ -0.152561014761283, 51.128945907914627 ] } },
{ "type": "Feature", "properties": { "visible_points": 30, "total_points": 118, "visibility_pct": 25.423728813559322 }, "geometry": { "type": "Point", "coordinates": [ -0.152363104285056, 51.128942782282351 ] } },
{ "type": "Feature", "properties": { "visible_points": 27, "total_points": 112, "visibility_pct": 24.107142857142858 }, "geometry": { "type": "Point", "coordinates": [ -0.152165193844024, 51.128939656315382 ] } },
{ "type": "Feature", "properties": { "visible_points": 20, "total_points": 105, "visibility_pct": 19.047619047619047 }, "geometry": { "type": "Point", "coordinates": [ -0.151967283438203, 51.128936530013661 ] } },
{ "type": "Feature", "properties": { "visible_points": 10, "total_points": 97, "visibility_pct": 10.309278350515463 }, "geometry": { "type": "Point", "coordinates": [ -0.151769373067602, 51.128933403377232 ] } },
{ "type": "Feature", "properties": { "visible_points": 10, "total_points": 89, "visibility_pct": 11.235955056179774 }, "geometry": { "type": "Point", "coordinates": [ -0.151571462580688, 51.128930276361217 ] } },
{ "type": "Feature", "properties": { "visible_points": 5, "total_points": 78, "visibility_pct": 6.4102564102564097 }, "geometry": { "type": "Point", "coordinates": [ -0.15137355171489, 51.128927148677441 ] } },
{ "type": "Feature", "properties": { "visible_points": 1, "total_points": 55, "visibility_pct": 1.8181818181818181 }, "geometry": { "type": "Point", "coordinates": [ -0.155030600262054, 51.129092799122581 ] } },
{ "type": "Feature", "properties": { "visible_points": 0, "total_points": 90, "visibility_pct": 0.0 }, "geometry": { "type": "Point", "coordinates": [ -0.154436866251448, 51.129083433733115 ] } },
{ "type": "Feature", "properties": { "visible_points": 0, "total_points": 96, "visibility_pct": 0.0 }, "geometry": { "type": "Point", "coordinates": [ -0.154238954984906, 51.129080311267195 ] } },
{ "type": "Feature", "properties": { "visible_points": 1, "total_points": 101, "visibility_pct": 0.99009900990099009 }, "geometry": { "type": "Point", "coordinates": [ -0.154041043753535, 51.129077188466546 ] } },
{ "type": "Feature", "properties": { "visible_points": 0, "total_points": 105, "visibility_pct": 0.0 }, "geometry": { "type": "Point", "coordinates": [ -0.153843132557338, 51.129074065331167 ] } },
{ "type": "Feature", "properties": { "visible_points": 2, "total_points": 110, "visibility_pct": 1.8181818181818181 }, "geometry": { "type": "Point", "coordinates": [ -0.15364522139632, 51.129070941861066 ] } },
{ "type": "Feature", "properties": { "visible_points": 34, "total_points": 115, "visibility_pct": 29.565217391304348 }, "geometry": { "type": "Point", "coordinates": [ -0.153447310270483, 51.129067818056264 ] } },
{ "type": "Feature", "properties": { "visible_points": 40, "total_points": 118, "visibility_pct": 33.898305084745758 }, "geometry": { "type": "Point", "coordinates": [ -0.153249399179832, 51.129064693916732 ] } },
{ "type": "Feature", "properties": { "visible_points": 40, "total_points": 119, "visibility_pct": 33.613445378151262 }, "geometry": { "type": "Point", "coordinates": [ -0.153051488124369, 51.12906156944247 ] } },
{ "type": "Feature", "properties": { "visible_points": 37, "total_points": 120, "visibility_pct": 30.833333333333336 }, "geometry": { "type": "Point", "coordinates": [ -0.152853577104098, 51.1290584446335 ] } },
{ "type": "Feature", "properties": { "visible_points": 31, "total_points": 120, "visibility_pct": 25.833333333333336 }, "geometry": { "type": "Point", "coordinates": [ -0.152655666119026, 51.129055319489815 ] } },
{ "type": "Feature", "properties": { "visible_points": 36, "total_points": 120, "visibility_pct": 30.0 }, "geometry": { "type": "Point", "coordinates": [ -0.152457755169157, 51.1290521940114 ] } },
{ "type": "Feature", "properties": { "visible_points": 31, "total_points": 118, "visibility_pct": 26.271186440677969 }, "geometry": { "type": "Point", "coordinates": [ -0.152259844254486, 51.12904906819827 ] } },
{ "type": "Feature", "properties": { "visible_points": 20, "total_points": 111, "visibility_pct": 18.018018018018019 }, "geometry": { "type": "Point", "coordinates": [ -0.152061933375025, 51.129045942050418 ] } },
{ "type": "Feature", "properties": { "visible_points": 12, "total_points": 104, "visibility_pct": 11.538461538461538 }, "geometry": { "type": "Point", "coordinates": [ -0.151864022530777, 51.129042815567836 ] } },
{ "type": "Feature", "properties": { "visible_points": 0, "total_points": 96, "visibility_pct": 0.0 }, "geometry": { "type": "Point", "coordinates": [ -0.151666111721748, 51.129039688750566 ] } },
{ "type": "Feature", "properties": { "visible_points": 4, "total_points": 85, "visibility_pct": 4.7058823529411766 }, "geometry": { "type": "Point", "coordinates": [ -0.151468200580166, 51.129036561385284 ] } },
{ "type": "Feature", "properties": { "visible_points": 9, "total_points": 72, "visibility_pct": 12.5 }, "geometry": { "type": "Point", "coordinates": [ -0.151270289088299, 51.129033433452193 ] } },
{ "type": "Feature", "properties": { "visible_points": 0, "total_points": 52, "visibility_pct": 0.0 }, "geometry": { "type": "Point", "coordinates": [ -0.155125257741792, 51.129202208778864 ] } },
{ "type": "Feature", "properties": { "visible_points": 0, "total_points": 62, "visibility_pct": 0.0 }, "geometry": { "type": "Point", "coordinates": [ -0.15492734589614, 51.129199087470958 ] } },
{ "type": "Feature", "properties": { "visible_points": 0, "total_points": 74, "visibility_pct": 0.0 }, "geometry": { "type": "Point", "coordinates": [ -0.154729434085644, 51.129195965828345 ] } },
{ "type": "Feature", "properties": { "visible_points": 0, "total_points": 86, "visibility_pct": 0.0 }, "geometry": { "type": "Point", "coordinates": [ -0.154531522310312, 51.129192843851015 ] } },
{ "type": "Feature", "properties": { "visible_points": 0, "total_points": 99, "visibility_pct": 0.0 }, "geometry": { "type": "Point", "coordinates": [ -0.154333610570143, 51.129189721538943 ] } },
{ "type": "Feature", "properties": { "visible_points": 0, "total_points": 105, "visibility_pct": 0.0 }, "geometry": { "type": "Point", "coordinates": [ -0.154135698865145, 51.129186598892183 ] } },
{ "type": "Feature", "properties": { "visible_points": 0, "total_points": 110, "visibility_pct": 0.0 }, "geometry": { "type": "Point", "coordinates": [ -0.153937787195316, 51.129183475910665 ] } },
{ "type": "Feature", "properties": { "visible_points": 0, "total_points": 115, "visibility_pct": 0.0 }, "geometry": { "type": "Point", "coordinates": [ -0.153739875560671, 51.129180352594446 ] } },
{ "type": "Feature", "properties": { "visible_points": 26, "total_points": 119, "visibility_pct": 21.84873949579832 }, "geometry": { "type": "Point", "coordinates": [ -0.1535419639612, 51.129177228943497 ] } },
{ "type": "Feature", "properties": { "visible_points": 43, "total_points": 120, "visibility_pct": 35.833333333333336 }, "geometry": { "type": "Point", "coordinates": [ -0.15334405239691, 51.129174104957819 ] } },
{ "type": "Feature", "properties": { "visible_points": 43, "total_points": 120, "visibility_pct": 35.833333333333336 }, "geometry": { "type": "Point", "coordinates": [ -0.153146140867814, 51.129170980637433 ] } },
{ "type": "Feature", "properties": { "visible_points": 43, "total_points": 120, "visibility_pct": 35.833333333333336 }, "geometry": { "type": "Point", "coordinates": [ -0.152948229373909, 51.129167855982331 ] } },
{ "type": "Feature", "properties": { "visible_points": 35, "total_points": 120, "visibility_pct": 29.166666666666668 }, "geometry": { "type": "Point", "coordinates": [ -0.152750317915197, 51.129164730992485 ] } },
{ "type": "Feature", "properties": { "visible_points": 34, "total_points": 120, "visibility_pct": 28.333333333333332 }, "geometry": { "type": "Point", "coordinates": [ -0.152552406491683, 51.129161605667946 ] } },
{ "type": "Feature", "properties": { "visible_points": 27, "total_points": 118, "visibility_pct": 22.881355932203391 }, "geometry": { "type": "Point", "coordinates": [ -0.152354495103374, 51.129158480008677 ] } },
{ "type": "Feature", "properties": { "visible_points": 6, "total_points": 116, "visibility_pct": 5.1724137931034484 }, "geometry": { "type": "Point", "coordinates": [ -0.152156583750271, 51.129155354014678 ] } },
{ "type": "Feature", "properties": { "visible_points": 6, "total_points": 110, "visibility_pct": 5.4545454545454541 }, "geometry": { "type": "Point", "coordinates": [ -0.151958672432375, 51.129152227685957 ] } },
{ "type": "Feature", "properties": { "visible_points": 4, "total_points": 102, "visibility_pct": 3.9215686274509802 }, "geometry": { "type": "Point", "coordinates": [ -0.151760761149696, 51.129149101022534 ] } },
{ "type": "Feature", "properties": { "visible_points": 0, "total_points": 92, "visibility_pct": 0.0 }, "geometry": { "type": "Point", "coordinates": [ -0.151562849732815, 51.129145973973579 ] } },
{ "type": "Feature", "properties": { "visible_points": 1, "total_points": 79, "visibility_pct": 1.2658227848101267 }, "geometry": { "type": "Point", "coordinates": [ -0.151364937927119, 51.129142846243553 ] } },
{ "type": "Feature", "properties": { "visible_points": 7, "total_points": 66, "visibility_pct": 10.606060606060606 }, "geometry": { "type": "Point", "coordinates": [ -0.151167025981423, 51.129139718124485 ] } },
{ "type": "Feature", "properties": { "visible_points": 5, "total_points": 55, "visibility_pct": 9.0909090909090917 }, "geometry": { "type": "Point", "coordinates": [ -0.150969114071333, 51.129136589670864 ] } },
{ "type": "Feature", "properties": { "visible_points": 0, "total_points": 58, "visibility_pct": 0.0 }, "geometry": { "type": "Point", "coordinates": [ -0.155022003340708, 51.129308497208584 ] } },
{ "type": "Feature", "properties": { "visible_points": 0, "total_points": 70, "visibility_pct": 0.0 }, "geometry": { "type": "Point", "coordinates": [ -0.154824091056588, 51.129305375719838 ] } },
{ "type": "Feature", "properties": { "visible_points": 0, "total_points": 82, "visibility_pct": 0.0 }, "geometry": { "type": "Point", "coordinates": [ -0.154626178807629, 51.129302253896384 ] } },
{ "type": "Feature", "properties": { "visible_points": 0, "total_points": 95, "visibility_pct": 0.0 }, "geometry": { "type": "Point", "coordinates": [ -0.15442826659383, 51.129299131738208 ] } },
{ "type": "Feature", "properties": { "visible_points": 0, "total_points": 105, "visibility_pct": 0.0 }, "geometry": { "type": "Point", "coordinates": [ -0.154230354415203, 51.12929600924528 ] } },
{ "type": "Feature", "properties": { "visible_points": 0, "total_points": 111, "visibility_pct": 0.0 }, "geometry": { "type": "Point", "coordinates": [ -0.154032442271746, 51.129292886417666 ] } },
{ "type": "Feature", "properties": { "visible_points": 0, "total_points": 115, "visibility_pct": 0.0 }, "geometry": { "type": "Point", "coordinates": [ -0.15383453016346, 51.129289763255301 ] } },
{ "type": "Feature", "properties": { "visible_points": 4, "total_points": 120, "visibility_pct": 3.3333333333333335 }, "geometry": { "type": "Point", "coordinates": [ -0.153636618090356, 51.12928663975822 ] } },
{ "type": "Feature", "properties": { "visible_points": 25, "total_points": 120, "visibility_pct": 20.833333333333336 }, "geometry": { "type": "Point", "coordinates": [ -0.153438706052436, 51.129283515926424 ] } },
{ "type": "Feature", "properties": { "visible_points": 48, "total_points": 120, "visibility_pct": 40.0 }, "geometry": { "type": "Point", "coordinates": [ -0.153240794049698, 51.129280391759892 ] } },
{ "type": "Feature", "properties": { "visible_points": 46, "total_points": 120, "visibility_pct": 38.333333333333336 }, "geometry": { "type": "Point", "coordinates": [ -0.153042882082153, 51.129277267258637 ] } },
{ "type": "Feature", "properties": { "visible_points": 34, "total_points": 120, "visibility_pct": 28.333333333333332 }, "geometry": { "type": "Point", "coordinates": [ -0.152844970149798, 51.129274142422673 ] } },
{ "type": "Feature", "properties": { "visible_points": 31, "total_points": 120, "visibility_pct": 25.833333333333336 }, "geometry": { "type": "Point", "coordinates": [ -0.152647058252648, 51.129271017251995 ] } },
{ "type": "Feature", "properties": { "visible_points": 35, "total_points": 118, "visibility_pct": 29.66101694915254 }, "geometry": { "type": "Point", "coordinates": [ -0.152449146390689, 51.129267891746572 ] } },
{ "type": "Feature", "properties": { "visible_points": 0, "total_points": 115, "visibility_pct": 0.0 }, "geometry": { "type": "Point", "coordinates": [ -0.152251234563939, 51.129264765906441 ] } },
{ "type": "Feature", "properties": { "visible_points": 2, "total_points": 112, "visibility_pct": 1.7857142857142856 }, "geometry": { "type": "Point", "coordinates": [ -0.152053322772399, 51.129261639731567 ] } },
{ "type": "Feature", "properties": { "visible_points": 0, "total_points": 106, "visibility_pct": 0.0 }, "geometry": { "type": "Point", "coordinates": [ -0.151855411016071, 51.129258513221991 ] } },
{ "type": "Feature", "properties": { "visible_points": 0, "total_points": 85, "visibility_pct": 0.0 }, "geometry": { "type": "Point", "coordinates": [ -0.151459587210607, 51.129252258965231 ] } },
{ "type": "Feature", "properties": { "visible_points": 0, "total_points": 72, "visibility_pct": 0.0 }, "geometry": { "type": "Point", "coordinates": [ -0.151261674784633, 51.129249130997053 ] } },
{ "type": "Feature", "properties": { "visible_points": 2, "total_points": 60, "visibility_pct": 3.3333333333333335 }, "geometry": { "type": "Point", "coordinates": [ -0.151063762394261, 51.129246002694316 ] } },
{ "type": "Feature", "properties": { "visible_points": 6, "total_points": 48, "visibility_pct": 12.5 }, "geometry": { "type": "Point", "coordinates": [ -0.150865850039497, 51.12924287405702 ] } },
{ "type": "Feature", "properties": { "visible_points": 1, "total_points": 65, "visibility_pct": 1.5384615384615385 }, "geometry": { "type": "Point", "coordinates": [ -0.154918748465991, 51.129414785538827 ] } },
{ "type": "Feature", "properties": { "visible_points": 0, "total_points": 78, "visibility_pct": 0.0 }, "geometry": { "type": "Point", "coordinates": [ -0.154720835743403, 51.129411663869234 ] } },
{ "type": "Feature", "properties": { "visible_points": 0, "total_points": 91, "visibility_pct": 0.0 }, "geometry": { "type": "Point", "coordinates": [ -0.15452292305597, 51.12940854186494 ] } },
{ "type": "Feature", "properties": { "visible_points": 0, "total_points": 102, "visibility_pct": 0.0 }, "geometry": { "type": "Point", "coordinates": [ -0.154325010403714, 51.129405419525909 ] } },
{ "type": "Feature", "properties": { "visible_points": 0, "total_points": 110, "visibility_pct": 0.0 }, "geometry": { "type": "Point", "coordinates": [ -0.15412709778662, 51.129402296852135 ] } },
{ "type": "Feature", "properties": { "visible_points": 0, "total_points": 115, "visibility_pct": 0.0 }, "geometry": { "type": "Point", "coordinates": [ -0.153929185204705, 51.129399173843638 ] } },
{ "type": "Feature", "properties": { "visible_points": 0, "total_points": 118, "visibility_pct": 0.0 }, "geometry": { "type": "Point", "coordinates": [ -0.15373127265796, 51.129396050500425 ] } },
{ "type": "Feature", "properties": { "visible_points": 0, "total_points": 120, "visibility_pct": 0.0 }, "geometry": { "type": "Point", "coordinates": [ -0.1535333601464, 51.129392926822504 ] } },
{ "type": "Feature", "properties": { "visible_points": 54, "total_points": 120, "visibility_pct": 45.0 }, "geometry": { "type": "Point", "coordinates": [ -0.153335447670024, 51.12938980280984 ] } },
{ "type": "Feature", "properties": { "visible_points": 56, "total_points": 120, "visibility_pct": 46.666666666666664 }, "geometry": { "type": "Point", "coordinates": [ -0.153137535228835, 51.129386678462446 ] } },
{ "type": "Feature", "properties": { "visible_points": 28, "total_points": 120, "visibility_pct": 23.333333333333332 }, "geometry": { "type": "Point", "coordinates": [ -0.152939622822838, 51.12938355378035 ] } },
{ "type": "Feature", "properties": { "visible_points": 0, "total_points": 120, "visibility_pct": 0.0 }, "geometry": { "type": "Point", "coordinates": [ -0.152741710452041, 51.129380428763525 ] } },
{ "type": "Feature", "properties": { "visible_points": 32, "total_points": 118, "visibility_pct": 27.118644067796609 }, "geometry": { "type": "Point", "coordinates": [ -0.152543798116438, 51.129377303411971 ] } },
{ "type": "Feature", "properties": { "visible_points": 23, "total_points": 114, "visibility_pct": 20.175438596491226 }, "geometry": { "type": "Point", "coordinates": [ -0.15234588581604, 51.129374177725701 ] } },
{ "type": "Feature", "properties": { "visible_points": 2, "total_points": 111, "visibility_pct": 1.8018018018018018 }, "geometry": { "type": "Point", "coordinates": [ -0.152147973550851, 51.129371051704688 ] } },
{ "type": "Feature", "properties": { "visible_points": 1, "total_points": 106, "visibility_pct": 0.94339622641509435 }, "geometry": { "type": "Point", "coordinates": [ -0.151950061320871, 51.12936792534898 ] } },
{ "type": "Feature", "properties": { "visible_points": 2, "total_points": 64, "visibility_pct": 3.125 }, "geometry": { "type": "Point", "coordinates": [ -0.151158411161858, 51.129355415648064 ] } },
{ "type": "Feature", "properties": { "visible_points": 1, "total_points": 72, "visibility_pct": 1.3888888888888888 }, "geometry": { "type": "Point", "coordinates": [ -0.154815493117632, 51.129521073769588 ] } },
{ "type": "Feature", "properties": { "visible_points": 0, "total_points": 85, "visibility_pct": 0.0 }, "geometry": { "type": "Point", "coordinates": [ -0.154617579956572, 51.129517951919148 ] } },
{ "type": "Feature", "properties": { "visible_points": 0, "total_points": 96, "visibility_pct": 0.0 }, "geometry": { "type": "Point", "coordinates": [ -0.15441966683068, 51.129514829733992 ] } },
{ "type": "Feature", "properties": { "visible_points": 0, "total_points": 105, "visibility_pct": 0.0 }, "geometry": { "type": "Point", "coordinates": [ -0.15422175373995, 51.129511707214093 ] } },
{ "type": "Feature", "properties": { "visible_points": 0, "total_points": 112, "visibility_pct": 0.0 }, "geometry": { "type": "Point", "coordinates": [ -0.154023840684397, 51.129508584359492 ] } },
{ "type": "Feature", "properties": { "visible_points": 0, "total_points": 116, "visibility_pct": 0.0 }, "geometry": { "type": "Point", "coordinates": [ -0.153825927664012, 51.129505461170147 ] } },
{ "type": "Feature", "properties": { "visible_points": 35, "total_points": 118, "visibility_pct": 29.66101694915254 }, "geometry": { "type": "Point", "coordinates": [ -0.153628014678814, 51.129502337646073 ] } },
{ "type": "Feature", "properties": { "visible_points": 56, "total_points": 120, "visibility_pct": 46.666666666666664 }, "geometry": { "type": "Point", "coordinates": [ -0.153430101728794, 51.129499213787298 ] } },
{ "type": "Feature", "properties": { "visible_points": 59, "total_points": 120, "visibility_pct": 49.166666666666664 }, "geometry": { "type": "Point", "coordinates": [ -0.153232188813961, 51.129496089593758 ] } },
{ "type": "Feature", "properties": { "visible_points": 58, "total_points": 120, "visibility_pct": 48.333333333333336 }, "geometry": { "type": "Point", "coordinates": [ -0.153034275934322, 51.129492965065545 ] } },
{ "type": "Feature", "properties": { "visible_points": 0, "total_points": 120, "visibility_pct": 0.0 }, "geometry": { "type": "Point", "coordinates": [ -0.152836363089873, 51.129489840202552 ] } },
{ "type": "Feature", "properties": { "visible_points": 27, "total_points": 118, "visibility_pct": 22.881355932203391 }, "geometry": { "type": "Point", "coordinates": [ -0.152638450280627, 51.12948671500488 ] } },
{ "type": "Feature", "properties": { "visible_points": 35, "total_points": 114, "visibility_pct": 30.701754385964914 }, "geometry": { "type": "Point", "coordinates": [ -0.152440537506574, 51.12948358947245 ] } },
{ "type": "Feature", "properties": { "visible_points": 0, "total_points": 110, "visibility_pct": 0.0 }, "geometry": { "type": "Point", "coordinates": [ -0.152242624767734, 51.129480463605297 ] } },
{ "type": "Feature", "properties": { "visible_points": 0, "total_points": 105, "visibility_pct": 0.0 }, "geometry": { "type": "Point", "coordinates": [ -0.152044712064103, 51.129477337403465 ] } },
{ "type": "Feature", "properties": { "visible_points": 1, "total_points": 98, "visibility_pct": 1.0204081632653061 }, "geometry": { "type": "Point", "coordinates": [ -0.154316410131737, 51.129621117503554 ] } },
{ "type": "Feature", "properties": { "visible_points": 0, "total_points": 106, "visibility_pct": 0.0 }, "geometry": { "type": "Point", "coordinates": [ -0.154118496602546, 51.129617994802821 ] } },
{ "type": "Feature", "properties": { "visible_points": 0, "total_points": 111, "visibility_pct": 0.0 }, "geometry": { "type": "Point", "coordinates": [ -0.15392058310852, 51.129614871767345 ] } },
{ "type": "Feature", "properties": { "visible_points": 30, "total_points": 116, "visibility_pct": 25.862068965517242 }, "geometry": { "type": "Point", "coordinates": [ -0.153722669649677, 51.129611748397139 ] } },
{ "type": "Feature", "properties": { "visible_points": 49, "total_points": 118, "visibility_pct": 41.525423728813557 }, "geometry": { "type": "Point", "coordinates": [ -0.153524756226015, 51.129608624692224 ] } },
{ "type": "Feature", "properties": { "visible_points": 61, "total_points": 120, "visibility_pct": 50.833333333333329 }, "geometry": { "type": "Point", "coordinates": [ -0.153326842837533, 51.129605500652573 ] } },
{ "type": "Feature", "properties": { "visible_points": 62, "total_points": 120, "visibility_pct": 51.666666666666671 }, "geometry": { "type": "Point", "coordinates": [ -0.153128929484251, 51.1296023762782 ] } },
{ "type": "Feature", "properties": { "visible_points": 57, "total_points": 120, "visibility_pct": 47.5 }, "geometry": { "type": "Point", "coordinates": [ -0.152931016166149, 51.129599251569097 ] } },
{ "type": "Feature", "properties": { "visible_points": 49, "total_points": 119, "visibility_pct": 41.17647058823529 }, "geometry": { "type": "Point", "coordinates": [ -0.152733102883249, 51.129596126525271 ] } },
{ "type": "Feature", "properties": { "visible_points": 40, "total_points": 115, "visibility_pct": 34.782608695652172 }, "geometry": { "type": "Point", "coordinates": [ -0.152535189635551, 51.129593001146702 ] } },
{ "type": "Feature", "properties": { "visible_points": 0, "total_points": 110, "visibility_pct": 0.0 }, "geometry": { "type": "Point", "coordinates": [ -0.152337276423052, 51.129589875433439 ] } },
{ "type": "Feature", "properties": { "visible_points": 0, "total_points": 106, "visibility_pct": 0.0 }, "geometry": { "type": "Point", "coordinates": [ -0.152139363245766, 51.129586749385439 ] } },
{ "type": "Feature", "properties": { "visible_points": 0, "total_points": 99, "visibility_pct": 0.0 }, "geometry": { "type": "Point", "coordinates": [ -0.154213152959151, 51.129727405173639 ] } },
{ "type": "Feature", "properties": { "visible_points": 0, "total_points": 106, "visibility_pct": 0.0 }, "geometry": { "type": "Point", "coordinates": [ -0.154015238991485, 51.129724282292045 ] } },
{ "type": "Feature", "properties": { "visible_points": 14, "total_points": 112, "visibility_pct": 12.5 }, "geometry": { "type": "Point", "coordinates": [ -0.153817325058995, 51.129721159075707 ] } },
{ "type": "Feature", "properties": { "visible_points": 0, "total_points": 116, "visibility_pct": 0.0 }, "geometry": { "type": "Point", "coordinates": [ -0.153619411161687, 51.129718035524654 ] } },
{ "type": "Feature", "properties": { "visible_points": 59, "total_points": 119, "visibility_pct": 49.579831932773111 }, "geometry": { "type": "Point", "coordinates": [ -0.15342149729956, 51.129714911638871 ] } },
{ "type": "Feature", "properties": { "visible_points": 62, "total_points": 120, "visibility_pct": 51.666666666666671 }, "geometry": { "type": "Point", "coordinates": [ -0.153223583472621, 51.129711787418366 ] } },
{ "type": "Feature", "properties": { "visible_points": 61, "total_points": 120, "visibility_pct": 50.833333333333329 }, "geometry": { "type": "Point", "coordinates": [ -0.153025669680874, 51.129708662863123 ] } },
{ "type": "Feature", "properties": { "visible_points": 56, "total_points": 120, "visibility_pct": 46.666666666666664 }, "geometry": { "type": "Point", "coordinates": [ -0.152827755924319, 51.129705537973166 ] } },
{ "type": "Feature", "properties": { "visible_points": 48, "total_points": 116, "visibility_pct": 41.379310344827587 }, "geometry": { "type": "Point", "coordinates": [ -0.152629842202968, 51.129702412748486 ] } },
{ "type": "Feature", "properties": { "visible_points": 42, "total_points": 111, "visibility_pct": 37.837837837837839 }, "geometry": { "type": "Point", "coordinates": [ -0.152431928516813, 51.129699287189055 ] } },
{ "type": "Feature", "properties": { "visible_points": 0, "total_points": 107, "visibility_pct": 0.0 }, "geometry": { "type": "Point", "coordinates": [ -0.152234014865865, 51.129696161294916 ] } },
{ "type": "Feature", "properties": { "visible_points": 0, "total_points": 100, "visibility_pct": 0.0 }, "geometry": { "type": "Point", "coordinates": [ -0.154109895312911, 51.129833692744214 ] } },
{ "type": "Feature", "properties": { "visible_points": 7, "total_points": 107, "visibility_pct": 6.5420560747663545 }, "geometry": { "type": "Point", "coordinates": [ -0.153911980906771, 51.129830569681758 ] } },
{ "type": "Feature", "properties": { "visible_points": 35, "total_points": 113, "visibility_pct": 30.973451327433626 }, "geometry": { "type": "Point", "coordinates": [ -0.153714066535816, 51.129827446284573 ] } },
{ "type": "Feature", "properties": { "visible_points": 54, "total_points": 117, "visibility_pct": 46.153846153846153 }, "geometry": { "type": "Point", "coordinates": [ -0.15351615220004, 51.129824322552672 ] } },
{ "type": "Feature", "properties": { "visible_points": 59, "total_points": 120, "visibility_pct": 49.166666666666664 }, "geometry": { "type": "Point", "coordinates": [ -0.153318237899447, 51.129821198486034 ] } },
{ "type": "Feature", "properties": { "visible_points": 59, "total_points": 120, "visibility_pct": 49.166666666666664 }, "geometry": { "type": "Point", "coordinates": [ -0.153120323634044, 51.129818074084653 ] } },
{ "type": "Feature", "properties": { "visible_points": 57, "total_points": 120, "visibility_pct": 47.5 }, "geometry": { "type": "Point", "coordinates": [ -0.152922409403838, 51.129814949348564 ] } },
{ "type": "Feature", "properties": { "visible_points": 53, "total_points": 118, "visibility_pct": 44.915254237288138 }, "geometry": { "type": "Point", "coordinates": [ -0.152724495208826, 51.129811824277738 ] } },
{ "type": "Feature", "properties": { "visible_points": 46, "total_points": 113, "visibility_pct": 40.707964601769916 }, "geometry": { "type": "Point", "coordinates": [ -0.152526581049016, 51.129808698872175 ] } },
{ "type": "Feature", "properties": { "visible_points": 0, "total_points": 108, "visibility_pct": 0.0 }, "geometry": { "type": "Point", "coordinates": [ -0.152328666924407, 51.129805573131897 ] } },
{ "type": "Feature", "properties": { "visible_points": 0, "total_points": 102, "visibility_pct": 0.0 }, "geometry": { "type": "Point", "coordinates": [ -0.152130752835009, 51.129802447056882 ] } },
{ "type": "Feature", "properties": { "visible_points": 0, "total_points": 94, "visibility_pct": 0.0 }, "geometry": { "type": "Point", "coordinates": [ -0.1542045520728, 51.129943103123871 ] } },
{ "type": "Feature", "properties": { "visible_points": 0, "total_points": 102, "visibility_pct": 0.0 }, "geometry": { "type": "Point", "coordinates": [ -0.154006637193012, 51.129939980215305 ] } },
{ "type": "Feature", "properties": { "visible_points": 33, "total_points": 109, "visibility_pct": 30.275229357798167 }, "geometry": { "type": "Point", "coordinates": [ -0.153808722348402, 51.129936856971987 ] } },
{ "type": "Feature", "properties": { "visible_points": 46, "total_points": 114, "visibility_pct": 40.350877192982452 }, "geometry": { "type": "Point", "coordinates": [ -0.153610807538974, 51.129933733393962 ] } },
{ "type": "Feature", "properties": { "visible_points": 53, "total_points": 119, "visibility_pct": 44.537815126050425 }, "geometry": { "type": "Point", "coordinates": [ -0.153412892764733, 51.129930609481185 ] } },
{ "type": "Feature", "properties": { "visible_points": 56, "total_points": 120, "visibility_pct": 46.666666666666664 }, "geometry": { "type": "Point", "coordinates": [ -0.153214978025671, 51.129927485233679 ] } },
{ "type": "Feature", "properties": { "visible_points": 56, "total_points": 120, "visibility_pct": 46.666666666666664 }, "geometry": { "type": "Point", "coordinates": [ -0.153017063321807, 51.129924360651458 ] } },
{ "type": "Feature", "properties": { "visible_points": 56, "total_points": 120, "visibility_pct": 46.666666666666664 }, "geometry": { "type": "Point", "coordinates": [ -0.152819148653137, 51.129921235734493 ] } },
{ "type": "Feature", "properties": { "visible_points": 48, "total_points": 116, "visibility_pct": 41.379310344827587 }, "geometry": { "type": "Point", "coordinates": [ -0.152621234019665, 51.129918110482791 ] } },
{ "type": "Feature", "properties": { "visible_points": 40, "total_points": 111, "visibility_pct": 36.036036036036037 }, "geometry": { "type": "Point", "coordinates": [ -0.152423319421396, 51.129914984896388 ] } },
{ "type": "Feature", "properties": { "visible_points": 0, "total_points": 104, "visibility_pct": 0.0 }, "geometry": { "type": "Point", "coordinates": [ -0.152225404858333, 51.129911858975227 ] } },
{ "type": "Feature", "properties": { "visible_points": 1, "total_points": 96, "visibility_pct": 1.0416666666666665 }, "geometry": { "type": "Point", "coordinates": [ -0.152027490330482, 51.129908732719343 ] } },
{ "type": "Feature", "properties": { "visible_points": 0, "total_points": 97, "visibility_pct": 0.0 }, "geometry": { "type": "Point", "coordinates": [ -0.154101293917718, 51.130049390676326 ] } },
{ "type": "Feature", "properties": { "visible_points": 26, "total_points": 105, "visibility_pct": 24.761904761904763 }, "geometry": { "type": "Point", "coordinates": [ -0.153903378599455, 51.130046267586906 ] } },
{ "type": "Feature", "properties": { "visible_points": 38, "total_points": 111, "visibility_pct": 34.234234234234236 }, "geometry": { "type": "Point", "coordinates": [ -0.153705463316373, 51.130043144162727 ] } },
{ "type": "Feature", "properties": { "visible_points": 48, "total_points": 117, "visibility_pct": 41.025641025641022 }, "geometry": { "type": "Point", "coordinates": [ -0.153507548068474, 51.130040020403833 ] } },
{ "type": "Feature", "properties": { "visible_points": 53, "total_points": 120, "visibility_pct": 44.166666666666664 }, "geometry": { "type": "Point", "coordinates": [ -0.153309632855756, 51.130036896310209 ] } },
{ "type": "Feature", "properties": { "visible_points": 52, "total_points": 120, "visibility_pct": 43.333333333333336 }, "geometry": { "type": "Point", "coordinates": [ -0.15311171767823, 51.130033771881834 ] } },
{ "type": "Feature", "properties": { "visible_points": 54, "total_points": 120, "visibility_pct": 45.0 }, "geometry": { "type": "Point", "coordinates": [ -0.152913802535898, 51.130030647118751 ] } },
{ "type": "Feature", "properties": { "visible_points": 48, "total_points": 119, "visibility_pct": 40.336134453781511 }, "geometry": { "type": "Point", "coordinates": [ -0.152715887428768, 51.130027522020917 ] } },
{ "type": "Feature", "properties": { "visible_points": 39, "total_points": 115, "visibility_pct": 33.913043478260867 }, "geometry": { "type": "Point", "coordinates": [ -0.152517972356832, 51.130024396588361 ] } },
{ "type": "Feature", "properties": { "visible_points": 0, "total_points": 108, "visibility_pct": 0.0 }, "geometry": { "type": "Point", "coordinates": [ -0.152320057320106, 51.130021270821068 ] } },
{ "type": "Feature", "properties": { "visible_points": 0, "total_points": 98, "visibility_pct": 0.0 }, "geometry": { "type": "Point", "coordinates": [ -0.152122142318582, 51.130018144719052 ] } },
{ "type": "Feature", "properties": { "visible_points": 0, "total_points": 91, "visibility_pct": 0.0 }, "geometry": { "type": "Point", "coordinates": [ -0.154195951080895, 51.130158801064844 ] } },
{ "type": "Feature", "properties": { "visible_points": 0, "total_points": 101, "visibility_pct": 0.0 }, "geometry": { "type": "Point", "coordinates": [ -0.153998035288977, 51.130155678129299 ] } },
{ "type": "Feature", "properties": { "visible_points": 23, "total_points": 108, "visibility_pct": 21.296296296296298 }, "geometry": { "type": "Point", "coordinates": [ -0.153800119532238, 51.130152554858995 ] } },
{ "type": "Feature", "properties": { "visible_points": 19, "total_points": 115, "visibility_pct": 16.521739130434781 }, "geometry": { "type": "Point", "coordinates": [ -0.153602203810674, 51.130149431253969 ] } },
{ "type": "Feature", "properties": { "visible_points": 43, "total_points": 120, "visibility_pct": 35.833333333333336 }, "geometry": { "type": "Point", "coordinates": [ -0.153404288124302, 51.130146307314206 ] } },
{ "type": "Feature", "properties": { "visible_points": 46, "total_points": 119, "visibility_pct": 38.655462184873954 }, "geometry": { "type": "Point", "coordinates": [ -0.153206372473116, 51.130143183039714 ] } },
{ "type": "Feature", "properties": { "visible_points": 45, "total_points": 118, "visibility_pct": 38.135593220338983 }, "geometry": { "type": "Point", "coordinates": [ -0.15300845685712, 51.130140058430499 ] } },
{ "type": "Feature", "properties": { "visible_points": 42, "total_points": 117, "visibility_pct": 35.897435897435898 }, "geometry": { "type": "Point", "coordinates": [ -0.152810541276324, 51.130136933486547 ] } },
{ "type": "Feature", "properties": { "visible_points": 38, "total_points": 114, "visibility_pct": 33.333333333333329 }, "geometry": { "type": "Point", "coordinates": [ -0.15261262573072, 51.130133808207844 ] } },
{ "type": "Feature", "properties": { "visible_points": 6, "total_points": 109, "visibility_pct": 5.5045871559633035 }, "geometry": { "type": "Point", "coordinates": [ -0.152414710220327, 51.130130682594412 ] } },
{ "type": "Feature", "properties": { "visible_points": 0, "total_points": 99, "visibility_pct": 0.0 }, "geometry": { "type": "Point", "coordinates": [ -0.152216794745136, 51.130127556646265 ] } },
{ "type": "Feature", "properties": { "visible_points": 0, "total_points": 90, "visibility_pct": 0.0 }, "geometry": { "type": "Point", "coordinates": [ -0.154092692416969, 51.130265088599167 ] } },
{ "type": "Feature", "properties": { "visible_points": 8, "total_points": 100, "visibility_pct": 8.0 }, "geometry": { "type": "Point", "coordinates": [ -0.153894776186569, 51.130261965482759 ] } },
{ "type": "Feature", "properties": { "visible_points": 0, "total_points": 108, "visibility_pct": 0.0 }, "geometry": { "type": "Point", "coordinates": [ -0.153696859991348, 51.130258842031594 ] } },
{ "type": "Feature", "properties": { "visible_points": 24, "total_points": 113, "visibility_pct": 21.238938053097346 }, "geometry": { "type": "Point", "coordinates": [ -0.153498943831312, 51.130255718245706 ] } },
{ "type": "Feature", "properties": { "visible_points": 33, "total_points": 113, "visibility_pct": 29.20353982300885 }, "geometry": { "type": "Point", "coordinates": [ -0.15330102770646, 51.130252594125089 ] } },
{ "type": "Feature", "properties": { "visible_points": 30, "total_points": 112, "visibility_pct": 26.785714285714285 }, "geometry": { "type": "Point", "coordinates": [ -0.1531031116168, 51.130249469669742 ] } },
{ "type": "Feature", "properties": { "visible_points": 0, "total_points": 111, "visibility_pct": 0.0 }, "geometry": { "type": "Point", "coordinates": [ -0.152905195562337, 51.130246344879644 ] } },
{ "type": "Feature", "properties": { "visible_points": 21, "total_points": 111, "visibility_pct": 18.918918918918919 }, "geometry": { "type": "Point", "coordinates": [ -0.152707279543069, 51.13024321975481 ] } },
{ "type": "Feature", "properties": { "visible_points": 20, "total_points": 109, "visibility_pct": 18.348623853211009 }, "geometry": { "type": "Point", "coordinates": [ -0.152509363558999, 51.13024009429526 ] } },
{ "type": "Feature", "properties": { "visible_points": 0, "total_points": 98, "visibility_pct": 0.0 }, "geometry": { "type": "Point", "coordinates": [ -0.152311447610141, 51.130236968500967 ] } },
{ "type": "Feature", "properties": { "visible_points": 0, "total_points": 87, "visibility_pct": 0.0 }, "geometry": { "type": "Point", "coordinates": [ -0.152113531696491, 51.130233842371943 ] } },
{ "type": "Feature", "properties": { "visible_points": 0, "total_points": 76, "visibility_pct": 0.0 }, "geometry": { "type": "Point", "coordinates": [ -0.15191561581805, 51.130230715908183 ] } },
{ "type": "Feature", "properties": { "visible_points": 4, "total_points": 65, "visibility_pct": 6.1538461538461542 }, "geometry": { "type": "Point", "coordinates": [ -0.151717699974831, 51.130227589109694 ] } },
{ "type": "Feature", "properties": { "visible_points": 0, "total_points": 88, "visibility_pct": 0.0 }, "geometry": { "type": "Point", "coordinates": [ -0.153989433279378, 51.130371376033992 ] } },
{ "type": "Feature", "properties": { "visible_points": 0, "total_points": 98, "visibility_pct": 0.0 }, "geometry": { "type": "Point", "coordinates": [ -0.15379151661049, 51.130368252736709 ] } },
{ "type": "Feature", "properties": { "visible_points": 0, "total_points": 104, "visibility_pct": 0.0 }, "geometry": { "type": "Point", "coordinates": [ -0.153593599976792, 51.130365129104696 ] } },
{ "type": "Feature", "properties": { "visible_points": 21, "total_points": 105, "visibility_pct": 20.0 }, "geometry": { "type": "Point", "coordinates": [ -0.153395683378276, 51.130362005137954 ] } },
{ "type": "Feature", "properties": { "visible_points": 14, "total_points": 104, "visibility_pct": 13.461538461538462 }, "geometry": { "type": "Point", "coordinates": [ -0.153197766814945, 51.130358880836468 ] } },
{ "type": "Feature", "properties": { "visible_points": 0, "total_points": 103, "visibility_pct": 0.0 }, "geometry": { "type": "Point", "coordinates": [ -0.152999850286809, 51.130355756200245 ] } },
{ "type": "Feature", "properties": { "visible_points": 0, "total_points": 103, "visibility_pct": 0.0 }, "geometry": { "type": "Point", "coordinates": [ -0.152801933793875, 51.1303526312293 ] } },
{ "type": "Feature", "properties": { "visible_points": 0, "total_points": 103, "visibility_pct": 0.0 }, "geometry": { "type": "Point", "coordinates": [ -0.152604017336137, 51.13034950592359 ] } },
{ "type": "Feature", "properties": { "visible_points": 0, "total_points": 96, "visibility_pct": 0.0 }, "geometry": { "type": "Point", "coordinates": [ -0.1524061009136, 51.130346380283171 ] } },
{ "type": "Feature", "properties": { "visible_points": 0, "total_points": 86, "visibility_pct": 0.0 }, "geometry": { "type": "Point", "coordinates": [ -0.15220818452627, 51.130343254308009 ] } },
{ "type": "Feature", "properties": { "visible_points": 0, "total_points": 75, "visibility_pct": 0.0 }, "geometry": { "type": "Point", "coordinates": [ -0.15201026817416, 51.130340127998124 ] } },
{ "type": "Feature", "properties": { "visible_points": 2, "total_points": 65, "visibility_pct": 3.0769230769230771 }, "geometry": { "type": "Point", "coordinates": [ -0.151812351857255, 51.130337001353482 ] } },
{ "type": "Feature", "properties": { "visible_points": 0, "total_points": 66, "visibility_pct": 0.0 }, "geometry": { "type": "Point", "coordinates": [ -0.154282007988384, 51.130483909321399 ] } },
{ "type": "Feature", "properties": { "visible_points": 0, "total_points": 76, "visibility_pct": 0.0 }, "geometry": { "type": "Point", "coordinates": [ -0.154084090810657, 51.130480786512734 ] } },
{ "type": "Feature", "properties": { "visible_points": 0, "total_points": 86, "visibility_pct": 0.0 }, "geometry": { "type": "Point", "coordinates": [ -0.153886173668111, 51.130477663369319 ] } },
{ "type": "Feature", "properties": { "visible_points": 0, "total_points": 94, "visibility_pct": 0.0 }, "geometry": { "type": "Point", "coordinates": [ -0.153688256560743, 51.130474539891182 ] } },
{ "type": "Feature", "properties": { "visible_points": 0, "total_points": 96, "visibility_pct": 0.0 }, "geometry": { "type": "Point", "coordinates": [ -0.153490339488557, 51.130471416078301 ] } },
{ "type": "Feature", "properties": { "visible_points": 0, "total_points": 95, "visibility_pct": 0.0 }, "geometry": { "type": "Point", "coordinates": [ -0.15329242245156, 51.130468291930697 ] } },
{ "type": "Feature", "properties": { "visible_points": 0, "total_points": 94, "visibility_pct": 0.0 }, "geometry": { "type": "Point", "coordinates": [ -0.153094505449754, 51.130465167448349 ] } },
{ "type": "Feature", "properties": { "visible_points": 0, "total_points": 94, "visibility_pct": 0.0 }, "geometry": { "type": "Point", "coordinates": [ -0.152896588483141, 51.130462042631258 ] } },
{ "type": "Feature", "properties": { "visible_points": 0, "total_points": 94, "visibility_pct": 0.0 }, "geometry": { "type": "Point", "coordinates": [ -0.152698671551729, 51.13045891747943 ] } },
{ "type": "Feature", "properties": { "visible_points": 0, "total_points": 91, "visibility_pct": 0.0 }, "geometry": { "type": "Point", "coordinates": [ -0.15250075465552, 51.130455791992873 ] } },
{ "type": "Feature", "properties": { "visible_points": 0, "total_points": 83, "visibility_pct": 0.0 }, "geometry": { "type": "Point", "coordinates": [ -0.152302837794515, 51.130452666171578 ] } },
{ "type": "Feature", "properties": { "visible_points": 0, "total_points": 74, "visibility_pct": 0.0 }, "geometry": { "type": "Point", "coordinates": [ -0.152104920968718, 51.130449540015555 ] } },
{ "type": "Feature", "properties": { "visible_points": 0, "total_points": 64, "visibility_pct": 0.0 }, "geometry": { "type": "Point", "coordinates": [ -0.151907004178138, 51.13044641352478 ] } },
{ "type": "Feature", "properties": { "visible_points": 5, "total_points": 55, "visibility_pct": 9.0909090909090917 }, "geometry": { "type": "Point", "coordinates": [ -0.151709087422774, 51.130443286699283 ] } },
{ "type": "Feature", "properties": { "visible_points": 0, "total_points": 56, "visibility_pct": 0.0 }, "geometry": { "type": "Point", "coordinates": [ -0.154376666431811, 51.130593319573727 ] } },
{ "type": "Feature", "properties": { "visible_points": 0, "total_points": 65, "visibility_pct": 0.0 }, "geometry": { "type": "Point", "coordinates": [ -0.154178748780421, 51.130590196918945 ] } },
{ "type": "Feature", "properties": { "visible_points": 1, "total_points": 74, "visibility_pct": 1.3513513513513513 }, "geometry": { "type": "Point", "coordinates": [ -0.153980831164207, 51.130587073929405 ] } },
{ "type": "Feature", "properties": { "visible_points": 1, "total_points": 81, "visibility_pct": 1.2345679012345678 }, "geometry": { "type": "Point", "coordinates": [ -0.153782913583171, 51.130583950605157 ] } },
{ "type": "Feature", "properties": { "visible_points": 0, "total_points": 86, "visibility_pct": 0.0 }, "geometry": { "type": "Point", "coordinates": [ -0.153584996037313, 51.130580826946151 ] } },
{ "type": "Feature", "properties": { "visible_points": 0, "total_points": 85, "visibility_pct": 0.0 }, "geometry": { "type": "Point", "coordinates": [ -0.153387078526646, 51.130577702952415 ] } },
{ "type": "Feature", "properties": { "visible_points": 0, "total_points": 84, "visibility_pct": 0.0 }, "geometry": { "type": "Point", "coordinates": [ -0.153189161051167, 51.130574578623929 ] } },
{ "type": "Feature", "properties": { "visible_points": 0, "total_points": 84, "visibility_pct": 0.0 }, "geometry": { "type": "Point", "coordinates": [ -0.152991243610878, 51.130571453960727 ] } },
{ "type": "Feature", "properties": { "visible_points": 1, "total_points": 84, "visibility_pct": 1.1904761904761905 }, "geometry": { "type": "Point", "coordinates": [ -0.152793326205787, 51.130568328962759 ] } },
{ "type": "Feature", "properties": { "visible_points": 0, "total_points": 82, "visibility_pct": 0.0 }, "geometry": { "type": "Point", "coordinates": [ -0.1525954088359, 51.13056520363007 ] } },
{ "type": "Feature", "properties": { "visible_points": 0, "total_points": 78, "visibility_pct": 0.0 }, "geometry": { "type": "Point", "coordinates": [ -0.152397491501218, 51.130562077962651 ] } },
{ "type": "Feature", "properties": { "visible_points": 0, "total_points": 62, "visibility_pct": 0.0 }, "geometry": { "type": "Point", "coordinates": [ -0.152001656937477, 51.13055582562356 ] } },
{ "type": "Feature", "properties": { "visible_points": 4, "total_points": 53, "visibility_pct": 7.5471698113207548 }, "geometry": { "type": "Point", "coordinates": [ -0.151803739708426, 51.130552698951931 ] } },
{ "type": "Feature", "properties": { "visible_points": 4, "total_points": 54, "visibility_pct": 7.4074074074074066 }, "geometry": { "type": "Point", "coordinates": [ -0.154273407188672, 51.130699607252652 ] } },
{ "type": "Feature", "properties": { "visible_points": 0, "total_points": 62, "visibility_pct": 0.0 }, "geometry": { "type": "Point", "coordinates": [ -0.154075489098782, 51.130696484417008 ] } }
]
}
