{
"type": "FeatureCollection",
"name": "DARTF_18_cycling",
"crs": { "type": "name", "properties": { "name": "urn:ogc:def:crs:OGC:1.3:CRS84" } },
"features": [
{"type":"Feature","properties":{"highway":"path","name":null,"category":"Shared path"},"geometry":{"type":"MultiLineString","coordinates":[[[0.3004829,51.4469989],[0.3004608,51.4470254],[0.3004321,51.4470233],[0.3004144,51.4470232],[0.3003989,51.4470238],[0.3003308,51.4470298],[0.3002724,51.4470353],[0.3002405,51.4470384],[0.3002158,51.4470401],[0.3001208,51.4470483],[0.3000528,51.4470557],[0.2999384,51.4470719],[0.2999332,51.4470726],[0.2981524,51.4474172],[0.2975687,51.4475884],[0.296357,51.4479218],[0.2959711,51.4480438],[0.2958622,51.4480516],[0.2958037,51.4480549],[0.2957682,51.448058],[0.2957365,51.4480615],[0.2956829,51.4480683],[0.2955899,51.4480809],[0.2954354,51.4481038],[0.2954004,51.44811],[0.2953481,51.4481185],[0.2952041,51.4481444],[0.2951044,51.4481616],[0.2950676,51.4481687],[0.2950449,51.4481735],[0.2950169,51.4481809],[0.2949886,51.4481909],[0.2949708,51.4481987],[0.2949455,51.4482118],[0.2949243,51.4482249],[0.2947723,51.4483377],[0.2939271,51.4488175],[0.2935775,51.4490515],[0.293544,51.4490748]]]}},
{"type":"Feature","properties":{"highway":"cycleway","name":null,"category":"Dedicated cycleway"},"geometry":{"type":"MultiLineString","coordinates":[[[0.3171834,51.4469342],[0.3171695,51.4469304],[0.3171584,51.4469281],[0.31715,51.4469269],[0.3171399,51.4469261],[0.3171327,51.4469259],[0.3171227,51.4469262],[0.3171082,51.4469268],[0.3170574,51.4469296],[0.3170215,51.4469314],[0.317006,51.4469312],[0.3169959,51.4469307],[0.3169888,51.44693],[0.3169833,51.4469292],[0.3169723,51.4469269],[0.3169565,51.4469228],[0.3169277,51.446914],[0.3169074,51.4469074],[0.3168949,51.4469024],[0.3168525,51.4468829],[0.3167594,51.4468386],[0.3165928,51.446757],[0.3165,51.4467126],[0.3163801,51.4466552],[0.3162805,51.4466049],[0.3160804,51.4465038],[0.3159776,51.4464545],[0.3158654,51.4463987],[0.3156827,51.4463133],[0.3155118,51.4462344],[0.315206,51.446093],[0.3151145,51.4460509],[0.3150112,51.4460049],[0.3149682,51.4459863],[0.3149471,51.4459779],[0.3149324,51.4459728],[0.3149127,51.4459678],[0.3148976,51.4459643],[0.3148719,51.4459589],[0.3148545,51.4459546],[0.3148379,51.4459498],[0.3148248,51.4459455],[0.3148089,51.4459396],[0.314785,51.4459301],[0.3147017,51.4458943],[0.3145437,51.4458286],[0.3143777,51.4457576],[0.3142296,51.4456954],[0.3140068,51.4455972],[0.3138718,51.4455389],[0.313717,51.445473],[0.3135057,51.4453818],[0.3133038,51.4452941],[0.3130719,51.445194],[0.3128168,51.4450825],[0.312727,51.4450437],[0.3125955,51.444986],[0.3125292,51.4449555],[0.3125117,51.4449338]]]}},
{"type":"Feature","properties":{"highway":"cycleway","name":null,"category":"Dedicated cycleway"},"geometry":{"type":"MultiLineString","coordinates":[[[0.3045904,51.4485047],[0.3046218,51.4484906],[0.3046454,51.4484804],[0.3046767,51.4484713],[0.3047016,51.4484664],[0.3047326,51.4484626],[0.3047712,51.448459],[0.3048329,51.4484564],[0.3049624,51.44845],[0.3049857,51.4484481],[0.3050119,51.4484451],[0.3050309,51.4484413],[0.3051574,51.4484154],[0.3052089,51.4484062],[0.3052753,51.4483955],[0.3053173,51.44839],[0.3053449,51.4483876],[0.3053646,51.4483877],[0.3053898,51.4483892],[0.305421,51.4483937],[0.3054925,51.4484061],[0.3055364,51.4484128],[0.3055682,51.4484159],[0.3056184,51.4484193],[0.3056499,51.4484194],[0.3056837,51.4484184],[0.3057031,51.4484168],[0.305731,51.4484133],[0.3057613,51.4484078],[0.3057826,51.4484035],[0.3058063,51.4483985],[0.3058255,51.4483937],[0.3058583,51.4483846],[0.3058772,51.4483781],[0.3059011,51.4483686],[0.3059374,51.4483514],[0.3059818,51.4483296],[0.3060161,51.4483106],[0.3061424,51.4481908]]]}},
{"type":"Feature","properties":{"highway":"track","name":null,"category":"Track"},"geometry":{"type":"MultiLineString","coordinates":[[[0.3006109,51.4499042],[0.2995605,51.4496141]]]}},
{"type":"Feature","properties":{"highway":"track","name":null,"category":"Track"},"geometry":{"type":"MultiLineString","coordinates":[[[0.3061099,51.4506635],[0.3060389,51.4505215],[0.3060107,51.4504708]]]}},
{"type":"Feature","properties":{"highway":"track","name":null,"category":"Track"},"geometry":{"type":"MultiLineString","coordinates":[[[0.3043241,51.4509664],[0.3043348,51.4506455]]]}},
{"type":"Feature","properties":{"highway":"track","name":null,"category":"Track"},"geometry":{"type":"MultiLineString","coordinates":[[[0.2975542,51.4510734],[0.2975573,51.4510674],[0.2976549,51.4508789],[0.2976615,51.4508661]]]}},
{"type":"Feature","properties":{"highway":"track","name":null,"category":"Track"},"geometry":{"type":"MultiLineString","coordinates":[[[0.3077573,51.4514946],[0.307532,51.451421]]]}},
{"type":"Feature","properties":{"highway":"path","name":null,"category":"Shared path"},"geometry":{"type":"MultiLineString","coordinates":[[[0.300035,51.4469072],[0.2999971,51.4468871],[0.2999838,51.4468803],[0.2999681,51.4468715],[0.2999516,51.446861],[0.2999281,51.4468421],[0.2999129,51.4468252],[0.2999053,51.4468133],[0.2999003,51.446801],[0.2998972,51.4467876],[0.2998954,51.4467739],[0.2998934,51.4467306],[0.2998929,51.4467173],[0.2998907,51.4467074],[0.2998849,51.4466937],[0.2998732,51.446676],[0.2998631,51.4466643],[0.2998443,51.4466486],[0.2998231,51.4466338],[0.2998041,51.4466241],[0.299782,51.4466163],[0.2997582,51.4466097],[0.2997287,51.4466033],[0.2996818,51.4465937],[0.299628,51.4465823],[0.2995816,51.4465725],[0.2995364,51.446561],[0.2994908,51.4465492],[0.2994469,51.4465369],[0.2993951,51.4465212],[0.2993517,51.4465054],[0.2993136,51.4464899],[0.299272,51.4464732],[0.2992378,51.4464588],[0.2992055,51.4464421],[0.2991672,51.4464206],[0.2991375,51.4464025],[0.2991078,51.4463835],[0.2990805,51.4463652],[0.2990507,51.4463442],[0.2990218,51.4463212],[0.2989834,51.4462902],[0.2989479,51.4462612],[0.2989249,51.4462421],[0.2989081,51.4462295],[0.2988856,51.4462133],[0.298807,51.4461779],[0.298674,51.4461295],[0.2985858,51.4460945],[0.2985396,51.4460779],[0.2984911,51.4460625],[0.2984623,51.4460542],[0.2984287,51.446047],[0.2983982,51.4460418],[0.2983778,51.4460392],[0.2983561,51.4460389],[0.2983123,51.4460393],[0.2982765,51.4460411],[0.2982394,51.4460443],[0.2982014,51.4460487],[0.298151,51.4460552],[0.2981177,51.446058],[0.2980791,51.4460605],[0.2980413,51.4460611],[0.2980008,51.4460602],[0.2979407,51.4460544],[0.2979031,51.4460489],[0.2978772,51.4460425],[0.2978547,51.446034],[0.2978283,51.4460227],[0.2977951,51.4460073],[0.2977616,51.4459902],[0.2977204,51.4459661],[0.2976865,51.445945],[0.2976583,51.4459245],[0.2976363,51.4459067],[0.2976189,51.4458889],[0.2976078,51.4458748],[0.2975994,51.4458612],[0.2975926,51.4458466],[0.297591,51.4458376],[0.2975907,51.4458291],[0.2975916,51.4458212],[0.2975938,51.4458121],[0.2975969,51.4458021],[0.2975997,51.4457943],[0.2976045,51.4457857],[0.2976145,51.4457712],[0.2976244,51.4457592],[0.2976326,51.4457486]]]}},
{"type":"Feature","properties":{"highway":"path","name":null,"category":"Shared path"},"geometry":{"type":"MultiLineString","coordinates":[[[0.2940684,51.4448899],[0.2940652,51.4448944],[0.2940619,51.4448982],[0.2940509,51.4449076],[0.2940361,51.4449275],[0.2940219,51.4449504],[0.2939993,51.4449936],[0.2939845,51.4450319],[0.2939751,51.4450617],[0.2939613,51.4451167],[0.2939296,51.4451719],[0.2940145,51.4455177],[0.2945935,51.4464935],[0.2948603,51.4465615],[0.2952301,51.446571],[0.2957666,51.4469507],[0.2962668,51.4473125],[0.2967579,51.4474523],[0.2968776,51.4473919]]]}},
{"type":"Feature","properties":{"highway":"path","name":null,"category":"Shared path"},"geometry":{"type":"MultiLineString","coordinates":[[[0.2975994,51.4458612],[0.297618,51.4458586],[0.2976278,51.4458565],[0.2976369,51.4458536],[0.2976448,51.4458501],[0.2976694,51.4458375],[0.2976925,51.4458266],[0.297706,51.4458213],[0.2977176,51.4458181],[0.2977337,51.4458156],[0.2977637,51.4458125],[0.2978501,51.4458039],[0.2979444,51.4457877],[0.2981218,51.4457309],[0.2981722,51.4457165],[0.2983629,51.4457259],[0.2984455,51.4457135],[0.298498,51.4456794],[0.2985173,51.4455058],[0.2985666,51.4454002],[0.298573,51.4452012],[0.2986877,51.4450796],[0.2987959,51.4449781],[0.2988388,51.4446902],[0.2987981,51.444604],[0.2986877,51.4445666],[0.2985966,51.4445572],[0.2984915,51.4446234],[0.29797,51.4446865]]]}},
{"type":"Feature","properties":{"highway":"path","name":null,"category":"Shared path"},"geometry":{"type":"MultiLineString","coordinates":[[[0.2944324,51.4448451],[0.2944478,51.4448488],[0.2944563,51.4448525],[0.2944669,51.4448587],[0.2944773,51.4448676],[0.2944935,51.4448818],[0.2945201,51.4449053],[0.2945451,51.4449268],[0.2945575,51.4449357],[0.2945824,51.4449511],[0.294619,51.4449694],[0.2946394,51.4449819],[0.2946707,51.4450033],[0.2947042,51.4450309],[0.2947227,51.4450478],[0.2947557,51.445079],[0.2947904,51.4451116],[0.2948006,51.4451221],[0.2948118,51.4451336],[0.2948325,51.4451583],[0.2948461,51.4451755],[0.2948553,51.4451838],[0.2948717,51.4451958],[0.2948825,51.4452028],[0.2949035,51.4452182],[0.2949299,51.4452374],[0.2949687,51.4452648],[0.2949971,51.4452838],[0.2950339,51.4453036],[0.2950888,51.4453273],[0.295166,51.4453542],[0.2952657,51.4453848],[0.2954248,51.4454302],[0.295579,51.4454711],[0.2956448,51.4454879],[0.2957087,51.4455031],[0.2957847,51.4455241],[0.2959674,51.4455754],[0.2961236,51.4456186],[0.2962657,51.4456565],[0.2963819,51.4456888],[0.2964618,51.4457118],[0.2965231,51.4457298],[0.2965752,51.4457472],[0.2966293,51.4457688],[0.2967134,51.4458055],[0.2968338,51.4458602],[0.2969503,51.4459155],[0.2970403,51.4459589],[0.2971948,51.4460355],[0.2973528,51.4461182],[0.2974007,51.4461433],[0.2974492,51.4461711],[0.297484,51.4461927],[0.2975296,51.4462218],[0.2975933,51.4462585],[0.2976176,51.4462718],[0.2976278,51.4462781],[0.2976353,51.4462834],[0.2976414,51.4462888],[0.2976472,51.4462962],[0.297698,51.4463079],[0.2977293,51.4463138],[0.2977575,51.4463176],[0.2977796,51.4463203],[0.2978017,51.4463224],[0.2978302,51.4463249],[0.2978545,51.4463261],[0.2978725,51.4463259],[0.2978877,51.4463252],[0.2979091,51.4463231],[0.2979247,51.4463209],[0.2979503,51.4463156],[0.2979858,51.4463075],[0.2980454,51.4462936],[0.2981385,51.4462697],[0.2981986,51.4462557],[0.2982675,51.4462399],[0.2983292,51.446226],[0.2983721,51.4462174],[0.2984202,51.4462094],[0.2984623,51.446204],[0.2985018,51.4461996],[0.2985438,51.4461961],[0.2985938,51.4461932],[0.2986253,51.4461929],[0.2986658,51.4461951],[0.2986923,51.4461976],[0.2987244,51.4462022],[0.2987645,51.4462099],[0.2988223,51.4462225],[0.2988871,51.4462348],[0.2989249,51.4462421]]]}},
{"type":"Feature","properties":{"highway":"path","name":null,"category":"Shared path"},"geometry":{"type":"MultiLineString","coordinates":[[[0.2967579,51.4474523],[0.296746,51.4475922],[0.2963823,51.4476375],[0.2963489,51.4477207],[0.296357,51.4479218]]]}},
{"type":"Feature","properties":{"highway":"path","name":null,"category":"Shared path"},"geometry":{"type":"MultiLineString","coordinates":[[[0.2976326,51.4457486],[0.2978947,51.4455962],[0.2980791,51.4455073],[0.2982163,51.445339],[0.2983642,51.4451814],[0.2983974,51.4450224]]]}},
{"type":"Feature","properties":{"highway":"path","name":null,"category":"Shared path"},"geometry":{"type":"MultiLineString","coordinates":[[[0.29797,51.4446865],[0.2977154,51.4447772],[0.2976335,51.4448679],[0.2971955,51.4452665],[0.2971409,51.4455272],[0.2973713,51.4457729],[0.2975994,51.4458612]]]}},
{"type":"Feature","properties":{"highway":"cycleway","name":null,"category":"Dedicated cycleway"},"geometry":{"type":"MultiLineString","coordinates":[[[0.3124899,51.4449244],[0.3124853,51.4449224],[0.3124461,51.4449054],[0.3123071,51.444867]]]}},
{"type":"Feature","properties":{"highway":"cycleway","name":null,"category":"Dedicated cycleway"},"geometry":{"type":"MultiLineString","coordinates":[[[0.3106426,51.444778],[0.3107029,51.4447837],[0.311065,51.4448035],[0.311081,51.4447826]]]}},
{"type":"Feature","properties":{"highway":"cycleway","name":null,"category":"Dedicated cycleway"},"geometry":{"type":"MultiLineString","coordinates":[[[0.3124899,51.4449244],[0.3123636,51.444935],[0.3123541,51.4449358],[0.3123069,51.4449358]]]}},
{"type":"Feature","properties":{"highway":"cycleway","name":null,"category":"Dedicated cycleway"},"geometry":{"type":"MultiLineString","coordinates":[[[0.3125117,51.4449338],[0.3124899,51.4449244]]]}},
{"type":"Feature","properties":{"highway":"track","name":null,"category":"Track"},"geometry":{"type":"MultiLineString","coordinates":[[[0.2999622,51.4506636],[0.2999701,51.4506642],[0.2999945,51.4506667],[0.3000148,51.4506693],[0.3000392,51.4506737],[0.3000646,51.4506788],[0.3000921,51.4506851],[0.3001195,51.4506921],[0.300146,51.4507003],[0.3001825,51.450713],[0.3003177,51.4507636],[0.3003401,51.4507731],[0.3003604,51.4507826],[0.3003858,51.4507959],[0.3004234,51.4508156],[0.3006043,51.4509137],[0.3006491,51.4509384],[0.3006887,51.4509581],[0.3007314,51.4509764],[0.3007903,51.4509973],[0.30083,51.4510094],[0.3008747,51.4510202],[0.3009286,51.4510297],[0.3010038,51.4510379],[0.3010577,51.4510423],[0.3010963,51.4510436],[0.3011369,51.4510436],[0.3011664,51.4510423],[0.3011969,51.4510398],[0.3012193,51.4510373],[0.3012467,51.4510309],[0.3012752,51.4510214],[0.3012965,51.4510119],[0.3013138,51.4510011],[0.3013951,51.4509435],[0.3014124,51.4509315],[0.3014296,51.450922],[0.301453,51.4509118]]]}},
{"type":"Feature","properties":{"highway":"track","name":null,"category":"Track"},"geometry":{"type":"MultiLineString","coordinates":[[[0.309306,51.4423364],[0.3094113,51.4423369],[0.3095732,51.442338],[0.3097617,51.4423391],[0.3098095,51.4423386],[0.3098277,51.4423381],[0.3098772,51.4423369]]]}},
{"type":"Feature","properties":{"highway":"track","name":null,"category":"Track"},"geometry":{"type":"MultiLineString","coordinates":[[[0.3120121,51.4432569],[0.3121562,51.4432705],[0.3122405,51.4432793],[0.3123256,51.443289],[0.3123766,51.4432956],[0.3124418,51.443304],[0.3124999,51.443312],[0.3126197,51.4433279],[0.3126488,51.4433323],[0.3126672,51.4433358],[0.312772,51.4433563]]]}},
{"type":"Feature","properties":{"highway":"track","name":null,"category":"Track"},"geometry":{"type":"MultiLineString","coordinates":[[[0.3120086,51.4433793],[0.3120192,51.4433448],[0.3120213,51.4433382],[0.312022,51.4433311],[0.3120213,51.4433219],[0.3120121,51.4432569],[0.3120086,51.4432423],[0.312005,51.4432256],[0.3120015,51.4432066],[0.3120001,51.4431924],[0.3120001,51.4431725],[0.3120008,51.4431266],[0.3120022,51.4430802],[0.3120121,51.4429223]]]}},
{"type":"Feature","properties":{"highway":"path","name":null,"category":"Shared path"},"geometry":{"type":"MultiLineString","coordinates":[[[0.3001,51.4468975],[0.3001114,51.4469043],[0.3001185,51.4469132],[0.3001203,51.446923],[0.3001166,51.4469326],[0.3001078,51.4469408],[0.3000951,51.4469467],[0.3000799,51.4469495],[0.3000656,51.4469491],[0.3000523,51.446946],[0.3000482,51.4469439],[0.3000411,51.4469404],[0.3000332,51.446933],[0.3000306,51.4469271],[0.3000294,51.4469244],[0.30003,51.4469155],[0.300035,51.4469072],[0.300044,51.4469002],[0.3000559,51.4468953],[0.3000697,51.446893],[0.3000855,51.4468936],[0.3001,51.4468975]]]}},
{"type":"Feature","properties":{"highway":"path","name":null,"category":"Shared path"},"geometry":{"type":"MultiLineString","coordinates":[[[0.3009879,51.4471599],[0.3009467,51.4471468],[0.3009295,51.4471408],[0.3009215,51.447138],[0.3009051,51.4471317],[0.3008779,51.4471204],[0.3007971,51.4470882],[0.3007603,51.4470734],[0.300728,51.4470598],[0.3007121,51.4470538],[0.3006851,51.447046],[0.3006504,51.4470374],[0.3006157,51.4470292],[0.3005517,51.447017],[0.3005294,51.4470122],[0.3005057,51.4470056],[0.3004829,51.4469989],[0.3004356,51.4469849],[0.3003901,51.4469706],[0.300341,51.4469573],[0.3003004,51.4469481],[0.3002604,51.44694],[0.3002237,51.4469337],[0.3001883,51.4469294],[0.3001532,51.4469255],[0.3001203,51.446923]]]}},
{"type":"Feature","properties":{"highway":"path","name":null,"category":"Shared path"},"geometry":{"type":"MultiLineString","coordinates":[[[0.3000482,51.4469439],[0.2999419,51.4470573],[0.2999402,51.4470601],[0.2999388,51.4470628],[0.2999384,51.4470656],[0.2999384,51.4470719]]]}},
{"type":"Feature","properties":{"highway":"path","name":null,"category":"Shared path"},"geometry":{"type":"MultiLineString","coordinates":[[[0.2977966,51.4470462],[0.2978262,51.4470485],[0.2978632,51.4470492],[0.2978922,51.44705],[0.2979076,51.4470496],[0.2979385,51.4470477],[0.2979749,51.4470458],[0.2980224,51.4470431],[0.2980508,51.4470431],[0.2980872,51.4470435],[0.2981119,51.4470435],[0.2981495,51.4470423],[0.29826,51.4470381],[0.2983097,51.4470349],[0.298475,51.4470247],[0.298734,51.4470065],[0.2990218,51.4469864],[0.2993519,51.4469647],[0.2995979,51.4469445],[0.2997684,51.4469332],[0.2998224,51.4469317],[0.2998596,51.4469325],[0.2998962,51.4469349],[0.2999363,51.446936],[0.299961,51.4469353],[0.29999,51.4469326],[0.3000306,51.4469271]]]}},
{"type":"Feature","properties":{"highway":"path","name":null,"category":"Shared path"},"geometry":{"type":"MultiLineString","coordinates":[[[0.2977675,51.44653],[0.2977864,51.446509],[0.2978002,51.4464956],[0.2978123,51.4464849],[0.2978252,51.4464769],[0.2978398,51.4464677],[0.2978544,51.4464565],[0.2978665,51.4464431],[0.2978854,51.4464173],[0.2979035,51.4463825],[0.2979207,51.4463519],[0.2979241,51.4463455],[0.2979259,51.446339],[0.2979247,51.4463209]]]}},
{"type":"Feature","properties":{"highway":"path","name":null,"category":"Shared path"},"geometry":{"type":"MultiLineString","coordinates":[[[0.2989249,51.4462421],[0.2989812,51.4462535],[0.299104,51.4462766],[0.2992262,51.4462981],[0.299299,51.4463093],[0.2993533,51.4463166],[0.2994067,51.4463224],[0.2994801,51.4463274],[0.2995653,51.4463313],[0.2996875,51.4463359],[0.2998534,51.4463412],[0.2998933,51.4463428],[0.2999618,51.4463455],[0.3000161,51.4463498],[0.300066,51.4463557],[0.3001176,51.4463643],[0.3001675,51.4463755],[0.3002062,51.4463857],[0.3002415,51.4463975],[0.3002725,51.4464093],[0.3002965,51.4464207],[0.3003816,51.4464628]]]}},
{"type":"Feature","properties":{"highway":"path","name":null,"category":"Shared path"},"geometry":{"type":"MultiLineString","coordinates":[[[0.2998933,51.4463428],[0.2998932,51.4463501],[0.2998938,51.4463544],[0.2998956,51.4463582],[0.2999987,51.4464782],[0.3000036,51.4464824],[0.3000123,51.4464859],[0.3000838,51.4465086],[0.3001038,51.4465151],[0.3001082,51.4465159],[0.3001131,51.4465154],[0.300118,51.4465137],[0.3002741,51.4464379],[0.3002803,51.446434],[0.3002965,51.4464207]]]}},
{"type":"Feature","properties":{"highway":"track","name":null,"category":"Track"},"geometry":{"type":"MultiLineString","coordinates":[[[0.3021946,51.4472054],[0.3022385,51.4472193],[0.3022812,51.4472339],[0.3023289,51.4472503],[0.3023828,51.4472687],[0.3024356,51.447282],[0.3024987,51.4472991],[0.3025241,51.4473074],[0.3025647,51.44732],[0.3026938,51.4473568],[0.3030231,51.4474565],[0.3031862,51.4475131],[0.3035491,51.4476368],[0.3039928,51.4477834],[0.3042153,51.4478638],[0.3045626,51.4479848],[0.3048757,51.4480909]]]}},
{"type":"Feature","properties":{"highway":"track","name":null,"category":"Track"},"geometry":{"type":"MultiLineString","coordinates":[[[0.3019403,51.4468419],[0.3019489,51.4468261],[0.3019545,51.4468188],[0.3019631,51.4468084],[0.3020079,51.4467599],[0.3020368,51.4467333],[0.3020815,51.4466924],[0.3021208,51.4466579],[0.3021254,51.4466547],[0.302132,51.4466513],[0.3021462,51.4466443],[0.3021513,51.4466411],[0.3021564,51.4466376],[0.3021873,51.4466076],[0.3021929,51.4466028],[0.3021985,51.4465984]]]}},
{"type":"Feature","properties":{"highway":"cycleway","name":null,"category":"Dedicated cycleway"},"geometry":{"type":"MultiLineString","coordinates":[[[0.2955869,51.4528393],[0.2956197,51.4528302],[0.2962473,51.4526648],[0.2962947,51.4526461],[0.2963667,51.4526196],[0.2965102,51.4525937],[0.297073,51.4524407],[0.2971566,51.4524199],[0.2972625,51.4523798],[0.2974355,51.4523447],[0.2983369,51.4521019],[0.2984425,51.4520748],[0.2984608,51.4520701],[0.298605,51.4520597],[0.2986888,51.4520393],[0.298727,51.45203],[0.2988491,51.4519953],[0.2990308,51.4519452],[0.2991344,51.4519093],[0.2991729,51.4518959],[0.2993553,51.4518608],[0.2994492,51.4518332],[0.2994671,51.4518287],[0.2995417,51.4518014],[0.299586,51.4517826],[0.2996038,51.451773],[0.2996356,51.4517559],[0.2996839,51.4517212]]]}},
{"type":"Feature","properties":{"highway":"path","name":null,"category":"Shared path"},"geometry":{"type":"MultiLineString","coordinates":[[[0.2976472,51.4462962],[0.2976116,51.4462892],[0.2975522,51.4462772]]]}},
{"type":"Feature","properties":{"highway":"path","name":null,"category":"Shared path"},"geometry":{"type":"MultiLineString","coordinates":[[[0.2975994,51.4458612],[0.2975846,51.4458682],[0.2975807,51.4458711],[0.2975773,51.4458749],[0.2975725,51.4458819],[0.2975648,51.4458974],[0.2975596,51.4459065],[0.2975458,51.4459259],[0.2975321,51.4459436],[0.2975265,51.4459497],[0.297514,51.4459618],[0.2974985,51.4459765],[0.2974331,51.4460372],[0.2974077,51.4460629],[0.297378,51.4460962],[0.2973737,51.4461004],[0.2973698,51.4461039],[0.2973655,51.446108],[0.2973528,51.4461182]]]}}
]
}
