{
"type": "FeatureCollection",
"name": "NEWFO_91_walking",
"crs": { "type": "name", "properties": { "name": "urn:ogc:def:crs:OGC:1.3:CRS84" } },
"features": [
{"type":"Feature","properties":{"highway":"footway","name":null,"category":"Footpath (pedestrian only)"},"geometry":{"type":"MultiLineString","coordinates":[[[-1.4529367,50.817566],[-1.4526272,50.8176996],[-1.4525555,50.8177245],[-1.4524875,50.8177393],[-1.4524079,50.8177415],[-1.4519686,50.8176917]]]}},
{"type":"Feature","properties":{"highway":"footway","name":null,"category":"Footpath (pedestrian only)"},"geometry":{"type":"MultiLineString","coordinates":[[[-1.4519686,50.8176917],[-1.4517436,50.817672],[-1.4516583,50.8176188],[-1.4515919,50.8176127],[-1.4515343,50.8175922],[-1.4513974,50.8175692],[-1.4509223,50.8175219],[-1.4508594,50.817685]]]}},
{"type":"Feature","properties":{"highway":"track","name":null,"category":"Track"},"geometry":{"type":"MultiLineString","coordinates":[[[-1.4501612,50.8272135],[-1.4498635,50.8271197],[-1.4497285,50.8270885],[-1.449574,50.827066]]]}},
{"type":"Feature","properties":{"highway":"track","name":null,"category":"Track"},"geometry":{"type":"MultiLineString","coordinates":[[[-1.4498674,50.8275992],[-1.4499282,50.8275194],[-1.4501612,50.8272135]]]}},
{"type":"Feature","properties":{"highway":"footway","name":null,"category":"Footpath (pedestrian only)"},"geometry":{"type":"MultiLineString","coordinates":[[[-1.4524215,50.8213405],[-1.4524696,50.8214359],[-1.4525213,50.8215338]]]}},
{"type":"Feature","properties":{"highway":"footway","name":null,"category":"Footpath (pedestrian only)"},"geometry":{"type":"MultiLineString","coordinates":[[[-1.4532259,50.8216542],[-1.4531498,50.8216704],[-1.4528266,50.8217398],[-1.4526415,50.8217754],[-1.4526143,50.8217299],[-1.4524403,50.8217644],[-1.4524162,50.8217814],[-1.4523827,50.821811],[-1.4523921,50.8218398]]]}},
{"type":"Feature","properties":{"highway":"footway","name":null,"category":"Footpath (pedestrian only)"},"geometry":{"type":"MultiLineString","coordinates":[[[-1.4526514,50.8213973],[-1.4524696,50.8214359],[-1.4522901,50.821474]]]}},
{"type":"Feature","properties":{"highway":"footway","name":null,"category":"Footpath (pedestrian only)"},"geometry":{"type":"MultiLineString","coordinates":[[[-1.4526866,50.8214662],[-1.4527037,50.8214642],[-1.4527209,50.821466],[-1.4527361,50.8214713],[-1.4527475,50.8214797],[-1.4527515,50.8214864],[-1.4527536,50.8214899],[-1.4527539,50.8215009],[-1.4527482,50.8215113],[-1.4527372,50.8215198],[-1.4527209,50.8215258],[-1.4527037,50.8215276],[-1.4526866,50.8215255],[-1.4526716,50.8215199],[-1.4526617,50.8215126],[-1.4526572,50.8215063],[-1.4526549,50.8214953],[-1.4526601,50.8214809],[-1.4526709,50.8214723],[-1.4526866,50.8214662]]]}},
{"type":"Feature","properties":{"highway":"footway","name":null,"category":"Footpath (pedestrian only)"},"geometry":{"type":"MultiLineString","coordinates":[[[-1.4525524,50.8212059],[-1.4526032,50.8213028],[-1.4526514,50.8213973],[-1.4526866,50.8214662]]]}},
{"type":"Feature","properties":{"highway":"footway","name":null,"category":"Footpath (pedestrian only)"},"geometry":{"type":"MultiLineString","coordinates":[[[-1.4526143,50.8217299],[-1.4528032,50.8216924]]]}},
{"type":"Feature","properties":{"highway":"footway","name":null,"category":"Footpath (pedestrian only)"},"geometry":{"type":"MultiLineString","coordinates":[[[-1.4527209,50.8215258],[-1.4527496,50.8215839],[-1.4528032,50.8216924],[-1.4528266,50.8217398]]]}},
{"type":"Feature","properties":{"highway":"footway","name":null,"category":"Footpath (pedestrian only)"},"geometry":{"type":"MultiLineString","coordinates":[[[-1.4531498,50.8216704],[-1.4531176,50.8216051],[-1.4531565,50.8215967],[-1.4531091,50.821504],[-1.4530669,50.8214217],[-1.4529674,50.8212273],[-1.4526032,50.8213028],[-1.4524215,50.8213405],[-1.4522405,50.8213781],[-1.4522901,50.821474],[-1.45234,50.8215705],[-1.4524403,50.8217644]]]}},
{"type":"Feature","properties":{"highway":"footway","name":null,"category":"Footpath (pedestrian only)"},"geometry":{"type":"MultiLineString","coordinates":[[[-1.4529518,50.821539],[-1.4529833,50.8215961]]]}},
{"type":"Feature","properties":{"highway":"footway","name":null,"category":"Footpath (pedestrian only)"},"geometry":{"type":"MultiLineString","coordinates":[[[-1.4526572,50.8215063],[-1.4525213,50.8215338],[-1.45234,50.8215705],[-1.4522115,50.8215942],[-1.4520975,50.8216104]]]}},
{"type":"Feature","properties":{"highway":"footway","name":null,"category":"Footpath (pedestrian only)"},"geometry":{"type":"MultiLineString","coordinates":[[[-1.4530988,50.8214145],[-1.4530669,50.8214217],[-1.4527515,50.8214864]]]}},
{"type":"Feature","properties":{"highway":"footway","name":null,"category":"Footpath (pedestrian only)"},"geometry":{"type":"MultiLineString","coordinates":[[[-1.4531091,50.821504],[-1.4529518,50.821539],[-1.4527496,50.8215839]]]}},
{"type":"Feature","properties":{"highway":"track","name":null,"category":"Track"},"geometry":{"type":"MultiLineString","coordinates":[[[-1.4526654,50.8157587],[-1.4526496,50.8157479],[-1.452612,50.8157309],[-1.4524404,50.815675],[-1.4522714,50.8156682],[-1.45203,50.8156699],[-1.4518262,50.8156462],[-1.4516411,50.8156072],[-1.451517,50.8155741],[-1.4514506,50.8155564],[-1.4511717,50.8154394],[-1.4510349,50.8153225],[-1.4509786,50.8152208],[-1.4509678,50.8150937],[-1.4509437,50.8149632],[-1.4510108,50.8148497],[-1.4511315,50.8147768],[-1.4513133,50.8146773],[-1.451448,50.8146955],[-1.4515794,50.8147395],[-1.4517081,50.8148124],[-1.4518181,50.8149073],[-1.4518905,50.815009],[-1.4519066,50.8151056],[-1.4518422,50.815231],[-1.4517189,50.8154039],[-1.4516116,50.8154716],[-1.451517,50.8155741]]]}},
{"type":"Feature","properties":{"highway":"track","name":null,"category":"Track"},"geometry":{"type":"MultiLineString","coordinates":[[[-1.4497136,50.8174692],[-1.4496521,50.8173806],[-1.4496085,50.8173177],[-1.4495187,50.8172235],[-1.4494549,50.817159],[-1.4494104,50.8170917],[-1.4494107,50.8170189],[-1.4494446,50.8169334],[-1.4494554,50.816861],[-1.4494271,50.8168033],[-1.4493748,50.8167431],[-1.447156,50.8152001],[-1.4471087,50.8151672]]]}},
{"type":"Feature","properties":{"highway":"track","name":null,"category":"Track"},"geometry":{"type":"MultiLineString","coordinates":[[[-1.4529874,50.8294049],[-1.4529069,50.8293947],[-1.4514934,50.8290948],[-1.451437,50.8290762],[-1.4513834,50.8290508],[-1.4513501,50.8290282]]]}},
{"type":"Feature","properties":{"highway":"track","name":null,"category":"Track"},"geometry":{"type":"MultiLineString","coordinates":[[[-1.4534003,50.8277831],[-1.4533833,50.8277975],[-1.4533383,50.8278115],[-1.4532816,50.8278134],[-1.4531858,50.8278005],[-1.4526868,50.8276806],[-1.4522054,50.8275645],[-1.4521117,50.8275497],[-1.4520647,50.8275489],[-1.452023,50.8275544],[-1.451976,50.8275637],[-1.4519345,50.8275857],[-1.4518984,50.8276192],[-1.4518676,50.8276658],[-1.4517883,50.8278983],[-1.451736,50.8280279],[-1.4514074,50.8288733],[-1.4513501,50.8290282],[-1.4512317,50.8293485],[-1.450894,50.8301943],[-1.4506512,50.8308161],[-1.4505102,50.8311528],[-1.4504688,50.8312269],[-1.4504286,50.8312777],[-1.450375,50.8313353],[-1.4503307,50.8313853],[-1.4501763,50.8316043],[-1.4501052,50.831689],[-1.4500515,50.831744],[-1.4499563,50.8318143],[-1.4499067,50.8318431],[-1.4498718,50.8318643],[-1.4498236,50.8318931],[-1.4497753,50.831938],[-1.4497096,50.8320108],[-1.449672,50.8320896],[-1.4496479,50.8321929],[-1.449617,50.8322912],[-1.4495768,50.8324843],[-1.4495232,50.8326758],[-1.4494896,50.8327952],[-1.4494293,50.8329231],[-1.4492898,50.8332517],[-1.4492268,50.8334974],[-1.4492013,50.8336541],[-1.4491865,50.8337506],[-1.4491611,50.8338412],[-1.4490886,50.8341089],[-1.4490685,50.8342038],[-1.4490444,50.8343359],[-1.4490269,50.8344604],[-1.4490256,50.8345129],[-1.449035,50.8345968],[-1.4490497,50.8346688],[-1.4490538,50.834728],[-1.4490497,50.8347882],[-1.4490417,50.8349398],[-1.4490551,50.8350287],[-1.4490967,50.8352362],[-1.4491329,50.8354056],[-1.4491664,50.8355115],[-1.4492603,50.8357588],[-1.4492992,50.8358621],[-1.4493193,50.8359375],[-1.4493206,50.8359943],[-1.449326,50.8360375],[-1.4493475,50.8360934],[-1.4493823,50.8361493],[-1.4494454,50.8362594],[-1.4494829,50.8363263]]]}},
{"type":"Feature","properties":{"highway":"track","name":null,"category":"Track"},"geometry":{"type":"MultiLineString","coordinates":[[[-1.4427218,50.8366326],[-1.4427653,50.8365931],[-1.445119,50.8335939],[-1.4451557,50.8335471],[-1.4451692,50.8335302],[-1.4472386,50.8309339],[-1.4483701,50.8295143],[-1.4492359,50.828428],[-1.4498674,50.8275992]]]}},
{"type":"Feature","properties":{"highway":"track","name":null,"category":"Track"},"geometry":{"type":"MultiLineString","coordinates":[[[-1.4521289,50.8323404],[-1.4522872,50.832137],[-1.4525502,50.831841],[-1.4525849,50.8317864],[-1.4525904,50.8317444],[-1.4525797,50.8317038],[-1.4525421,50.831653],[-1.4525099,50.8316089],[-1.4524991,50.8315492],[-1.4525019,50.8315073],[-1.4525205,50.8314611],[-1.4525555,50.831431],[-1.452609,50.8313984],[-1.4526709,50.8313785],[-1.4527431,50.8313696],[-1.4528103,50.83137],[-1.4528853,50.8313662],[-1.4529524,50.8313544],[-1.4530087,50.8313307],[-1.453057,50.8312883],[-1.4530839,50.8312413],[-1.4531188,50.8311566],[-1.4531401,50.8310444],[-1.4531483,50.8309821],[-1.4531349,50.8309092],[-1.453092,50.8308178],[-1.4530517,50.8307568],[-1.452813,50.8304535],[-1.45277,50.8303904],[-1.4527352,50.830318],[-1.452711,50.8302515],[-1.4526815,50.8301075],[-1.4526761,50.8300363],[-1.4526815,50.8299855],[-1.4526977,50.8299385],[-1.4528638,50.8296743],[-1.4529143,50.829602],[-1.452951,50.8295335],[-1.4529874,50.8294049],[-1.453006,50.8292994],[-1.4530303,50.8291575],[-1.4530436,50.8290317],[-1.4530625,50.8289068],[-1.4531912,50.8283917],[-1.45332,50.8279173],[-1.4533414,50.8278597],[-1.4533833,50.8277975]]]}},
{"type":"Feature","properties":{"highway":"track","name":null,"category":"Track"},"geometry":{"type":"MultiLineString","coordinates":[[[-1.452576,50.8167215],[-1.452356,50.8167333],[-1.4523212,50.8167282],[-1.452293,50.8167198],[-1.4522689,50.8166926],[-1.452261,50.8166669],[-1.4522503,50.8166415],[-1.4522248,50.8166194],[-1.4521886,50.8166059],[-1.4521428,50.8165927],[-1.4521236,50.8165896]]]}},
{"type":"Feature","properties":{"highway":"track","name":null,"category":"Track"},"geometry":{"type":"MultiLineString","coordinates":[[[-1.4538604,50.8179733],[-1.4540147,50.8180712],[-1.4540521,50.8181012],[-1.4540743,50.8181234]]]}},
{"type":"Feature","properties":{"highway":"track","name":null,"category":"Track"},"geometry":{"type":"MultiLineString","coordinates":[[[-1.4508594,50.817685],[-1.450731,50.8176887],[-1.4498527,50.8177393],[-1.4497901,50.817745]]]}},
{"type":"Feature","properties":{"highway":"track","name":null,"category":"Track"},"geometry":{"type":"MultiLineString","coordinates":[[[-1.4537544,50.8178572],[-1.4538536,50.817814],[-1.4538925,50.8178063],[-1.4539408,50.817808],[-1.4540025,50.8178199],[-1.4540494,50.8178385],[-1.4540965,50.8178645],[-1.4541314,50.8179026],[-1.4541435,50.8179416],[-1.4541299,50.8180012],[-1.4540977,50.8180817],[-1.4540743,50.8181234],[-1.4540535,50.8181605],[-1.4540079,50.8182164],[-1.4539807,50.818254],[-1.4539517,50.8182863]]]}},
{"type":"Feature","properties":{"highway":"footway","name":null,"category":"Footpath (pedestrian only)"},"geometry":{"type":"MultiLineString","coordinates":[[[-1.4498235,50.817484],[-1.4497136,50.8174692]]]}},
{"type":"Feature","properties":{"highway":"path","name":null,"category":"Shared path"},"geometry":{"type":"MultiLineString","coordinates":[[[-1.4529205,50.8166206],[-1.4529577,50.816693],[-1.4530005,50.8167692]]]}},
{"type":"Feature","properties":{"highway":"path","name":null,"category":"Shared path"},"geometry":{"type":"MultiLineString","coordinates":[[[-1.4530895,50.8169155],[-1.4530376,50.8168155]]]}},
{"type":"Feature","properties":{"highway":"path","name":null,"category":"Shared path"},"geometry":{"type":"MultiLineString","coordinates":[[[-1.4525877,50.8166196],[-1.4526064,50.8166845],[-1.4526198,50.8167065],[-1.4526442,50.8167206],[-1.4526818,50.8167257],[-1.4527649,50.8168731],[-1.4528508,50.81699],[-1.4528746,50.8170014],[-1.4528964,50.8170002],[-1.4530895,50.8169155],[-1.4532692,50.8167901],[-1.4532034,50.8167268],[-1.4531201,50.8166467],[-1.4530895,50.8166172],[-1.4529205,50.8166206],[-1.4525877,50.8166196],[-1.452376,50.8166189],[-1.4523143,50.8166155],[-1.4522685,50.8166066],[-1.4522058,50.8165871],[-1.4521277,50.816554]]]}},
{"type":"Feature","properties":{"highway":"path","name":null,"category":"Shared path"},"geometry":{"type":"MultiLineString","coordinates":[[[-1.4530376,50.8168155],[-1.4530546,50.8168019],[-1.4530519,50.8167867],[-1.4530458,50.8167804],[-1.4530383,50.8167726],[-1.4530171,50.8167681],[-1.4530005,50.8167692],[-1.4529895,50.8167728],[-1.4529732,50.8167895],[-1.4529819,50.8168065],[-1.4530094,50.8168186],[-1.4530376,50.8168155]]]}},
{"type":"Feature","properties":{"highway":"path","name":null,"category":"Shared path"},"geometry":{"type":"MultiLineString","coordinates":[[[-1.4531201,50.8166467],[-1.4529577,50.816693],[-1.4526818,50.8167257]]]}},
{"type":"Feature","properties":{"highway":"path","name":null,"category":"Shared path"},"geometry":{"type":"MultiLineString","coordinates":[[[-1.4527649,50.8168731],[-1.4529819,50.8168065]]]}},
{"type":"Feature","properties":{"highway":"path","name":null,"category":"Shared path"},"geometry":{"type":"MultiLineString","coordinates":[[[-1.4532034,50.8167268],[-1.4530458,50.8167804]]]}},
{"type":"Feature","properties":{"highway":"track","name":null,"category":"Track"},"geometry":{"type":"MultiLineString","coordinates":[[[-1.4504504,50.8170194],[-1.45041,50.817079],[-1.450363,50.8171146],[-1.4503082,50.817138],[-1.4502598,50.8171476],[-1.4501875,50.8171448],[-1.4501326,50.8171456],[-1.450095,50.8171566],[-1.4500534,50.8171829],[-1.4499408,50.8172897],[-1.4498992,50.8173168],[-1.449836,50.8173434],[-1.4497718,50.8173617],[-1.4497007,50.8173752],[-1.4496701,50.8173798],[-1.4496521,50.8173806]]]}},
{"type":"Feature","properties":{"highway":"footway","name":null,"category":"Footpath (pedestrian only)"},"geometry":{"type":"MultiLineString","coordinates":[[[-1.4580072,50.8245248],[-1.4581748,50.8244999],[-1.4583331,50.8244779],[-1.4584565,50.8244592],[-1.4585262,50.8244406],[-1.4586119,50.824408],[-1.4586736,50.8243673],[-1.4587139,50.8243169],[-1.4587247,50.824261],[-1.4587139,50.8242],[-1.458663,50.8240983],[-1.4585396,50.8238747],[-1.4583919,50.8235879],[-1.4582392,50.8232545],[-1.4582124,50.8231309],[-1.4581668,50.822975],[-1.4581373,50.8229224],[-1.4580863,50.8228394],[-1.4580191,50.8227356],[-1.4579468,50.8226615],[-1.4579039,50.8225836],[-1.4578421,50.8224696],[-1.4578019,50.8223968],[-1.4577563,50.8223205],[-1.4576999,50.8222544],[-1.4576087,50.8221985],[-1.4574129,50.822107],[-1.4572761,50.8220613],[-1.4570991,50.8220003],[-1.4568389,50.8219121],[-1.4565895,50.8218325],[-1.4563991,50.8217427],[-1.456222,50.8216427],[-1.4560772,50.8215309],[-1.4559753,50.8214157],[-1.4558975,50.8212666],[-1.4558546,50.8211361],[-1.4558412,50.8210581],[-1.4558438,50.8210056],[-1.4558599,50.8209616],[-1.4558923,50.8209078],[-1.455911,50.8208535],[-1.455911,50.820801],[-1.4558923,50.8207231],[-1.4558654,50.8206095],[-1.4558467,50.8205672],[-1.4558118,50.820474],[-1.455667,50.8200808],[-1.455506,50.8196589],[-1.455506,50.8196284],[-1.455498,50.819603],[-1.4554792,50.8195217],[-1.4554417,50.8193793],[-1.4554148,50.8192878],[-1.4553941,50.8192354],[-1.4553798,50.8191993],[-1.4553344,50.819115],[-1.4552914,50.8190404],[-1.4552378,50.8189828],[-1.4551568,50.8189007],[-1.4550177,50.8188316],[-1.4543579,50.8184994],[-1.4542721,50.8184571],[-1.4542157,50.8184181],[-1.4541728,50.8183791],[-1.4541348,50.8183195]]]}},
{"type":"Feature","properties":{"highway":"track","name":null,"category":"Track"},"geometry":{"type":"MultiLineString","coordinates":[[[-1.4521136,50.8241261],[-1.4519649,50.8240454],[-1.4518035,50.8239823],[-1.4516371,50.8239599],[-1.4513965,50.8239398],[-1.4511876,50.8239577],[-1.4509965,50.8240225],[-1.4499918,50.8244623],[-1.4492437,50.8247898],[-1.4478042,50.8254198]]]}},
{"type":"Feature","properties":{"highway":"path","name":"Mill Pond Walk","category":"Shared path"},"geometry":{"type":"MultiLineString","coordinates":[[[-1.4535863,50.8241303],[-1.4538037,50.8240246],[-1.4548283,50.8236417],[-1.4551395,50.823479],[-1.455354,50.8233062],[-1.4555676,50.8230563],[-1.4554903,50.822939],[-1.4552582,50.8228022],[-1.4545465,50.8222647],[-1.4539174,50.8217597],[-1.4535461,50.8214176],[-1.4532418,50.8210527]]]}},
{"type":"Feature","properties":{"highway":"footway","name":null,"category":"Footpath (pedestrian only)"},"geometry":{"type":"MultiLineString","coordinates":[[[-1.4511657,50.8218007],[-1.4514416,50.8217423],[-1.4517838,50.8216699]]]}},
{"type":"Feature","properties":{"highway":"footway","name":null,"category":"Footpath (pedestrian only)"},"geometry":{"type":"MultiLineString","coordinates":[[[-1.4522022,50.8218147],[-1.4518982,50.8218798],[-1.4515572,50.8219528],[-1.4515002,50.8218491],[-1.4514416,50.8217423],[-1.4513788,50.8216368],[-1.4517315,50.8215648],[-1.4517838,50.8216699],[-1.4518415,50.8217783],[-1.4518982,50.8218798]]]}},
{"type":"Feature","properties":{"highway":"footway","name":null,"category":"Footpath (pedestrian only)"},"geometry":{"type":"MultiLineString","coordinates":[[[-1.4515002,50.8218491],[-1.4518415,50.8217783],[-1.4521513,50.8217131]]]}},
{"type":"Feature","properties":{"highway":"footway","name":null,"category":"Footpath (pedestrian only)"},"geometry":{"type":"MultiLineString","coordinates":[[[-1.4522022,50.8218147],[-1.4521513,50.8217131],[-1.4520975,50.8216104],[-1.4517838,50.8216699]]]}},
{"type":"Feature","properties":{"highway":"footway","name":null,"category":"Footpath (pedestrian only)"},"geometry":{"type":"MultiLineString","coordinates":[[[-1.4520975,50.8216104],[-1.4520346,50.8215013],[-1.4517315,50.8215648]]]}},
{"type":"Feature","properties":{"highway":"path","name":null,"category":"Shared path"},"geometry":{"type":"MultiLineString","coordinates":[[[-1.4555105,50.8242512],[-1.4553921,50.8242487],[-1.4552749,50.8242611],[-1.4551382,50.8242792],[-1.4550067,50.8243153],[-1.4547828,50.8243778],[-1.4546318,50.8244222],[-1.4545905,50.8244359],[-1.4544873,50.8244699]]]}},
{"type":"Feature","properties":{"highway":"track","name":null,"category":"Track"},"geometry":{"type":"MultiLineString","coordinates":[[[-1.4511876,50.8239577],[-1.4510567,50.8238951],[-1.4509293,50.8237475],[-1.4504479,50.8231484]]]}},
{"type":"Feature","properties":{"highway":"track","name":null,"category":"Track"},"geometry":{"type":"MultiLineString","coordinates":[[[-1.4499918,50.8244623],[-1.4492588,50.8236425]]]}},
{"type":"Feature","properties":{"highway":"track","name":null,"category":"Track"},"geometry":{"type":"MultiLineString","coordinates":[[[-1.4492437,50.8247898],[-1.4485085,50.8239398],[-1.4484377,50.8238638],[-1.448335,50.8231372],[-1.448289,50.8230276],[-1.4482147,50.8229762],[-1.4478891,50.8228823],[-1.4471757,50.8227668],[-1.4466185,50.8226766],[-1.4461584,50.8226051],[-1.4460452,50.8225648],[-1.4445977,50.8215945],[-1.444534,50.8215475],[-1.4444172,50.821505],[-1.444134,50.8214804],[-1.4439464,50.8214335],[-1.4437341,50.8213441],[-1.4435961,50.8212703],[-1.4434789,50.8211884],[-1.4433381,50.82109]]]}},
{"type":"Feature","properties":{"highway":"track","name":null,"category":"Track"},"geometry":{"type":"MultiLineString","coordinates":[[[-1.4444172,50.821505],[-1.4446684,50.8214916],[-1.4465194,50.8214715],[-1.4466433,50.8214894],[-1.4467566,50.8215162],[-1.446838,50.8215878],[-1.4471757,50.8227668]]]}},
{"type":"Feature","properties":{"highway":"track","name":null,"category":"Track"},"geometry":{"type":"MultiLineString","coordinates":[[[-1.4485085,50.8239398],[-1.4488303,50.8238218],[-1.4492588,50.8236425],[-1.4504479,50.8231484],[-1.4506801,50.8230821],[-1.4509118,50.8230411],[-1.4512086,50.8230256],[-1.4513924,50.8230019]]]}},
{"type":"Feature","properties":{"highway":"track","name":null,"category":"Track"},"geometry":{"type":"MultiLineString","coordinates":[[[-1.4553941,50.8192354],[-1.4554304,50.8192118],[-1.4554958,50.8191807],[-1.4567106,50.8185962],[-1.4579498,50.8178844]]]}},
{"type":"Feature","properties":{"highway":"track","name":null,"category":"Track"},"geometry":{"type":"MultiLineString","coordinates":[[[-1.4579498,50.8178844],[-1.4586096,50.817593],[-1.4602027,50.81697],[-1.4601289,50.816829],[-1.4602,50.8167163],[-1.4598354,50.8165152],[-1.4591717,50.8161266],[-1.4585492,50.815245],[-1.458255,50.8148896]]]}},
{"type":"Feature","properties":{"highway":"path","name":null,"category":"Shared path"},"geometry":{"type":"MultiLineString","coordinates":[[[-1.4532418,50.8210527],[-1.453222,50.8209171],[-1.4532104,50.8208114],[-1.4532162,50.820722],[-1.4532653,50.82064],[-1.4533461,50.8205469],[-1.4535106,50.8204375],[-1.4536694,50.8203044],[-1.4537214,50.8202333],[-1.4537416,50.8201621],[-1.4537185,50.8200199],[-1.4536232,50.8199433],[-1.4535222,50.8198977],[-1.4534154,50.8198375],[-1.4532797,50.8197701],[-1.4531844,50.8196989],[-1.4531007,50.819646],[-1.4530459,50.8196132],[-1.4529968,50.8195585],[-1.4527659,50.8195366],[-1.4526071,50.8195257],[-1.4524714,50.8195603],[-1.4522722,50.8195549],[-1.4520875,50.8195512],[-1.4519345,50.8195658],[-1.4518565,50.8195822],[-1.451668,50.8197369]]]}},
{"type":"Feature","properties":{"highway":"path","name":null,"category":"Shared path"},"geometry":{"type":"MultiLineString","coordinates":[[[-1.4532104,50.8208114],[-1.4530634,50.820743],[-1.4529764,50.820688],[-1.4528304,50.820637],[-1.4520871,50.8204384]]]}},
{"type":"Feature","properties":{"highway":"path","name":null,"category":"Shared path"},"geometry":{"type":"MultiLineString","coordinates":[[[-1.4520057,50.8200651],[-1.4517552,50.8201208]]]}},
{"type":"Feature","properties":{"highway":"track","name":null,"category":"Track"},"geometry":{"type":"MultiLineString","coordinates":[[[-1.4518569,50.8267534],[-1.4518585,50.8267927],[-1.4518345,50.8268099],[-1.4517835,50.8268099],[-1.4505431,50.8267439]]]}},
{"type":"Feature","properties":{"highway":"track","name":null,"category":"Track"},"geometry":{"type":"MultiLineString","coordinates":[[[-1.4563521,50.8203663],[-1.4561237,50.8203589],[-1.4559902,50.8203581],[-1.4559248,50.8203598],[-1.4558366,50.8203773]]]}},
{"type":"Feature","properties":{"highway":"track","name":null,"category":"Track"},"geometry":{"type":"MultiLineString","coordinates":[[[-1.4568601,50.8158395],[-1.4565331,50.8160045],[-1.4564078,50.8160595],[-1.4560574,50.8161736],[-1.4557133,50.8162943],[-1.4555965,50.8163507],[-1.4554394,50.8164621],[-1.4552525,50.8166378],[-1.4547598,50.8170981],[-1.4545007,50.8174308],[-1.4544603,50.8174791],[-1.4544309,50.8175104],[-1.4543924,50.8175408],[-1.4543478,50.8175663],[-1.4543037,50.8175849]]]}},
{"type":"Feature","properties":{"highway":"footway","name":null,"category":"Footpath (pedestrian only)"},"geometry":{"type":"MultiLineString","coordinates":[[[-1.4469573,50.8202506],[-1.4469391,50.820169],[-1.4463517,50.8198911],[-1.4460191,50.8196929],[-1.4449006,50.8194014],[-1.4447209,50.8194031],[-1.4440499,50.819514]]]}},
{"type":"Feature","properties":{"highway":"footway","name":null,"category":"Footpath (pedestrian only)"},"geometry":{"type":"MultiLineString","coordinates":[[[-1.4563916,50.8249276],[-1.4564488,50.824921],[-1.4564917,50.8249074],[-1.4566406,50.8248422],[-1.4567801,50.824793],[-1.4569543,50.824735],[-1.4571475,50.8246931],[-1.4574855,50.8246168],[-1.4578429,50.8245509]]]}},
{"type":"Feature","properties":{"highway":"footway","name":null,"category":"Footpath (pedestrian only)"},"geometry":{"type":"MultiLineString","coordinates":[[[-1.4578429,50.8245509],[-1.4580072,50.8245248]]]}},
{"type":"Feature","properties":{"highway":"track","name":null,"category":"Track"},"geometry":{"type":"MultiLineString","coordinates":[[[-1.4501612,50.8272135],[-1.4505431,50.8267439],[-1.4513042,50.8258082]]]}},
{"type":"Feature","properties":{"highway":"pedestrian","name":null,"category":"Pedestrian area/street"},"geometry":{"type":"MultiLineString","coordinates":[[[-1.4523813,50.8219075],[-1.4527569,50.8226051],[-1.4532373,50.8234975],[-1.4535863,50.8241303],[-1.4538026,50.8245224]]]}},
{"type":"Feature","properties":{"highway":"pedestrian","name":null,"category":"Pedestrian area/street"},"geometry":{"type":"MultiLineString","coordinates":[[[-1.4513924,50.8230019],[-1.4518395,50.8229032],[-1.452654,50.8227235],[-1.4535245,50.8225155],[-1.4536305,50.8225002],[-1.4537241,50.8224951],[-1.453821,50.822507],[-1.4539808,50.8225732],[-1.4543675,50.8227691],[-1.4544949,50.8228547],[-1.4545237,50.8228797],[-1.4545418,50.8229068],[-1.4545593,50.8229598],[-1.4545613,50.8230072],[-1.454546,50.8230493],[-1.454513,50.8230966],[-1.4544699,50.8231427],[-1.454403,50.823183],[-1.4543269,50.8232149],[-1.4542081,50.8232564],[-1.4532373,50.8234975],[-1.4531239,50.8235207],[-1.4526651,50.8236154],[-1.4521775,50.8237288],[-1.4520336,50.8237797],[-1.4519,50.8238609]]]}},
{"type":"Feature","properties":{"highway":"pedestrian","name":null,"category":"Pedestrian area/street"},"geometry":{"type":"MultiLineString","coordinates":[[[-1.4531239,50.8235207],[-1.4528341,50.8234358],[-1.4527778,50.8234477],[-1.4526651,50.8236154]]]}},
{"type":"Feature","properties":{"highway":"pedestrian","name":null,"category":"Pedestrian area/street"},"geometry":{"type":"MultiLineString","coordinates":[[[-1.4527778,50.8234477],[-1.4528012,50.8234063]]]}},
{"type":"Feature","properties":{"highway":"pedestrian","name":null,"category":"Pedestrian area/street"},"geometry":{"type":"MultiLineString","coordinates":[[[-1.4518897,50.8229918],[-1.4518395,50.8229032]]]}},
{"type":"Feature","properties":{"highway":"pedestrian","name":null,"category":"Pedestrian area/street"},"geometry":{"type":"MultiLineString","coordinates":[[[-1.4527026,50.8228108],[-1.452654,50.8227235]]]}},
{"type":"Feature","properties":{"highway":"pedestrian","name":null,"category":"Pedestrian area/street"},"geometry":{"type":"MultiLineString","coordinates":[[[-1.4518395,50.8229032],[-1.4508531,50.8218136]]]}},
{"type":"Feature","properties":{"highway":"pedestrian","name":null,"category":"Pedestrian area/street"},"geometry":{"type":"MultiLineString","coordinates":[[[-1.4523813,50.8219075],[-1.452244,50.8216575],[-1.4522115,50.8215942],[-1.4520643,50.8213072],[-1.4519611,50.821106],[-1.4517049,50.8206214]]]}},
{"type":"Feature","properties":{"highway":"pedestrian","name":null,"category":"Pedestrian area/street"},"geometry":{"type":"MultiLineString","coordinates":[[[-1.4511736,50.8214784],[-1.4511361,50.8216394],[-1.4511361,50.8217224],[-1.4511657,50.8218007],[-1.451179,50.8218359],[-1.4512916,50.8220003],[-1.451415,50.8221003],[-1.4515545,50.8222104],[-1.4516376,50.8222748],[-1.4517852,50.8223307],[-1.4519863,50.8223866],[-1.4523994,50.8224832],[-1.4525845,50.8225442],[-1.4527569,50.8226051]]]}},
{"type":"Feature","properties":{"highway":"pedestrian","name":null,"category":"Pedestrian area/street"},"geometry":{"type":"MultiLineString","coordinates":[[[-1.4511736,50.8214784],[-1.4515223,50.8214089],[-1.4520643,50.8213072],[-1.4524396,50.821231],[-1.4525524,50.8212059],[-1.4532418,50.8210527]]]}},
{"type":"Feature","properties":{"highway":"pedestrian","name":null,"category":"Pedestrian area/street"},"geometry":{"type":"MultiLineString","coordinates":[[[-1.4511736,50.8214784],[-1.4510504,50.8213788]]]}}
]
}
