{
"type": "FeatureCollection",
"name": "REIBA_377_walking",
"crs": { "type": "name", "properties": { "name": "urn:ogc:def:crs:OGC:1.3:CRS84" } },
"features": [
{"type":"Feature","properties":{"highway":"track","name":null,"category":"Track"},"geometry":{"type":"MultiLineString","coordinates":[[[-0.1620492,51.2126475],[-0.1619155,51.2118599],[-0.1619931,51.2113722],[-0.1620706,51.2111949],[-0.1620596,51.2105576],[-0.1620984,51.2100256],[-0.1621482,51.2097817],[-0.1620387,51.2089795],[-0.1620355,51.2089345],[-0.1619654,51.2085626],[-0.1619786,51.2078511],[-0.1618462,51.20684],[-0.1617771,51.2067263],[-0.1616273,51.2066632],[-0.1613918,51.2065953],[-0.1611185,51.2065513]]]}},
{"type":"Feature","properties":{"highway":"footway","name":null,"category":"Footpath (pedestrian only)"},"geometry":{"type":"MultiLineString","coordinates":[[[-0.1597795,51.2240484],[-0.1597637,51.2239997],[-0.1595491,51.2238357],[-0.1593481,51.2236529],[-0.1593079,51.2235588],[-0.1592564,51.2234584],[-0.1591898,51.2234056],[-0.1591249,51.2233821],[-0.1590352,51.2232802],[-0.1589877,51.2231274],[-0.1589892,51.2229863],[-0.1589318,51.2228465],[-0.1588484,51.2227821],[-0.1588148,51.2226961],[-0.1586742,51.2225509],[-0.1585861,51.2224489],[-0.1584768,51.2223413],[-0.1583797,51.2222375],[-0.1582231,51.2221135],[-0.1581115,51.2220167],[-0.1580171,51.2219254],[-0.1579742,51.221834],[-0.1579055,51.2217587],[-0.157589,51.2213122]]]}},
{"type":"Feature","properties":{"highway":"track","name":null,"category":"Track"},"geometry":{"type":"MultiLineString","coordinates":[[[-0.156078,51.2085767],[-0.156081,51.2085256],[-0.1561905,51.2081588],[-0.1562477,51.2079854],[-0.1562686,51.2079602],[-0.1575137,51.2072482],[-0.1576057,51.2072222],[-0.1581624,51.2071342],[-0.1582798,51.2070948],[-0.1585162,51.206972],[-0.1585984,51.2070675],[-0.15864,51.2070715],[-0.1590451,51.2069456],[-0.1591964,51.2069475],[-0.1593195,51.2069935],[-0.1596191,51.2068127],[-0.1599035,51.2066445],[-0.1601022,51.2065321],[-0.1602016,51.2064626],[-0.1603174,51.2063857]]]}},
{"type":"Feature","properties":{"highway":"track","name":null,"category":"Track"},"geometry":{"type":"MultiLineString","coordinates":[[[-0.150972,51.2199121],[-0.1509092,51.219826],[-0.1505572,51.2193242],[-0.1503466,51.2190989],[-0.1501747,51.218958],[-0.1501552,51.2189424]]]}},
{"type":"Feature","properties":{"highway":"footway","name":null,"category":"Footpath (pedestrian only)"},"geometry":{"type":"MultiLineString","coordinates":[[[-0.1532175,51.2173908],[-0.1531735,51.2172917],[-0.1531086,51.2171728],[-0.1530389,51.2170225],[-0.153085,51.2169722],[-0.1531201,51.2169339],[-0.1530849,51.2168684],[-0.1530046,51.2167322],[-0.1529187,51.2165871],[-0.1528109,51.2163971],[-0.1526269,51.2160548],[-0.1525754,51.2159473],[-0.1525118,51.2157886],[-0.1524211,51.2155494],[-0.1523597,51.2152515],[-0.1523199,51.215066],[-0.1521889,51.2145507]]]}},
{"type":"Feature","properties":{"highway":"footway","name":null,"category":"Footpath (pedestrian only)"},"geometry":{"type":"MultiLineString","coordinates":[[[-0.1582148,51.2083994],[-0.1582326,51.2085748],[-0.158373,51.209145],[-0.1584042,51.2093897],[-0.1584473,51.2095564]]]}},
{"type":"Feature","properties":{"highway":"footway","name":null,"category":"Footpath (pedestrian only)"},"geometry":{"type":"MultiLineString","coordinates":[[[-0.161276,51.2170741],[-0.1609711,51.2170727],[-0.1602654,51.2170283],[-0.1602411,51.217029],[-0.160192,51.2170319],[-0.160142,51.2170388],[-0.160107,51.2170445],[-0.1600743,51.2170516],[-0.1600481,51.2170608],[-0.1600035,51.2170773],[-0.1594845,51.2172931],[-0.1594007,51.2173353],[-0.1593471,51.2173642],[-0.1589766,51.2175733],[-0.1585045,51.2179833],[-0.1580029,51.2183159],[-0.1578501,51.2187191],[-0.1577696,51.2195373],[-0.1576328,51.2199253]]]}},
{"type":"Feature","properties":{"highway":"path","name":null,"category":"Shared path"},"geometry":{"type":"MultiLineString","coordinates":[[[-0.1661666,51.2180282],[-0.1658278,51.2176641],[-0.1652637,51.2172172],[-0.1647809,51.2167736],[-0.1642122,51.2163838],[-0.1638997,51.2162213]]]}},
{"type":"Feature","properties":{"highway":"path","name":null,"category":"Shared path"},"geometry":{"type":"MultiLineString","coordinates":[[[-0.1625237,51.2145554],[-0.1624958,51.2144663],[-0.1624238,51.2143351],[-0.1623867,51.2143217],[-0.1623427,51.2142516]]]}},
{"type":"Feature","properties":{"highway":"track","name":"Canadian Road","category":"Track"},"geometry":{"type":"MultiLineString","coordinates":[[[-0.152914,51.2228427],[-0.1551162,51.2221117],[-0.1564744,51.2216706],[-0.157589,51.2213122],[-0.1577238,51.2212634],[-0.1577606,51.2212501],[-0.1595812,51.2206716],[-0.1608198,51.2202781],[-0.1615419,51.2200161]]]}},
{"type":"Feature","properties":{"highway":"footway","name":null,"category":"Footpath (pedestrian only)"},"geometry":{"type":"MultiLineString","coordinates":[[[-0.1621466,51.2147927],[-0.1619363,51.2144558],[-0.1622413,51.2143901],[-0.1620529,51.2140548],[-0.1620313,51.2140145]]]}},
{"type":"Feature","properties":{"highway":"footway","name":null,"category":"Footpath (pedestrian only)"},"geometry":{"type":"MultiLineString","coordinates":[[[-0.1558959,51.2173424],[-0.1559508,51.2173374],[-0.1563005,51.2172537],[-0.1565065,51.2172215],[-0.156927,51.2171623],[-0.1571931,51.2171032],[-0.1575536,51.2170602],[-0.1577236,51.2170901]]]}},
{"type":"Feature","properties":{"highway":"track","name":null,"category":"Track"},"geometry":{"type":"MultiLineString","coordinates":[[[-0.1572625,51.2246393],[-0.1573,51.2244753],[-0.1573263,51.2243548],[-0.1568628,51.2228282],[-0.1564744,51.2216706]]]}},
{"type":"Feature","properties":{"highway":"track","name":"Whitebushes","category":"Track"},"geometry":{"type":"MultiLineString","coordinates":[[[-0.165937,51.2166878],[-0.1654066,51.2168194],[-0.1653079,51.216813],[-0.1649767,51.2165964],[-0.164555,51.2163589],[-0.1643118,51.2162228],[-0.1641628,51.2161719],[-0.1640444,51.2161655],[-0.1638997,51.2162213]]]}},
{"type":"Feature","properties":{"highway":"footway","name":null,"category":"Footpath (pedestrian only)"},"geometry":{"type":"MultiLineString","coordinates":[[[-0.1636592,51.2159239],[-0.1636059,51.2159386],[-0.163569,51.2159487],[-0.1632258,51.2160142],[-0.1631998,51.2160175],[-0.1628898,51.2160568],[-0.1625309,51.216127],[-0.1621241,51.2161948],[-0.1617832,51.2162757],[-0.1614542,51.2163398],[-0.1610714,51.2164376],[-0.1606328,51.2165432],[-0.1604408,51.2165722]]]}},
{"type":"Feature","properties":{"highway":"footway","name":null,"category":"Footpath (pedestrian only)"},"geometry":{"type":"MultiLineString","coordinates":[[[-0.1584469,51.2096372],[-0.1584938,51.2100528],[-0.1584291,51.2103448],[-0.15841,51.2105651],[-0.1583733,51.2111725],[-0.1584723,51.2115954],[-0.1584187,51.2119751],[-0.1585367,51.2123649],[-0.1586397,51.2128637],[-0.1586971,51.213366],[-0.1586425,51.2134864],[-0.1586239,51.2136748],[-0.1586206,51.2136885]]]}},
{"type":"Feature","properties":{"highway":"footway","name":null,"category":"Footpath (pedestrian only)"},"geometry":{"type":"MultiLineString","coordinates":[[[-0.1619786,51.2078511],[-0.1619012,51.2078519],[-0.1617315,51.2078659],[-0.1612219,51.2079715],[-0.1601785,51.2081777],[-0.1595206,51.2083659],[-0.1582148,51.2083994],[-0.1579051,51.2084374],[-0.1573029,51.2085809],[-0.1566055,51.2087153],[-0.1561138,51.2086817],[-0.1560859,51.2086804],[-0.1560416,51.208679],[-0.1555755,51.2085809],[-0.1551155,51.208501],[-0.1544115,51.2083112],[-0.1540816,51.2082221],[-0.1532098,51.2082952],[-0.1529666,51.2083111],[-0.1529362,51.2083381],[-0.152874,51.2083494]]]}},
{"type":"Feature","properties":{"highway":"footway","name":null,"category":"Footpath (pedestrian only)"},"geometry":{"type":"MultiLineString","coordinates":[[[-0.1584473,51.2095564],[-0.1584469,51.2096372]]]}},
{"type":"Feature","properties":{"highway":"footway","name":null,"category":"Footpath (pedestrian only)"},"geometry":{"type":"MultiLineString","coordinates":[[[-0.1576328,51.2199253],[-0.1577075,51.2201085]]]}},
{"type":"Feature","properties":{"highway":"footway","name":null,"category":"Footpath (pedestrian only)"},"geometry":{"type":"MultiLineString","coordinates":[[[-0.1577075,51.2201085],[-0.1577829,51.2202664],[-0.1577347,51.2207216],[-0.1576918,51.2211299],[-0.1577238,51.2212634]]]}},
{"type":"Feature","properties":{"highway":"footway","name":null,"category":"Footpath (pedestrian only)"},"geometry":{"type":"MultiLineString","coordinates":[[[-0.1533845,51.2176814],[-0.1534265,51.2176723]]]}},
{"type":"Feature","properties":{"highway":"footway","name":null,"category":"Footpath (pedestrian only)"},"geometry":{"type":"MultiLineString","coordinates":[[[-0.1501552,51.2189424],[-0.1502079,51.2189189],[-0.153331,51.2177086]]]}},
{"type":"Feature","properties":{"highway":"footway","name":null,"category":"Footpath (pedestrian only)"},"geometry":{"type":"MultiLineString","coordinates":[[[-0.1521889,51.2145507],[-0.1521835,51.214518]]]}},
{"type":"Feature","properties":{"highway":"footway","name":null,"category":"Footpath (pedestrian only)"},"geometry":{"type":"MultiLineString","coordinates":[[[-0.1521835,51.214518],[-0.1521746,51.2144857]]]}},
{"type":"Feature","properties":{"highway":"footway","name":null,"category":"Footpath (pedestrian only)"},"geometry":{"type":"MultiLineString","coordinates":[[[-0.1577236,51.2170901],[-0.1577816,51.2170558]]]}},
{"type":"Feature","properties":{"highway":"footway","name":null,"category":"Footpath (pedestrian only)"},"geometry":{"type":"MultiLineString","coordinates":[[[-0.1577816,51.2170558],[-0.1597977,51.2165899],[-0.1598661,51.2165667]]]}},
{"type":"Feature","properties":{"highway":"footway","name":null,"category":"Footpath (pedestrian only)"},"geometry":{"type":"MultiLineString","coordinates":[[[-0.1558252,51.2173484],[-0.1558959,51.2173424]]]}},
{"type":"Feature","properties":{"highway":"footway","name":null,"category":"Footpath (pedestrian only)"},"geometry":{"type":"MultiLineString","coordinates":[[[-0.1534265,51.2176723],[-0.1534404,51.2176704],[-0.1557959,51.2173522],[-0.1558252,51.2173484]]]}},
{"type":"Feature","properties":{"highway":"footway","name":null,"category":"Footpath (pedestrian only)"},"geometry":{"type":"MultiLineString","coordinates":[[[-0.1636988,51.2195216],[-0.1633912,51.2196188],[-0.1631201,51.2197047],[-0.1626455,51.2198582],[-0.1623945,51.2199354],[-0.1620048,51.2200619],[-0.1619765,51.2200687],[-0.1619527,51.2200727],[-0.1619298,51.2200729],[-0.1619061,51.220069],[-0.1617938,51.2200274],[-0.1617533,51.2200069],[-0.1617432,51.2199964],[-0.1617395,51.2199827],[-0.1617386,51.2199676],[-0.1617417,51.2199562],[-0.1617502,51.2199351],[-0.1617697,51.2198959],[-0.1617822,51.2198676],[-0.1618203,51.2197796],[-0.1618279,51.2197585],[-0.1618268,51.2197519],[-0.1618225,51.2197439],[-0.1618139,51.2197334],[-0.1618002,51.219723],[-0.161771,51.2197039]]]}},
{"type":"Feature","properties":{"highway":"footway","name":null,"category":"Footpath (pedestrian only)"},"geometry":{"type":"MultiLineString","coordinates":[[[-0.1616363,51.2196498],[-0.1616726,51.2195762]]]}},
{"type":"Feature","properties":{"highway":"footway","name":null,"category":"Footpath (pedestrian only)"},"geometry":{"type":"MultiLineString","coordinates":[[[-0.1610714,51.2164376],[-0.1610573,51.2164144]]]}},
{"type":"Feature","properties":{"highway":"footway","name":null,"category":"Footpath (pedestrian only)"},"geometry":{"type":"MultiLineString","coordinates":[[[-0.1604234,51.2167838],[-0.1604551,51.2167717],[-0.1605893,51.216734],[-0.1607986,51.2167565],[-0.1610085,51.2167912],[-0.1612128,51.2168271],[-0.1614341,51.2168389],[-0.1615937,51.2168691],[-0.1621328,51.2169103],[-0.1625043,51.2169262],[-0.1628919,51.2169422],[-0.1632875,51.2169531],[-0.1636094,51.2169657],[-0.1637019,51.2169514],[-0.1638024,51.2169439],[-0.1638616,51.2169395],[-0.1639554,51.2169514],[-0.1644355,51.2170489],[-0.1652637,51.2172172]]]}},
{"type":"Feature","properties":{"highway":"footway","name":null,"category":"Footpath (pedestrian only)"},"geometry":{"type":"MultiLineString","coordinates":[[[-0.1604092,51.2168064],[-0.1604234,51.2167838]]]}},
{"type":"Feature","properties":{"highway":"footway","name":null,"category":"Footpath (pedestrian only)"},"geometry":{"type":"MultiLineString","coordinates":[[[-0.1598989,51.2166143],[-0.1599481,51.2166083],[-0.1600395,51.2167005],[-0.1600997,51.2167266],[-0.1601515,51.2167489],[-0.1602579,51.216778],[-0.1604092,51.2168064]]]}},
{"type":"Feature","properties":{"highway":"path","name":null,"category":"Shared path"},"geometry":{"type":"MultiLineString","coordinates":[[[-0.1627032,51.2199274],[-0.1628179,51.2198902],[-0.1630087,51.2198308],[-0.1631849,51.219776],[-0.1637571,51.2195881],[-0.1638289,51.2195691],[-0.1639569,51.2195311],[-0.1641653,51.219461],[-0.164665,51.2192958]]]}},
{"type":"Feature","properties":{"highway":"path","name":null,"category":"Shared path"},"geometry":{"type":"MultiLineString","coordinates":[[[-0.1627032,51.2199274],[-0.1627513,51.2199891],[-0.1627872,51.2200283]]]}},
{"type":"Feature","properties":{"highway":"path","name":null,"category":"Shared path"},"geometry":{"type":"MultiLineString","coordinates":[[[-0.1621015,51.2174889],[-0.1611576,51.2177446]]]}},
{"type":"Feature","properties":{"highway":"path","name":null,"category":"Shared path"},"geometry":{"type":"MultiLineString","coordinates":[[[-0.1620061,51.2183727],[-0.1619812,51.2183808],[-0.1619192,51.2183208],[-0.16179,51.2182247],[-0.1616355,51.2181267],[-0.1615091,51.2180663],[-0.1614974,51.2180594],[-0.1614648,51.2180464],[-0.1614039,51.2180267],[-0.1613654,51.2180159],[-0.1612514,51.2179889],[-0.1612082,51.2179806],[-0.1611678,51.2179722],[-0.1611478,51.2179663],[-0.1611304,51.2179591],[-0.1611211,51.2179547],[-0.1611077,51.2179461],[-0.1611004,51.2179406],[-0.1610865,51.2179278],[-0.1610476,51.217891],[-0.161153,51.2173667],[-0.1611568,51.2173478],[-0.1611604,51.2173363],[-0.1611634,51.2173276],[-0.1611704,51.2173166],[-0.1611812,51.2173047],[-0.1611901,51.2172918],[-0.1611925,51.2172809],[-0.1611909,51.2172718],[-0.1611875,51.2172633],[-0.1611771,51.2172552],[-0.1611634,51.217251],[-0.1606547,51.2172094],[-0.1606104,51.2172068],[-0.1605769,51.2172068],[-0.1605561,51.2172101],[-0.1605416,51.2172168],[-0.1605304,51.2172277],[-0.1605232,51.2172387],[-0.1605158,51.2172531],[-0.1604241,51.2174776],[-0.1603125,51.2176913],[-0.1602939,51.2177295],[-0.1602767,51.2177769],[-0.1602699,51.2178126],[-0.1602646,51.2178501],[-0.1602646,51.2178829],[-0.1602751,51.2179171],[-0.1603461,51.2179053],[-0.1603914,51.2180173],[-0.1603181,51.2180363],[-0.1603415,51.2180727],[-0.1602801,51.2180909]]]}},
{"type":"Feature","properties":{"highway":"path","name":null,"category":"Shared path"},"geometry":{"type":"MultiLineString","coordinates":[[[-0.1603914,51.2180173],[-0.1605643,51.217963],[-0.160587,51.2179549],[-0.1605973,51.2179471],[-0.1606023,51.2179368]]]}},
{"type":"Feature","properties":{"highway":"path","name":null,"category":"Shared path"},"geometry":{"type":"MultiLineString","coordinates":[[[-0.1633018,51.2180436],[-0.163287,51.2180481],[-0.1632779,51.2180497],[-0.1632682,51.21805],[-0.1632535,51.2180478],[-0.1632334,51.2180424],[-0.1629479,51.2179481],[-0.162836,51.2179144],[-0.162681,51.21785],[-0.1626568,51.2178445],[-0.1626323,51.2178429],[-0.1625935,51.2178465],[-0.1625546,51.2178527],[-0.1623809,51.217891],[-0.1621729,51.2179514],[-0.1617953,51.2180557],[-0.1617801,51.2180609]]]}},
{"type":"Feature","properties":{"highway":"path","name":null,"category":"Shared path"},"geometry":{"type":"MultiLineString","coordinates":[[[-0.1626571,51.2181617],[-0.1626518,51.2181355],[-0.1626532,51.218116],[-0.1626582,51.2180983],[-0.1626686,51.2180679],[-0.1626815,51.2180453],[-0.1626985,51.2180261],[-0.162727,51.2180027],[-0.1627513,51.2179889],[-0.1627742,51.2179801],[-0.1628067,51.2179732],[-0.1628566,51.2179639],[-0.1629479,51.2179481]]]}},
{"type":"Feature","properties":{"highway":"path","name":null,"category":"Shared path"},"geometry":{"type":"MultiLineString","coordinates":[[[-0.1623609,51.2178608],[-0.1623809,51.217891]]]}},
{"type":"Feature","properties":{"highway":"path","name":null,"category":"Shared path"},"geometry":{"type":"MultiLineString","coordinates":[[[-0.1620758,51.2184656],[-0.1621499,51.2185653]]]}},
{"type":"Feature","properties":{"highway":"path","name":null,"category":"Shared path"},"geometry":{"type":"MultiLineString","coordinates":[[[-0.1611183,51.2181164],[-0.1611839,51.2180952],[-0.1611945,51.2180934],[-0.1612049,51.2180922],[-0.1612169,51.2180925],[-0.161315,51.2181124],[-0.1613285,51.2181134],[-0.1613437,51.2181125],[-0.1613553,51.2181104],[-0.1615091,51.2180663]]]}},
{"type":"Feature","properties":{"highway":"path","name":null,"category":"Shared path"},"geometry":{"type":"MultiLineString","coordinates":[[[-0.1617344,51.2200848],[-0.1617179,51.2201],[-0.1616635,51.2201505],[-0.1616558,51.220159],[-0.1616481,51.2201708],[-0.1616331,51.2201981]]]}},
{"type":"Feature","properties":{"highway":"path","name":null,"category":"Shared path"},"geometry":{"type":"MultiLineString","coordinates":[[[-0.1618455,51.2201586],[-0.1618709,51.2201651],[-0.1618975,51.2201679],[-0.1619227,51.2201676],[-0.1619544,51.2201641],[-0.1619785,51.2201604],[-0.1620166,51.2201523],[-0.1621592,51.2201092],[-0.1627032,51.2199274]]]}},
{"type":"Feature","properties":{"highway":"path","name":null,"category":"Shared path"},"geometry":{"type":"MultiLineString","coordinates":[[[-0.1627513,51.2199891],[-0.1629288,51.2199319],[-0.1630617,51.2198913],[-0.1630087,51.2198308]]]}},
{"type":"Feature","properties":{"highway":"path","name":null,"category":"Shared path"},"geometry":{"type":"MultiLineString","coordinates":[[[-0.1629288,51.2199319],[-0.1628179,51.2198902]]]}},
{"type":"Feature","properties":{"highway":"track","name":null,"category":"Track"},"geometry":{"type":"MultiLineString","coordinates":[[[-0.1615419,51.2200161],[-0.1615751,51.2200034],[-0.161596,51.2199934],[-0.1616165,51.2199823]]]}},
{"type":"Feature","properties":{"highway":"footway","name":"Canadian Road","category":"Footpath (pedestrian only)"},"geometry":{"type":"MultiLineString","coordinates":[[[-0.1615419,51.2200161],[-0.1617179,51.2201],[-0.161798,51.2201432],[-0.1618455,51.2201586]]]}},
{"type":"Feature","properties":{"highway":"path","name":null,"category":"Shared path"},"geometry":{"type":"MultiLineString","coordinates":[[[-0.1612235,51.215931],[-0.161363,51.2161652],[-0.1613624,51.2161903],[-0.1614542,51.2163398]]]}},
{"type":"Feature","properties":{"highway":"path","name":null,"category":"Shared path"},"geometry":{"type":"MultiLineString","coordinates":[[[-0.1647721,51.2157907],[-0.1645365,51.2154048]]]}},
{"type":"Feature","properties":{"highway":"track","name":null,"category":"Track"},"geometry":{"type":"MultiLineString","coordinates":[[[-0.1555678,51.219098],[-0.15545,51.2189799],[-0.1554605,51.2189185],[-0.1555536,51.2188561],[-0.155694,51.2188314],[-0.1561494,51.2186971],[-0.1562265,51.2186369],[-0.1562458,51.2185538],[-0.1559483,51.2177264],[-0.1557959,51.2173522],[-0.1557317,51.2172016],[-0.1553164,51.2165461],[-0.1550764,51.2161453],[-0.1547739,51.2157677],[-0.1546598,51.2154914],[-0.1545659,51.2153639],[-0.1545334,51.2153152],[-0.1545799,51.2152755],[-0.1547299,51.2152076]]]}},
{"type":"Feature","properties":{"highway":"track","name":null,"category":"Track"},"geometry":{"type":"MultiLineString","coordinates":[[[-0.1560201,51.2087963],[-0.1560859,51.2086804],[-0.1560866,51.2086586]]]}},
{"type":"Feature","properties":{"highway":"track","name":null,"category":"Track"},"geometry":{"type":"MultiLineString","coordinates":[[[-0.1560866,51.2086586],[-0.156078,51.2085767]]]}},
{"type":"Feature","properties":{"highway":"path","name":null,"category":"Shared path"},"geometry":{"type":"MultiLineString","coordinates":[[[-0.1633893,51.2127317],[-0.1635052,51.2126497],[-0.1637136,51.212558],[-0.1638253,51.2125229],[-0.1638983,51.2125066],[-0.1639309,51.2124994],[-0.164178,51.2125763],[-0.1642617,51.2125905],[-0.1644286,51.2126866],[-0.1645093,51.2126948]]]}},
{"type":"Feature","properties":{"highway":"path","name":null,"category":"Shared path"},"geometry":{"type":"MultiLineString","coordinates":[[[-0.1627626,51.2131918],[-0.1627886,51.2131241],[-0.1626976,51.2129306],[-0.1627589,51.2128912]]]}},
{"type":"Feature","properties":{"highway":"path","name":null,"category":"Shared path"},"geometry":{"type":"MultiLineString","coordinates":[[[-0.1633865,51.2133769],[-0.1632842,51.2133956],[-0.1632055,51.2132537],[-0.1632087,51.2132239],[-0.1631777,51.2131614],[-0.1632,51.2131346]]]}},
{"type":"Feature","properties":{"highway":"path","name":null,"category":"Shared path"},"geometry":{"type":"MultiLineString","coordinates":[[[-0.1631777,51.2131614],[-0.16295,51.2132071],[-0.1627824,51.2132424]]]}},
{"type":"Feature","properties":{"highway":"path","name":null,"category":"Shared path"},"geometry":{"type":"MultiLineString","coordinates":[[[-0.1640914,51.2129135],[-0.1639364,51.2126342],[-0.1639668,51.2126257],[-0.1638983,51.2125066]]]}},
{"type":"Feature","properties":{"highway":"path","name":null,"category":"Shared path"},"geometry":{"type":"MultiLineString","coordinates":[[[-0.1624238,51.2143351],[-0.1625483,51.2143027],[-0.1625732,51.2142838],[-0.1628748,51.2142298],[-0.1630573,51.2145039],[-0.1633149,51.2148933]]]}},
{"type":"Feature","properties":{"highway":"path","name":null,"category":"Shared path"},"geometry":{"type":"MultiLineString","coordinates":[[[-0.1641909,51.2146945],[-0.1641632,51.2146424],[-0.164012,51.2143911],[-0.1638706,51.214156]]]}},
{"type":"Feature","properties":{"highway":"path","name":null,"category":"Shared path"},"geometry":{"type":"MultiLineString","coordinates":[[[-0.1644471,51.2146327],[-0.1646892,51.2150403],[-0.1647764,51.2150914]]]}},
{"type":"Feature","properties":{"highway":"path","name":null,"category":"Shared path"},"geometry":{"type":"MultiLineString","coordinates":[[[-0.1645365,51.2154048],[-0.1645005,51.2153624],[-0.1642821,51.2149999],[-0.1642266,51.2149732],[-0.1641953,51.214972],[-0.1640494,51.2147253]]]}},
{"type":"Feature","properties":{"highway":"path","name":null,"category":"Shared path"},"geometry":{"type":"MultiLineString","coordinates":[[[-0.1642379,51.215074],[-0.1642821,51.2149999]]]}},
{"type":"Feature","properties":{"highway":"path","name":null,"category":"Shared path"},"geometry":{"type":"MultiLineString","coordinates":[[[-0.1628898,51.2160568],[-0.1628392,51.215981],[-0.1627577,51.2158443],[-0.1626205,51.2156235],[-0.1626883,51.2156074],[-0.1628054,51.2156171],[-0.1628726,51.2156226]]]}},
{"type":"Feature","properties":{"highway":"path","name":null,"category":"Shared path"},"geometry":{"type":"MultiLineString","coordinates":[[[-0.1629816,51.2159373],[-0.1628392,51.215981]]]}},
{"type":"Feature","properties":{"highway":"path","name":null,"category":"Shared path"},"geometry":{"type":"MultiLineString","coordinates":[[[-0.1631998,51.2160175],[-0.1631378,51.2159127],[-0.1629816,51.2159373]]]}},
{"type":"Feature","properties":{"highway":"path","name":null,"category":"Shared path"},"geometry":{"type":"MultiLineString","coordinates":[[[-0.1625309,51.216127],[-0.1624136,51.215936],[-0.1619978,51.2159598],[-0.1620067,51.2159973],[-0.1621241,51.2161948]]]}},
{"type":"Feature","properties":{"highway":"path","name":null,"category":"Shared path"},"geometry":{"type":"MultiLineString","coordinates":[[[-0.1619978,51.2159598],[-0.1620216,51.2158874],[-0.161932,51.2156736],[-0.161943,51.2156036],[-0.1618525,51.2154325],[-0.1617245,51.215384],[-0.1616551,51.2153267],[-0.1616135,51.2152464],[-0.1615545,51.2151749],[-0.1614673,51.2150261],[-0.1614422,51.2149839],[-0.1614213,51.2149487]]]}},
{"type":"Feature","properties":{"highway":"path","name":null,"category":"Shared path"},"geometry":{"type":"MultiLineString","coordinates":[[[-0.1610389,51.2151443],[-0.1609054,51.2151719],[-0.1608776,51.2151581],[-0.1608578,51.2151214],[-0.1608346,51.2150785]]]}},
{"type":"Feature","properties":{"highway":"path","name":null,"category":"Shared path"},"geometry":{"type":"MultiLineString","coordinates":[[[-0.1614213,51.2149487],[-0.1614174,51.2148872],[-0.1611933,51.2144958],[-0.161245,51.2144834],[-0.1612869,51.2144526],[-0.1613492,51.2144221]]]}},
{"type":"Feature","properties":{"highway":"path","name":null,"category":"Shared path"},"geometry":{"type":"MultiLineString","coordinates":[[[-0.1614431,51.2146366],[-0.161565,51.2145957],[-0.1614798,51.2144272],[-0.1614487,51.2144321],[-0.1613917,51.214426],[-0.1613492,51.2144221]]]}},
{"type":"Feature","properties":{"highway":"path","name":null,"category":"Shared path"},"geometry":{"type":"MultiLineString","coordinates":[[[-0.1601086,51.2143709],[-0.1601697,51.2144798],[-0.1602851,51.2146853],[-0.1603734,51.2148427],[-0.1603352,51.2148507],[-0.1604636,51.2150756],[-0.160397,51.2151015],[-0.1603328,51.2151569]]]}},
{"type":"Feature","properties":{"highway":"path","name":null,"category":"Shared path"},"geometry":{"type":"MultiLineString","coordinates":[[[-0.1604636,51.2150756],[-0.1608641,51.2149942],[-0.1608847,51.2149687],[-0.1608626,51.2149149],[-0.1607725,51.2147582],[-0.1603734,51.2148427]]]}},
{"type":"Feature","properties":{"highway":"path","name":null,"category":"Shared path"},"geometry":{"type":"MultiLineString","coordinates":[[[-0.1603352,51.2148507],[-0.1600564,51.2149156],[-0.160036,51.2149203],[-0.1601612,51.2151521]]]}},
{"type":"Feature","properties":{"highway":"path","name":null,"category":"Shared path"},"geometry":{"type":"MultiLineString","coordinates":[[[-0.1600564,51.2149156],[-0.1599699,51.2147534],[-0.1602851,51.2146853]]]}},
{"type":"Feature","properties":{"highway":"path","name":null,"category":"Shared path"},"geometry":{"type":"MultiLineString","coordinates":[[[-0.1612235,51.215931],[-0.1611672,51.2158675],[-0.161026,51.2156365]]]}},
{"type":"Feature","properties":{"highway":"path","name":null,"category":"Shared path"},"geometry":{"type":"MultiLineString","coordinates":[[[-0.1623579,51.2150669],[-0.1622972,51.2149928],[-0.1621947,51.2148266],[-0.1621699,51.2147864]]]}},
{"type":"Feature","properties":{"highway":"path","name":null,"category":"Shared path"},"geometry":{"type":"MultiLineString","coordinates":[[[-0.1628054,51.2156171],[-0.1627961,51.2155724],[-0.1626577,51.2153338],[-0.1626219,51.2153205]]]}},
{"type":"Feature","properties":{"highway":"path","name":null,"category":"Shared path"},"geometry":{"type":"MultiLineString","coordinates":[[[-0.1627577,51.2158443],[-0.1624355,51.2159203],[-0.1624136,51.215936]]]}},
{"type":"Feature","properties":{"highway":"path","name":null,"category":"Shared path"},"geometry":{"type":"MultiLineString","coordinates":[[[-0.1608895,51.2160049],[-0.1608615,51.2159596],[-0.1607237,51.2157107],[-0.160701,51.2156697],[-0.1605674,51.2154336],[-0.1604765,51.2152046],[-0.1606989,51.2151563],[-0.1608578,51.2151214],[-0.1614422,51.2149839],[-0.1619683,51.2148747],[-0.1621947,51.2148266]]]}},
{"type":"Feature","properties":{"highway":"path","name":null,"category":"Shared path"},"geometry":{"type":"MultiLineString","coordinates":[[[-0.1601697,51.2144798],[-0.1598855,51.2145404],[-0.1599295,51.2146291],[-0.1599277,51.2146524],[-0.1599699,51.2147534]]]}},
{"type":"Feature","properties":{"highway":"path","name":null,"category":"Shared path"},"geometry":{"type":"MultiLineString","coordinates":[[[-0.1614798,51.2144272],[-0.1614928,51.2144075],[-0.1613749,51.2141814],[-0.1617439,51.214113],[-0.1620529,51.2140548],[-0.1622028,51.2140266]]]}},
{"type":"Feature","properties":{"highway":"path","name":null,"category":"Shared path"},"geometry":{"type":"MultiLineString","coordinates":[[[-0.1619363,51.2144558],[-0.1618621,51.2143272],[-0.1614928,51.2144075]]]}},
{"type":"Feature","properties":{"highway":"path","name":null,"category":"Shared path"},"geometry":{"type":"MultiLineString","coordinates":[[[-0.1618621,51.2143272],[-0.1617439,51.214113]]]}},
{"type":"Feature","properties":{"highway":"path","name":null,"category":"Shared path"},"geometry":{"type":"MultiLineString","coordinates":[[[-0.1624238,51.2143351],[-0.162403,51.2143535],[-0.162289,51.2143805],[-0.162354,51.2145085],[-0.1623984,51.2145892]]]}},
{"type":"Feature","properties":{"highway":"path","name":null,"category":"Shared path"},"geometry":{"type":"MultiLineString","coordinates":[[[-0.164012,51.2143911],[-0.1636531,51.2144736],[-0.1635129,51.2145103]]]}},
{"type":"Feature","properties":{"highway":"path","name":null,"category":"Shared path"},"geometry":{"type":"MultiLineString","coordinates":[[[-0.1621947,51.2148266],[-0.1624201,51.214763],[-0.1624682,51.2147675],[-0.1626658,51.2148016],[-0.1626948,51.2148354],[-0.162739,51.2149094],[-0.1627781,51.2149501],[-0.1628114,51.2149847],[-0.1629055,51.2150733],[-0.1631149,51.2153338],[-0.1631916,51.2154355],[-0.1631995,51.2154808],[-0.1632424,51.2155242],[-0.1632779,51.2155603],[-0.1633697,51.2156467],[-0.1635127,51.215824],[-0.1636059,51.2159386],[-0.1638516,51.2162423],[-0.1638715,51.216286],[-0.1638813,51.2163476],[-0.1638359,51.2167084],[-0.1638024,51.2169439],[-0.1637807,51.217006],[-0.1637492,51.2170326],[-0.1637156,51.217062],[-0.1637162,51.2171081]]]}},
{"type":"Feature","properties":{"highway":"footway","name":null,"category":"Footpath (pedestrian only)"},"geometry":{"type":"MultiLineString","coordinates":[[[-0.1630573,51.2145039],[-0.1631038,51.2144715]]]}},
{"type":"Feature","properties":{"highway":"footway","name":null,"category":"Footpath (pedestrian only)"},"geometry":{"type":"MultiLineString","coordinates":[[[-0.1631201,51.2197047],[-0.1631477,51.2197379],[-0.1631744,51.2197646]]]}},
{"type":"Feature","properties":{"highway":"footway","name":null,"category":"Footpath (pedestrian only)"},"geometry":{"type":"MultiLineString","coordinates":[[[-0.1631744,51.2197646],[-0.1631849,51.219776]]]}},
{"type":"Feature","properties":{"highway":"footway","name":null,"category":"Footpath (pedestrian only)"},"geometry":{"type":"MultiLineString","coordinates":[[[-0.1626455,51.2198582],[-0.1626764,51.2198955],[-0.1627032,51.2199274]]]}},
{"type":"Feature","properties":{"highway":"footway","name":null,"category":"Footpath (pedestrian only)"},"geometry":{"type":"MultiLineString","coordinates":[[[-0.1617938,51.2200274],[-0.161764,51.2200584],[-0.1617344,51.2200848]]]}},
{"type":"Feature","properties":{"highway":"footway","name":null,"category":"Footpath (pedestrian only)"},"geometry":{"type":"MultiLineString","coordinates":[[[-0.161771,51.2197039],[-0.1617564,51.2196952],[-0.16174,51.2196865],[-0.1617228,51.2196778],[-0.1616938,51.2196667],[-0.1616751,51.2196602],[-0.1616363,51.2196498]]]}},
{"type":"Feature","properties":{"highway":"track","name":null,"category":"Track"},"geometry":{"type":"MultiLineString","coordinates":[[[-0.1475601,51.2127558],[-0.147751,51.2127654],[-0.147835,51.2127756],[-0.1479354,51.2127917],[-0.1480826,51.2128224],[-0.1482546,51.2128627],[-0.1484157,51.2129065],[-0.1484788,51.2129285],[-0.1485395,51.2129563],[-0.1485839,51.2129841],[-0.1486282,51.2130177],[-0.1486726,51.2130616],[-0.1487099,51.2131084],[-0.148738,51.2131567],[-0.148773,51.2132342],[-0.1487987,51.2133015],[-0.1488267,51.2133936],[-0.1488547,51.2135121],[-0.1488617,51.2135867],[-0.1488617,51.213711],[-0.14885,51.2139202],[-0.1488314,51.2141835],[-0.1488337,51.2142244],[-0.1488454,51.2142522],[-0.1488641,51.2142698],[-0.1488991,51.2142785],[-0.1489434,51.21428],[-0.1489948,51.2142742],[-0.1490882,51.2142537],[-0.1495902,51.214141],[-0.1496229,51.2141293],[-0.149665,51.2141059],[-0.1496953,51.2140796],[-0.149714,51.2140533],[-0.1497233,51.214027],[-0.149728,51.2139933],[-0.149728,51.2139494],[-0.1496486,51.2133775],[-0.1496346,51.2132839],[-0.1496229,51.2132342],[-0.1496042,51.2131713],[-0.1495879,51.2131216],[-0.1495692,51.2130718],[-0.1495528,51.2130462],[-0.1495271,51.2130243],[-0.1494944,51.2130096],[-0.1492679,51.2129497],[-0.1488266,51.2128531],[-0.1487589,51.2128444],[-0.1487169,51.2128444],[-0.1486772,51.2128517],[-0.1486398,51.2128678],[-0.1486048,51.2128941],[-0.1485395,51.2129563]]]}},
{"type":"Feature","properties":{"highway":"footway","name":null,"category":"Footpath (pedestrian only)"},"geometry":{"type":"MultiLineString","coordinates":[[[-0.1586325,51.2221921],[-0.1589182,51.2221711],[-0.1593983,51.2221039],[-0.1598141,51.2220753],[-0.16038,51.2220703],[-0.1607407,51.2220746],[-0.1607984,51.2220753],[-0.1611498,51.2220485],[-0.1616272,51.2219359],[-0.161705,51.2218754],[-0.1621047,51.2218402],[-0.1623273,51.2218469],[-0.1626062,51.2219006],[-0.1627196,51.2219233]]]}},
{"type":"Feature","properties":{"highway":"footway","name":null,"category":"Footpath (pedestrian only)"},"geometry":{"type":"MultiLineString","coordinates":[[[-0.1605411,51.2239115],[-0.1605758,51.2237913],[-0.1607032,51.2236384],[-0.1606396,51.2235023],[-0.1605617,51.2233357],[-0.1603445,51.2232189],[-0.1601802,51.2231055],[-0.1599053,51.2229711],[-0.1597665,51.2228808],[-0.159466,51.2226343],[-0.1592736,51.2225172],[-0.1588833,51.2223626],[-0.1586325,51.2221921],[-0.1584743,51.2220846],[-0.1583268,51.2219326],[-0.1579969,51.2216277],[-0.1577662,51.2213295],[-0.1577238,51.2212634]]]}},
{"type":"Feature","properties":{"highway":"footway","name":null,"category":"Footpath (pedestrian only)"},"geometry":{"type":"MultiLineString","coordinates":[[[-0.1533607,51.2176935],[-0.1533705,51.2176872],[-0.1533845,51.2176814]]]}},
{"type":"Feature","properties":{"highway":"footway","name":null,"category":"Footpath (pedestrian only)"},"geometry":{"type":"MultiLineString","coordinates":[[[-0.1534404,51.2176704],[-0.1532531,51.2171612],[-0.1531201,51.2169339]]]}},
{"type":"Feature","properties":{"highway":"footway","name":null,"category":"Footpath (pedestrian only)"},"geometry":{"type":"MultiLineString","coordinates":[[[-0.1533705,51.2176872],[-0.1533073,51.2175381],[-0.1532224,51.2174016]]]}},
{"type":"Feature","properties":{"highway":"footway","name":null,"category":"Footpath (pedestrian only)"},"geometry":{"type":"MultiLineString","coordinates":[[[-0.153331,51.2177086],[-0.1533607,51.2176935]]]}}
]
}
