{
"type": "FeatureCollection",
"name": "REIBA_382_walking",
"crs": { "type": "name", "properties": { "name": "urn:ogc:def:crs:OGC:1.3:CRS84" } },
"features": [
{"type":"Feature","properties":{"highway":"track","name":null,"category":"Track"},"geometry":{"type":"MultiLineString","coordinates":[[[-0.1593333,51.2019967],[-0.1592957,51.2019232],[-0.158748,51.2008247],[-0.1583625,51.1994698],[-0.158164,51.198769]]]}},
{"type":"Feature","properties":{"highway":"bridleway","name":"Gail Lane","category":"Bridleway"},"geometry":{"type":"MultiLineString","coordinates":[[[-0.158164,51.198769],[-0.1580588,51.1986756],[-0.1579537,51.1976594],[-0.1581056,51.1972506],[-0.1578836,51.1962111],[-0.1579759,51.1957412],[-0.1582371,51.1950438],[-0.158234,51.1947862],[-0.1582691,51.1942489],[-0.1582357,51.193851],[-0.1581523,51.192859],[-0.1575851,51.1914096],[-0.1575683,51.1913667]]]}},
{"type":"Feature","properties":{"highway":"footway","name":null,"category":"Footpath (pedestrian only)"},"geometry":{"type":"MultiLineString","coordinates":[[[-0.1541468,51.1992589],[-0.1547416,51.1991349],[-0.1556026,51.1989046],[-0.1561011,51.1988065]]]}},
{"type":"Feature","properties":{"highway":"footway","name":null,"category":"Footpath (pedestrian only)"},"geometry":{"type":"MultiLineString","coordinates":[[[-0.1428381,51.1998517],[-0.1430083,51.1997971],[-0.1435648,51.1996879],[-0.1439874,51.1996308],[-0.1441737,51.1996089],[-0.1443762,51.1995467],[-0.1445358,51.199524],[-0.1446364,51.1994955],[-0.1448576,51.1994626],[-0.145138,51.199424],[-0.1453794,51.1994165],[-0.1456074,51.1993593],[-0.1462323,51.19934],[-0.1464226,51.1992246],[-0.1466454,51.1992021],[-0.1470463,51.1991736],[-0.1473521,51.1991769],[-0.147556,51.1991702],[-0.1479958,51.1991265],[-0.1482225,51.1990593],[-0.1483902,51.1990316],[-0.1485811,51.198976],[-0.1487884,51.1989232],[-0.1489721,51.1988887],[-0.1492726,51.1988442],[-0.1495569,51.1987836],[-0.1497286,51.1986467],[-0.1498157,51.198592],[-0.1500035,51.1985475],[-0.150416,51.198538],[-0.151016,51.1984912],[-0.1516544,51.1985013],[-0.1518421,51.1984878],[-0.1518622,51.198488],[-0.1522606,51.1984206],[-0.1527434,51.1983467],[-0.1529141,51.19837],[-0.1530652,51.1983769],[-0.1538086,51.1984913]]]}},
{"type":"Feature","properties":{"highway":"track","name":null,"category":"Track"},"geometry":{"type":"MultiLineString","coordinates":[[[-0.1497406,51.2043893],[-0.1491345,51.2043235],[-0.1492196,51.2033971],[-0.149208,51.2033394]]]}},
{"type":"Feature","properties":{"highway":"footway","name":null,"category":"Footpath (pedestrian only)"},"geometry":{"type":"MultiLineString","coordinates":[[[-0.161743,51.2021364],[-0.1616796,51.2021783],[-0.1609766,51.202287],[-0.1607008,51.2023283],[-0.1603542,51.2023875],[-0.1599018,51.2024553],[-0.15981,51.2024656]]]}},
{"type":"Feature","properties":{"highway":"footway","name":null,"category":"Footpath (pedestrian only)"},"geometry":{"type":"MultiLineString","coordinates":[[[-0.1624173,51.2018707],[-0.1621435,51.2018935],[-0.1618823,51.2019124]]]}},
{"type":"Feature","properties":{"highway":"footway","name":null,"category":"Footpath (pedestrian only)"},"geometry":{"type":"MultiLineString","coordinates":[[[-0.1617397,51.2019251],[-0.1617199,51.2020522],[-0.161743,51.2021364]]]}},
{"type":"Feature","properties":{"highway":"footway","name":null,"category":"Footpath (pedestrian only)"},"geometry":{"type":"MultiLineString","coordinates":[[[-0.1438419,51.20346],[-0.1437381,51.2033942],[-0.1436571,51.2032619],[-0.1432838,51.2030956],[-0.1429781,51.2028536],[-0.1426927,51.2026488],[-0.1423064,51.2023563],[-0.1419953,51.2021311],[-0.1417271,51.2019328],[-0.1414267,51.2016639],[-0.1410404,51.2014286],[-0.1406864,51.2013144],[-0.1402829,51.2011547]]]}},
{"type":"Feature","properties":{"highway":"footway","name":null,"category":"Footpath (pedestrian only)"},"geometry":{"type":"MultiLineString","coordinates":[[[-0.1619786,51.2078511],[-0.1619012,51.2078519],[-0.1617315,51.2078659],[-0.1612219,51.2079715],[-0.1601785,51.2081777],[-0.1595206,51.2083659],[-0.1582148,51.2083994],[-0.1579051,51.2084374],[-0.1573029,51.2085809],[-0.1566055,51.2087153],[-0.1561138,51.2086817],[-0.1560859,51.2086804],[-0.1560416,51.208679],[-0.1555755,51.2085809],[-0.1551155,51.208501],[-0.1544115,51.2083112],[-0.1540816,51.2082221],[-0.1532098,51.2082952],[-0.1529666,51.2083111],[-0.1529362,51.2083381],[-0.152874,51.2083494]]]}},
{"type":"Feature","properties":{"highway":"footway","name":null,"category":"Footpath (pedestrian only)"},"geometry":{"type":"MultiLineString","coordinates":[[[-0.1595497,51.201978],[-0.1597427,51.2019414],[-0.1606387,51.2018461],[-0.1615815,51.2019005],[-0.1617397,51.2019251]]]}},
{"type":"Feature","properties":{"highway":"footway","name":null,"category":"Footpath (pedestrian only)"},"geometry":{"type":"MultiLineString","coordinates":[[[-0.1538379,51.1984905],[-0.1539256,51.1984884]]]}},
{"type":"Feature","properties":{"highway":"footway","name":null,"category":"Footpath (pedestrian only)"},"geometry":{"type":"MultiLineString","coordinates":[[[-0.1538086,51.1984913],[-0.1538379,51.1984905]]]}},
{"type":"Feature","properties":{"highway":"footway","name":null,"category":"Footpath (pedestrian only)"},"geometry":{"type":"MultiLineString","coordinates":[[[-0.156181,51.1988067],[-0.1566594,51.1987971],[-0.1577752,51.1987702],[-0.1581393,51.1987704],[-0.158164,51.198769]]]}},
{"type":"Feature","properties":{"highway":"footway","name":null,"category":"Footpath (pedestrian only)"},"geometry":{"type":"MultiLineString","coordinates":[[[-0.1561358,51.1988027],[-0.156181,51.1988067]]]}},
{"type":"Feature","properties":{"highway":"track","name":null,"category":"Track"},"geometry":{"type":"MultiLineString","coordinates":[[[-0.1496612,51.2050546],[-0.1496805,51.2050259],[-0.1496978,51.2050011],[-0.14971,51.204982],[-0.1497374,51.20494],[-0.1497812,51.2048636],[-0.1498137,51.2048018],[-0.1498442,51.2047457],[-0.1498726,51.2046827],[-0.1498828,51.2046534],[-0.1498919,51.2046165],[-0.1499328,51.2044053],[-0.1497406,51.2043893]]]}},
{"type":"Feature","properties":{"highway":"track","name":null,"category":"Track"},"geometry":{"type":"MultiLineString","coordinates":[[[-0.1528823,51.208312],[-0.1527098,51.2083144],[-0.1526066,51.2083091],[-0.1525753,51.2082879],[-0.1525877,51.2079346],[-0.1525209,51.2079015],[-0.1525476,51.2076989],[-0.1525923,51.206851]]]}},
{"type":"Feature","properties":{"highway":"track","name":null,"category":"Track"},"geometry":{"type":"MultiLineString","coordinates":[[[-0.1491345,51.2043235],[-0.1490146,51.2046223],[-0.1490055,51.2046587],[-0.1489513,51.2048796],[-0.1489121,51.2051673],[-0.1488676,51.2053377],[-0.1488633,51.2053617],[-0.1488589,51.2053932],[-0.1488565,51.205435],[-0.1488601,51.2054891],[-0.1488668,51.2055142],[-0.1488796,51.2055355],[-0.1489114,51.2055693],[-0.1489484,51.2056005],[-0.1490027,51.2056362],[-0.1490565,51.205663],[-0.1490995,51.205678],[-0.1491598,51.2056925],[-0.1492194,51.2057009],[-0.149302,51.2057048],[-0.1493865,51.2057036],[-0.1495659,51.2057006],[-0.1497076,51.2056888],[-0.1497865,51.2057146],[-0.1498365,51.2057539],[-0.1498449,51.2058155],[-0.1498494,51.2058486],[-0.1498009,51.2059444],[-0.1497867,51.2060521],[-0.1496875,51.2061876],[-0.1494814,51.2063273],[-0.1493891,51.2063534],[-0.1492617,51.2063681],[-0.1491793,51.2064007],[-0.1491656,51.2064688],[-0.1491891,51.2065375],[-0.1493182,51.2065997],[-0.1494342,51.2066158],[-0.1495288,51.2066049],[-0.149553,51.2065654],[-0.149486,51.2065316],[-0.1494388,51.2065077],[-0.1494515,51.2064567],[-0.1495113,51.2064335],[-0.1496161,51.2064377],[-0.1497576,51.2064415],[-0.1498245,51.2064145],[-0.1498428,51.206366],[-0.149817,51.2062833],[-0.1498575,51.2062559],[-0.1500053,51.2062403],[-0.150067,51.2062111],[-0.1500679,51.2061542],[-0.150018,51.2060638],[-0.1499827,51.2059955],[-0.1500105,51.2059173],[-0.1500403,51.2058359],[-0.1500201,51.2057988],[-0.1499447,51.2058019],[-0.1498449,51.2058155]]]}},
{"type":"Feature","properties":{"highway":"track","name":null,"category":"Track"},"geometry":{"type":"MultiLineString","coordinates":[[[-0.1486458,51.2048529],[-0.1487513,51.2047172],[-0.1487753,51.2046924],[-0.1488058,51.2046671],[-0.1488366,51.204648],[-0.148871,51.2046322],[-0.1489043,51.204625],[-0.1489498,51.2046195],[-0.1490146,51.2046223]]]}},
{"type":"Feature","properties":{"highway":"track","name":null,"category":"Track"},"geometry":{"type":"MultiLineString","coordinates":[[[-0.1499328,51.2044053],[-0.149987,51.2044077],[-0.1500228,51.2044034],[-0.1500477,51.2043879],[-0.1500655,51.2043624],[-0.15014,51.2042393],[-0.150168,51.2042113],[-0.1502027,51.2041828],[-0.1503279,51.2040952]]]}},
{"type":"Feature","properties":{"highway":"track","name":null,"category":"Track"},"geometry":{"type":"MultiLineString","coordinates":[[[-0.15981,51.2024656],[-0.1595942,51.202506]]]}},
{"type":"Feature","properties":{"highway":"track","name":null,"category":"Track"},"geometry":{"type":"MultiLineString","coordinates":[[[-0.1601192,51.2029432],[-0.1598854,51.2025203],[-0.15981,51.2024656]]]}},
{"type":"Feature","properties":{"highway":"track","name":null,"category":"Track"},"geometry":{"type":"MultiLineString","coordinates":[[[-0.15981,51.2024656],[-0.1596981,51.2022718],[-0.1595497,51.201978],[-0.1594587,51.2019761],[-0.1593333,51.2019967]]]}},
{"type":"Feature","properties":{"highway":"footway","name":null,"category":"Footpath (pedestrian only)"},"geometry":{"type":"MultiLineString","coordinates":[[[-0.1540469,51.1992542],[-0.1541468,51.1992589]]]}},
{"type":"Feature","properties":{"highway":"footway","name":null,"category":"Footpath (pedestrian only)"},"geometry":{"type":"MultiLineString","coordinates":[[[-0.1561011,51.1988065],[-0.1561358,51.1988027]]]}},
{"type":"Feature","properties":{"highway":"track","name":null,"category":"Track"},"geometry":{"type":"MultiLineString","coordinates":[[[-0.1496343,51.2023356],[-0.1499624,51.202416],[-0.1500389,51.2026293],[-0.1499555,51.203259]]]}},
{"type":"Feature","properties":{"highway":"track","name":null,"category":"Track"},"geometry":{"type":"MultiLineString","coordinates":[[[-0.143398,51.200768],[-0.1429953,51.2008708],[-0.1427264,51.2009202],[-0.1426672,51.2009627],[-0.1426771,51.2010284],[-0.1427363,51.2012968],[-0.1426697,51.2014607],[-0.1424686,51.2015396]]]}}
]
}
