{
"type": "FeatureCollection",
"name": "BUCKI_48",
"crs": { "type": "name", "properties": { "name": "urn:ogc:def:crs:OGC:1.3:CRS84" } },
"features": [
{ "type": "Feature", "properties": { "osm_id": 12038396636, "name": null, "amenity": "bench", "man_made": null, "leisure": null, "playground": null, "memorial": null }, "geometry": { "type": "Point", "coordinates": [ -0.6374479, 51.6019525 ] } },
{ "type": "Feature", "properties": { "osm_id": 12038396637, "name": null, "amenity": "bench", "man_made": null, "leisure": null, "playground": null, "memorial": null }, "geometry": { "type": "Point", "coordinates": [ -0.6373524, 51.6019814 ] } },
{ "type": "Feature", "properties": { "osm_id": 5711840630, "name": null, "amenity": "bench", "man_made": null, "leisure": null, "playground": null, "memorial": null }, "geometry": { "type": "Point", "coordinates": [ -0.6375284, 51.6021016 ] } },
{ "type": "Feature", "properties": { "osm_id": 5711840629, "name": null, "amenity": "bench", "man_made": null, "leisure": null, "playground": null, "memorial": null }, "geometry": { "type": "Point", "coordinates": [ -0.637438, 51.602123 ] } }
]
}
