{
"type": "FeatureCollection",
"name": "BUCKI_39_NACH_800m",
"crs": { "type": "name", "properties": { "name": "urn:ogc:def:crs:OGC:1.3:CRS84" } },
"features": [
{ "type": "Feature", "properties": { "id": 91495, "nach": 0.25544839640097539 }, "geometry": { "type": "LineString", "coordinates": [ [ -0.7767291, 51.6110308 ], [ -0.903384161473229, 51.657868381773312 ] ] } },
{ "type": "Feature", "properties": { "id": 91495, "nach": 0.25544839640097539 }, "geometry": { "type": "LineString", "coordinates": [ [ -0.779614133729779, 51.610580042803619 ], [ -0.9067275, 51.6589434 ] ] } },
{ "type": "Feature", "properties": { "id": 113, "nach": 0.36627779988584763 }, "geometry": { "type": "LineString", "coordinates": [ [ -0.908445627201969, 51.659441161094371 ], [ -0.9067275, 51.6589434 ] ] } },
{ "type": "Feature", "properties": { "id": 75721, "nach": 0.34980855063634586 }, "geometry": { "type": "LineString", "coordinates": [ [ -0.9067275, 51.6589434 ], [ -0.908373689900818, 51.659539038932195 ] ] } },
{ "type": "Feature", "properties": { "id": 91494, "nach": 0.38374282390725822 }, "geometry": { "type": "LineString", "coordinates": [ [ -0.903350739871966, 51.657665268743457 ], [ -0.9072814, 51.658912 ] ] } },
{ "type": "Feature", "properties": { "id": 5772, "nach": 0.36982092473691636 }, "geometry": { "type": "LineString", "coordinates": [ [ -0.9072814, 51.658912 ], [ -0.908577048501313, 51.659262348155934 ] ] } },
{ "type": "Feature", "properties": { "id": 5773, "nach": 0.42504421537026721 }, "geometry": { "type": "LineString", "coordinates": [ [ -0.9072814, 51.658912 ], [ -0.908634480317827, 51.659184205443466 ] ] } },
{ "type": "Feature", "properties": { "id": 263954, "nach": 0.36319416608564864 }, "geometry": { "type": "LineString", "coordinates": [ [ -0.8871951, 51.6571055 ], [ -0.8866617, 51.657136100000017 ], [ -0.8863112, 51.6571565 ], [ -0.8852992, 51.6571902 ], [ -0.8848788, 51.6571765 ] ] } },
{ "type": "Feature", "properties": { "id": 40203, "nach": 0.39438509874289734 }, "geometry": { "type": "LineString", "coordinates": [ [ -0.8885564, 51.6570066 ], [ -0.8877832, 51.6570718 ] ] } },
{ "type": "Feature", "properties": { "id": 263953, "nach": 0.37878900596701004 }, "geometry": { "type": "LineString", "coordinates": [ [ -0.8871951, 51.6571055 ], [ -0.8872721, 51.6570273 ], [ -0.8873016, 51.657009 ], [ -0.8873351, 51.6570007 ], [ -0.8876047, 51.656989 ], [ -0.8876288, 51.6569932 ], [ -0.8876543, 51.656999 ], [ -0.8877832, 51.6570718 ] ] } },
{ "type": "Feature", "properties": { "id": 137608, "nach": 0.4089847814854406 }, "geometry": { "type": "LineString", "coordinates": [ [ -0.8887035, 51.656827 ], [ -0.8885564, 51.6570066 ] ] } },
{ "type": "Feature", "properties": { "id": 131512, "nach": 0.43065255379610523 }, "geometry": { "type": "LineString", "coordinates": [ [ -0.8901361, 51.6568707 ], [ -0.8885564, 51.6570066 ] ] } },
{ "type": "Feature", "properties": { "id": 137616, "nach": 0.46823536776461544 }, "geometry": { "type": "LineString", "coordinates": [ [ -0.8912497, 51.6567883 ], [ -0.8909966, 51.6567927 ] ] } },
{ "type": "Feature", "properties": { "id": 137612, "nach": 0.45635887903263161 }, "geometry": { "type": "LineString", "coordinates": [ [ -0.8903342, 51.6568509 ], [ -0.8909966, 51.6567927 ] ] } },
{ "type": "Feature", "properties": { "id": 137615, "nach": 0.34769960586622423 }, "geometry": { "type": "LineString", "coordinates": [ [ -0.8909708, 51.6565772 ], [ -0.8909966, 51.6567927 ] ] } },
{ "type": "Feature", "properties": { "id": 137622, "nach": 0.47791694456914013 }, "geometry": { "type": "LineString", "coordinates": [ [ -0.8931464, 51.6569777 ], [ -0.893025, 51.656948699999987 ], [ -0.8924781, 51.6568611 ], [ -0.8916182, 51.6567817 ], [ -0.8912497, 51.6567883 ] ] } },
{ "type": "Feature", "properties": { "id": 137619, "nach": 0.33887540785729409 }, "geometry": { "type": "LineString", "coordinates": [ [ -0.8913584, 51.6561079 ], [ -0.8912109, 51.6561129 ], [ -0.8912497, 51.6567883 ] ] } },
{ "type": "Feature", "properties": { "id": 137613, "nach": 0.44405255590878523 }, "geometry": { "type": "LineString", "coordinates": [ [ -0.8903342, 51.6568509 ], [ -0.8901361, 51.6568707 ] ] } },
{ "type": "Feature", "properties": { "id": 137614, "nach": 0.34528696261622421 }, "geometry": { "type": "LineString", "coordinates": [ [ -0.8903342, 51.6568509 ], [ -0.8903231, 51.6567145 ] ] } },
{ "type": "Feature", "properties": { "id": 63855, "nach": 0.45130683961417334 }, "geometry": { "type": "LineString", "coordinates": [ [ -0.8930298, 51.6576979 ], [ -0.893576, 51.6570804 ] ] } },
{ "type": "Feature", "properties": { "id": 137634, "nach": 0.51662298008591989 }, "geometry": { "type": "LineString", "coordinates": [ [ -0.8942832, 51.6573032 ], [ -0.893576, 51.6570804 ] ] } },
{ "type": "Feature", "properties": { "id": 137621, "nach": 0.49139126271065026 }, "geometry": { "type": "LineString", "coordinates": [ [ -0.8931464, 51.6569777 ], [ -0.893576, 51.6570804 ] ] } },
{ "type": "Feature", "properties": { "id": 204444, "nach": 0.41722799450657166 }, "geometry": { "type": "LineString", "coordinates": [ [ -0.892448, 51.65751740000001 ], [ -0.8930298, 51.6576979 ] ] } },
{ "type": "Feature", "properties": { "id": 204443, "nach": 0.35539605285934434 }, "geometry": { "type": "LineString", "coordinates": [ [ -0.8934056, 51.657869 ], [ -0.8931163, 51.6578066 ], [ -0.893051, 51.657765 ], [ -0.8930298, 51.6576979 ] ] } },
{ "type": "Feature", "properties": { "id": 137635, "nach": 0.35273020105338926 }, "geometry": { "type": "LineString", "coordinates": [ [ -0.8942832, 51.6573032 ], [ -0.8942333, 51.6573651 ], [ -0.8942439, 51.6574747 ], [ -0.8942276, 51.657495 ] ] } },
{ "type": "Feature", "properties": { "id": 137641, "nach": 0.51744553238703361 }, "geometry": { "type": "LineString", "coordinates": [ [ -0.8945332, 51.657382 ], [ -0.8942832, 51.6573032 ] ] } },
{ "type": "Feature", "properties": { "id": 137623, "nach": 0.36220870880717354 }, "geometry": { "type": "LineString", "coordinates": [ [ -0.8931464, 51.6569777 ], [ -0.8932748, 51.656697800000011 ], [ -0.8930174, 51.6566462 ] ] } },
{ "type": "Feature", "properties": { "id": 80111, "nach": 0.57873942004034995 }, "geometry": { "type": "LineString", "coordinates": [ [ -0.8978226, 51.658551 ], [ -0.8973321, 51.658345 ] ] } },
{ "type": "Feature", "properties": { "id": 26977, "nach": 0.55589141379414109 }, "geometry": { "type": "LineString", "coordinates": [ [ -0.896642, 51.6580634 ], [ -0.8973321, 51.658345 ] ] } },
{ "type": "Feature", "properties": { "id": 63852, "nach": 0.5081699074314221 }, "geometry": { "type": "LineString", "coordinates": [ [ -0.8968482, 51.6575005 ], [ -0.8973856, 51.658206 ], [ -0.8973912, 51.6582544 ], [ -0.8973719, 51.6583136 ], [ -0.8973321, 51.658345 ] ] } },
{ "type": "Feature", "properties": { "id": 80110, "nach": 0.57968001116268408 }, "geometry": { "type": "LineString", "coordinates": [ [ -0.8978226, 51.658551 ], [ -0.8980687, 51.6586773 ] ] } },
{ "type": "Feature", "properties": { "id": 124372, "nach": 0.38871904548280278 }, "geometry": { "type": "LineString", "coordinates": [ [ -0.8972553, 51.658874400000016 ], [ -0.8974191, 51.6588735 ], [ -0.8978226, 51.658551 ] ] } },
{ "type": "Feature", "properties": { "id": 137645, "nach": 0.53366486551943415 }, "geometry": { "type": "LineString", "coordinates": [ [ -0.8963825, 51.6583127 ], [ -0.896642, 51.6580634 ] ] } },
{ "type": "Feature", "properties": { "id": 106706, "nach": 0.54557878111675329 }, "geometry": { "type": "LineString", "coordinates": [ [ -0.8958402, 51.6578018 ], [ -0.896642, 51.6580634 ] ] } },
{ "type": "Feature", "properties": { "id": 63851, "nach": 0.38434179658975787 }, "geometry": { "type": "LineString", "coordinates": [ [ -0.8968482, 51.6575005 ], [ -0.8970508, 51.6574357 ], [ -0.8971199, 51.6573536 ], [ -0.8970889, 51.6573154 ], [ -0.8968921, 51.657232 ], [ -0.8968504, 51.65718170000001 ], [ -0.8967848, 51.657019 ] ] } },
{ "type": "Feature", "properties": { "id": 175894, "nach": 0.50667301086550853 }, "geometry": { "type": "LineString", "coordinates": [ [ -0.8966563, 51.6572443 ], [ -0.8967521, 51.6573685 ], [ -0.8968482, 51.6575005 ] ] } },
{ "type": "Feature", "properties": { "id": 63944, "nach": 0.56274029629062516 }, "geometry": { "type": "LineString", "coordinates": [ [ -0.901507, 51.66008 ], [ -0.9009376, 51.659957 ], [ -0.9006353, 51.6598821 ] ] } },
{ "type": "Feature", "properties": { "id": 80132, "nach": 0.58964181610835642 }, "geometry": { "type": "LineString", "coordinates": [ [ -0.9005347, 51.659843599999988 ], [ -0.9006224, 51.6598764 ], [ -0.9006353, 51.6598821 ] ] } },
{ "type": "Feature", "properties": { "id": 63979, "nach": 0.53235561361971573 }, "geometry": { "type": "LineString", "coordinates": [ [ -0.9008152, 51.6602259 ], [ -0.9007502, 51.6601417 ], [ -0.9006386, 51.6599514 ], [ -0.9006353, 51.6598821 ] ] } },
{ "type": "Feature", "properties": { "id": 128471, "nach": 0.40762069678949209 }, "geometry": { "type": "LineString", "coordinates": [ [ -0.9016545, 51.6599129 ], [ -0.901507, 51.66008 ] ] } },
{ "type": "Feature", "properties": { "id": 137772, "nach": 0.5581973636988532 }, "geometry": { "type": "LineString", "coordinates": [ [ -0.9017512, 51.6601279 ], [ -0.901507, 51.66008 ] ] } },
{ "type": "Feature", "properties": { "id": 80131, "nach": 0.41215951860011779 }, "geometry": { "type": "LineString", "coordinates": [ [ -0.9005347, 51.659843599999988 ], [ -0.9012464, 51.6590596 ], [ -0.9013247, 51.659032200000013 ] ] } },
{ "type": "Feature", "properties": { "id": 80139, "nach": 0.59114090981789513 }, "geometry": { "type": "LineString", "coordinates": [ [ -0.89999, 51.659602 ], [ -0.9002359, 51.6597173 ], [ -0.9005347, 51.659843599999988 ] ] } },
{ "type": "Feature", "properties": { "id": 80144, "nach": 0.39618374429167513 }, "geometry": { "type": "LineString", "coordinates": [ [ -0.900699, 51.6604222 ], [ -0.9008152, 51.6602259 ] ] } },
{ "type": "Feature", "properties": { "id": 80157, "nach": 0.52194953743792971 }, "geometry": { "type": "LineString", "coordinates": [ [ -0.9010284, 51.660421 ], [ -0.9008152, 51.6602259 ] ] } },
{ "type": "Feature", "properties": { "id": 63955, "nach": 0.52465246363958296 }, "geometry": { "type": "LineString", "coordinates": [ [ -0.9028207, 51.6603604 ], [ -0.9022076, 51.6602235 ] ] } },
{ "type": "Feature", "properties": { "id": 13406, "nach": 0.52417650408467964 }, "geometry": { "type": "LineString", "coordinates": [ [ -0.9022076, 51.6602235 ], [ -0.9026744, 51.6599301 ], [ -0.9027546, 51.6598848 ] ] } },
{ "type": "Feature", "properties": { "id": 128485, "nach": 0.5672866643940836 }, "geometry": { "type": "LineString", "coordinates": [ [ -0.9018328, 51.660143900000016 ], [ -0.9020512, 51.6601868 ], [ -0.9022076, 51.6602235 ] ] } },
{ "type": "Feature", "properties": { "id": 63956, "nach": 0.52513635859024621 }, "geometry": { "type": "LineString", "coordinates": [ [ -0.9028207, 51.6603604 ], [ -0.9027712, 51.6600756 ], [ -0.9027528, 51.6599328 ] ] } },
{ "type": "Feature", "properties": { "id": 128478, "nach": 0.56700631914306632 }, "geometry": { "type": "LineString", "coordinates": [ [ -0.9029003, 51.6603785 ], [ -0.9028207, 51.6603604 ] ] } },
{ "type": "Feature", "properties": { "id": 103379, "nach": 0.55428888912655172 }, "geometry": { "type": "LineString", "coordinates": [ [ -0.9027546, 51.6598848 ], [ -0.9027304, 51.6598088 ], [ -0.9027892, 51.659642 ], [ -0.9028379, 51.659588100000015 ], [ -0.9029107, 51.659545600000015 ] ] } },
{ "type": "Feature", "properties": { "id": 103378, "nach": 0.52925938959873775 }, "geometry": { "type": "LineString", "coordinates": [ [ -0.9027546, 51.6598848 ], [ -0.9027528, 51.6599328 ] ] } },
{ "type": "Feature", "properties": { "id": 128483, "nach": 0.57424893509207753 }, "geometry": { "type": "LineString", "coordinates": [ [ -0.9018328, 51.660143900000016 ], [ -0.9017899, 51.6601355 ] ] } },
{ "type": "Feature", "properties": { "id": 137596, "nach": 0.44902363621417307 }, "geometry": { "type": "LineString", "coordinates": [ [ -0.9018752, 51.6602974 ], [ -0.9018502, 51.6602847 ], [ -0.9018328, 51.660143900000016 ] ] } },
{ "type": "Feature", "properties": { "id": 63890, "nach": 0.46731516279996738 }, "geometry": { "type": "LineString", "coordinates": [ [ -0.9058457, 51.6613445 ], [ -0.9060214, 51.6609669 ] ] } },
{ "type": "Feature", "properties": { "id": 63962, "nach": 0.53163349887744038 }, "geometry": { "type": "LineString", "coordinates": [ [ -0.9062623, 51.6610117 ], [ -0.9060214, 51.6609669 ] ] } },
{ "type": "Feature", "properties": { "id": 226026, "nach": 0.54410253259913988 }, "geometry": { "type": "LineString", "coordinates": [ [ -0.9052797, 51.6608379 ], [ -0.9060214, 51.6609669 ] ] } },
{ "type": "Feature", "properties": { "id": 63888, "nach": 0.42105557420105538 }, "geometry": { "type": "LineString", "coordinates": [ [ -0.9058457, 51.6613445 ], [ -0.9051772, 51.661208 ] ] } },
{ "type": "Feature", "properties": { "id": 63963, "nach": 0.37722245565005513 }, "geometry": { "type": "LineString", "coordinates": [ [ -0.9062623, 51.6610117 ], [ -0.906295, 51.6607883 ], [ -0.906059, 51.6607484 ], [ -0.9059946, 51.660641900000016 ] ] } },
{ "type": "Feature", "properties": { "id": 226027, "nach": 0.54539454936486886 }, "geometry": { "type": "LineString", "coordinates": [ [ -0.9052797, 51.6608379 ], [ -0.9046115, 51.6607216 ] ] } },
{ "type": "Feature", "properties": { "id": 226028, "nach": 0.28281493297753429 }, "geometry": { "type": "LineString", "coordinates": [ [ -0.9052797, 51.6608379 ], [ -0.9053454, 51.6606952 ], [ -0.9054634, 51.6606703 ], [ -0.905539, 51.6605397 ], [ -0.9055661, 51.6605094 ], [ -0.9055949, 51.660462300000013 ], [ -0.904766, 51.6602676 ], [ -0.9046151, 51.6602076 ], [ -0.9044754, 51.6601771 ], [ -0.9043537, 51.6601566 ] ] } },
{ "type": "Feature", "properties": { "id": 80086, "nach": 0.47875139755901414 }, "geometry": { "type": "LineString", "coordinates": [ [ -0.8937952, 51.6590867 ], [ -0.8939853, 51.6589978 ] ] } },
{ "type": "Feature", "properties": { "id": 80120, "nach": 0.51342492770282433 }, "geometry": { "type": "LineString", "coordinates": [ [ -0.8948375, 51.6589124 ], [ -0.8945271, 51.6589149 ], [ -0.894345, 51.6589299 ], [ -0.8941631, 51.6589595 ], [ -0.8939853, 51.6589978 ] ] } },
{ "type": "Feature", "properties": { "id": 80093, "nach": 0.45254855874330008 }, "geometry": { "type": "LineString", "coordinates": [ [ -0.8937818, 51.6584011 ], [ -0.8939324, 51.658688500000011 ], [ -0.8939314, 51.65875 ], [ -0.8939129, 51.6588312 ], [ -0.893911, 51.6588935 ], [ -0.8939853, 51.6589978 ] ] } },
{ "type": "Feature", "properties": { "id": 80108, "nach": 0.42701896984163645 }, "geometry": { "type": "LineString", "coordinates": [ [ -0.8941317, 51.6594739 ], [ -0.8937952, 51.6590867 ] ] } },
{ "type": "Feature", "properties": { "id": 137603, "nach": 0.4259373926803689 }, "geometry": { "type": "LineString", "coordinates": [ [ -0.8934464, 51.6591541 ], [ -0.8935564, 51.6591438 ], [ -0.8937952, 51.6590867 ] ] } },
{ "type": "Feature", "properties": { "id": 80121, "nach": 0.48346777589677198 }, "geometry": { "type": "LineString", "coordinates": [ [ -0.8948375, 51.6589124 ], [ -0.8948609, 51.658717 ], [ -0.8949141, 51.6585594 ] ] } },
{ "type": "Feature", "properties": { "id": 80122, "nach": 0.49845624843749997 }, "geometry": { "type": "LineString", "coordinates": [ [ -0.894991, 51.6589131 ], [ -0.8948375, 51.6589124 ] ] } },
{ "type": "Feature", "properties": { "id": 80104, "nach": 0.35918467634407969 }, "geometry": { "type": "LineString", "coordinates": [ [ -0.893852, 51.658339500000011 ], [ -0.8937818, 51.6584011 ] ] } },
{ "type": "Feature", "properties": { "id": 80117, "nach": 0.41819590263186796 }, "geometry": { "type": "LineString", "coordinates": [ [ -0.8931362, 51.6583786 ], [ -0.8934496, 51.6583561 ], [ -0.8935784, 51.6583522 ], [ -0.8937098, 51.6583742 ], [ -0.8937818, 51.6584011 ] ] } },
{ "type": "Feature", "properties": { "id": 26972, "nach": 0.51238085738966133 }, "geometry": { "type": "LineString", "coordinates": [ [ -0.8958664, 51.6588329 ], [ -0.8957618, 51.6588312 ] ] } },
{ "type": "Feature", "properties": { "id": 80123, "nach": 0.50275580353731764 }, "geometry": { "type": "LineString", "coordinates": [ [ -0.894991, 51.6589131 ], [ -0.8953647, 51.6588525 ], [ -0.8957618, 51.6588312 ] ] } },
{ "type": "Feature", "properties": { "id": 66934, "nach": 0.35804769867023611 }, "geometry": { "type": "LineString", "coordinates": [ [ -0.8949141, 51.6585594 ], [ -0.8951512, 51.6586333 ], [ -0.8957618, 51.6588312 ] ] } },
{ "type": "Feature", "properties": { "id": 63959, "nach": 0.5193454659961696 }, "geometry": { "type": "LineString", "coordinates": [ [ -0.8961271, 51.6585582 ], [ -0.8958958, 51.6587719 ], [ -0.8958664, 51.6588329 ] ] } },
{ "type": "Feature", "properties": { "id": 278589, "nach": 0.50375625850104899 }, "geometry": { "type": "LineString", "coordinates": [ [ -0.8965063, 51.659277200000012 ], [ -0.8960256, 51.6590957 ], [ -0.8959226, 51.6590161 ], [ -0.895877, 51.6589178 ], [ -0.8958664, 51.6588329 ] ] } },
{ "type": "Feature", "properties": { "id": 80128, "nach": 0.43868189987672707 }, "geometry": { "type": "LineString", "coordinates": [ [ -0.8945564, 51.6592189 ], [ -0.8949235, 51.6590401 ], [ -0.8949735, 51.6590033 ], [ -0.894991, 51.6589131 ] ] } },
{ "type": "Feature", "properties": { "id": 66935, "nach": 0.0 }, "geometry": { "type": "LineString", "coordinates": [ [ -0.8949141, 51.6585594 ], [ -0.8945589, 51.6584676 ], [ -0.8936416, 51.658152100000024 ], [ -0.892857, 51.6579732 ], [ -0.8921949, 51.6578267 ], [ -0.8907451, 51.6575532 ], [ -0.8907275, 51.6578532 ], [ -0.8906756, 51.65868 ], [ -0.8895579, 51.6588721 ], [ -0.8884256, 51.6590709 ], [ -0.8875701, 51.6591885 ], [ -0.8873202, 51.6592819 ], [ -0.88708390000001, 51.6595479 ], [ -0.8868701, 51.6596782 ], [ -0.8858911, 51.6597185 ], [ -0.8849006, 51.6598972 ], [ -0.8847635, 51.6599047 ] ] } },
{ "type": "Feature", "properties": { "id": 66936, "nach": 0.48848742324095623 }, "geometry": { "type": "LineString", "coordinates": [ [ -0.8956925, 51.6577536 ], [ -0.8949141, 51.6585594 ] ] } },
{ "type": "Feature", "properties": { "id": 63960, "nach": 0.37863955447352055 }, "geometry": { "type": "LineString", "coordinates": [ [ -0.8961271, 51.6585582 ], [ -0.896412, 51.6586871 ], [ -0.8965201, 51.6587253 ], [ -0.8966133, 51.6587361 ], [ -0.8967107, 51.6587154 ], [ -0.8968538, 51.6586035 ] ] } },
{ "type": "Feature", "properties": { "id": 137646, "nach": 0.52656863023648792 }, "geometry": { "type": "LineString", "coordinates": [ [ -0.8963825, 51.6583127 ], [ -0.8961271, 51.6585582 ] ] } },
{ "type": "Feature", "properties": { "id": 278590, "nach": 0.50381359406880422 }, "geometry": { "type": "LineString", "coordinates": [ [ -0.8965063, 51.659277200000012 ], [ -0.8971109, 51.659505600000017 ], [ -0.8971674, 51.65952630000001 ] ] } },
{ "type": "Feature", "properties": { "id": 278592, "nach": 0.38171001529879039 }, "geometry": { "type": "LineString", "coordinates": [ [ -0.8963907, 51.6594117 ], [ -0.896364, 51.6593983 ], [ -0.8965063, 51.659277200000012 ] ] } },
{ "type": "Feature", "properties": { "id": 137647, "nach": 0.3821769606892706 }, "geometry": { "type": "LineString", "coordinates": [ [ -0.8963825, 51.6583127 ], [ -0.89589, 51.6581047 ], [ -0.89578240000001, 51.6582025 ] ] } },
{ "type": "Feature", "properties": { "id": 106707, "nach": 0.56414215958258662 }, "geometry": { "type": "LineString", "coordinates": [ [ -0.8958402, 51.6578018 ], [ -0.8956925, 51.6577536 ] ] } },
{ "type": "Feature", "properties": { "id": 175893, "nach": 0.52313728499208856 }, "geometry": { "type": "LineString", "coordinates": [ [ -0.8966563, 51.6572443 ], [ -0.8964504, 51.6573263 ], [ -0.8961242, 51.657480500000013 ], [ -0.8958606, 51.6576832 ], [ -0.8958402, 51.6578018 ] ] } },
{ "type": "Feature", "properties": { "id": 63930, "nach": 0.47741985976074047 }, "geometry": { "type": "LineString", "coordinates": [ [ -0.8949097, 51.6555978 ], [ -0.8952529, 51.6554807 ] ] } },
{ "type": "Feature", "properties": { "id": 63837, "nach": 0.51486860683950386 }, "geometry": { "type": "LineString", "coordinates": [ [ -0.8961254, 51.6565615 ], [ -0.8952529, 51.6554807 ] ] } },
{ "type": "Feature", "properties": { "id": 167302, "nach": 0.48747461591601471 }, "geometry": { "type": "LineString", "coordinates": [ [ -0.8948925, 51.655032599999984 ], [ -0.8952529, 51.6554807 ] ] } },
{ "type": "Feature", "properties": { "id": 63929, "nach": 0.45468866139251451 }, "geometry": { "type": "LineString", "coordinates": [ [ -0.8949097, 51.6555978 ], [ -0.8943816, 51.6557543 ] ] } },
{ "type": "Feature", "properties": { "id": 63935, "nach": 0.36212903987006378 }, "geometry": { "type": "LineString", "coordinates": [ [ -0.8955033, 51.6560212 ], [ -0.8953355, 51.6558052 ], [ -0.8952588, 51.655737 ], [ -0.8951123, 51.6556689 ], [ -0.8949097, 51.6555978 ] ] } },
{ "type": "Feature", "properties": { "id": 63838, "nach": 0.53216085668957303 }, "geometry": { "type": "LineString", "coordinates": [ [ -0.8961254, 51.6565615 ], [ -0.896785, 51.6563651 ] ] } },
{ "type": "Feature", "properties": { "id": 175892, "nach": 0.55272522396661738 }, "geometry": { "type": "LineString", "coordinates": [ [ -0.8966563, 51.6572443 ], [ -0.8961254, 51.6565615 ] ] } },
{ "type": "Feature", "properties": { "id": 167303, "nach": 0.47630732199999798 }, "geometry": { "type": "LineString", "coordinates": [ [ -0.8948925, 51.655032599999984 ], [ -0.894581, 51.6546453 ] ] } },
{ "type": "Feature", "properties": { "id": 167304, "nach": 0.36130008588774737 }, "geometry": { "type": "LineString", "coordinates": [ [ -0.8948925, 51.655032599999984 ], [ -0.8953111, 51.654907699999988 ], [ -0.8953882, 51.6548945 ], [ -0.8954519, 51.6549093 ] ] } },
{ "type": "Feature", "properties": { "id": 110877, "nach": 0.43027174062701834 }, "geometry": { "type": "LineString", "coordinates": [ [ -0.9033069, 51.6573849 ], [ -0.9035585, 51.6572759 ] ] } },
{ "type": "Feature", "properties": { "id": 223694, "nach": 0.37827144620651548 }, "geometry": { "type": "LineString", "coordinates": [ [ -0.9046674, 51.6570406 ], [ -0.9046659, 51.6570624 ], [ -0.9046627, 51.6570723 ], [ -0.9046577, 51.6570884 ], [ -0.9045034, 51.6571176 ], [ -0.9041231, 51.6571874 ], [ -0.9037124, 51.65726320000001 ], [ -0.9036815, 51.6572677 ], [ -0.9036669, 51.6572698 ], [ -0.9035585, 51.6572759 ] ] } },
{ "type": "Feature", "properties": { "id": 206227, "nach": 0.33245727480034681 }, "geometry": { "type": "LineString", "coordinates": [ [ -0.906077, 51.6576172 ], [ -0.9045401, 51.6573759 ], [ -0.9041753, 51.6573992 ], [ -0.9035585, 51.6572759 ] ] } },
{ "type": "Feature", "properties": { "id": 259319, "nach": 0.44956729066633733 }, "geometry": { "type": "LineString", "coordinates": [ [ -0.9030163, 51.6570032 ], [ -0.9032192, 51.65724130000001 ], [ -0.9033069, 51.6573849 ] ] } },
{ "type": "Feature", "properties": { "id": 110879, "nach": 0.56625527733470937 }, "geometry": { "type": "LineString", "coordinates": [ [ -0.9033069, 51.6573849 ], [ -0.903350739871966, 51.657665268743457 ] ] } },
{ "type": "Feature", "properties": { "id": 223693, "nach": 0.19298549531410214 }, "geometry": { "type": "LineString", "coordinates": [ [ -0.9046674, 51.6570406 ], [ -0.9046755, 51.6569228 ], [ -0.9046506, 51.6567545 ], [ -0.9046533, 51.6564921 ], [ -0.9048844, 51.6562313 ], [ -0.9051269, 51.6560905 ], [ -0.9055297, 51.6559275 ], [ -0.9058888, 51.6557826 ], [ -0.9060593, 51.6556966 ], [ -0.9062054, 51.6554043 ], [ -0.9063317, 51.6552685 ], [ -0.9067215, 51.6548957 ], [ -0.906785, 51.654715099999976 ], [ -0.9067951, 51.6546392 ], [ -0.9067675, 51.6544163 ], [ -0.9077077, 51.6537791 ], [ -0.9091289, 51.6527868 ] ] } },
{ "type": "Feature", "properties": { "id": 223696, "nach": 0.21882627843296004 }, "geometry": { "type": "LineString", "coordinates": [ [ -0.9046674, 51.6570406 ], [ -0.9044258, 51.6570295 ], [ -0.903825, 51.6569779 ], [ -0.9030532, 51.6569263 ], [ -0.9029007, 51.6569125 ] ] } },
{ "type": "Feature", "properties": { "id": 223695, "nach": 0.32326932439166911 }, "geometry": { "type": "LineString", "coordinates": [ [ -0.9046674, 51.6570406 ], [ -0.9047385, 51.6570438 ], [ -0.9051098, 51.6569482 ], [ -0.9052469, 51.6570887 ], [ -0.90545170000001, 51.6573926 ], [ -0.9058261, 51.657364 ], [ -0.9061111, 51.657321 ] ] } },
{ "type": "Feature", "properties": { "id": 125052, "nach": 0.0 }, "geometry": { "type": "LineString", "coordinates": [ [ -0.903333, 51.6516342 ], [ -0.9033598, 51.6514957 ], [ -0.9035625, 51.6504472 ], [ -0.9035125, 51.6501394 ], [ -0.9033666, 51.64985750000001 ], [ -0.9031498, 51.6497179 ], [ -0.9028831, 51.6496248 ], [ -0.9020327, 51.6495963 ], [ -0.9014325, 51.6495239 ], [ -0.9008906, 51.6493946 ], [ -0.9004738, 51.6492601 ], [ -0.9002612, 51.6491877 ], [ -0.9000403, 51.6488877 ], [ -0.8998111, 51.6486058 ], [ -0.8996985, 51.6483989 ], [ -0.8994601, 51.648163800000013 ], [ -0.8993398, 51.6479432 ], [ -0.8993933, 51.6476357 ], [ -0.8998479, 51.6470942 ], [ -0.901439, 51.645830599999989 ], [ -0.9017131, 51.6455298 ], [ -0.901907, 51.6452757 ], [ -0.9019289, 51.6450608 ] ] } },
{ "type": "Feature", "properties": { "id": 40220, "nach": 0.37013227678439076 }, "geometry": { "type": "LineString", "coordinates": [ [ -0.892309, 51.6527658 ], [ -0.8926194, 51.652444100000011 ], [ -0.8927382, 51.6523664 ] ] } },
{ "type": "Feature", "properties": { "id": 63988, "nach": 0.38223237610692601 }, "geometry": { "type": "LineString", "coordinates": [ [ -0.8934873, 51.6532883 ], [ -0.8932178, 51.6529545 ], [ -0.8927382, 51.6523664 ] ] } },
{ "type": "Feature", "properties": { "id": 63863, "nach": 0.3722870269573304 }, "geometry": { "type": "LineString", "coordinates": [ [ -0.8919283, 51.65084430000001 ], [ -0.8920277, 51.6512356 ], [ -0.892134, 51.6514921 ], [ -0.8922468, 51.6516915 ], [ -0.8924033, 51.651918900000013 ], [ -0.8927382, 51.6523664 ] ] } },
{ "type": "Feature", "properties": { "id": 127621, "nach": 0.3666529031677207 }, "geometry": { "type": "LineString", "coordinates": [ [ -0.8919426, 51.6531362 ], [ -0.892309, 51.6527658 ] ] } },
{ "type": "Feature", "properties": { "id": 40224, "nach": 0.35307244109437796 }, "geometry": { "type": "LineString", "coordinates": [ [ -0.8916483, 51.6506247 ], [ -0.8916893, 51.6507222 ], [ -0.8917727, 51.651009399999978 ], [ -0.8918324, 51.651238 ], [ -0.8919093, 51.6514445 ], [ -0.8919764, 51.6515711 ], [ -0.8921269, 51.651801499999983 ], [ -0.8923678, 51.652148 ], [ -0.8923997, 51.6522453 ], [ -0.8923917, 51.6523539 ], [ -0.892352, 51.6524609 ], [ -0.8922175, 51.6526022 ], [ -0.8921902, 51.6526508 ], [ -0.8922117, 51.6526948 ], [ -0.892309, 51.6527658 ] ] } },
{ "type": "Feature", "properties": { "id": 63987, "nach": 0.44370846408309467 }, "geometry": { "type": "LineString", "coordinates": [ [ -0.8934873, 51.6532883 ], [ -0.8937516, 51.6536179 ] ] } },
{ "type": "Feature", "properties": { "id": 63986, "nach": 0.42509314634689782 }, "geometry": { "type": "LineString", "coordinates": [ [ -0.8934873, 51.6532883 ], [ -0.8941866, 51.6530738 ] ] } },
{ "type": "Feature", "properties": { "id": 63862, "nach": 0.35470867423442354 }, "geometry": { "type": "LineString", "coordinates": [ [ -0.8919283, 51.65084430000001 ], [ -0.8923247, 51.6507333 ] ] } },
{ "type": "Feature", "properties": { "id": 127549, "nach": 0.30757283067626251 }, "geometry": { "type": "LineString", "coordinates": [ [ -0.8904562, 51.647402 ], [ -0.8903665, 51.6475456 ], [ -0.8902639, 51.6477387 ], [ -0.8902022, 51.6478976 ], [ -0.8901744, 51.6480586 ], [ -0.8901862, 51.6482218 ], [ -0.8902249, 51.6483807 ], [ -0.8902782, 51.6485354 ], [ -0.8903502, 51.648674 ], [ -0.8904457, 51.6488182 ], [ -0.8905668, 51.6489525 ], [ -0.8906795, 51.6490606 ], [ -0.8908999, 51.6492378 ], [ -0.891305, 51.6495722 ], [ -0.8914817, 51.6497457 ], [ -0.8915843, 51.6498805 ], [ -0.8916666, 51.6499939 ], [ -0.8917125, 51.6500976 ], [ -0.8917773, 51.6502782 ], [ -0.8919283, 51.65084430000001 ] ] } },
{ "type": "Feature", "properties": { "id": 80082, "nach": 0.39928194474835516 }, "geometry": { "type": "LineString", "coordinates": [ [ -0.8906576, 51.6546068 ], [ -0.8910445, 51.6541351 ] ] } },
{ "type": "Feature", "properties": { "id": 40204, "nach": 0.40720416834111134 }, "geometry": { "type": "LineString", "coordinates": [ [ -0.8912489, 51.6539008 ], [ -0.8910445, 51.6541351 ] ] } },
{ "type": "Feature", "properties": { "id": 63999, "nach": 0.29830710777753794 }, "geometry": { "type": "LineString", "coordinates": [ [ -0.8920449, 51.6546006 ], [ -0.8912532, 51.6543322 ], [ -0.8910445, 51.6541351 ] ] } },
{ "type": "Feature", "properties": { "id": 151824, "nach": 0.39296160137850078 }, "geometry": { "type": "LineString", "coordinates": [ [ -0.8904494, 51.6548606 ], [ -0.8906576, 51.6546068 ] ] } },
{ "type": "Feature", "properties": { "id": 80084, "nach": 0.30649443766735435 }, "geometry": { "type": "LineString", "coordinates": [ [ -0.8912855, 51.6548459 ], [ -0.8906576, 51.6546068 ] ] } },
{ "type": "Feature", "properties": { "id": 40207, "nach": 0.41407108263528841 }, "geometry": { "type": "LineString", "coordinates": [ [ -0.8918277, 51.65325 ], [ -0.8912489, 51.6539008 ] ] } },
{ "type": "Feature", "properties": { "id": 63858, "nach": 0.28538753430739661 }, "geometry": { "type": "LineString", "coordinates": [ [ -0.8891244, 51.6526059 ], [ -0.8895643, 51.6529363 ], [ -0.8895946, 51.652991600000014 ], [ -0.8896089, 51.6531292 ], [ -0.8896253, 51.653196 ], [ -0.8897602, 51.653427500000021 ], [ -0.8898107, 51.6534986 ], [ -0.88987070000001, 51.653551900000011 ], [ -0.8899523, 51.6536153 ], [ -0.8900914, 51.653680300000012 ], [ -0.8902602, 51.6537182 ], [ -0.8906597, 51.6537404 ], [ -0.8908232, 51.6537627 ], [ -0.8912489, 51.6539008 ] ] } },
{ "type": "Feature", "properties": { "id": 137610, "nach": 0.32456457520742493 }, "geometry": { "type": "LineString", "coordinates": [ [ -0.8887035, 51.656827 ], [ -0.8886145, 51.6567785 ], [ -0.8883426, 51.6568128 ] ] } },
{ "type": "Feature", "properties": { "id": 151825, "nach": 0.3905098855598339 }, "geometry": { "type": "LineString", "coordinates": [ [ -0.8904494, 51.6548606 ], [ -0.8897956, 51.6556231 ], [ -0.8892556, 51.656225300000017 ], [ -0.8887035, 51.656827 ] ] } },
{ "type": "Feature", "properties": { "id": 131513, "nach": 0.33315728124156579 }, "geometry": { "type": "LineString", "coordinates": [ [ -0.8901361, 51.6568707 ], [ -0.8900886, 51.656462500000011 ], [ -0.8901449, 51.6564209 ], [ -0.8903219, 51.6564143 ] ] } },
{ "type": "Feature", "properties": { "id": 127620, "nach": 0.42886323136430587 }, "geometry": { "type": "LineString", "coordinates": [ [ -0.8919426, 51.6531362 ], [ -0.8918277, 51.65325 ] ] } },
{ "type": "Feature", "properties": { "id": 40211, "nach": 0.35301419573369147 }, "geometry": { "type": "LineString", "coordinates": [ [ -0.8903229, 51.6526734 ], [ -0.8903857, 51.6527475 ], [ -0.8907044, 51.652866400000015 ], [ -0.8918277, 51.65325 ] ] } },
{ "type": "Feature", "properties": { "id": 127622, "nach": 0.41513797381674594 }, "geometry": { "type": "LineString", "coordinates": [ [ -0.8919426, 51.6531362 ], [ -0.8923943, 51.6532903 ], [ -0.8925472, 51.6532937 ], [ -0.8927897, 51.6532657 ], [ -0.892998, 51.65349890000001 ], [ -0.8930184, 51.6535438 ], [ -0.8930207, 51.6535773 ], [ -0.8930015, 51.653647100000015 ], [ -0.8930062, 51.6536911 ], [ -0.8930917, 51.6537807 ] ] } },
{ "type": "Feature", "properties": { "id": 40218, "nach": 0.28021518858624017 }, "geometry": { "type": "LineString", "coordinates": [ [ -0.8901219, 51.6517077 ], [ -0.8900712, 51.6518395 ], [ -0.8899752, 51.65206950000001 ], [ -0.8899618, 51.6521253 ], [ -0.8898955, 51.65233210000001 ], [ -0.8899284, 51.6523966 ], [ -0.8899727, 51.652462 ], [ -0.8900613, 51.6525423 ], [ -0.8902055, 51.6526524 ], [ -0.8903229, 51.6526734 ] ] } },
{ "type": "Feature", "properties": { "id": 40215, "nach": 0.28021518858624017 }, "geometry": { "type": "LineString", "coordinates": [ [ -0.8906099, 51.6516729 ], [ -0.8907849, 51.6519585 ], [ -0.8907918, 51.6520459 ], [ -0.8906819, 51.6521918 ], [ -0.8904921, 51.6524137 ], [ -0.8903349, 51.6525898 ], [ -0.8903229, 51.6526734 ] ] } },
{ "type": "Feature", "properties": { "id": 40217, "nach": 0.067580118941342526 }, "geometry": { "type": "LineString", "coordinates": [ [ -0.8901219, 51.6517077 ], [ -0.890125, 51.651635 ], [ -0.8901636, 51.651576900000016 ], [ -0.8902425, 51.6515521 ], [ -0.8903498, 51.6515481 ], [ -0.8904542, 51.6515461 ], [ -0.8905505, 51.6515641 ], [ -0.8905849, 51.6516168 ], [ -0.8906099, 51.6516729 ] ] } },
{ "type": "Feature", "properties": { "id": 178991, "nach": 0.31445537007024521 }, "geometry": { "type": "LineString", "coordinates": [ [ -0.8905238, 51.649832700000019 ], [ -0.8905624, 51.6498708 ], [ -0.8906751, 51.6500206 ], [ -0.8913525, 51.64981430000001 ], [ -0.8914612, 51.649935800000016 ], [ -0.891495, 51.650073200000023 ], [ -0.8916048, 51.6504747 ], [ -0.8916483, 51.6506247 ] ] } },
{ "type": "Feature", "properties": { "id": 40227, "nach": 0.3020423352291306 }, "geometry": { "type": "LineString", "coordinates": [ [ -0.888196, 51.6509569 ], [ -0.8883408, 51.650881400000017 ], [ -0.8885389, 51.650794 ], [ -0.8887708, 51.650727699999983 ], [ -0.8889817, 51.6506792 ], [ -0.8892049, 51.6506478 ], [ -0.88945, 51.650617500000017 ], [ -0.8897259, 51.6506082 ], [ -0.8899438, 51.6506108 ], [ -0.8902511, 51.650644 ], [ -0.890761, 51.6506727 ], [ -0.8911964, 51.6506669 ], [ -0.8916483, 51.6506247 ] ] } },
{ "type": "Feature", "properties": { "id": 178989, "nach": 0.25907836137405288 }, "geometry": { "type": "LineString", "coordinates": [ [ -0.8905238, 51.649832700000019 ], [ -0.8909803, 51.6496877 ], [ -0.8906048, 51.64941480000001 ], [ -0.8902507, 51.649048700000016 ], [ -0.889961, 51.648569299999984 ], [ -0.8898215, 51.6482232 ], [ -0.8896889, 51.6478576 ], [ -0.8894303, 51.6476745 ], [ -0.8890038, 51.6474718 ] ] } },
{ "type": "Feature", "properties": { "id": 178990, "nach": 0.27218633329563136 }, "geometry": { "type": "LineString", "coordinates": [ [ -0.8905238, 51.649832700000019 ], [ -0.8903718, 51.649881 ], [ -0.8900839, 51.6499309 ] ] } },
{ "type": "Feature", "properties": { "id": 40228, "nach": 0.2550308669808905 }, "geometry": { "type": "LineString", "coordinates": [ [ -0.8886885, 51.6513051 ], [ -0.888196, 51.6509569 ] ] } },
{ "type": "Feature", "properties": { "id": 127019, "nach": 0.28418256652028673 }, "geometry": { "type": "LineString", "coordinates": [ [ -0.8857742, 51.6504322 ], [ -0.8876885, 51.651318100000012 ], [ -0.8878962, 51.651158 ], [ -0.888196, 51.6509569 ] ] } },
{ "type": "Feature", "properties": { "id": 127018, "nach": 0.31521406118463541 }, "geometry": { "type": "LineString", "coordinates": [ [ -0.8857742, 51.6504322 ], [ -0.8859163, 51.6503867 ] ] } },
{ "type": "Feature", "properties": { "id": 127614, "nach": 0.30115037682743417 }, "geometry": { "type": "LineString", "coordinates": [ [ -0.8856684, 51.6504661 ], [ -0.8857742, 51.6504322 ] ] } },
{ "type": "Feature", "properties": { "id": 66938, "nach": 0.56189231646133764 }, "geometry": { "type": "LineString", "coordinates": [ [ -0.8956925, 51.6577536 ], [ -0.8946941, 51.6574327 ] ] } },
{ "type": "Feature", "properties": { "id": 137640, "nach": 0.54531064042725308 }, "geometry": { "type": "LineString", "coordinates": [ [ -0.8945332, 51.657382 ], [ -0.8946941, 51.6574327 ] ] } },
{ "type": "Feature", "properties": { "id": 105197, "nach": 0.48435712677605691 }, "geometry": { "type": "LineString", "coordinates": [ [ -0.8951555, 51.6568728 ], [ -0.89512, 51.6569436 ], [ -0.8950237, 51.6570442 ], [ -0.8946941, 51.6574327 ] ] } },
{ "type": "Feature", "properties": { "id": 137642, "nach": 0.47319851256243534 }, "geometry": { "type": "LineString", "coordinates": [ [ -0.8945332, 51.657382 ], [ -0.8943879, 51.6575482 ] ] } },
{ "type": "Feature", "properties": { "id": 105196, "nach": 0.43094969694412755 }, "geometry": { "type": "LineString", "coordinates": [ [ -0.8951555, 51.6568728 ], [ -0.8952062, 51.6567785 ], [ -0.8952417, 51.6567061 ], [ -0.8952873, 51.6566684 ], [ -0.8954379, 51.656609 ] ] } },
{ "type": "Feature", "properties": { "id": 105195, "nach": 0.43369352456734905 }, "geometry": { "type": "LineString", "coordinates": [ [ -0.8951555, 51.6568728 ], [ -0.8950592, 51.6568461 ], [ -0.8950034, 51.6568241 ], [ -0.8948169, 51.656723400000011 ] ] } },
{ "type": "Feature", "properties": { "id": 137702, "nach": 0.45946219310504161 }, "geometry": { "type": "LineString", "coordinates": [ [ -0.9072599, 51.659806 ], [ -0.9071469, 51.659809 ], [ -0.9070296, 51.6597947 ] ] } },
{ "type": "Feature", "properties": { "id": 137703, "nach": 0.41805484937471415 }, "geometry": { "type": "LineString", "coordinates": [ [ -0.9072599, 51.659806 ], [ -0.9072787, 51.6598318 ], [ -0.9072934, 51.6598642 ], [ -0.9072921, 51.659897500000014 ], [ -0.9072304, 51.6600456 ], [ -0.9072116, 51.6601388 ], [ -0.907225, 51.66016960000001 ], [ -0.9074584, 51.660202800000015 ], [ -0.9074918, 51.6602369 ], [ -0.908031, 51.660301 ], [ -0.9079894, 51.6604108 ], [ -0.9079076, 51.6606022 ], [ -0.9078553, 51.6607228 ], [ -0.9077963, 51.6608667 ], [ -0.9077588, 51.6609773 ], [ -0.9077199, 51.6610505 ], [ -0.9076718, 51.6611287 ], [ -0.9076353, 51.6612114 ] ] } },
{ "type": "Feature", "properties": { "id": 137701, "nach": 0.54601892553855291 }, "geometry": { "type": "LineString", "coordinates": [ [ -0.908634480317827, 51.659184205443466 ], [ -0.9072599, 51.659806 ] ] } },
{ "type": "Feature", "properties": { "id": 106211, "nach": 0.47946204922294411 }, "geometry": { "type": "LineString", "coordinates": [ [ -0.9020281, 51.6581855 ], [ -0.9019236, 51.6580438 ], [ -0.9016541, 51.6578631 ], [ -0.9011473, 51.657668200000018 ], [ -0.9007839, 51.6575348 ], [ -0.9005894, 51.6575166 ] ] } },
{ "type": "Feature", "properties": { "id": 229490, "nach": 0.48248859568792413 }, "geometry": { "type": "LineString", "coordinates": [ [ -0.8996887, 51.6568721 ], [ -0.8997089, 51.65688260000001 ], [ -0.9005006, 51.6573522 ], [ -0.9005644, 51.6574307 ], [ -0.9005894, 51.6575166 ] ] } },
{ "type": "Feature", "properties": { "id": 63844, "nach": 0.35635527050380539 }, "geometry": { "type": "LineString", "coordinates": [ [ -0.9004096, 51.6577655 ], [ -0.9005607, 51.657580599999989 ], [ -0.9005894, 51.6575166 ] ] } },
{ "type": "Feature", "properties": { "id": 106212, "nach": 0.47261536398535087 }, "geometry": { "type": "LineString", "coordinates": [ [ -0.9020281, 51.6581855 ], [ -0.9019506, 51.6582308 ], [ -0.9018382, 51.658379 ] ] } },
{ "type": "Feature", "properties": { "id": 106213, "nach": 0.3983393607110019 }, "geometry": { "type": "LineString", "coordinates": [ [ -0.9020281, 51.6581855 ], [ -0.9021214, 51.6581549 ], [ -0.9022255, 51.6581423 ], [ -0.9023645, 51.6581558 ], [ -0.9030207, 51.658401 ] ] } },
{ "type": "Feature", "properties": { "id": 229488, "nach": 0.48556456167771106 }, "geometry": { "type": "LineString", "coordinates": [ [ -0.8996887, 51.6568721 ], [ -0.8995779, 51.656814900000015 ] ] } },
{ "type": "Feature", "properties": { "id": 229491, "nach": 0.36961623057028559 }, "geometry": { "type": "LineString", "coordinates": [ [ -0.9000017, 51.6566649 ], [ -0.8996887, 51.6568721 ] ] } },
{ "type": "Feature", "properties": { "id": 63845, "nach": 0.36699289943412422 }, "geometry": { "type": "LineString", "coordinates": [ [ -0.9004096, 51.6577655 ], [ -0.9003017, 51.6579168 ], [ -0.90029350000001, 51.6579766 ], [ -0.9003046, 51.6580308 ], [ -0.9003472, 51.6580894 ], [ -0.9004398, 51.6581435 ], [ -0.9014564, 51.6584546 ], [ -0.9015403, 51.6584634 ], [ -0.9016221, 51.6584617 ], [ -0.9017026, 51.6584507 ], [ -0.9017737, 51.6584208 ], [ -0.9018382, 51.658379 ] ] } },
{ "type": "Feature", "properties": { "id": 63843, "nach": 0.3545935116650924 }, "geometry": { "type": "LineString", "coordinates": [ [ -0.9004096, 51.6577655 ], [ -0.8997031, 51.6575647 ] ] } },
{ "type": "Feature", "properties": { "id": 158404, "nach": 0.37577316241487407 }, "geometry": { "type": "LineString", "coordinates": [ [ -0.9051966, 51.659296 ], [ -0.9045324, 51.6589762 ], [ -0.9037667, 51.6587078 ] ] } },
{ "type": "Feature", "properties": { "id": 106204, "nach": 0.5120263332348316 }, "geometry": { "type": "LineString", "coordinates": [ [ -0.9035577, 51.6589958 ], [ -0.9037265, 51.6588065 ], [ -0.9037507, 51.658758400000011 ], [ -0.9037667, 51.6587078 ] ] } },
{ "type": "Feature", "properties": { "id": 63849, "nach": 0.42730662674493763 }, "geometry": { "type": "LineString", "coordinates": [ [ -0.9030207, 51.658401 ], [ -0.9034559, 51.658568200000012 ], [ -0.9037137, 51.6586644 ], [ -0.9037667, 51.6587078 ] ] } },
{ "type": "Feature", "properties": { "id": 110879, "nach": 0.56625527733470937 }, "geometry": { "type": "LineString", "coordinates": [ [ -0.903384161473229, 51.657868381773312 ], [ -0.9037667, 51.6587078 ] ] } },
{ "type": "Feature", "properties": { "id": 106203, "nach": 0.55349376089339453 }, "geometry": { "type": "LineString", "coordinates": [ [ -0.9035577, 51.6589958 ], [ -0.9033854, 51.6591778 ], [ -0.9032226, 51.6593294 ], [ -0.9030792, 51.659491600000017 ], [ -0.9029582, 51.6595736 ] ] } },
{ "type": "Feature", "properties": { "id": 106207, "nach": 0.50788787362424037 }, "geometry": { "type": "LineString", "coordinates": [ [ -0.9027527, 51.6587128 ], [ -0.9035577, 51.6589958 ] ] } },
{ "type": "Feature", "properties": { "id": 106208, "nach": 0.23979833559538039 }, "geometry": { "type": "LineString", "coordinates": [ [ -0.9027778, 51.6586841 ], [ -0.9030207, 51.658401 ] ] } },
{ "type": "Feature", "properties": { "id": 63868, "nach": 0.34925986008646787 }, "geometry": { "type": "LineString", "coordinates": [ [ -0.8995779, 51.656814900000015 ], [ -0.898873, 51.657287500000024 ] ] } },
{ "type": "Feature", "properties": { "id": 63867, "nach": 0.36387901527542277 }, "geometry": { "type": "LineString", "coordinates": [ [ -0.8983726, 51.6576373 ], [ -0.898873, 51.657287500000024 ] ] } },
{ "type": "Feature", "properties": { "id": 63835, "nach": 0.38392526692069195 }, "geometry": { "type": "LineString", "coordinates": [ [ -0.896785, 51.6563651 ], [ -0.8969154, 51.656511 ], [ -0.8969666, 51.6565564 ], [ -0.8970277, 51.6565886 ], [ -0.8971153, 51.6566195 ], [ -0.8983985, 51.6570519 ], [ -0.8985136, 51.6571005 ], [ -0.898873, 51.657287500000024 ] ] } },
{ "type": "Feature", "properties": { "id": 229485, "nach": 0.48230239362436172 }, "geometry": { "type": "LineString", "coordinates": [ [ -0.8993118, 51.6566596 ], [ -0.8995779, 51.656814900000015 ] ] } },
{ "type": "Feature", "properties": { "id": 127636, "nach": 0.52249601829010983 }, "geometry": { "type": "LineString", "coordinates": [ [ -0.8975184, 51.6561359 ], [ -0.896785, 51.6563651 ] ] } },
{ "type": "Feature", "properties": { "id": 173287, "nach": 0.40473700258689049 }, "geometry": { "type": "LineString", "coordinates": [ [ -0.8961985, 51.6546075 ], [ -0.8963686, 51.6548233 ], [ -0.8964439, 51.6549593 ], [ -0.8965299, 51.6551463 ], [ -0.8973065, 51.6558407 ], [ -0.8973313, 51.6559077 ], [ -0.8975184, 51.6561359 ] ] } },
{ "type": "Feature", "properties": { "id": 229470, "nach": 0.51242325400200273 }, "geometry": { "type": "LineString", "coordinates": [ [ -0.8981437, 51.6561373 ], [ -0.8979855, 51.65608180000001 ], [ -0.8978528, 51.656074 ], [ -0.8976923, 51.6560895 ], [ -0.8975184, 51.6561359 ] ] } },
{ "type": "Feature", "properties": { "id": 106210, "nach": 0.48816492773619774 }, "geometry": { "type": "LineString", "coordinates": [ [ -0.9027778, 51.6586841 ], [ -0.9018382, 51.658379 ] ] } },
{ "type": "Feature", "properties": { "id": 106209, "nach": 0.49505486437471591 }, "geometry": { "type": "LineString", "coordinates": [ [ -0.9027778, 51.6586841 ], [ -0.9027527, 51.6587128 ] ] } },
{ "type": "Feature", "properties": { "id": 106206, "nach": 0.38018595017846557 }, "geometry": { "type": "LineString", "coordinates": [ [ -0.9027527, 51.6587128 ], [ -0.9026152, 51.65887 ] ] } },
{ "type": "Feature", "properties": { "id": 204446, "nach": 0.34923217059665307 }, "geometry": { "type": "LineString", "coordinates": [ [ -0.892448, 51.65751740000001 ], [ -0.8923431, 51.6574849 ], [ -0.8923002, 51.6573251 ] ] } },
{ "type": "Feature", "properties": { "id": 204447, "nach": 0.34923217059665307 }, "geometry": { "type": "LineString", "coordinates": [ [ -0.8922855, 51.6577322 ], [ -0.892448, 51.65751740000001 ] ] } },
{ "type": "Feature", "properties": { "id": 63866, "nach": 0.2876314803126937 }, "geometry": { "type": "LineString", "coordinates": [ [ -0.8919354, 51.6500831 ], [ -0.8923247, 51.6507333 ] ] } },
{ "type": "Feature", "properties": { "id": 63865, "nach": 0.2864700489262707 }, "geometry": { "type": "LineString", "coordinates": [ [ -0.8928513, 51.6514551 ], [ -0.8923247, 51.6507333 ] ] } },
{ "type": "Feature", "properties": { "id": 229484, "nach": 0.48639812431656854 }, "geometry": { "type": "LineString", "coordinates": [ [ -0.8993118, 51.6566596 ], [ -0.8989481, 51.6564474 ] ] } },
{ "type": "Feature", "properties": { "id": 229487, "nach": 0.36815573381752159 }, "geometry": { "type": "LineString", "coordinates": [ [ -0.8996574, 51.6564335 ], [ -0.8993118, 51.6566596 ] ] } },
{ "type": "Feature", "properties": { "id": 63885, "nach": 0.37669988336510846 }, "geometry": { "type": "LineString", "coordinates": [ [ -0.9051772, 51.661208 ], [ -0.9049098, 51.661166 ] ] } },
{ "type": "Feature", "properties": { "id": 127630, "nach": 0.4411913786446231 }, "geometry": { "type": "LineString", "coordinates": [ [ -0.9050412, 51.6614993 ], [ -0.9051772, 51.661208 ] ] } },
{ "type": "Feature", "properties": { "id": 127631, "nach": 0.4818118079085123 }, "geometry": { "type": "LineString", "coordinates": [ [ -0.9050412, 51.6614993 ], [ -0.9048901, 51.6618182 ] ] } },
{ "type": "Feature", "properties": { "id": 127635, "nach": 0.50901617610896766 }, "geometry": { "type": "LineString", "coordinates": [ [ -0.9036354, 51.6613415 ], [ -0.903939, 51.6613743 ], [ -0.9042094, 51.6613674 ], [ -0.904263, 51.6613355 ], [ -0.9044937, 51.6613521 ], [ -0.9047244, 51.6614054 ], [ -0.9048987, 51.6614509 ], [ -0.9050412, 51.6614993 ] ] } },
{ "type": "Feature", "properties": { "id": 103409, "nach": 0.37763057601701522 }, "geometry": { "type": "LineString", "coordinates": [ [ -0.8976313, 51.6611489 ], [ -0.8976127, 51.6612206 ] ] } },
{ "type": "Feature", "properties": { "id": 106668, "nach": 0.44487410243763231 }, "geometry": { "type": "LineString", "coordinates": [ [ -0.8976838, 51.6609471 ], [ -0.8976313, 51.6611489 ] ] } },
{ "type": "Feature", "properties": { "id": 103411, "nach": 0.37763057601701522 }, "geometry": { "type": "LineString", "coordinates": [ [ -0.8977599, 51.6611625 ], [ -0.8976313, 51.6611489 ] ] } },
{ "type": "Feature", "properties": { "id": 63897, "nach": 0.50016291496646437 }, "geometry": { "type": "LineString", "coordinates": [ [ -0.8988767, 51.66021270000001 ], [ -0.8982536, 51.6604288 ] ] } },
{ "type": "Feature", "properties": { "id": 63905, "nach": 0.48934479721657081 }, "geometry": { "type": "LineString", "coordinates": [ [ -0.8978121, 51.660172 ], [ -0.8982536, 51.6604288 ] ] } },
{ "type": "Feature", "properties": { "id": 152621, "nach": 0.45508498376301953 }, "geometry": { "type": "LineString", "coordinates": [ [ -0.8976931, 51.6609114 ], [ -0.8976949, 51.6609046 ], [ -0.8977656, 51.6607928 ], [ -0.8978711, 51.6606673 ], [ -0.8980377, 51.660544 ], [ -0.8982536, 51.6604288 ] ] } },
{ "type": "Feature", "properties": { "id": 229493, "nach": 0.50556308281191797 }, "geometry": { "type": "LineString", "coordinates": [ [ -0.899135, 51.6604549 ], [ -0.8988767, 51.66021270000001 ] ] } },
{ "type": "Feature", "properties": { "id": 215074, "nach": 0.4904965408275252 }, "geometry": { "type": "LineString", "coordinates": [ [ -0.8991033, 51.6601109 ], [ -0.8990615, 51.6601294 ], [ -0.8988767, 51.66021270000001 ] ] } },
{ "type": "Feature", "properties": { "id": 63906, "nach": 0.38140988574704893 }, "geometry": { "type": "LineString", "coordinates": [ [ -0.8978121, 51.660172 ], [ -0.8977483, 51.6602318 ], [ -0.8974125, 51.6604177 ] ] } },
{ "type": "Feature", "properties": { "id": 215076, "nach": 0.49770946606016264 }, "geometry": { "type": "LineString", "coordinates": [ [ -0.8978198, 51.6601046 ], [ -0.8978121, 51.660172 ] ] } },
{ "type": "Feature", "properties": { "id": 152619, "nach": 0.44903916406302036 }, "geometry": { "type": "LineString", "coordinates": [ [ -0.8976931, 51.6609114 ], [ -0.8976838, 51.6609471 ] ] } },
{ "type": "Feature", "properties": { "id": 152622, "nach": 0.37746089335566263 }, "geometry": { "type": "LineString", "coordinates": [ [ -0.8971875, 51.6608946 ], [ -0.8976931, 51.6609114 ] ] } },
{ "type": "Feature", "properties": { "id": 229494, "nach": 0.50158586142781636 }, "geometry": { "type": "LineString", "coordinates": [ [ -0.899135, 51.6604549 ], [ -0.8994027, 51.6607061 ], [ -0.8994169, 51.6607882 ] ] } },
{ "type": "Feature", "properties": { "id": 229496, "nach": 0.38337640935540429 }, "geometry": { "type": "LineString", "coordinates": [ [ -0.89877060000001, 51.6606845 ], [ -0.898861, 51.6606484 ], [ -0.899135, 51.6604549 ] ] } },
{ "type": "Feature", "properties": { "id": 229497, "nach": 0.51964077242498719 }, "geometry": { "type": "LineString", "coordinates": [ [ -0.8991368, 51.660088 ], [ -0.8991033, 51.6601109 ] ] } },
{ "type": "Feature", "properties": { "id": 215079, "nach": 0.45488981676454049 }, "geometry": { "type": "LineString", "coordinates": [ [ -0.8978198, 51.6601046 ], [ -0.8979284, 51.6601297 ], [ -0.8980786, 51.6601297 ], [ -0.8982475, 51.6600965 ], [ -0.8984568, 51.6599751 ], [ -0.8986096, 51.6599617 ], [ -0.8987625, 51.6599783 ], [ -0.8989261, 51.660014900000021 ], [ -0.8991033, 51.6601109 ] ] } },
{ "type": "Feature", "properties": { "id": 80137, "nach": 0.59087833069817874 }, "geometry": { "type": "LineString", "coordinates": [ [ -0.89999, 51.659602 ], [ -0.8998454, 51.6595319 ] ] } },
{ "type": "Feature", "properties": { "id": 106751, "nach": 0.58897402378044106 }, "geometry": { "type": "LineString", "coordinates": [ [ -0.8984024, 51.658833300000012 ], [ -0.8989028, 51.6590725 ], [ -0.8998454, 51.6595319 ] ] } },
{ "type": "Feature", "properties": { "id": 229499, "nach": 0.52284836755514452 }, "geometry": { "type": "LineString", "coordinates": [ [ -0.8991368, 51.660088 ], [ -0.8992635, 51.6600016 ], [ -0.8998454, 51.6595319 ] ] } },
{ "type": "Feature", "properties": { "id": 80140, "nach": 0.39395848982690551 }, "geometry": { "type": "LineString", "coordinates": [ [ -0.9002304, 51.6593756 ], [ -0.89999, 51.659602 ] ] } },
{ "type": "Feature", "properties": { "id": 106750, "nach": 0.58083595053018711 }, "geometry": { "type": "LineString", "coordinates": [ [ -0.8984024, 51.658833300000012 ], [ -0.8980687, 51.6586773 ] ] } },
{ "type": "Feature", "properties": { "id": 137684, "nach": 0.56963581375292249 }, "geometry": { "type": "LineString", "coordinates": [ [ -0.898665, 51.6585907 ], [ -0.898504, 51.6587429 ], [ -0.8984185, 51.6588174 ], [ -0.8984024, 51.658833300000012 ] ] } },
{ "type": "Feature", "properties": { "id": 229500, "nach": 0.38777374985971513 }, "geometry": { "type": "LineString", "coordinates": [ [ -0.8986629, 51.6598534 ], [ -0.8991368, 51.660088 ] ] } },
{ "type": "Feature", "properties": { "id": 215077, "nach": 0.49445617913890594 }, "geometry": { "type": "LineString", "coordinates": [ [ -0.8978198, 51.6601046 ], [ -0.8978295, 51.6600197 ], [ -0.8978046, 51.6599192 ], [ -0.8977516, 51.659813 ], [ -0.89766, 51.65972630000001 ], [ -0.8975244, 51.6596569 ], [ -0.8971767, 51.6595297 ], [ -0.8971674, 51.65952630000001 ] ] } },
{ "type": "Feature", "properties": { "id": 215081, "nach": 0.41452232786397764 }, "geometry": { "type": "LineString", "coordinates": [ [ -0.8973409, 51.6600804 ], [ -0.8975332, 51.6600926 ], [ -0.8977174, 51.6600937 ], [ -0.8978198, 51.6601046 ] ] } },
{ "type": "Feature", "properties": { "id": 63917, "nach": 0.37570266783908896 }, "geometry": { "type": "LineString", "coordinates": [ [ -0.8917846, 51.655875499999986 ], [ -0.8913561, 51.6557831 ] ] } },
{ "type": "Feature", "properties": { "id": 158402, "nach": 0.31141978563590261 }, "geometry": { "type": "LineString", "coordinates": [ [ -0.8913145, 51.6558595 ], [ -0.8913561, 51.6557831 ] ] } },
{ "type": "Feature", "properties": { "id": 158403, "nach": 0.30403844356539356 }, "geometry": { "type": "LineString", "coordinates": [ [ -0.8914929, 51.6555612 ], [ -0.8914433, 51.6556106 ], [ -0.8913561, 51.6557831 ] ] } },
{ "type": "Feature", "properties": { "id": 63918, "nach": 0.0 }, "geometry": { "type": "LineString", "coordinates": [ [ -0.8917846, 51.655875499999986 ], [ -0.8918776, 51.655734 ], [ -0.8919352, 51.655684700000016 ], [ -0.893654, 51.655135 ], [ -0.8938217, 51.6551465 ], [ -0.8939363, 51.6552029 ], [ -0.8943816, 51.6557543 ] ] } },
{ "type": "Feature", "properties": { "id": 63932, "nach": 0.39731495916334664 }, "geometry": { "type": "LineString", "coordinates": [ [ -0.8933389, 51.656235399999986 ], [ -0.8917846, 51.655875499999986 ] ] } },
{ "type": "Feature", "properties": { "id": 63913, "nach": 0.43908568459561259 }, "geometry": { "type": "LineString", "coordinates": [ [ -0.8943816, 51.6557543 ], [ -0.8939678, 51.655886799999983 ] ] } },
{ "type": "Feature", "properties": { "id": 63934, "nach": 0.42012706416079515 }, "geometry": { "type": "LineString", "coordinates": [ [ -0.8933389, 51.656235399999986 ], [ -0.8934107, 51.656099100000013 ], [ -0.893472, 51.6560462 ], [ -0.8939678, 51.655886799999983 ] ] } },
{ "type": "Feature", "properties": { "id": 163578, "nach": 0.31331120620011627 }, "geometry": { "type": "LineString", "coordinates": [ [ -0.8924939, 51.6544829 ], [ -0.8928112, 51.6544118 ] ] } },
{ "type": "Feature", "properties": { "id": 63923, "nach": 0.38061888901514279 }, "geometry": { "type": "LineString", "coordinates": [ [ -0.8930917, 51.6537807 ], [ -0.893043, 51.6538137 ], [ -0.8930145, 51.6538555 ], [ -0.8928112, 51.6544118 ] ] } },
{ "type": "Feature", "properties": { "id": 63928, "nach": 0.30941693462247982 }, "geometry": { "type": "LineString", "coordinates": [ [ -0.8934352, 51.654453 ], [ -0.8932414, 51.654503900000016 ], [ -0.8931573, 51.6545118 ], [ -0.8930708, 51.6544972 ], [ -0.8929274, 51.6544485 ], [ -0.8928112, 51.6544118 ] ] } },
{ "type": "Feature", "properties": { "id": 63925, "nach": 0.43659380568775397 }, "geometry": { "type": "LineString", "coordinates": [ [ -0.8937516, 51.6536179 ], [ -0.8930917, 51.6537807 ] ] } },
{ "type": "Feature", "properties": { "id": 80099, "nach": 0.46525258042554946 }, "geometry": { "type": "LineString", "coordinates": [ [ -0.894581, 51.6546453 ], [ -0.8937516, 51.6536179 ] ] } },
{ "type": "Feature", "properties": { "id": 80114, "nach": 0.35309126357096016 }, "geometry": { "type": "LineString", "coordinates": [ [ -0.8937169, 51.654904300000013 ], [ -0.894581, 51.6546453 ] ] } },
{ "type": "Feature", "properties": { "id": 63939, "nach": 0.40191089976537975 }, "geometry": { "type": "LineString", "coordinates": [ [ -0.9021322, 51.65927090000001 ], [ -0.9013247, 51.659032200000013 ] ] } },
{ "type": "Feature", "properties": { "id": 80133, "nach": 0.38794385899329026 }, "geometry": { "type": "LineString", "coordinates": [ [ -0.9006772, 51.6589285 ], [ -0.9011305, 51.6589811 ], [ -0.9013247, 51.659032200000013 ] ] } },
{ "type": "Feature", "properties": { "id": 128481, "nach": 0.37188761903499667 }, "geometry": { "type": "LineString", "coordinates": [ [ -0.9017531, 51.65978040000001 ], [ -0.9021322, 51.65927090000001 ] ] } },
{ "type": "Feature", "properties": { "id": 63946, "nach": 0.42120535612532028 }, "geometry": { "type": "LineString", "coordinates": [ [ -0.9029107, 51.659545600000015 ], [ -0.9028134, 51.6594804 ], [ -0.9026537, 51.6594166 ], [ -0.9021322, 51.65927090000001 ] ] } },
{ "type": "Feature", "properties": { "id": 128482, "nach": 0.39131747982589871 }, "geometry": { "type": "LineString", "coordinates": [ [ -0.9017531, 51.65978040000001 ], [ -0.9019652, 51.6597936 ] ] } },
{ "type": "Feature", "properties": { "id": 128480, "nach": 0.43654436002333447 }, "geometry": { "type": "LineString", "coordinates": [ [ -0.9017531, 51.65978040000001 ], [ -0.9016545, 51.6599129 ] ] } },
{ "type": "Feature", "properties": { "id": 103413, "nach": 0.55361719922771657 }, "geometry": { "type": "LineString", "coordinates": [ [ -0.9029582, 51.6595736 ], [ -0.9029107, 51.659545600000015 ] ] } },
{ "type": "Feature", "properties": { "id": 128473, "nach": 0.41714386839866902 }, "geometry": { "type": "LineString", "coordinates": [ [ -0.9016545, 51.6599129 ], [ -0.9017899, 51.6601355 ] ] } },
{ "type": "Feature", "properties": { "id": 137773, "nach": 0.48779212429936725 }, "geometry": { "type": "LineString", "coordinates": [ [ -0.9017512, 51.6601279 ], [ -0.9017263, 51.66020360000001 ], [ -0.9014819, 51.6604973 ], [ -0.9014225, 51.6607519 ] ] } },
{ "type": "Feature", "properties": { "id": 137771, "nach": 0.5738810174241149 }, "geometry": { "type": "LineString", "coordinates": [ [ -0.9017512, 51.6601279 ], [ -0.9017899, 51.6601355 ] ] } },
{ "type": "Feature", "properties": { "id": 103415, "nach": 0.38714832975674024 }, "geometry": { "type": "LineString", "coordinates": [ [ -0.9029582, 51.6595736 ], [ -0.9030274, 51.6596058 ], [ -0.9030857, 51.659652600000015 ], [ -0.9031048, 51.659694400000014 ] ] } },
{ "type": "Feature", "properties": { "id": 175247, "nach": 0.43688999711723858 }, "geometry": { "type": "LineString", "coordinates": [ [ -0.9029523, 51.6598118 ], [ -0.9030052, 51.659785300000017 ], [ -0.9030716, 51.6597488 ], [ -0.9031048, 51.659694400000014 ] ] } },
{ "type": "Feature", "properties": { "id": 126868, "nach": 0.38487021292699447 }, "geometry": { "type": "LineString", "coordinates": [ [ -0.9035395, 51.6597252 ], [ -0.903282, 51.659670300000016 ], [ -0.9031048, 51.659694400000014 ] ] } },
{ "type": "Feature", "properties": { "id": 175246, "nach": 0.44190696094391019 }, "geometry": { "type": "LineString", "coordinates": [ [ -0.9029523, 51.6598118 ], [ -0.9028399, 51.6598681 ], [ -0.9027528, 51.6599328 ] ] } },
{ "type": "Feature", "properties": { "id": 175245, "nach": 0.36733535799289774 }, "geometry": { "type": "LineString", "coordinates": [ [ -0.9029523, 51.6598118 ], [ -0.9043537, 51.6601566 ] ] } },
{ "type": "Feature", "properties": { "id": 128477, "nach": 0.5681852898043962 }, "geometry": { "type": "LineString", "coordinates": [ [ -0.9029003, 51.6603785 ], [ -0.9031287, 51.660427 ] ] } },
{ "type": "Feature", "properties": { "id": 128479, "nach": 0.37722853089923658 }, "geometry": { "type": "LineString", "coordinates": [ [ -0.9029003, 51.6603785 ], [ -0.9027793, 51.6604125 ], [ -0.9024671, 51.6604877 ] ] } },
{ "type": "Feature", "properties": { "id": 137700, "nach": 0.36497503386666325 }, "geometry": { "type": "LineString", "coordinates": [ [ -0.907141, 51.6602333 ], [ -0.9069447, 51.6607228 ], [ -0.90683610000001, 51.6609308 ], [ -0.9068215, 51.6609949 ], [ -0.9067837, 51.6610875 ] ] } },
{ "type": "Feature", "properties": { "id": 103380, "nach": 0.5501116729698794 }, "geometry": { "type": "LineString", "coordinates": [ [ -0.9018124, 51.6610993 ], [ -0.9017684, 51.6610531 ] ] } },
{ "type": "Feature", "properties": { "id": 106287, "nach": 0.54160106206515291 }, "geometry": { "type": "LineString", "coordinates": [ [ -0.9014225, 51.6607519 ], [ -0.9017684, 51.6610531 ] ] } },
{ "type": "Feature", "properties": { "id": 137727, "nach": 0.45180606788394789 }, "geometry": { "type": "LineString", "coordinates": [ [ -0.9022536, 51.6609967 ], [ -0.9020855, 51.661001 ], [ -0.9018775, 51.6610179 ], [ -0.9017684, 51.6610531 ] ] } },
{ "type": "Feature", "properties": { "id": 103382, "nach": 0.52982914151300042 }, "geometry": { "type": "LineString", "coordinates": [ [ -0.9018124, 51.6610993 ], [ -0.9017308, 51.6611541 ], [ -0.901524, 51.6612578 ], [ -0.9011398, 51.6613496 ] ] } },
{ "type": "Feature", "properties": { "id": 103383, "nach": 0.51756636332082973 }, "geometry": { "type": "LineString", "coordinates": [ [ -0.9018124, 51.6610993 ], [ -0.9017396, 51.6610858 ], [ -0.9009306, 51.66086820000001 ], [ -0.9004474, 51.660740300000015 ] ] } },
{ "type": "Feature", "properties": { "id": 106805, "nach": 0.54346852892678499 }, "geometry": { "type": "LineString", "coordinates": [ [ -0.902241, 51.6612302 ], [ -0.9021715, 51.6612293 ], [ -0.9019907, 51.6611891 ], [ -0.9018742, 51.6611382 ], [ -0.9018124, 51.6610993 ] ] } },
{ "type": "Feature", "properties": { "id": 106288, "nach": 0.53519019273863178 }, "geometry": { "type": "LineString", "coordinates": [ [ -0.9014225, 51.6607519 ], [ -0.9010284, 51.660421 ] ] } },
{ "type": "Feature", "properties": { "id": 137728, "nach": 0.44995144996832243 }, "geometry": { "type": "LineString", "coordinates": [ [ -0.9022536, 51.6609967 ], [ -0.9025581, 51.660988900000014 ], [ -0.902731, 51.66100440000001 ], [ -0.9028536, 51.6610273 ] ] } },
{ "type": "Feature", "properties": { "id": 137726, "nach": 0.22546698447347907 }, "geometry": { "type": "LineString", "coordinates": [ [ -0.9022536, 51.6609967 ], [ -0.902241, 51.6612302 ] ] } },
{ "type": "Feature", "properties": { "id": 80149, "nach": 0.50576970589193671 }, "geometry": { "type": "LineString", "coordinates": [ [ -0.9027954, 51.661088800000016 ], [ -0.9028536, 51.6610273 ] ] } },
{ "type": "Feature", "properties": { "id": 137724, "nach": 0.52140382086074777 }, "geometry": { "type": "LineString", "coordinates": [ [ -0.9029926, 51.6606618 ], [ -0.9029342, 51.6607876 ], [ -0.9029021, 51.6609398 ], [ -0.9028536, 51.6610273 ] ] } },
{ "type": "Feature", "properties": { "id": 106804, "nach": 0.5525382755037217 }, "geometry": { "type": "LineString", "coordinates": [ [ -0.902241, 51.6612302 ], [ -0.9023523, 51.661226 ], [ -0.9025155, 51.6611957 ], [ -0.902683, 51.6611543 ], [ -0.9027954, 51.661088800000016 ] ] } },
{ "type": "Feature", "properties": { "id": 80155, "nach": 0.54310942273164431 }, "geometry": { "type": "LineString", "coordinates": [ [ -0.9036513, 51.6613122 ], [ -0.9034009, 51.6612529 ], [ -0.9032654, 51.6612011 ], [ -0.9027954, 51.661088800000016 ] ] } },
{ "type": "Feature", "properties": { "id": 137723, "nach": 0.51738342018614325 }, "geometry": { "type": "LineString", "coordinates": [ [ -0.9029926, 51.6606618 ], [ -0.9030019, 51.6606418 ], [ -0.9031287, 51.660427 ] ] } },
{ "type": "Feature", "properties": { "id": 137725, "nach": 0.38849870966710248 }, "geometry": { "type": "LineString", "coordinates": [ [ -0.9029926, 51.6606618 ], [ -0.9024936, 51.6605231 ], [ -0.9024671, 51.6604877 ] ] } },
{ "type": "Feature", "properties": { "id": 80135, "nach": 0.56290753420800521 }, "geometry": { "type": "LineString", "coordinates": [ [ -0.903648, 51.6605374 ], [ -0.9031287, 51.660427 ] ] } },
{ "type": "Feature", "properties": { "id": 137719, "nach": 0.55382021160794981 }, "geometry": { "type": "LineString", "coordinates": [ [ -0.9036883, 51.660546 ], [ -0.903648, 51.6605374 ] ] } },
{ "type": "Feature", "properties": { "id": 175243, "nach": 0.4603222549512756 }, "geometry": { "type": "LineString", "coordinates": [ [ -0.9043537, 51.6601566 ], [ -0.9042913, 51.6601735 ], [ -0.9040448, 51.66019 ], [ -0.9038816, 51.6602134 ], [ -0.9037687, 51.660258300000017 ], [ -0.9037252, 51.66032280000001 ], [ -0.903648, 51.6605374 ] ] } },
{ "type": "Feature", "properties": { "id": 162326, "nach": 0.5207827620822516 }, "geometry": { "type": "LineString", "coordinates": [ [ -0.9008398, 51.6614074 ], [ -0.9011398, 51.6613496 ] ] } },
{ "type": "Feature", "properties": { "id": 80152, "nach": 0.38158826076485752 }, "geometry": { "type": "LineString", "coordinates": [ [ -0.9013138, 51.6616037 ], [ -0.9011398, 51.6613496 ] ] } },
{ "type": "Feature", "properties": { "id": 162327, "nach": 0.51038168960907315 }, "geometry": { "type": "LineString", "coordinates": [ [ -0.9008398, 51.6614074 ], [ -0.9006314, 51.6614475 ], [ -0.9005352, 51.6614826 ] ] } },
{ "type": "Feature", "properties": { "id": 162328, "nach": 0.3806074166003226 }, "geometry": { "type": "LineString", "coordinates": [ [ -0.9008398, 51.6614074 ], [ -0.9007005, 51.6613276 ], [ -0.9006228, 51.6613051 ], [ -0.9003036, 51.6613109 ] ] } },
{ "type": "Feature", "properties": { "id": 80145, "nach": 0.42320331140091544 }, "geometry": { "type": "LineString", "coordinates": [ [ -0.900699, 51.6604222 ], [ -0.900641600000012, 51.6604998 ], [ -0.9004474, 51.660740300000015 ] ] } },
{ "type": "Feature", "properties": { "id": 80158, "nach": 0.43152600208384939 }, "geometry": { "type": "LineString", "coordinates": [ [ -0.9010284, 51.660421 ], [ -0.9008832, 51.6604524 ], [ -0.900699, 51.6604222 ] ] } },
{ "type": "Feature", "properties": { "id": 195391, "nach": 0.38854159524956627 }, "geometry": { "type": "LineString", "coordinates": [ [ -0.9001816, 51.6602563 ], [ -0.9003546, 51.660323 ], [ -0.900699, 51.6604222 ] ] } },
{ "type": "Feature", "properties": { "id": 106659, "nach": 0.52514144570604171 }, "geometry": { "type": "LineString", "coordinates": [ [ -0.8994169, 51.6607882 ], [ -0.8994217, 51.660788 ], [ -0.9000446, 51.6607797 ], [ -0.9002407, 51.660681 ], [ -0.9004474, 51.660740300000015 ] ] } },
{ "type": "Feature", "properties": { "id": 106657, "nach": 0.49315851905722657 }, "geometry": { "type": "LineString", "coordinates": [ [ -0.8994169, 51.6607882 ], [ -0.899425, 51.6608349 ] ] } },
{ "type": "Feature", "properties": { "id": 63991, "nach": 0.3682769666803915 }, "geometry": { "type": "LineString", "coordinates": [ [ -0.8946528, 51.6536715 ], [ -0.8941866, 51.6530738 ] ] } },
{ "type": "Feature", "properties": { "id": 189386, "nach": 0.38085217789572628 }, "geometry": { "type": "LineString", "coordinates": [ [ -0.8932458, 51.65200260000001 ], [ -0.8941866, 51.6530738 ] ] } },
{ "type": "Feature", "properties": { "id": 63992, "nach": 0.29985267384010911 }, "geometry": { "type": "LineString", "coordinates": [ [ -0.8951849, 51.6534928 ], [ -0.8946528, 51.6536715 ] ] } },
{ "type": "Feature", "properties": { "id": 63996, "nach": 0.30170261032007134 }, "geometry": { "type": "LineString", "coordinates": [ [ -0.8942961, 51.6537845 ], [ -0.8946528, 51.6536715 ] ] } },
{ "type": "Feature", "properties": { "id": 189387, "nach": 0.34809071650993006 }, "geometry": { "type": "LineString", "coordinates": [ [ -0.8932458, 51.65200260000001 ], [ -0.8930118, 51.6517362 ] ] } },
{ "type": "Feature", "properties": { "id": 189389, "nach": 0.2874058540552526 }, "geometry": { "type": "LineString", "coordinates": [ [ -0.8928752, 51.6521299 ], [ -0.8932458, 51.65200260000001 ] ] } },
{ "type": "Feature", "properties": { "id": 63998, "nach": 0.28245132777787857 }, "geometry": { "type": "LineString", "coordinates": [ [ -0.8926845, 51.6518504 ], [ -0.8930118, 51.6517362 ] ] } },
{ "type": "Feature", "properties": { "id": 63997, "nach": 0.28245132777787857 }, "geometry": { "type": "LineString", "coordinates": [ [ -0.893343800000011, 51.6516287 ], [ -0.8930118, 51.6517362 ] ] } },
{ "type": "Feature", "properties": { "id": 151826, "nach": 0.0 }, "geometry": { "type": "LineString", "coordinates": [ [ -0.8904494, 51.6548606 ], [ -0.8901127, 51.6547223 ], [ -0.8898785, 51.6545291 ], [ -0.8896394, 51.654222 ], [ -0.8892893, 51.6535734 ], [ -0.8890262, 51.653270800000016 ], [ -0.8885867, 51.6528274 ], [ -0.8881521, 51.652503900000013 ], [ -0.8879203, 51.6523885 ], [ -0.88741810000001, 51.6521998 ], [ -0.8873264, 51.6522058 ], [ -0.8872322, 51.6522268 ], [ -0.8871405, 51.65225370000001 ], [ -0.8869256, 51.6524919 ], [ -0.8868435, 51.6525114 ], [ -0.8867373, 51.6525099 ], [ -0.8865855, 51.6525383 ], [ -0.8851863, 51.6533762 ], [ -0.8829792, 51.6544206 ], [ -0.8812546, 51.6548175 ], [ -0.8813256, 51.65538140000001 ], [ -0.8810953, 51.656249 ], [ -0.8810629, 51.6563708 ] ] } },
{ "type": "Feature", "properties": { "id": 80085, "nach": 0.0 }, "geometry": { "type": "LineString", "coordinates": [ [ -0.8912855, 51.6548459 ], [ -0.8914608, 51.6546752 ], [ -0.8916332, 51.6547307 ], [ -0.8921047, 51.6549043 ], [ -0.8918077, 51.65521540000001 ], [ -0.891736, 51.6552669 ], [ -0.8916252, 51.6552386 ], [ -0.8914286, 51.6551636 ], [ -0.8912401, 51.6550928 ], [ -0.8911346, 51.655047 ], [ -0.8912855, 51.6548459 ] ] } },
{ "type": "Feature", "properties": { "id": 80107, "nach": 0.36002724007028242 }, "geometry": { "type": "LineString", "coordinates": [ [ -0.8941317, 51.6594739 ], [ -0.8940756, 51.6594991 ] ] } },
{ "type": "Feature", "properties": { "id": 80118, "nach": 0.36002724007028242 }, "geometry": { "type": "LineString", "coordinates": [ [ -0.8941877, 51.6594517 ], [ -0.8941317, 51.6594739 ] ] } },
{ "type": "Feature", "properties": { "id": 137606, "nach": 0.35823961979964131 }, "geometry": { "type": "LineString", "coordinates": [ [ -0.8933157, 51.6587598 ], [ -0.8934464, 51.6591541 ] ] } },
{ "type": "Feature", "properties": { "id": 137605, "nach": 0.35488479841030246 }, "geometry": { "type": "LineString", "coordinates": [ [ -0.8933204, 51.6596296 ], [ -0.8935927, 51.6595955 ], [ -0.8934464, 51.6591541 ] ] } },
{ "type": "Feature", "properties": { "id": 80126, "nach": 0.37090894567381716 }, "geometry": { "type": "LineString", "coordinates": [ [ -0.8945564, 51.6592189 ], [ -0.8946463, 51.6592874 ] ] } },
{ "type": "Feature", "properties": { "id": 80127, "nach": 0.37120475475326753 }, "geometry": { "type": "LineString", "coordinates": [ [ -0.8945564, 51.6592189 ], [ -0.8944832, 51.6591767 ] ] } },
{ "type": "Feature", "properties": { "id": 80103, "nach": 0.3900146846644561 }, "geometry": { "type": "LineString", "coordinates": [ [ -0.8980687, 51.6586773 ], [ -0.897738, 51.6589476 ], [ -0.8976747, 51.6590445 ] ] } },
{ "type": "Feature", "properties": { "id": 80115, "nach": 0.35010648054302246 }, "geometry": { "type": "LineString", "coordinates": [ [ -0.8931362, 51.6583786 ], [ -0.8928304, 51.6584275 ] ] } },
{ "type": "Feature", "properties": { "id": 80129, "nach": 0.34885154300039362 }, "geometry": { "type": "LineString", "coordinates": [ [ -0.893077, 51.658136800000015 ], [ -0.8931362, 51.6583786 ] ] } },
{ "type": "Feature", "properties": { "id": 137721, "nach": 0.54885548251964378 }, "geometry": { "type": "LineString", "coordinates": [ [ -0.9036883, 51.660546 ], [ -0.9039574, 51.6606031 ], [ -0.904097, 51.6606284 ] ] } },
{ "type": "Feature", "properties": { "id": 137722, "nach": 0.38639365513855523 }, "geometry": { "type": "LineString", "coordinates": [ [ -0.9038025, 51.660295200000014 ], [ -0.9036883, 51.660546 ] ] } },
{ "type": "Feature", "properties": { "id": 175242, "nach": 0.46226703914144091 }, "geometry": { "type": "LineString", "coordinates": [ [ -0.9043537, 51.6601566 ], [ -0.9044028, 51.6601434 ], [ -0.9044705, 51.6600948 ], [ -0.904529, 51.6600246 ], [ -0.904668, 51.6597761 ], [ -0.9047507, 51.6597176 ], [ -0.9048381, 51.6596864 ], [ -0.904984, 51.6596843 ], [ -0.9052314, 51.6597103 ], [ -0.9054121, 51.659711200000011 ], [ -0.9058246, 51.6596697 ], [ -0.9060604, 51.659676500000025 ], [ -0.9070296, 51.6597947 ] ] } },
{ "type": "Feature", "properties": { "id": 137707, "nach": 0.53161835316721506 }, "geometry": { "type": "LineString", "coordinates": [ [ -0.9044881, 51.6606992 ], [ -0.9046115, 51.6607216 ] ] } },
{ "type": "Feature", "properties": { "id": 80154, "nach": 0.47901525248553473 }, "geometry": { "type": "LineString", "coordinates": [ [ -0.9036513, 51.6613122 ], [ -0.9037387, 51.661301900000012 ], [ -0.9043052, 51.6611571 ], [ -0.9043916, 51.6611111 ], [ -0.9046115, 51.6607216 ] ] } },
{ "type": "Feature", "properties": { "id": 137708, "nach": 0.5340928500021962 }, "geometry": { "type": "LineString", "coordinates": [ [ -0.9044881, 51.6606992 ], [ -0.9043272, 51.6606701 ], [ -0.9042995, 51.6606651 ] ] } },
{ "type": "Feature", "properties": { "id": 137711, "nach": 0.43733327047682413 }, "geometry": { "type": "LineString", "coordinates": [ [ -0.9045647, 51.6605672 ], [ -0.9044881, 51.6606992 ] ] } },
{ "type": "Feature", "properties": { "id": 127634, "nach": 0.52111644801296197 }, "geometry": { "type": "LineString", "coordinates": [ [ -0.9036354, 51.6613415 ], [ -0.9036513, 51.6613122 ] ] } },
{ "type": "Feature", "properties": { "id": 127633, "nach": 0.38088036527570435 }, "geometry": { "type": "LineString", "coordinates": [ [ -0.9036354, 51.6613415 ], [ -0.9034988, 51.6615934 ] ] } },
{ "type": "Feature", "properties": { "id": 106808, "nach": 0.54877806606963064 }, "geometry": { "type": "LineString", "coordinates": [ [ -0.9022338, 51.6614257 ], [ -0.9022359, 51.66136920000001 ], [ -0.902241, 51.6612302 ] ] } },
{ "type": "Feature", "properties": { "id": 125054, "nach": 0.18738831452206151 }, "geometry": { "type": "LineString", "coordinates": [ [ -0.9027091, 51.654610699999985 ], [ -0.9025756, 51.6544102 ], [ -0.9028009, 51.6541506 ], [ -0.9028867, 51.6538378 ], [ -0.9027177, 51.6529675 ], [ -0.9026313, 51.6524219 ], [ -0.9027043, 51.6517344 ], [ -0.9029224, 51.6516221 ], [ -0.903333, 51.6516342 ] ] } },
{ "type": "Feature", "properties": { "id": 170454, "nach": 0.46026954507443968 }, "geometry": { "type": "LineString", "coordinates": [ [ -0.8992913, 51.6635069 ], [ -0.8993675, 51.6634275 ], [ -0.8996861, 51.6631644 ], [ -0.8999195, 51.662936 ], [ -0.9000168, 51.6627943 ], [ -0.9000958, 51.6625979 ], [ -0.9000993, 51.6622074 ] ] } },
{ "type": "Feature", "properties": { "id": 106744, "nach": 0.47396181703685425 }, "geometry": { "type": "LineString", "coordinates": [ [ -0.9005352, 51.6614826 ], [ -0.9004718, 51.661505700000014 ], [ -0.9003331, 51.661589 ], [ -0.9002217, 51.6616897 ], [ -0.9001585, 51.6617971 ], [ -0.9001352, 51.6619018 ], [ -0.9000993, 51.6622074 ] ] } },
{ "type": "Feature", "properties": { "id": 106666, "nach": 0.25705947335065732 }, "geometry": { "type": "LineString", "coordinates": [ [ -0.8944096, 51.6651073 ], [ -0.8949109, 51.6647884 ], [ -0.896031, 51.6640734 ], [ -0.8964262, 51.66377330000001 ], [ -0.8965485, 51.6637741 ], [ -0.89658740000001, 51.6637808 ], [ -0.8966179, 51.6637627 ], [ -0.896645, 51.6637458 ], [ -0.8967993, 51.6637101 ], [ -0.8968011, 51.6636967 ], [ -0.8988199, 51.6627395 ], [ -0.8993986, 51.6624766 ], [ -0.8995189, 51.6624364 ], [ -0.8998253, 51.6623181 ], [ -0.9000993, 51.6622074 ] ] } },
{ "type": "Feature", "properties": { "id": 137761, "nach": 0.47882990053587354 }, "geometry": { "type": "LineString", "coordinates": [ [ -0.901178, 51.6619253 ], [ -0.9011632, 51.6619217 ], [ -0.9005352, 51.6614826 ] ] } },
{ "type": "Feature", "properties": { "id": 106670, "nach": 0.30694437216512338 }, "geometry": { "type": "LineString", "coordinates": [ [ -0.8976838, 51.6609471 ], [ -0.8970244, 51.660899499999985 ], [ -0.8967455, 51.660699800000017 ], [ -0.8966996, 51.660625200000013 ], [ -0.8966416, 51.660533 ], [ -0.8966158, 51.660440800000011 ], [ -0.89664090000001, 51.6603742 ], [ -0.8966981, 51.6603177 ], [ -0.8967669, 51.660286 ] ] } },
{ "type": "Feature", "properties": { "id": 106669, "nach": 0.43777258908995648 }, "geometry": { "type": "LineString", "coordinates": [ [ -0.8976838, 51.6609471 ], [ -0.8982207, 51.6609793 ], [ -0.8993822, 51.6608402 ], [ -0.899425, 51.6608349 ] ] } },
{ "type": "Feature", "properties": { "id": 105187, "nach": 0.36364753152509727 }, "geometry": { "type": "LineString", "coordinates": [ [ -0.8954379, 51.656609 ], [ -0.8956979, 51.6565064 ] ] } },
{ "type": "Feature", "properties": { "id": 190397, "nach": 0.36126790812881576 }, "geometry": { "type": "LineString", "coordinates": [ [ -0.8958364, 51.6568823 ], [ -0.8955078, 51.656666800000011 ], [ -0.8954379, 51.656609 ] ] } },
{ "type": "Feature", "properties": { "id": 105193, "nach": 0.36657773256047904 }, "geometry": { "type": "LineString", "coordinates": [ [ -0.8948169, 51.656723400000011 ], [ -0.8946917, 51.6566558 ] ] } },
{ "type": "Feature", "properties": { "id": 105192, "nach": 0.36657773256047904 }, "geometry": { "type": "LineString", "coordinates": [ [ -0.8948169, 51.656723400000011 ], [ -0.8948894, 51.656677800000011 ] ] } },
{ "type": "Feature", "properties": { "id": 215083, "nach": 0.32052279593907002 }, "geometry": { "type": "LineString", "coordinates": [ [ -0.8969657, 51.6598064 ], [ -0.8967769, 51.659897 ], [ -0.8967669, 51.660286 ] ] } },
{ "type": "Feature", "properties": { "id": 215082, "nach": 0.32314147835459245 }, "geometry": { "type": "LineString", "coordinates": [ [ -0.8973409, 51.6600804 ], [ -0.8970084, 51.6602506 ], [ -0.8969573, 51.6602627 ], [ -0.8968501, 51.6602705 ], [ -0.8967669, 51.660286 ] ] } },
{ "type": "Feature", "properties": { "id": 215084, "nach": 0.38717104409093467 }, "geometry": { "type": "LineString", "coordinates": [ [ -0.8969657, 51.6598064 ], [ -0.8971458, 51.6595502 ], [ -0.8971674, 51.65952630000001 ] ] } },
{ "type": "Feature", "properties": { "id": 215085, "nach": 0.38028462956923031 }, "geometry": { "type": "LineString", "coordinates": [ [ -0.8969657, 51.6598064 ], [ -0.8971308, 51.6598451 ], [ -0.8972256, 51.6598876 ], [ -0.8972819, 51.65993670000001 ], [ -0.8973364, 51.6600216 ], [ -0.8973409, 51.6600804 ] ] } },
{ "type": "Feature", "properties": { "id": 189790, "nach": 0.44537738800990451 }, "geometry": { "type": "LineString", "coordinates": [ [ -0.8994957, 51.6609933 ], [ -0.899425, 51.6608349 ] ] } },
{ "type": "Feature", "properties": { "id": 229492, "nach": 0.37065187581483394 }, "geometry": { "type": "LineString", "coordinates": [ [ -0.8981092, 51.6615569 ], [ -0.8981734, 51.661369799999989 ], [ -0.8985526, 51.661404600000012 ], [ -0.8987158, 51.6614064 ], [ -0.8988702, 51.6614333 ], [ -0.8991298, 51.661405 ], [ -0.8993464, 51.6613101 ], [ -0.8994477, 51.6612157 ], [ -0.8994979, 51.6610796 ], [ -0.8994957, 51.6609933 ] ] } },
{ "type": "Feature", "properties": { "id": 189793, "nach": 0.37942384781062022 }, "geometry": { "type": "LineString", "coordinates": [ [ -0.9003521, 51.6610814 ], [ -0.9002713, 51.6610759 ], [ -0.89966430000001, 51.661021300000016 ], [ -0.8994957, 51.6609933 ] ] } },
{ "type": "Feature", "properties": { "id": 106746, "nach": 0.376057471542868 }, "geometry": { "type": "LineString", "coordinates": [ [ -0.9070011, 51.6599738 ], [ -0.9070078, 51.6598468 ], [ -0.9070296, 51.6597947 ] ] } },
{ "type": "Feature", "properties": { "id": 137760, "nach": 0.45401189191020003 }, "geometry": { "type": "LineString", "coordinates": [ [ -0.901178, 51.6619253 ], [ -0.901161, 51.6620167 ] ] } },
{ "type": "Feature", "properties": { "id": 137762, "nach": 0.40240586170934445 }, "geometry": { "type": "LineString", "coordinates": [ [ -0.901178, 51.6619253 ], [ -0.9013657, 51.661919 ], [ -0.9014589, 51.6619253 ], [ -0.9014891, 51.6619565 ] ] } },
{ "type": "Feature", "properties": { "id": 137683, "nach": 0.56302415636963332 }, "geometry": { "type": "LineString", "coordinates": [ [ -0.898665, 51.6585907 ], [ -0.8987144, 51.658544 ], [ -0.8988059, 51.6584716 ] ] } },
{ "type": "Feature", "properties": { "id": 137685, "nach": 0.39167671279108479 }, "geometry": { "type": "LineString", "coordinates": [ [ -0.898819, 51.6586521 ], [ -0.898665, 51.6585907 ] ] } },
{ "type": "Feature", "properties": { "id": 137733, "nach": 0.38470292295999758 }, "geometry": { "type": "LineString", "coordinates": [ [ -0.9022348, 51.6614956 ], [ -0.9022338, 51.6614257 ] ] } },
{ "type": "Feature", "properties": { "id": 137736, "nach": 0.53199545483950483 }, "geometry": { "type": "LineString", "coordinates": [ [ -0.9019587, 51.6616608 ], [ -0.9019137, 51.661477 ], [ -0.9022338, 51.6614257 ] ] } },
{ "type": "Feature", "properties": { "id": 137731, "nach": 0.42461382931527747 }, "geometry": { "type": "LineString", "coordinates": [ [ -0.9024076, 51.661489 ], [ -0.9023843, 51.6614719 ], [ -0.9023246, 51.6614374 ], [ -0.9022683, 51.6614281 ], [ -0.9022338, 51.6614257 ] ] } },
{ "type": "Feature", "properties": { "id": 137735, "nach": 0.48496547064997586 }, "geometry": { "type": "LineString", "coordinates": [ [ -0.9019587, 51.6616608 ], [ -0.90198, 51.6617478 ] ] } },
{ "type": "Feature", "properties": { "id": 137739, "nach": 0.48534398848333887 }, "geometry": { "type": "LineString", "coordinates": [ [ -0.9020229, 51.6617431 ], [ -0.90198, 51.6616811 ], [ -0.9019587, 51.6616608 ] ] } },
{ "type": "Feature", "properties": { "id": 137732, "nach": 0.38351443484079623 }, "geometry": { "type": "LineString", "coordinates": [ [ -0.9025908, 51.6614578 ], [ -0.9025493, 51.6614573 ], [ -0.9025157, 51.6614582 ], [ -0.9024849, 51.661461499999987 ], [ -0.9024487, 51.661469 ], [ -0.9024252, 51.6614798 ], [ -0.9024076, 51.661489 ] ] } },
{ "type": "Feature", "properties": { "id": 137743, "nach": 0.20701646113984684 }, "geometry": { "type": "LineString", "coordinates": [ [ -0.9021943, 51.6617934 ], [ -0.9022696, 51.6617884 ], [ -0.9023474, 51.6617768 ], [ -0.9024775, 51.6617452 ], [ -0.9025405, 51.6616853 ], [ -0.9025365, 51.661657 ], [ -0.9025325, 51.661595 ], [ -0.9024259, 51.6615023 ], [ -0.9024076, 51.661489 ] ] } },
{ "type": "Feature", "properties": { "id": 137757, "nach": 0.46380251240693265 }, "geometry": { "type": "LineString", "coordinates": [ [ -0.9014891, 51.6619565 ], [ -0.9019756, 51.6621352 ] ] } },
{ "type": "Feature", "properties": { "id": 137600, "nach": 0.46872658044461774 }, "geometry": { "type": "LineString", "coordinates": [ [ -0.90198, 51.6617478 ], [ -0.9020733, 51.6621292 ], [ -0.9020264, 51.6621308 ], [ -0.9019756, 51.6621352 ] ] } },
{ "type": "Feature", "properties": { "id": 137752, "nach": 0.32733531717231562 }, "geometry": { "type": "LineString", "coordinates": [ [ -0.9022732, 51.6622003 ], [ -0.9021729, 51.66220770000001 ], [ -0.9019756, 51.6621352 ] ] } },
{ "type": "Feature", "properties": { "id": 198427, "nach": 0.43591972518575106 }, "geometry": { "type": "LineString", "coordinates": [ [ -0.9014623, 51.662048399999989 ], [ -0.9014824, 51.6619964 ], [ -0.9014891, 51.6619565 ] ] } },
{ "type": "Feature", "properties": { "id": 137738, "nach": 0.31321795696643717 }, "geometry": { "type": "LineString", "coordinates": [ [ -0.9020229, 51.6617431 ], [ -0.90198, 51.6617478 ] ] } },
{ "type": "Feature", "properties": { "id": 137734, "nach": 0.37867354824465699 }, "geometry": { "type": "LineString", "coordinates": [ [ -0.9017452, 51.6618338 ], [ -0.9017895, 51.6618084 ], [ -0.9018646, 51.6617851 ], [ -0.9019424, 51.6617518 ], [ -0.90198, 51.6617478 ] ] } },
{ "type": "Feature", "properties": { "id": 137751, "nach": 0.44926174820757236 }, "geometry": { "type": "LineString", "coordinates": [ [ -0.9022732, 51.6622003 ], [ -0.9022683, 51.6621753 ], [ -0.9021943, 51.6617934 ] ] } },
{ "type": "Feature", "properties": { "id": 137750, "nach": 0.43815218668937717 }, "geometry": { "type": "LineString", "coordinates": [ [ -0.9022732, 51.6622003 ], [ -0.9023799, 51.662745900000012 ] ] } },
{ "type": "Feature", "properties": { "id": 259323, "nach": 0.43300935138844926 }, "geometry": { "type": "LineString", "coordinates": [ [ -0.9029636, 51.6569629 ], [ -0.9030016, 51.65695310000001 ], [ -0.9030214, 51.6569699 ], [ -0.9030419, 51.656987199999989 ], [ -0.9030163, 51.6570032 ] ] } },
{ "type": "Feature", "properties": { "id": 206230, "nach": 0.30173113865763346 }, "geometry": { "type": "LineString", "coordinates": [ [ -0.9024494, 51.65656460000001 ], [ -0.9023427, 51.6564424 ], [ -0.9021906, 51.6562306 ], [ -0.9021572, 51.656081 ], [ -0.9021473, 51.6557585 ], [ -0.9021705, 51.655514 ], [ -0.9022867, 51.6552755 ], [ -0.9026652, 51.654702 ], [ -0.9027091, 51.654610699999985 ] ] } },
{ "type": "Feature", "properties": { "id": 206231, "nach": 0.25271257309542111 }, "geometry": { "type": "LineString", "coordinates": [ [ -0.9024494, 51.65656460000001 ], [ -0.9021382, 51.6564715 ], [ -0.9015749, 51.6564324 ], [ -0.9011029, 51.65632930000001 ], [ -0.900427, 51.6561279 ], [ -0.8998476, 51.6558866 ], [ -0.8993429, 51.6555716 ], [ -0.8993338, 51.655542 ], [ -0.8995318, 51.655338 ], [ -0.9000918, 51.654828700000017 ] ] } },
{ "type": "Feature", "properties": { "id": 223690, "nach": 0.378852953794383 }, "geometry": { "type": "LineString", "coordinates": [ [ -0.9029007, 51.6569125 ], [ -0.9025353, 51.6566308 ], [ -0.9024777, 51.6565864 ], [ -0.9024494, 51.65656460000001 ] ] } },
{ "type": "Feature", "properties": { "id": 126983, "nach": 0.30397734083363259 }, "geometry": { "type": "LineString", "coordinates": [ [ -0.8858324, 51.6503388 ], [ -0.8859163, 51.6503867 ] ] } },
{ "type": "Feature", "properties": { "id": 127540, "nach": 0.28051258075100999 }, "geometry": { "type": "LineString", "coordinates": [ [ -0.8900839, 51.6499309 ], [ -0.8886843, 51.650173700000011 ], [ -0.8869891, 51.6504133 ], [ -0.8859163, 51.6503867 ] ] } },
{ "type": "Feature", "properties": { "id": 126982, "nach": 0.19313540346560606 }, "geometry": { "type": "LineString", "coordinates": [ [ -0.8858324, 51.6503388 ], [ -0.8842855, 51.649454700000014 ] ] } },
{ "type": "Feature", "properties": { "id": 178992, "nach": 0.26761147775026151 }, "geometry": { "type": "LineString", "coordinates": [ [ -0.8848176, 51.6489417 ], [ -0.8848863, 51.6489688 ], [ -0.8852725, 51.6495679 ], [ -0.8856909, 51.6499873 ], [ -0.8857887, 51.6502303 ], [ -0.8858324, 51.6503388 ] ] } },
{ "type": "Feature", "properties": { "id": 127542, "nach": 0.27227332720777742 }, "geometry": { "type": "LineString", "coordinates": [ [ -0.8900839, 51.6499309 ], [ -0.8901561, 51.6498664 ], [ -0.8902258, 51.6495968 ], [ -0.890038, 51.6493072 ], [ -0.8897805, 51.6489777 ], [ -0.8896196, 51.6486715 ], [ -0.889507, 51.6484119 ], [ -0.8896035, 51.6481323 ], [ -0.8895982, 51.6479925 ], [ -0.889346, 51.6478693 ], [ -0.8891261, 51.6476263 ], [ -0.8890038, 51.6474718 ] ] } },
{ "type": "Feature", "properties": { "id": 127616, "nach": 0.2286700680574027 }, "geometry": { "type": "LineString", "coordinates": [ [ -0.8856684, 51.6504661 ], [ -0.8849907, 51.6504119 ], [ -0.88395, 51.6500923 ], [ -0.8832741, 51.6500124 ], [ -0.8825114, 51.650234 ] ] } },
{ "type": "Feature", "properties": { "id": 127615, "nach": 0.25316948170016323 }, "geometry": { "type": "LineString", "coordinates": [ [ -0.8856684, 51.6504661 ], [ -0.88458590000001, 51.65081270000001 ], [ -0.882998, 51.6513852 ], [ -0.8815174, 51.6521174 ], [ -0.8807647, 51.6526623 ] ] } },
{ "type": "Feature", "properties": { "id": 173286, "nach": 0.3257682951567436 }, "geometry": { "type": "LineString", "coordinates": [ [ -0.8961985, 51.6546075 ], [ -0.895958, 51.65439030000001 ], [ -0.8955288, 51.654033 ] ] } },
{ "type": "Feature", "properties": { "id": 173288, "nach": 0.34150934354426904 }, "geometry": { "type": "LineString", "coordinates": [ [ -0.8958589, 51.654756099999986 ], [ -0.8961985, 51.6546075 ] ] } },
{ "type": "Feature", "properties": { "id": 229476, "nach": 0.4992507574352047 }, "geometry": { "type": "LineString", "coordinates": [ [ -0.8985537, 51.656281 ], [ -0.8981437, 51.6561373 ] ] } },
{ "type": "Feature", "properties": { "id": 229471, "nach": 0.4393994401706337 }, "geometry": { "type": "LineString", "coordinates": [ [ -0.8982103, 51.6560486 ], [ -0.8981437, 51.6561373 ] ] } },
{ "type": "Feature", "properties": { "id": 137595, "nach": 0.42017664234643448 }, "geometry": { "type": "LineString", "coordinates": [ [ -0.9018752, 51.6602974 ], [ -0.9020889, 51.6604062 ], [ -0.9024671, 51.6604877 ] ] } },
{ "type": "Feature", "properties": { "id": 137597, "nach": 0.3906647285187913 }, "geometry": { "type": "LineString", "coordinates": [ [ -0.90165, 51.660519 ], [ -0.9018752, 51.6602974 ] ] } },
{ "type": "Feature", "properties": { "id": 137742, "nach": 0.47802580098764041 }, "geometry": { "type": "LineString", "coordinates": [ [ -0.9021943, 51.6617934 ], [ -0.9021607, 51.6617787 ], [ -0.9021154, 51.6617556 ], [ -0.9020772, 51.6617481 ], [ -0.9020229, 51.6617431 ] ] } },
{ "type": "Feature", "properties": { "id": 137637, "nach": 0.40392028120967022 }, "geometry": { "type": "LineString", "coordinates": [ [ -0.8941566, 51.657812500000013 ], [ -0.89401, 51.657764900000011 ] ] } },
{ "type": "Feature", "properties": { "id": 137636, "nach": 0.36952185289774986 }, "geometry": { "type": "LineString", "coordinates": [ [ -0.8939776, 51.6578052 ], [ -0.89401, 51.657764900000011 ] ] } },
{ "type": "Feature", "properties": { "id": 137629, "nach": 0.28614575758734367 }, "geometry": { "type": "LineString", "coordinates": [ [ -0.8942276, 51.657495 ], [ -0.8942056, 51.657522299999989 ], [ -0.8942372, 51.6575321 ], [ -0.8941273, 51.657668600000015 ], [ -0.8940956, 51.6576588 ], [ -0.89401, 51.657764900000011 ] ] } },
{ "type": "Feature", "properties": { "id": 137638, "nach": 0.45078372967063435 }, "geometry": { "type": "LineString", "coordinates": [ [ -0.8941566, 51.657812500000013 ], [ -0.8943879, 51.6575482 ] ] } },
{ "type": "Feature", "properties": { "id": 137643, "nach": 0.36884064483605961 }, "geometry": { "type": "LineString", "coordinates": [ [ -0.8940044, 51.6579865 ], [ -0.8941566, 51.657812500000013 ] ] } },
{ "type": "Feature", "properties": { "id": 137630, "nach": 0.38695975677860234 }, "geometry": { "type": "LineString", "coordinates": [ [ -0.8943879, 51.6575482 ], [ -0.8942276, 51.657495 ] ] } },
{ "type": "Feature", "properties": { "id": 137650, "nach": 0.38152374922320714 }, "geometry": { "type": "LineString", "coordinates": [ [ -0.8994996, 51.6579913 ], [ -0.8997175, 51.65806640000001 ] ] } },
{ "type": "Feature", "properties": { "id": 137653, "nach": 0.44850875718024685 }, "geometry": { "type": "LineString", "coordinates": [ [ -0.8994248, 51.6580926 ], [ -0.8994996, 51.6579913 ] ] } },
{ "type": "Feature", "properties": { "id": 137652, "nach": 0.38128383825234885 }, "geometry": { "type": "LineString", "coordinates": [ [ -0.8992173, 51.6579125 ], [ -0.8994996, 51.6579913 ] ] } },
{ "type": "Feature", "properties": { "id": 137656, "nach": 0.38198051603666439 }, "geometry": { "type": "LineString", "coordinates": [ [ -0.8996934, 51.6582078 ], [ -0.8994248, 51.6580926 ] ] } },
{ "type": "Feature", "properties": { "id": 137659, "nach": 0.47981183136688427 }, "geometry": { "type": "LineString", "coordinates": [ [ -0.8994069, 51.658117199999985 ], [ -0.8994171, 51.658103 ], [ -0.8994248, 51.6580926 ] ] } },
{ "type": "Feature", "properties": { "id": 137686, "nach": 0.50036340223874654 }, "geometry": { "type": "LineString", "coordinates": [ [ -0.899342, 51.6582078 ], [ -0.8994069, 51.658117199999985 ] ] } },
{ "type": "Feature", "properties": { "id": 137660, "nach": 0.38220060252689159 }, "geometry": { "type": "LineString", "coordinates": [ [ -0.8991221, 51.6580365 ], [ -0.8994069, 51.658117199999985 ] ] } },
{ "type": "Feature", "properties": { "id": 137688, "nach": 0.38289901593695291 }, "geometry": { "type": "LineString", "coordinates": [ [ -0.899342, 51.6582078 ], [ -0.8990483, 51.6581238 ] ] } },
{ "type": "Feature", "properties": { "id": 137687, "nach": 0.5159282005860043 }, "geometry": { "type": "LineString", "coordinates": [ [ -0.899342, 51.6582078 ], [ -0.8993183, 51.6582291 ] ] } },
{ "type": "Feature", "properties": { "id": 137665, "nach": 0.38359670580390093 }, "geometry": { "type": "LineString", "coordinates": [ [ -0.8995244, 51.6583102 ], [ -0.8993183, 51.6582291 ] ] } },
{ "type": "Feature", "properties": { "id": 137667, "nach": 0.52834613001462816 }, "geometry": { "type": "LineString", "coordinates": [ [ -0.8991805, 51.6583021 ], [ -0.8992696, 51.6582727 ], [ -0.8993183, 51.6582291 ] ] } },
{ "type": "Feature", "properties": { "id": 137669, "nach": 0.38522166878966563 }, "geometry": { "type": "LineString", "coordinates": [ [ -0.8994278, 51.6584 ], [ -0.8991805, 51.6583021 ] ] } },
{ "type": "Feature", "properties": { "id": 137671, "nach": 0.53877956051523068 }, "geometry": { "type": "LineString", "coordinates": [ [ -0.8991001, 51.658327 ], [ -0.8991382, 51.658316 ], [ -0.8991805, 51.6583021 ] ] } },
{ "type": "Feature", "properties": { "id": 137673, "nach": 0.3861400489033312 }, "geometry": { "type": "LineString", "coordinates": [ [ -0.8988149, 51.6582112 ], [ -0.8991001, 51.658327 ] ] } },
{ "type": "Feature", "properties": { "id": 137675, "nach": 0.54777786108230497 }, "geometry": { "type": "LineString", "coordinates": [ [ -0.8989652, 51.6583708 ], [ -0.8989826, 51.6583609 ], [ -0.8991001, 51.658327 ] ] } },
{ "type": "Feature", "properties": { "id": 137677, "nach": 0.38772679755380701 }, "geometry": { "type": "LineString", "coordinates": [ [ -0.899106, 51.6584291 ], [ -0.8989652, 51.6583708 ] ] } },
{ "type": "Feature", "properties": { "id": 137679, "nach": 0.55578849024081289 }, "geometry": { "type": "LineString", "coordinates": [ [ -0.8988059, 51.6584716 ], [ -0.8988512, 51.6584358 ], [ -0.8989652, 51.6583708 ] ] } },
{ "type": "Feature", "properties": { "id": 137681, "nach": 0.38994025778139779 }, "geometry": { "type": "LineString", "coordinates": [ [ -0.8989745, 51.658548900000014 ], [ -0.8988059, 51.6584716 ] ] } },
{ "type": "Feature", "properties": { "id": 137716, "nach": 0.5440318759021141 }, "geometry": { "type": "LineString", "coordinates": [ [ -0.904097, 51.6606284 ], [ -0.9042995, 51.6606651 ] ] } },
{ "type": "Feature", "properties": { "id": 137705, "nach": 0.40914533104372514 }, "geometry": { "type": "LineString", "coordinates": [ [ -0.9042995, 51.6606651 ], [ -0.9043802, 51.660526 ] ] } },
{ "type": "Feature", "properties": { "id": 137717, "nach": 0.3846543393419754 }, "geometry": { "type": "LineString", "coordinates": [ [ -0.904097, 51.6606284 ], [ -0.9041713, 51.6604374 ] ] } },
{ "type": "Feature", "properties": { "id": 137709, "nach": 0.33704944578466361 }, "geometry": { "type": "LineString", "coordinates": [ [ -0.9043802, 51.660526 ], [ -0.9045647, 51.6605672 ] ] } },
{ "type": "Feature", "properties": { "id": 137710, "nach": 0.38251846602550077 }, "geometry": { "type": "LineString", "coordinates": [ [ -0.9043802, 51.660526 ], [ -0.90442630000001, 51.6604467 ] ] } },
{ "type": "Feature", "properties": { "id": 137712, "nach": 0.38202025135729611 }, "geometry": { "type": "LineString", "coordinates": [ [ -0.9046108, 51.6604879 ], [ -0.9045647, 51.6605672 ] ] } },
{ "type": "Feature", "properties": { "id": 137714, "nach": 0.0 }, "geometry": { "type": "LineString", "coordinates": [ [ -0.90442630000001, 51.6604467 ], [ -0.9044751, 51.6603626 ], [ -0.9046596, 51.6604039 ], [ -0.9046108, 51.6604879 ] ] } },
{ "type": "Feature", "properties": { "id": 137745, "nach": 0.37802396458280058 }, "geometry": { "type": "LineString", "coordinates": [ [ -0.9021717, 51.6616765 ], [ -0.9021943, 51.6617934 ] ] } },
{ "type": "Feature", "properties": { "id": 137768, "nach": 0.45162646819528623 }, "geometry": { "type": "LineString", "coordinates": [ [ -0.9007031, 51.662512 ], [ -0.9008161, 51.6620405 ], [ -0.9008439, 51.662009 ], [ -0.9009929, 51.66199060000001 ], [ -0.901161, 51.6620167 ] ] } },
{ "type": "Feature", "properties": { "id": 198426, "nach": 0.4366760048719458 }, "geometry": { "type": "LineString", "coordinates": [ [ -0.9014623, 51.662048399999989 ], [ -0.9013684, 51.6620724 ], [ -0.901161, 51.6620167 ] ] } },
{ "type": "Feature", "properties": { "id": 137767, "nach": 0.40904178645390527 }, "geometry": { "type": "LineString", "coordinates": [ [ -0.9007031, 51.662512 ], [ -0.900654, 51.6626814 ] ] } },
{ "type": "Feature", "properties": { "id": 137770, "nach": 0.36731902134339706 }, "geometry": { "type": "LineString", "coordinates": [ [ -0.900431, 51.662487 ], [ -0.9005041, 51.662494100000011 ], [ -0.9005079, 51.662478900000011 ], [ -0.9006009, 51.6624879 ], [ -0.9005975, 51.6625014 ], [ -0.9007031, 51.662512 ] ] } },
{ "type": "Feature", "properties": { "id": 198428, "nach": 0.37045218540077146 }, "geometry": { "type": "LineString", "coordinates": [ [ -0.9014623, 51.662048399999989 ], [ -0.9014918, 51.6620754 ], [ -0.9014972, 51.662198600000018 ], [ -0.9018935, 51.6623612 ] ] } },
{ "type": "Feature", "properties": { "id": 137766, "nach": 0.36615619929919296 }, "geometry": { "type": "LineString", "coordinates": [ [ -0.9006073, 51.6628429 ], [ -0.900654, 51.6626814 ] ] } },
{ "type": "Feature", "properties": { "id": 259324, "nach": 0.41134965613400282 }, "geometry": { "type": "LineString", "coordinates": [ [ -0.9029636, 51.6569629 ], [ -0.9029574, 51.6569581 ], [ -0.9029007, 51.6569125 ] ] } },
{ "type": "Feature", "properties": { "id": 229479, "nach": 0.36978324038216343 }, "geometry": { "type": "LineString", "coordinates": [ [ -0.8988963, 51.6560282 ], [ -0.8985537, 51.656281 ] ] } },
{ "type": "Feature", "properties": { "id": 229482, "nach": 0.49246500919615327 }, "geometry": { "type": "LineString", "coordinates": [ [ -0.8989481, 51.6564474 ], [ -0.8988277, 51.6563771 ], [ -0.8985537, 51.656281 ] ] } },
{ "type": "Feature", "properties": { "id": 229474, "nach": 0.37252225750923795 }, "geometry": { "type": "LineString", "coordinates": [ [ -0.8984167, 51.6561381 ], [ -0.8982103, 51.6560486 ] ] } },
{ "type": "Feature", "properties": { "id": 229475, "nach": 0.37017333396684349 }, "geometry": { "type": "LineString", "coordinates": [ [ -0.8983944, 51.6558711 ], [ -0.8981481, 51.6559715 ], [ -0.8982103, 51.6560486 ] ] } },
{ "type": "Feature", "properties": { "id": 229483, "nach": 0.3691572025747063 }, "geometry": { "type": "LineString", "coordinates": [ [ -0.8992845, 51.6562246 ], [ -0.8989481, 51.6564474 ] ] } },
{ "type": "Feature", "properties": { "id": 91494, "nach": 0.38374282390725822 }, "geometry": { "type": "LineString", "coordinates": [ [ -0.890894036823206, 51.646759455495804 ], [ -0.903350739871966, 51.657665268743457 ] ] } },
{ "type": "Feature", "properties": { "id": 110879, "nach": 0.56625527733470937 }, "geometry": { "type": "LineString", "coordinates": [ [ -0.903350739871966, 51.657665268743457 ], [ -0.903384161473229, 51.657868381773312 ] ] } },
{ "type": "Feature", "properties": { "id": 91495, "nach": 0.25544839640097539 }, "geometry": { "type": "LineString", "coordinates": [ [ -0.903384161473229, 51.657868381773312 ], [ -0.890768549301049, 51.646946353912419 ] ] } }
]
}
