{
"type": "FeatureCollection",
"name": "HORSH_1430_NACH_800m",
"crs": { "type": "name", "properties": { "name": "urn:ogc:def:crs:OGC:1.3:CRS84" } },
"features": [
{"type":"Feature","properties":{"id":82675,"nach":0.26103325879486328},"geometry":{"type":"LineString","coordinates":[[-0.2979854,51.0284246],[-0.297711,51.0289692],[-0.2976689,51.0290849],[-0.2976474,51.0291794],[-0.2976438,51.0292684],[-0.2976489,51.0293361],[-0.2976673,51.0294208],[-0.29774,51.029775599999986],[-0.2977421,51.0298506],[-0.2977264,51.0299059],[-0.2976859,51.0299602],[-0.2976139,51.0300296],[-0.2969635,51.0306287],[-0.2963131,51.0312278],[-0.2962395,51.0312812],[-0.2961672,51.031325600000017],[-0.2960946,51.0313625],[-0.2959886,51.0314162],[-0.2950577,51.031857200000019],[-0.2947264,51.0320115],[-0.2946434,51.0320482]]}},
{"type":"Feature","properties":{"id":28645,"nach":0.47691727833527731},"geometry":{"type":"LineString","coordinates":[[-0.2863816,51.035052],[-0.2857065,51.0351875]]}},
{"type":"Feature","properties":{"id":93854,"nach":0.47127519694475151},"geometry":{"type":"LineString","coordinates":[[-0.2847142,51.034520700000016],[-0.284759,51.0345342],[-0.2848084,51.03455],[-0.2848781,51.034576],[-0.2849408,51.0346019],[-0.2849945,51.034624900000011],[-0.285035,51.03464420000001],[-0.2850845,51.0346703],[-0.2851256,51.034692800000016],[-0.2851698,51.0347197],[-0.2852083,51.0347453],[-0.2852742,51.0347892],[-0.2853179,51.0348215],[-0.2853571,51.034850200000022],[-0.2854645,51.0349302],[-0.2857065,51.0351875]]}},
{"type":"Feature","properties":{"id":2489,"nach":0.42286873215963239},"geometry":{"type":"LineString","coordinates":[[-0.285594,51.03838970000001],[-0.2854074,51.038229200000011],[-0.2853413,51.03816],[-0.2852943,51.0381044],[-0.2852401,51.0380308],[-0.2851983,51.0379669],[-0.2851652,51.0379045],[-0.2851384,51.0378324],[-0.2851225,51.0377711],[-0.2851114,51.0377017],[-0.2851127,51.0376265],[-0.285127,51.0375543],[-0.2851445,51.0374899],[-0.2851743,51.0374156],[-0.2852166,51.0373317],[-0.2855038,51.0369045],[-0.2856438,51.0366477],[-0.2857644,51.0363782],[-0.2858542,51.0361427],[-0.2858899,51.0359774],[-0.2858977,51.0358216],[-0.2858869,51.035663500000013],[-0.2858563,51.0355156],[-0.2857737,51.0352878],[-0.2857368,51.035226],[-0.2857065,51.0351875]]}},
{"type":"Feature","properties":{"id":85193,"nach":0.44101748415022701},"geometry":{"type":"LineString","coordinates":[[-0.2865304,51.0353889],[-0.2863816,51.035052]]}},
{"type":"Feature","properties":{"id":56998,"nach":0.47811528901862765},"geometry":{"type":"LineString","coordinates":[[-0.2867013,51.0349904],[-0.2863816,51.035052]]}},
{"type":"Feature","properties":{"id":93853,"nach":0.45711949902991111},"geometry":{"type":"LineString","coordinates":[[-0.2847142,51.034520700000016],[-0.2846616,51.0345078],[-0.2846148,51.0344978],[-0.2845304,51.0344829],[-0.2838074,51.0343645],[-0.2834763,51.0343005]]}},
{"type":"Feature","properties":{"id":93855,"nach":0.39633065207327517},"geometry":{"type":"LineString","coordinates":[[-0.2847777,51.034326],[-0.2847142,51.034520700000016]]}},
{"type":"Feature","properties":{"id":44689,"nach":0.42550792860919845},"geometry":{"type":"LineString","coordinates":[[-0.2861842,51.0389049],[-0.285594,51.03838970000001]]}},
{"type":"Feature","properties":{"id":71630,"nach":0.43104666327376268},"geometry":{"type":"LineString","coordinates":[[-0.2857212,51.03834],[-0.285594,51.03838970000001]]}},
{"type":"Feature","properties":{"id":76937,"nach":0.3011265906491758},"geometry":{"type":"LineString","coordinates":[[-0.2801009,51.0336844],[-0.280105,51.0336689],[-0.2801106,51.0336553],[-0.2801172,51.0336421],[-0.2801303,51.0336257],[-0.2801391,51.0336167],[-0.2801552,51.0336038],[-0.280173,51.0335898],[-0.2802026,51.0335684],[-0.2802385,51.0335435],[-0.2804465,51.0334017],[-0.2804654,51.0333861],[-0.2804743,51.0333785],[-0.2804801,51.03337040000001],[-0.2804835,51.0333594],[-0.2804837,51.0333496],[-0.2804814,51.03333330000001],[-0.2804776,51.0333209],[-0.2804706,51.0333074],[-0.2804616,51.0332951],[-0.2804535,51.0332839],[-0.2804496,51.033276],[-0.2804473,51.0332677],[-0.2804475,51.033258],[-0.2804494,51.0332465],[-0.2804556,51.0332292],[-0.2804622,51.033217],[-0.2804759,51.0331973],[-0.2805001,51.03316],[-0.2805123,51.033141],[-0.2805302,51.0331129],[-0.2805525,51.0330751],[-0.2805699,51.0330469],[-0.2805935,51.033008200000012],[-0.2806131,51.032978],[-0.2806323,51.032948800000014],[-0.2806521,51.03292350000001],[-0.28067,51.0329049],[-0.2806899,51.0328876],[-0.2807134,51.032871],[-0.2807676,51.0328345]]}},
{"type":"Feature","properties":{"id":18233,"nach":0.38784520167042869},"geometry":{"type":"LineString","coordinates":[[-0.2785312,51.0316113],[-0.2787639,51.031722400000014],[-0.2789855,51.0318379],[-0.2791336,51.0319214],[-0.279749,51.0322659],[-0.2807144,51.0328036],[-0.2807676,51.0328345]]}},
{"type":"Feature","properties":{"id":31694,"nach":0.39350300246897002},"geometry":{"type":"LineString","coordinates":[[-0.2831483,51.0342148],[-0.2830947,51.0341984],[-0.2830493,51.0341836],[-0.282992,51.034162],[-0.2829169,51.0341312],[-0.2828527,51.0341035],[-0.2827858,51.0340741],[-0.2827042,51.0340359],[-0.2826123,51.0339924],[-0.2825491,51.0339598],[-0.2824962,51.033931],[-0.2824487,51.033903],[-0.2823796,51.0338627],[-0.2820569,51.0336387],[-0.2819125,51.0335434],[-0.2811126,51.0330353],[-0.2810442,51.0329965],[-0.2807676,51.0328345]]}},
{"type":"Feature","properties":{"id":18232,"nach":0.40204357143373193},"geometry":{"type":"LineString","coordinates":[[-0.2785312,51.0316113],[-0.2784575,51.0315803],[-0.2783637,51.0315422],[-0.2782741,51.0315104],[-0.2781678,51.0314789],[-0.278037,51.0314419]]}},
{"type":"Feature","properties":{"id":39839,"nach":0.39940923049052607},"geometry":{"type":"LineString","coordinates":[[-0.2783408,51.0318135],[-0.2784081,51.0317321],[-0.2784562,51.0316808],[-0.2785312,51.0316113]]}},
{"type":"Feature","properties":{"id":81898,"nach":0.27031283048550786},"geometry":{"type":"LineString","coordinates":[[-0.2831981,51.0338819],[-0.2831483,51.0342148]]}},
{"type":"Feature","properties":{"id":59671,"nach":0.40784943788677225},"geometry":{"type":"LineString","coordinates":[[-0.283254,51.0342454],[-0.2832154,51.0342343],[-0.2831483,51.0342148]]}},
{"type":"Feature","properties":{"id":81730,"nach":0.42897786987197428},"geometry":{"type":"LineString","coordinates":[[-0.287127,51.0402673],[-0.2871254,51.0402551],[-0.2871145,51.0401899],[-0.287097,51.04012119999998],[-0.28708,51.0400541],[-0.2870595,51.0399958],[-0.2870362,51.039941],[-0.2869781,51.039827],[-0.2869331,51.0397398],[-0.2868811,51.039650100000017],[-0.2868043,51.0395299],[-0.2867592,51.0394656],[-0.2866962,51.0393845],[-0.2866336,51.0393139],[-0.286561,51.0392387],[-0.2864618,51.0391454],[-0.2861842,51.0389049]]}},
{"type":"Feature","properties":{"id":97008,"nach":0.32974372323307055},"geometry":{"type":"LineString","coordinates":[[-0.2853075,51.0392788],[-0.2859652,51.03899830000001],[-0.2861842,51.0389049]]}},
{"type":"Feature","properties":{"id":71631,"nach":0.39604793341601358},"geometry":{"type":"LineString","coordinates":[[-0.2857212,51.03834],[-0.2857801,51.0383131],[-0.2859449,51.0382409],[-0.2860109,51.0382174]]}},
{"type":"Feature","properties":{"id":71633,"nach":0.32576950254753351},"geometry":{"type":"LineString","coordinates":[[-0.2863667,51.038497],[-0.2862035,51.0385061],[-0.2861726,51.0385068],[-0.2861437,51.0385057],[-0.2861048,51.0385018],[-0.2860673,51.038493],[-0.2860275,51.0384822],[-0.2859874,51.0384678],[-0.2859584,51.0384565],[-0.2858155,51.0383917],[-0.2857924,51.0383813],[-0.2857674,51.038369099999983],[-0.2857477,51.0383573],[-0.2857212,51.03834]]}},
{"type":"Feature","properties":{"id":81731,"nach":0.45703903356280312},"geometry":{"type":"LineString","coordinates":[[-0.287127,51.0402673],[-0.2871354,51.040329900000017],[-0.2871381,51.0403842],[-0.2871395,51.0404282],[-0.2871386,51.0404778],[-0.2871304,51.0405321],[-0.2871166,51.0405825],[-0.2870927,51.040645],[-0.2870558,51.0407153],[-0.2870158,51.0407824],[-0.2869184,51.040946],[-0.2868921,51.040986],[-0.2868569,51.04103580000001],[-0.2868039,51.0411008],[-0.2862962,51.0416921],[-0.2862483,51.0417473],[-0.2862021,51.0418096],[-0.2861736,51.041851],[-0.2861519,51.0418883],[-0.2860877,51.0420058]]}},
{"type":"Feature","properties":{"id":29758,"nach":0.40869830522474204},"geometry":{"type":"LineString","coordinates":[[-0.2860501,51.0421884],[-0.2860533,51.04214420000001],[-0.2860593,51.0420954],[-0.2860668,51.0420583],[-0.2860728,51.0420356],[-0.2860877,51.0420058]]}},
{"type":"Feature","properties":{"id":29767,"nach":0.44667224612482925},"geometry":{"type":"LineString","coordinates":[[-0.2858064,51.0421356],[-0.2859616,51.0420407],[-0.2859889,51.0420268],[-0.2860182,51.0420163],[-0.2860877,51.0420058]]}},
{"type":"Feature","properties":{"id":81729,"nach":0.36793026949735991},"geometry":{"type":"LineString","coordinates":[[-0.287127,51.0402673],[-0.2876556,51.040262100000014]]}},
{"type":"Feature","properties":{"id":44698,"nach":0.53493391968360293},"geometry":{"type":"LineString","coordinates":[[-0.286983,51.0433794],[-0.28672,51.0431914],[-0.2866145,51.043117],[-0.2865817,51.0430931],[-0.2865473,51.043065],[-0.286474,51.0430047],[-0.2862827,51.0428348],[-0.2862488,51.0428028],[-0.2862314,51.042783300000011],[-0.2862128,51.0427617],[-0.2861914,51.0427298],[-0.2861708,51.0426955],[-0.2861476,51.0426551],[-0.2861279,51.0426177],[-0.2860993,51.0425515],[-0.2860818,51.0425092],[-0.2860695,51.0424734],[-0.2860595,51.042440499999984],[-0.286055,51.042412600000013],[-0.2860505,51.0423709],[-0.2860482,51.0423323],[-0.2860481,51.042275],[-0.2860501,51.0421884]]}},
{"type":"Feature","properties":{"id":29757,"nach":0.52673978177617564},"geometry":{"type":"LineString","coordinates":[[-0.2860501,51.0421884],[-0.2859571,51.0421692],[-0.2858974,51.042155200000018],[-0.2858064,51.0421356]]}},
{"type":"Feature","properties":{"id":97001,"nach":0.54637403456104561},"geometry":{"type":"LineString","coordinates":[[-0.2857188,51.0421853],[-0.2858064,51.0421356]]}},
{"type":"Feature","properties":{"id":94352,"nach":0.38253161241163297},"geometry":{"type":"LineString","coordinates":[[-0.2781682,51.0289672],[-0.278143,51.029164],[-0.278118,51.029949],[-0.2780608,51.030794899999989],[-0.2780554,51.030951],[-0.2780656,51.0313505],[-0.2780637,51.0313799],[-0.2780541,51.0314109],[-0.278037,51.0314419]]}},
{"type":"Feature","properties":{"id":81553,"nach":0.33641245435658612},"geometry":{"type":"LineString","coordinates":[[-0.2718312,51.030029800000015],[-0.2720608,51.0301105],[-0.2728812,51.0303525],[-0.2734553,51.03049330000001],[-0.2739262,51.030608900000018],[-0.2741543,51.0306621],[-0.2743053,51.030691],[-0.2778211,51.031392400000016],[-0.2779303,51.0314168],[-0.278037,51.0314419]]}},
{"type":"Feature","properties":{"id":94351,"nach":0.39959729838940666},"geometry":{"type":"LineString","coordinates":[[-0.2781682,51.0289672],[-0.278177,51.028898],[-0.2782859,51.0283641],[-0.2783269,51.0281633]]}},
{"type":"Feature","properties":{"id":94353,"nach":0.36735838304028773},"geometry":{"type":"LineString","coordinates":[[-0.2779949,51.0289656],[-0.2781682,51.0289672]]}},
{"type":"Feature","properties":{"id":19729,"nach":0.10812211581686439},"geometry":{"type":"LineString","coordinates":[[-0.289022,51.043433],[-0.289113,51.043137],[-0.289255,51.042693],[-0.289546,51.041986],[-0.289645,51.04168],[-0.289697,51.041461],[-0.289715,51.041258],[-0.290006,51.040752],[-0.290086,51.0405627],[-0.29014,51.040435],[-0.290134,51.040265],[-0.290103,51.040198],[-0.289948,51.040017],[-0.289786,51.039732],[-0.2897839,51.0397256],[-0.289561,51.039055],[-0.289542,51.038904],[-0.289577,51.03852],[-0.2897308,51.0375531],[-0.289737,51.037514]]}},
{"type":"Feature","properties":{"id":15004,"nach":0.32933573842795466},"geometry":{"type":"LineString","coordinates":[[-0.2869145,51.034948200000017],[-0.2869302,51.0349735],[-0.2869515,51.0349992],[-0.2869708,51.0350163],[-0.2869985,51.0350365],[-0.28754,51.035412],[-0.287467,51.035558],[-0.28746,51.035638],[-0.2874608,51.0356576],[-0.2874703,51.0356886],[-0.2874818,51.0357124],[-0.2874946,51.0357306],[-0.287515,51.035757],[-0.287619,51.035853],[-0.288009,51.036127],[-0.288403,51.036362],[-0.28853,51.036458],[-0.28887,51.036789],[-0.289614,51.037395],[-0.289737,51.037514]]}},
{"type":"Feature","properties":{"id":82666,"nach":0.29182477476447227},"geometry":{"type":"LineString","coordinates":[[-0.292112,51.0373622],[-0.291971,51.037348],[-0.29143,51.037332],[-0.290634,51.037365],[-0.290009,51.037456],[-0.289906,51.037482],[-0.289737,51.037514]]}},
{"type":"Feature","properties":{"id":15003,"nach":0.45850903411425503},"geometry":{"type":"LineString","coordinates":[[-0.2869145,51.034948200000017],[-0.2880338,51.0347271]]}},
{"type":"Feature","properties":{"id":56999,"nach":0.46633449039687475},"geometry":{"type":"LineString","coordinates":[[-0.2867013,51.0349904],[-0.2869145,51.034948200000017]]}},
{"type":"Feature","properties":{"id":82668,"nach":0.25261257300981099},"geometry":{"type":"LineString","coordinates":[[-0.292112,51.0373622],[-0.2918146,51.0381893],[-0.2917951,51.03828],[-0.2917951,51.0383896],[-0.2918309,51.0384655],[-0.2918711,51.0385189],[-0.2919292,51.0385667],[-0.2920991,51.0386763],[-0.2924121,51.0388717]]}},
{"type":"Feature","properties":{"id":82697,"nach":0.26927395047732933},"geometry":{"type":"LineString","coordinates":[[-0.292112,51.0373622],[-0.296121601686463,51.034792157660924]]}},
{"type":"Feature","properties":{"id":82697,"nach":0.26927395047732933},"geometry":{"type":"LineString","coordinates":[[-0.296121601686463,51.034792157660924],[-0.297976,51.0340036]]}},
{"type":"Feature","properties":{"id":21271,"nach":0.46437602616892859},"geometry":{"type":"LineString","coordinates":[[-0.2836872,51.0424138],[-0.284038,51.0425458],[-0.2842296,51.0425854],[-0.2843776,51.0426506],[-0.284612,51.0427999]]}},
{"type":"Feature","properties":{"id":97000,"nach":0.55244641253051952},"geometry":{"type":"LineString","coordinates":[[-0.2857188,51.0421853],[-0.2850866,51.0425439]]}},
{"type":"Feature","properties":{"id":86500,"nach":0.39154775576120127},"geometry":{"type":"LineString","coordinates":[[-0.2837984,51.0423195],[-0.2836872,51.0424138]]}},
{"type":"Feature","properties":{"id":86499,"nach":0.39002793752050696},"geometry":{"type":"LineString","coordinates":[[-0.2834291,51.0423711],[-0.2836166,51.0424218],[-0.2836347,51.042426],[-0.2836523,51.0424267],[-0.2836722,51.0424223],[-0.2836872,51.0424138]]}},
{"type":"Feature","properties":{"id":94071,"nach":0.24822474085299243},"geometry":{"type":"LineString","coordinates":[[-0.2833949,51.0283639],[-0.2834714,51.0282141],[-0.2834887,51.0281865],[-0.2835046,51.0281673],[-0.2835339,51.0281422],[-0.2835551,51.0281288],[-0.283583,51.02811710000001],[-0.2836242,51.0281054],[-0.2836947,51.0280896],[-0.2837638,51.0280762],[-0.2838515,51.0280611],[-0.2841798,51.028012700000012],[-0.2844815,51.0279625],[-0.2846861,51.0279266],[-0.2848097,51.0279032],[-0.2849081,51.0278831],[-0.2849785,51.0278672],[-0.2850676,51.0278455],[-0.2851394,51.0278254],[-0.2852311,51.0277978],[-0.2853002,51.0277761],[-0.2853945,51.0277443],[-0.2855527,51.0276925],[-0.2856298,51.0276658],[-0.2856776,51.027647399999985],[-0.2860272,51.027507800000016],[-0.2866412,51.0272762],[-0.2874904,51.026977],[-0.2880664,51.0267673],[-0.2881096,51.0267502],[-0.2881415,51.026734699999984],[-0.2881628,51.026723],[-0.2881827,51.0267105],[-0.2882086,51.0266904],[-0.2882292,51.026671200000024],[-0.2882498,51.0266482],[-0.2882638,51.026629],[-0.2882718,51.026614],[-0.2882751,51.026601],[-0.2882777,51.0265874],[-0.2882852,51.0265551],[-0.2882896,51.026543700000012],[-0.2882975,51.026531],[-0.2883022,51.0265263],[-0.2883144,51.026519200000024]]}},
{"type":"Feature","properties":{"id":44973,"nach":0.20355145991940618},"geometry":{"type":"LineString","coordinates":[[-0.2835021,51.0290475],[-0.2840813,51.0287669],[-0.2841305,51.028741],[-0.2841852,51.0287112],[-0.2842251,51.028684],[-0.2847397,51.0282334],[-0.2867132,51.027643500000011],[-0.2876169,51.027420500000012],[-0.2883475,51.027195200000016],[-0.289001,51.0270017],[-0.2890895,51.0269721],[-0.2891669,51.0269491],[-0.2892564,51.026924],[-0.2893245,51.0269073],[-0.2893912,51.0268918],[-0.289496,51.026872700000013],[-0.2895761,51.0268643],[-0.2896663,51.0268616],[-0.2901723,51.0268584],[-0.2901788,51.0266685],[-0.2901808,51.02660250000001]]}},
{"type":"Feature","properties":{"id":93955,"nach":0.35259361162390745},"geometry":{"type":"LineString","coordinates":[[-0.2902146,51.0288926],[-0.2902811,51.028738],[-0.2903226,51.0286167],[-0.2903598,51.028425100000014],[-0.2904519,51.0279688]]}},
{"type":"Feature","properties":{"id":93953,"nach":0.27422495235694372},"geometry":{"type":"LineString","coordinates":[[-0.2902146,51.0288926],[-0.2918441,51.028454]]}},
{"type":"Feature","properties":{"id":93956,"nach":0.3681857145398324},"geometry":{"type":"LineString","coordinates":[[-0.2899936,51.0292421],[-0.2900308,51.0291981],[-0.2901266,51.029064900000016],[-0.2902019,51.0289222],[-0.2902146,51.0288926]]}},
{"type":"Feature","properties":{"id":93868,"nach":0.4063499931134526},"geometry":{"type":"LineString","coordinates":[[-0.2878898,51.0343718],[-0.2878842,51.034358],[-0.2878685,51.0342865],[-0.2878854,51.033764300000016],[-0.2879448,51.0328242],[-0.2881771,51.0328446]]}},
{"type":"Feature","properties":{"id":93871,"nach":0.37800627792917807},"geometry":{"type":"LineString","coordinates":[[-0.2884063,51.0317188],[-0.2883096,51.0321191],[-0.2881771,51.0328446]]}},
{"type":"Feature","properties":{"id":94065,"nach":0.33726862624742271},"geometry":{"type":"LineString","coordinates":[[-0.2904147,51.0328276],[-0.2903701,51.032842800000012],[-0.2903517,51.0328462],[-0.290317,51.0328478],[-0.2897322,51.0328695],[-0.289578,51.0328779],[-0.2894558,51.0328879],[-0.289267,51.0329113],[-0.2891421,51.0329263],[-0.289065,51.0329313],[-0.2889534,51.0329263],[-0.2888444,51.0329196],[-0.2887301,51.032909600000011],[-0.2881771,51.0328446]]}},
{"type":"Feature","properties":{"id":93866,"nach":0.40887832458651446},"geometry":{"type":"LineString","coordinates":[[-0.2878898,51.0343718],[-0.2880338,51.0347271]]}},
{"type":"Feature","properties":{"id":93867,"nach":0.33932566083153681},"geometry":{"type":"LineString","coordinates":[[-0.2878898,51.0343718],[-0.2876687,51.0343948],[-0.2876213,51.0344028],[-0.2875486,51.0344158],[-0.2875213,51.0344196],[-0.2873918,51.034436300000017],[-0.2872555,51.0344538],[-0.2872243,51.034458],[-0.2872147,51.0344374],[-0.2871805,51.0343649]]}},
{"type":"Feature","properties":{"id":94063,"nach":0.36717309004732096},"geometry":{"type":"LineString","coordinates":[[-0.2904147,51.0328276],[-0.2904021,51.0328222],[-0.2903701,51.0328063],[-0.2903335,51.032786200000011],[-0.2903109,51.0327714],[-0.2902921,51.0327549],[-0.2902677,51.032728300000016],[-0.2902414,51.0326946],[-0.2902169,51.0326556],[-0.2901558,51.0325492],[-0.290106,51.0324617],[-0.2899792,51.0322289],[-0.2898297,51.0319434],[-0.2897245,51.0317412],[-0.2897151,51.0317307],[-0.2896991,51.0317265],[-0.28967,51.0317265],[-0.2892546,51.0317301],[-0.2887584,51.03173120000001],[-0.2884558,51.0317342],[-0.288436,51.0317318],[-0.2884229,51.0317277],[-0.2884063,51.0317188]]}},
{"type":"Feature","properties":{"id":93874,"nach":0.41321749173770261},"geometry":{"type":"LineString","coordinates":[[-0.2884959,51.031260800000013],[-0.2884813,51.0313904],[-0.2884046,51.0316608],[-0.288401,51.031685300000014],[-0.2884014,51.0317058],[-0.2884063,51.0317188]]}},
{"type":"Feature","properties":{"id":94064,"nach":0.39090362988800137},"geometry":{"type":"LineString","coordinates":[[-0.2904147,51.0328276],[-0.290434,51.0328358],[-0.2904725,51.03285],[-0.2905036,51.0328601],[-0.2905449,51.0328701],[-0.2905881,51.0328778],[-0.2906342,51.0328843],[-0.2906935,51.0328921],[-0.2907646,51.0329009],[-0.2907852,51.032903],[-0.2908018,51.0329038],[-0.2908204,51.032903400000016],[-0.2908776,51.0328988],[-0.2911573,51.0328712],[-0.2911753,51.032871200000017],[-0.2911926,51.0328733],[-0.2912065,51.0328775],[-0.2912253,51.032882599999986],[-0.2912621,51.0328924],[-0.291282,51.03289860000001]]}},
{"type":"Feature","properties":{"id":94046,"nach":0.43026500089948849},"geometry":{"type":"LineString","coordinates":[[-0.2909322,51.0341018],[-0.2907912,51.0341533],[-0.2905417,51.0342266],[-0.2902842,51.0342844],[-0.289698,51.0343976],[-0.2880338,51.0347271]]}},
{"type":"Feature","properties":{"id":94047,"nach":0.42383128900377848},"geometry":{"type":"LineString","coordinates":[[-0.2909322,51.0341018],[-0.2909512,51.0340948],[-0.2911829,51.033984599999989],[-0.2914532,51.033835899999985],[-0.2917269,51.033652800000013]]}},
{"type":"Feature","properties":{"id":94048,"nach":0.31151515142063751},"geometry":{"type":"LineString","coordinates":[[-0.2909322,51.0341018],[-0.2909597,51.0341415],[-0.2909927,51.0341925],[-0.291,51.034202700000016],[-0.2910078,51.0342118],[-0.2910151,51.0342181],[-0.2910223,51.0342216],[-0.2910335,51.0342248],[-0.2910464,51.0342255],[-0.2910581,51.0342241],[-0.2910715,51.0342213],[-0.2910872,51.0342153],[-0.2911,51.0342083],[-0.2911145,51.034198400000015],[-0.2911307,51.0341868],[-0.2911481,51.0341735],[-0.2911699,51.034158],[-0.2911916,51.0341422],[-0.2912045,51.034133800000014],[-0.2912375,51.0341123],[-0.2913073,51.0340716],[-0.291399,51.0340217],[-0.2917574,51.0338127]]}},
{"type":"Feature","properties":{"id":57000,"nach":0.39203171546739995},"geometry":{"type":"LineString","coordinates":[[-0.2867013,51.0349904],[-0.2866436,51.0348725],[-0.2866274,51.0348408],[-0.2866168,51.0348211],[-0.2866062,51.0348034],[-0.2865902,51.0347788],[-0.2865745,51.0347582],[-0.2865571,51.034738],[-0.2865414,51.034720900000011],[-0.2865256,51.0347059],[-0.2865055,51.034688600000017],[-0.2864567,51.0346492],[-0.286426,51.034625],[-0.2863834,51.0345929]]}},
{"type":"Feature","properties":{"id":81440,"nach":0.35438110512568716},"geometry":{"type":"LineString","coordinates":[[-0.2754897,51.0312882],[-0.2755142,51.0312895],[-0.2755363,51.03128430000001],[-0.2755501,51.031273400000011],[-0.2756094,51.0311827],[-0.2756477,51.0311484],[-0.275689,51.0311373],[-0.2757379,51.0311395],[-0.2758108,51.0311498],[-0.277673,51.0315396],[-0.2778318,51.03166],[-0.2783408,51.0318135]]}},
{"type":"Feature","properties":{"id":39843,"nach":0.33817802790267082},"geometry":{"type":"LineString","coordinates":[[-0.2775918,51.0329584],[-0.2776219,51.0329135],[-0.278054,51.032211],[-0.2783408,51.0318135]]}},
{"type":"Feature","properties":{"id":21257,"nach":0.52351283399302051},"geometry":{"type":"LineString","coordinates":[[-0.282132,51.0421778],[-0.2824459,51.0424994],[-0.2825213,51.042628]]}},
{"type":"Feature","properties":{"id":21255,"nach":0.3788053642399774},"geometry":{"type":"LineString","coordinates":[[-0.282132,51.0421778],[-0.282095,51.0421252]]}},
{"type":"Feature","properties":{"id":64556,"nach":0.50826732325673374},"geometry":{"type":"LineString","coordinates":[[-0.281341,51.042485],[-0.2814783,51.042393099999984],[-0.2815734,51.0423531],[-0.2819032,51.0422578],[-0.282132,51.0421778]]}},
{"type":"Feature","properties":{"id":97002,"nach":0.48427356497858043},"geometry":{"type":"LineString","coordinates":[[-0.2857188,51.0421853],[-0.2856769,51.0421646],[-0.2856244,51.0421471],[-0.2855821,51.0421375],[-0.2855409,51.042131199999986],[-0.2853579,51.042103600000011],[-0.2852754,51.0420911],[-0.2852021,51.0420806],[-0.2851238,51.0420673],[-0.284431,51.0419448],[-0.2843781,51.0419333],[-0.2843359,51.0419216],[-0.2843107,51.0419121]]}},
{"type":"Feature","properties":{"id":64555,"nach":0.47550230831896717},"geometry":{"type":"LineString","coordinates":[[-0.281341,51.042485],[-0.2812333,51.0425611]]}},
{"type":"Feature","properties":{"id":64559,"nach":0.43242759664052505},"geometry":{"type":"LineString","coordinates":[[-0.281465,51.0425808],[-0.2814558,51.0425661],[-0.281435,51.04254980000001],[-0.281341,51.042485]]}},
{"type":"Feature","properties":{"id":86505,"nach":0.43163181847677395},"geometry":{"type":"LineString","coordinates":[[-0.2810999,51.0424783],[-0.2811129,51.042495],[-0.2811339,51.0425104],[-0.2811598,51.042522],[-0.2812096,51.042545200000013],[-0.2812333,51.0425611]]}},
{"type":"Feature","properties":{"id":86509,"nach":0.35934147445021059},"geometry":{"type":"LineString","coordinates":[[-0.280922,51.0425079],[-0.2810193,51.0424967],[-0.2810557,51.0424905],[-0.2810999,51.0424783]]}},
{"type":"Feature","properties":{"id":86508,"nach":0.35934147445021059},"geometry":{"type":"LineString","coordinates":[[-0.2812102,51.0424199],[-0.2811526,51.0424529],[-0.2811235,51.042468],[-0.2810999,51.0424783]]}},
{"type":"Feature","properties":{"id":31691,"nach":0.0},"geometry":{"type":"LineString","coordinates":[[-0.283209,51.0345461],[-0.2832007,51.0345556],[-0.2831927,51.0345632],[-0.2831832,51.0345698],[-0.2831767,51.0345734],[-0.2831669,51.0345784],[-0.2831528,51.0345846],[-0.2831314,51.0345922],[-0.2831182,51.034596399999984],[-0.2826311,51.034731],[-0.2825366,51.0347552],[-0.2824848,51.0347693],[-0.2824643,51.034773800000011],[-0.2824414,51.0347776],[-0.282412,51.0347812],[-0.2823354,51.034788400000011],[-0.2814829,51.0348448],[-0.2813565,51.0348413],[-0.2812509,51.0348312],[-0.2811534,51.0348134],[-0.281029,51.0347901],[-0.2792097,51.0359835],[-0.2778745,51.0368641],[-0.2762317,51.0382242],[-0.2753132,51.039370700000013],[-0.2752481,51.0394406],[-0.2751922,51.0394808],[-0.2751056,51.0395272],[-0.2747228,51.0397075],[-0.2745839,51.0397643],[-0.2744154,51.0398246],[-0.274048,51.0399441],[-0.2740771,51.0400095],[-0.2744587,51.0406674],[-0.2740782,51.0407656],[-0.2742582,51.0413175],[-0.2743303,51.0416385],[-0.2743654,51.0422461],[-0.2745791,51.0436362],[-0.2747634,51.043620900000015],[-0.2749913,51.0441309],[-0.275129,51.0445585],[-0.2751557,51.044676],[-0.2751736,51.0447797],[-0.2751736,51.0448878],[-0.2751646,51.0450268]]}},
{"type":"Feature","properties":{"id":59673,"nach":0.40162098618584569},"geometry":{"type":"LineString","coordinates":[[-0.283254,51.0342454],[-0.2832064,51.0343116],[-0.2831963,51.0343272],[-0.2831906,51.0343395],[-0.2831872,51.0343503],[-0.2831855,51.0343609],[-0.2831855,51.0343761],[-0.283187,51.0343888],[-0.2832109,51.0345006],[-0.2832147,51.0345165],[-0.2832156,51.034525099999989],[-0.2832155,51.0345337],[-0.283213,51.0345404],[-0.283209,51.0345461]]}},
{"type":"Feature","properties":{"id":81427,"nach":0.3814820648049338},"geometry":{"type":"LineString","coordinates":[[-0.2833058,51.0346441],[-0.2833023,51.0346343],[-0.2832996,51.0346289],[-0.2832932,51.0346196],[-0.2832859,51.0346121],[-0.2832636,51.0345851],[-0.2832471,51.03456820000001],[-0.2832307,51.0345562],[-0.283209,51.0345461]]}},
{"type":"Feature","properties":{"id":85194,"nach":0.39626917144437102},"geometry":{"type":"LineString","coordinates":[[-0.2865304,51.0353889],[-0.2865672,51.0354619]]}},
{"type":"Feature","properties":{"id":85196,"nach":0.32624583907846988},"geometry":{"type":"LineString","coordinates":[[-0.2865304,51.0353889],[-0.2867894,51.0353438]]}},
{"type":"Feature","properties":{"id":85197,"nach":0.32725979051772242},"geometry":{"type":"LineString","coordinates":[[-0.2863568,51.0354558],[-0.2865304,51.0353889]]}},
{"type":"Feature","properties":{"id":85191,"nach":0.32383880773354717},"geometry":{"type":"LineString","coordinates":[[-0.2867232,51.03566750000001],[-0.2866969,51.0356507],[-0.2866814,51.0356369],[-0.2866687,51.0356236],[-0.2866516,51.0356023],[-0.2866377,51.0355821],[-0.2865672,51.0354619]]}},
{"type":"Feature","properties":{"id":85190,"nach":0.32383880773354717},"geometry":{"type":"LineString","coordinates":[[-0.2866177,51.0357476],[-0.2866181,51.0356846],[-0.2866167,51.0356706],[-0.2866138,51.0356579],[-0.2866099,51.0356468],[-0.2865405,51.0355084],[-0.2865329,51.0354904],[-0.2865327,51.0354813],[-0.2865373,51.0354742],[-0.2865445,51.0354685],[-0.2865672,51.0354619]]}},
{"type":"Feature","properties":{"id":59672,"nach":0.43813663921757462},"geometry":{"type":"LineString","coordinates":[[-0.283254,51.0342454],[-0.283378,51.0342755],[-0.2834763,51.0343005]]}},
{"type":"Feature","properties":{"id":81429,"nach":0.31077328310926333},"geometry":{"type":"LineString","coordinates":[[-0.2832678,51.034812800000019],[-0.2832413,51.0347156],[-0.2832391,51.0347028],[-0.2832382,51.0346926],[-0.283239,51.0346834],[-0.2832413,51.0346761],[-0.2832446,51.0346703],[-0.2832499,51.0346645],[-0.2832577,51.0346582],[-0.2832663,51.0346534],[-0.2832742,51.0346502],[-0.2832873,51.034647],[-0.2833058,51.0346441]]}},
{"type":"Feature","properties":{"id":93851,"nach":0.30684414448407099},"geometry":{"type":"LineString","coordinates":[[-0.2836616,51.0349824],[-0.2836483,51.0349798],[-0.2836187,51.0349716],[-0.2836003,51.0349653],[-0.2835796,51.0349575],[-0.2835517,51.0349463],[-0.2835164,51.03493060000001],[-0.283491,51.0349179],[-0.2834728,51.0349077],[-0.2834555,51.034896500000016],[-0.2834422,51.0348859],[-0.2834304,51.0348762],[-0.2834198,51.0348658],[-0.2834103,51.0348547],[-0.2834041,51.0348461],[-0.2833996,51.0348365],[-0.2833963,51.0348251],[-0.283374,51.0346804],[-0.2833717,51.0346694],[-0.2833689,51.0346628],[-0.2833636,51.0346566],[-0.2833576,51.0346525],[-0.2833482,51.034649],[-0.2833404,51.0346469],[-0.2833304,51.0346448],[-0.2833192,51.0346437],[-0.2833058,51.0346441]]}},
{"type":"Feature","properties":{"id":81899,"nach":0.26287260475012236},"geometry":{"type":"LineString","coordinates":[[-0.2831981,51.0338819],[-0.2831877,51.0338744],[-0.2831826,51.0338649],[-0.2831769,51.0338478],[-0.2831755,51.0338284],[-0.283177,51.0338016],[-0.2832155,51.0333299],[-0.2832162,51.0332706],[-0.2832016,51.032754499999989],[-0.2831225,51.031786],[-0.2831128,51.0316754],[-0.2830838,51.0313762],[-0.2830385,51.0311907],[-0.28303,51.0309661],[-0.2829964,51.0299334],[-0.2829875,51.0297158],[-0.2829908,51.0295753],[-0.2830005,51.0295182],[-0.2830222,51.02946],[-0.2830495,51.0294185],[-0.2830909,51.0293698],[-0.283129,51.02934310000002],[-0.2832232,51.0292773],[-0.2834527,51.0290917],[-0.2835021,51.0290475]]}},
{"type":"Feature","properties":{"id":81900,"nach":0.30728666318293696},"geometry":{"type":"LineString","coordinates":[[-0.2831981,51.0338819],[-0.2833519,51.03394],[-0.2833992,51.0339591],[-0.2834342,51.0339734],[-0.2834628,51.0339879],[-0.2834807,51.0339985],[-0.2834994,51.034012600000011],[-0.2835187,51.03402710000001],[-0.2835343,51.034041],[-0.2835504,51.03405810000001],[-0.2835582,51.0340732],[-0.2835632,51.034090800000016],[-0.2835618,51.0341081],[-0.2835572,51.0341226],[-0.2835503,51.0341459]]}},
{"type":"Feature","properties":{"id":94070,"nach":0.28301779037888747},"geometry":{"type":"LineString","coordinates":[[-0.2833949,51.0283639],[-0.2834061,51.0283674],[-0.2834323,51.0283762],[-0.2834587,51.0283894],[-0.2835006,51.02841560000001],[-0.2835352,51.0284384],[-0.2835715,51.0284664],[-0.2836025,51.0284952],[-0.2836845,51.0285858],[-0.2837021,51.028615],[-0.2837149,51.028643700000011],[-0.2837226,51.0286757],[-0.283721,51.02870510000001],[-0.2837078,51.0287438],[-0.2836866,51.0287967],[-0.2836624,51.0288428],[-0.283639,51.028888],[-0.2836196,51.0289188],[-0.2835934,51.0289497],[-0.2835484,51.0289936],[-0.2835021,51.0290475]]}},
{"type":"Feature","properties":{"id":39844,"nach":0.0},"geometry":{"type":"LineString","coordinates":[[-0.2775918,51.0329584],[-0.2775689,51.0329955],[-0.2772491,51.0334337],[-0.2771815,51.03353340000001],[-0.276189,51.035018],[-0.276027,51.035174],[-0.275606,51.035502],[-0.275193,51.035888],[-0.274696,51.036281],[-0.274587,51.036403],[-0.274184,51.036734],[-0.273895,51.037026700000013],[-0.2732451,51.0377577],[-0.2731595,51.0377966],[-0.2730595,51.0378308],[-0.2730288,51.0378454],[-0.2729989,51.0378757],[-0.272694,51.038359],[-0.2719933,51.0389866],[-0.2719716,51.0390091],[-0.2719536,51.0390326],[-0.271939,51.0390617],[-0.2719125,51.03914540000001],[-0.2718858,51.0392155],[-0.2718825,51.039231500000014],[-0.2718839,51.0392485],[-0.2718909,51.0392673],[-0.2719595,51.0394152],[-0.2719706,51.0394451],[-0.2719797,51.0394792],[-0.271981,51.039514],[-0.2719818,51.0395519],[-0.271976,51.0395799],[-0.2719687,51.0395981],[-0.2719525,51.0396274],[-0.2718307,51.0398149]]}},
{"type":"Feature","properties":{"id":39842,"nach":0.27621899936180194},"geometry":{"type":"LineString","coordinates":[[-0.2775918,51.0329584],[-0.2763635,51.0328811],[-0.2763247,51.0328812],[-0.2762852,51.03288830000001],[-0.2762677,51.0329073],[-0.2761832,51.0330402]]}},
{"type":"Feature","properties":{"id":81442,"nach":0.34341189945430078},"geometry":{"type":"LineString","coordinates":[[-0.2754897,51.0312882],[-0.2754424,51.0312797],[-0.2753932,51.0312671],[-0.2753351,51.0312474],[-0.2751697,51.031174299999989],[-0.275002,51.0310998],[-0.2749504,51.0310773]]}},
{"type":"Feature","properties":{"id":81437,"nach":0.27585502327162231},"geometry":{"type":"LineString","coordinates":[[-0.2738219,51.0325299],[-0.2738561,51.0324679],[-0.2740602,51.0321222],[-0.2744766,51.031336400000015],[-0.2745194,51.0312695],[-0.2745535,51.0312227],[-0.2745898,51.03119130000001],[-0.2746357,51.0311596],[-0.2746737,51.0311382],[-0.2747222,51.0311186],[-0.2747842,51.0311019],[-0.2748724,51.0310853],[-0.2749504,51.0310773]]}},
{"type":"Feature","properties":{"id":81479,"nach":0.31597471906335001},"geometry":{"type":"LineString","coordinates":[[-0.2729893,51.0322795],[-0.2730092,51.0322562],[-0.2730516,51.0322126],[-0.2731142,51.0321269],[-0.2731522,51.032070600000011],[-0.273179,51.0320285],[-0.2732094,51.0319924],[-0.2732429,51.0319643],[-0.2732809,51.031947400000014],[-0.2733122,51.0319446],[-0.2733771,51.0319446],[-0.2739537,51.031991],[-0.2740096,51.031991],[-0.2740364,51.0319868],[-0.2740633,51.0319713],[-0.2740834,51.0319446],[-0.2745058,51.0311869],[-0.2745282,51.0311532],[-0.274555,51.031129300000011],[-0.274593,51.031104],[-0.2746399,51.0310773],[-0.2746958,51.031060400000015],[-0.2747629,51.0310506],[-0.274812,51.0310492],[-0.27485,51.0310506],[-0.274897,51.0310604],[-0.2749504,51.0310773]]}},
{"type":"Feature","properties":{"id":81443,"nach":0.21448513324559018},"geometry":{"type":"LineString","coordinates":[[-0.2754897,51.0312882],[-0.2749283,51.0323832],[-0.2747965,51.0326446],[-0.2747674,51.032691],[-0.2747428,51.032716299999983],[-0.2747138,51.0327346],[-0.2746825,51.0327444]]}},
{"type":"Feature","properties":{"id":81439,"nach":0.27992969101309817},"geometry":{"type":"LineString","coordinates":[[-0.2738219,51.0325299],[-0.2746176,51.0327388],[-0.2746534,51.0327459],[-0.2746825,51.0327444]]}},
{"type":"Feature","properties":{"id":81473,"nach":0.35730325394978896},"geometry":{"type":"LineString","coordinates":[[-0.2729372,51.032331],[-0.2738219,51.0325299]]}},
{"type":"Feature","properties":{"id":81496,"nach":0.34201506519054303},"geometry":{"type":"LineString","coordinates":[[-0.2732556,51.0332866],[-0.2733077,51.0332383],[-0.2733887,51.033153],[-0.2734479,51.033078],[-0.2735259,51.0329703],[-0.2738219,51.0325299]]}},
{"type":"Feature","properties":{"id":81477,"nach":0.41381228353997018},"geometry":{"type":"LineString","coordinates":[[-0.2729893,51.0322795],[-0.2711006,51.0319141],[-0.2705597,51.0318171],[-0.2704546,51.0318044],[-0.2702892,51.0317819],[-0.2700389,51.031735500000011],[-0.269194,51.0315936],[-0.2689347,51.03155],[-0.268861,51.031537299999989],[-0.2688028,51.0315261]]}},
{"type":"Feature","properties":{"id":81478,"nach":0.40782503005329868},"geometry":{"type":"LineString","coordinates":[[-0.2729893,51.0322795],[-0.2729692,51.0323076],[-0.2729372,51.032331]]}},
{"type":"Feature","properties":{"id":97007,"nach":0.16012489927513651},"geometry":{"type":"LineString","coordinates":[[-0.2853075,51.0392788],[-0.2853503,51.039311],[-0.2853749,51.0393255],[-0.2854027,51.0393352],[-0.2854335,51.039342],[-0.2854627,51.039342],[-0.285492,51.0393362],[-0.2855136,51.0393274],[-0.2855675,51.03929930000001],[-0.2856753,51.0392364],[-0.2857308,51.0392102],[-0.2857693,51.0391957],[-0.2858171,51.0391802],[-0.2858571,51.0391686],[-0.285891,51.0391647],[-0.2859249,51.0391666],[-0.2859526,51.039175399999984],[-0.2859834,51.039187],[-0.286005,51.039199600000011],[-0.2860281,51.039216],[-0.2861852,51.0393575],[-0.2862222,51.0393933],[-0.2862931,51.0394543],[-0.2863609,51.0395221],[-0.2864055,51.0395735],[-0.2864672,51.0396568],[-0.2865165,51.039730400000018],[-0.2865534,51.0397846],[-0.2865966,51.0398592],[-0.286632,51.0399299],[-0.2866459,51.03996380000001],[-0.2866551,51.0400026],[-0.2866628,51.0400462],[-0.2866659,51.040084],[-0.2866659,51.0401401],[-0.2866613,51.040213800000011],[-0.286652,51.0403203],[-0.2866474,51.0403716],[-0.2866397,51.040422],[-0.2866274,51.040483],[-0.2865919,51.0406341],[-0.2865719,51.040732],[-0.2865627,51.0407746],[-0.2865503,51.0408172],[-0.2865396,51.0408492],[-0.2865288,51.0408763],[-0.2864918,51.0409431],[-0.2864502,51.0410032],[-0.2864271,51.0410352],[-0.2863794,51.0410952],[-0.2863455,51.041133],[-0.2863131,51.0411649],[-0.2862854,51.0411911],[-0.2862592,51.0412095],[-0.2862299,51.041225],[-0.2861791,51.0412482],[-0.2861452,51.0412657],[-0.2861205,51.04128510000001],[-0.2860944,51.0413122],[-0.2860697,51.0413451],[-0.2859449,51.0415214],[-0.2859234,51.0415485],[-0.2859018,51.041566],[-0.2858787,51.0415776],[-0.2858479,51.0415882],[-0.2858063,51.0415979],[-0.2857416,51.0416095],[-0.2856815,51.0416163],[-0.2849513,51.04167060000001],[-0.2841509,51.0417302]]}},
{"type":"Feature","properties":{"id":97003,"nach":0.38237045891143068},"geometry":{"type":"LineString","coordinates":[[-0.2841509,51.0417302],[-0.2841862,51.04180490000001],[-0.2842064,51.0418474],[-0.2842181,51.04186390000001],[-0.2842359,51.0418792],[-0.2842624,51.0418935],[-0.2843107,51.0419121]]}},
{"type":"Feature","properties":{"id":86496,"nach":0.44931720905262362},"geometry":{"type":"LineString","coordinates":[[-0.2836133,51.0420122],[-0.284162,51.041952],[-0.2842214,51.0419428],[-0.2842546,51.0419364],[-0.2842902,51.0419238],[-0.2843107,51.0419121]]}},
{"type":"Feature","properties":{"id":86494,"nach":0.37253486691169718},"geometry":{"type":"LineString","coordinates":[[-0.2836133,51.0420122],[-0.2829123,51.0420881]]}},
{"type":"Feature","properties":{"id":86495,"nach":0.3773511047995482},"geometry":{"type":"LineString","coordinates":[[-0.2836133,51.0420122],[-0.2836157,51.0420241],[-0.2836119,51.042036],[-0.2836046,51.0420452],[-0.2835602,51.0420913],[-0.2834469,51.0422137]]}},
{"type":"Feature","properties":{"id":44967,"nach":0.31664336453135483},"geometry":{"type":"LineString","coordinates":[[-0.2798727,51.0279254],[-0.2800066,51.0279658],[-0.2800729,51.027986],[-0.2801358,51.0280064],[-0.2801828,51.0280224],[-0.280429,51.0281182],[-0.2804718,51.0281336],[-0.2804988,51.0281484],[-0.2805188,51.0281634],[-0.2805345,51.0281784]]}},
{"type":"Feature","properties":{"id":44977,"nach":0.25977776433145744},"geometry":{"type":"LineString","coordinates":[[-0.2783269,51.0281633],[-0.2797229,51.0282973],[-0.2797814,51.0283007],[-0.2798265,51.0283025],[-0.2798928,51.0283011],[-0.279983,51.0282949],[-0.2800752,51.0282853],[-0.2801462,51.0282765],[-0.2802138,51.0282674],[-0.280309,51.0282474],[-0.2803821,51.0282277],[-0.2805345,51.0281784]]}},
{"type":"Feature","properties":{"id":94069,"nach":0.31214186938422356},"geometry":{"type":"LineString","coordinates":[[-0.2833949,51.0283639],[-0.2833732,51.028357],[-0.2833266,51.028348200000018],[-0.2832746,51.0283384],[-0.2832002,51.028321800000015],[-0.2830819,51.0283001],[-0.2829781,51.0282835],[-0.2828716,51.0282701],[-0.2827757,51.0282585],[-0.2826423,51.028246900000013],[-0.282527,51.0282388],[-0.2822211,51.0282253],[-0.2817658,51.0282058],[-0.2807309,51.0281532],[-0.2806879,51.0281533],[-0.280653,51.028155],[-0.2806024,51.0281617],[-0.2805691,51.0281684],[-0.2805345,51.0281784]]}},
{"type":"Feature","properties":{"id":44971,"nach":0.36122389403935412},"geometry":{"type":"LineString","coordinates":[[-0.2784448,51.0276658],[-0.279056,51.0277587],[-0.2794583,51.0278254],[-0.2795444,51.027838],[-0.2795824,51.0278463],[-0.2796242,51.0278595],[-0.2796756,51.0278766],[-0.2797114,51.027886],[-0.2797607,51.0278977],[-0.2798727,51.0279254]]}},
{"type":"Feature","properties":{"id":94072,"nach":0.28031679689527983},"geometry":{"type":"LineString","coordinates":[[-0.2806761,51.0274345],[-0.2805943,51.02761180000001],[-0.2805492,51.0277171],[-0.2805398,51.027734200000019],[-0.2805286,51.0277454],[-0.2805079,51.0277584],[-0.2804806,51.027769700000015],[-0.280444,51.0277797],[-0.280413,51.027785],[-0.2803867,51.0277868],[-0.2803472,51.0277862],[-0.2802955,51.0277821],[-0.2802156,51.0277732],[-0.2801592,51.0277691],[-0.2801226,51.0277685],[-0.2800859,51.0277703],[-0.2800512,51.0277738],[-0.2800248,51.027778499999989],[-0.2800032,51.0277856],[-0.2799844,51.0277951],[-0.2799694,51.0278051],[-0.2799534,51.0278187],[-0.2799365,51.0278365],[-0.279913,51.0278662],[-0.2798727,51.0279254]]}},
{"type":"Feature","properties":{"id":44975,"nach":0.39817856062115375},"geometry":{"type":"LineString","coordinates":[[-0.2783269,51.0281633],[-0.278407,51.027771],[-0.2784448,51.0276658]]}},
{"type":"Feature","properties":{"id":57002,"nach":0.35864479320717646},"geometry":{"type":"LineString","coordinates":[[-0.2926126,51.0330605],[-0.2931254,51.03277760000001],[-0.2936615,51.0324818],[-0.2946434,51.0320482]]}},
{"type":"Feature","properties":{"id":56104,"nach":0.33251746396069637},"geometry":{"type":"LineString","coordinates":[[-0.2955752,51.0326398],[-0.2955515,51.0326383],[-0.2955314,51.0326333],[-0.2955095,51.0326239],[-0.2954753,51.0326026],[-0.2951204,51.0323726],[-0.2949798,51.032284900000015],[-0.2948507,51.0322066],[-0.2947951,51.0321731],[-0.2947517,51.0321444],[-0.2947176,51.0321188],[-0.2946917,51.0320968],[-0.2946434,51.0320482]]}},
{"type":"Feature","properties":{"id":71946,"nach":0.37472195548323484},"geometry":{"type":"LineString","coordinates":[[-0.2923785,51.0332167],[-0.2926126,51.0330605]]}},
{"type":"Feature","properties":{"id":94055,"nach":0.21551866213962123},"geometry":{"type":"LineString","coordinates":[[-0.2923599,51.0329245],[-0.2923884,51.0329262],[-0.2924058,51.0329287],[-0.29242,51.0329327],[-0.292439,51.0329426],[-0.2926126,51.0330605]]}},
{"type":"Feature","properties":{"id":56106,"nach":0.23402634624073115},"geometry":{"type":"LineString","coordinates":[[-0.2978417,51.0311914],[-0.2977455,51.0315243],[-0.2977275,51.0315831],[-0.2977109,51.0316245],[-0.297688,51.0316529],[-0.2976587,51.031678400000011],[-0.2976047,51.0317094],[-0.2975323,51.0317493],[-0.2966801,51.0321498],[-0.2956714,51.032617],[-0.2956469,51.0326267],[-0.2956228,51.0326343],[-0.2955979,51.03263780000001],[-0.2955752,51.0326398]]}},
{"type":"Feature","properties":{"id":67714,"nach":0.27291552295594079},"geometry":{"type":"LineString","coordinates":[[-0.2955304,51.032797800000012],[-0.2955545,51.0327178],[-0.2955752,51.0326398]]}},
{"type":"Feature","properties":{"id":67713,"nach":0.0},"geometry":{"type":"LineString","coordinates":[[-0.2955304,51.032797800000012],[-0.2954971,51.032795],[-0.2954682,51.032795],[-0.2954363,51.032797900000013],[-0.2953991,51.032807900000016],[-0.2953693,51.0328194],[-0.2951595,51.0329117],[-0.2951447,51.0329192],[-0.2951329,51.032929],[-0.2951311,51.0329392],[-0.2951349,51.0329481],[-0.2951439,51.0329586],[-0.2951847,51.03299410000001],[-0.2951968,51.0330019],[-0.2952138,51.0330061],[-0.2952329,51.0330048],[-0.2952521,51.0330004],[-0.2954646,51.0329075],[-0.2954809,51.0328961],[-0.2954938,51.0328819],[-0.2955063,51.032862],[-0.2955179,51.0328347],[-0.2955304,51.032797800000012]]}},
{"type":"Feature","properties":{"id":85187,"nach":0.32606993198762313},"geometry":{"type":"LineString","coordinates":[[-0.2871805,51.0343649],[-0.2873375,51.0343392],[-0.2873783,51.0343303],[-0.2874039,51.0343224],[-0.2874562,51.034303800000011],[-0.2874995,51.0342894],[-0.2875348,51.0342804],[-0.2875674,51.0342735],[-0.2875969,51.034268600000011],[-0.2876894,51.0342595]]}},
{"type":"Feature","properties":{"id":85188,"nach":0.35638610846017582},"geometry":{"type":"LineString","coordinates":[[-0.2871805,51.0343649],[-0.2867224,51.0344523],[-0.2866847,51.0344615],[-0.2866296,51.0344766],[-0.2865874,51.0344895],[-0.2865421,51.0345073],[-0.2864969,51.034527300000015],[-0.2864359,51.034561200000013],[-0.2863834,51.0345929]]}},
{"type":"Feature","properties":{"id":56996,"nach":0.32432543541846698},"geometry":{"type":"LineString","coordinates":[[-0.2863834,51.0345929],[-0.2863497,51.0345697],[-0.2863258,51.0345536],[-0.2863058,51.034541],[-0.2862769,51.0345248],[-0.2862523,51.03451170000001],[-0.2862297,51.0345007],[-0.2862023,51.0344887],[-0.2861219,51.0344542],[-0.2859914,51.0344055]]}},
{"type":"Feature","properties":{"id":71947,"nach":0.41937750446666427},"geometry":{"type":"LineString","coordinates":[[-0.2923785,51.0332167],[-0.2923354,51.0332455],[-0.2917269,51.033652800000013]]}},
{"type":"Feature","properties":{"id":94051,"nach":0.4081573301219531},"geometry":{"type":"LineString","coordinates":[[-0.2921246,51.03308590000001],[-0.2922457,51.033145100000013],[-0.2923785,51.0332167]]}},
{"type":"Feature","properties":{"id":94054,"nach":0.30171144580248921},"geometry":{"type":"LineString","coordinates":[[-0.2923599,51.0329245],[-0.2923615,51.0329202],[-0.2923639,51.0328984],[-0.2923639,51.0328258],[-0.29236,51.0326723],[-0.2923568,51.0326479],[-0.2923481,51.0326206],[-0.2923355,51.0325967],[-0.2923268,51.0325848],[-0.2923046,51.0325649],[-0.2922786,51.032548],[-0.2922556,51.0325341],[-0.2922098,51.0325127],[-0.292194,51.0325068],[-0.2921798,51.032504300000014],[-0.2921616,51.032504299999985],[-0.2921486,51.0325074]]}},
{"type":"Feature","properties":{"id":94053,"nach":0.34163463816522227},"geometry":{"type":"LineString","coordinates":[[-0.2923599,51.0329245],[-0.2923552,51.0329366],[-0.2923426,51.032952],[-0.2923276,51.032965],[-0.2923133,51.0329749],[-0.2921246,51.03308590000001]]}},
{"type":"Feature","properties":{"id":57413,"nach":0.0},"geometry":{"type":"LineString","coordinates":[[-0.2839075,51.0341739],[-0.2839086,51.0341697],[-0.2839103,51.0341657],[-0.2839127,51.0341617],[-0.2839157,51.034158],[-0.2839193,51.0341545],[-0.2839235,51.0341512],[-0.2839281,51.0341482],[-0.2839332,51.0341455],[-0.2839388,51.0341432],[-0.2839447,51.0341412],[-0.2839509,51.034139699999983],[-0.2839573,51.0341385],[-0.2839638,51.0341378],[-0.2839705,51.0341374],[-0.2839771,51.0341375],[-0.2839837,51.0341381],[-0.2839902,51.034139],[-0.2839965,51.034140400000013],[-0.2840026,51.0341422],[-0.2840083,51.0341444],[-0.2840136,51.0341469],[-0.2840185,51.0341497],[-0.2840229,51.0341529],[-0.2840268,51.0341563],[-0.2840301,51.0341599],[-0.2840328,51.0341637],[-0.2840348,51.0341677],[-0.2840362,51.0341718],[-0.2840369,51.034176],[-0.2840369,51.0341802],[-0.2840362,51.0341847],[-0.2840347,51.0341891],[-0.2840324,51.0341933],[-0.2840294,51.0341974],[-0.2840257,51.0342013],[-0.2840213,51.0342049],[-0.2840163,51.0342081],[-0.2840108,51.034211],[-0.2840049,51.0342135],[-0.2839985,51.0342155],[-0.2839918,51.034217100000014],[-0.2839849,51.0342183],[-0.2839778,51.034218899999985],[-0.2839706,51.0342191],[-0.2839635,51.0342187],[-0.2839564,51.0342179],[-0.2839496,51.0342165],[-0.283943,51.0342147],[-0.2839368,51.0342125],[-0.283931,51.0342099],[-0.2839257,51.034206800000014],[-0.283921,51.03420340000001],[-0.2839169,51.0341997],[-0.2839135,51.0341958],[-0.2839107,51.0341916],[-0.2839088,51.0341873],[-0.2839076,51.0341828],[-0.2839072,51.034178300000015],[-0.2839075,51.0341739]]}},
{"type":"Feature","properties":{"id":57416,"nach":0.31718598428956019},"geometry":{"type":"LineString","coordinates":[[-0.2835503,51.0341459],[-0.2836464,51.034153],[-0.2839075,51.0341739]]}},
{"type":"Feature","properties":{"id":57418,"nach":0.38361610106728983},"geometry":{"type":"LineString","coordinates":[[-0.2834763,51.0343005],[-0.2835503,51.0341459]]}},
{"type":"Feature","properties":{"id":81434,"nach":0.0},"geometry":{"type":"LineString","coordinates":[[-0.2746825,51.0327444],[-0.2746936,51.0327697],[-0.2747048,51.0328007],[-0.2747003,51.0328386],[-0.2746735,51.0329019],[-0.2745819,51.033081799999984],[-0.2745417,51.0331507],[-0.2745014,51.0332083],[-0.2744321,51.0332842],[-0.2742958,51.0334234],[-0.274108,51.0336187],[-0.2738175,51.0339294],[-0.2737057,51.03404470000001],[-0.2736342,51.0341191],[-0.2735828,51.034168299999976],[-0.2732162,51.034486],[-0.27253,51.0350721],[-0.2724451,51.035141],[-0.2723378,51.0352268],[-0.2722551,51.0352872],[-0.2721612,51.0353729],[-0.2721031,51.035432],[-0.2720539,51.0354966],[-0.2718907,51.035727100000017],[-0.2716404,51.0360884],[-0.2715555,51.0362163],[-0.271513,51.03629080000001],[-0.2714079,51.0365227],[-0.2713588,51.0366492],[-0.2713163,51.0367715],[-0.2712135,51.0370947],[-0.2710682,51.0375501],[-0.2710391,51.0376471],[-0.2710123,51.037766600000012],[-0.2707441,51.0390357],[-0.2705832,51.0398143],[-0.270563,51.039893],[-0.2705452,51.0399253],[-0.2705161,51.0399549],[-0.2704695,51.0399869]]}},
{"type":"Feature","properties":{"id":81471,"nach":0.2188382940657706},"geometry":{"type":"LineString","coordinates":[[-0.2707873,51.0354914],[-0.270722,51.035395800000011],[-0.2707094,51.0353663],[-0.2707128,51.0353462],[-0.2707553,51.0351972],[-0.2707694,51.0351569],[-0.2708017,51.0351166],[-0.2709368,51.0349667],[-0.2710931,51.0347887],[-0.2712989,51.0345554],[-0.2715558,51.0342753],[-0.2716486,51.0341721],[-0.2716564,51.0341518],[-0.2716496,51.0341369]]}},
{"type":"Feature","properties":{"id":81497,"nach":0.20232825966222501},"geometry":{"type":"LineString","coordinates":[[-0.2732556,51.0332866],[-0.2732315,51.033309],[-0.2731172,51.0334107],[-0.2730083,51.0334954],[-0.2726739,51.033747299999987],[-0.2723194,51.0340258],[-0.2721619,51.0341525],[-0.2718954,51.034379],[-0.271611,51.0346321],[-0.2712981,51.0349243],[-0.2711885,51.03503520000001],[-0.2711025,51.0351329],[-0.2709857,51.0352618],[-0.2707873,51.0354914]]}},
{"type":"Feature","properties":{"id":58603,"nach":0.12916660781961095},"geometry":{"type":"LineString","coordinates":[[-0.2716496,51.0341369],[-0.2715745,51.0341748],[-0.2715249,51.0341961],[-0.271462,51.0342195],[-0.2714122,51.0342354],[-0.2713373,51.0342556],[-0.2712675,51.0342705],[-0.2711969,51.0342821],[-0.2711428,51.0342888],[-0.2710881,51.0342936],[-0.271033,51.034296500000018],[-0.2709219,51.0342968],[-0.2708135,51.0342897],[-0.2706992,51.034274],[-0.2705934,51.0342514],[-0.2705037,51.0342256],[-0.270413,51.0341922],[-0.2703344,51.034156199999984],[-0.2702342,51.034098300000011]]}},
{"type":"Feature","properties":{"id":81494,"nach":0.26362102747314659},"geometry":{"type":"LineString","coordinates":[[-0.2717089,51.0332096],[-0.2717333,51.0332257],[-0.271771,51.0332536],[-0.2718062,51.033283],[-0.2718384,51.0333132],[-0.2718679,51.0333447],[-0.2718959,51.0333789],[-0.2719202,51.0334136],[-0.2719418,51.033450199999983],[-0.27196,51.0334879],[-0.2719773,51.0335353],[-0.2719888,51.033583],[-0.2719948,51.0336356],[-0.2719944,51.0336807],[-0.2719907,51.0337156],[-0.271982,51.0337583],[-0.2719697,51.0337982],[-0.2719533,51.0338374],[-0.271928,51.0338845],[-0.2718967,51.0339305],[-0.2718688,51.0339648],[-0.2718333,51.0340023],[-0.2717934,51.0340386],[-0.2717431,51.0340778],[-0.2716939,51.0341108],[-0.2716496,51.0341369]]}},
{"type":"Feature","properties":{"id":81493,"nach":0.26608054422430238},"geometry":{"type":"LineString","coordinates":[[-0.2717089,51.0332096],[-0.2716897,51.033197],[-0.2716591,51.0331789],[-0.2716099,51.0331526],[-0.2715576,51.033128100000013],[-0.2715089,51.0331081],[-0.2714585,51.0330898],[-0.271395,51.03307],[-0.2713397,51.03305550000001],[-0.271279,51.0330422],[-0.2712175,51.0330314],[-0.2711588,51.033023500000013],[-0.2711087,51.0330185],[-0.2710489,51.0330146],[-0.2709889,51.0330129],[-0.2709055,51.0330143],[-0.2708224,51.03302],[-0.2707547,51.0330278],[-0.270705,51.0330357]]}},
{"type":"Feature","properties":{"id":81498,"nach":0.30800779441970122},"geometry":{"type":"LineString","coordinates":[[-0.2732556,51.0332866],[-0.2732025,51.0332727],[-0.2731533,51.0332685],[-0.2730885,51.0332671],[-0.2729544,51.0332685],[-0.2728515,51.0332643],[-0.2727778,51.033258600000011],[-0.2727107,51.0332502],[-0.2721095,51.0331532],[-0.272029,51.0331434],[-0.2719664,51.0331392],[-0.2719217,51.0331392],[-0.2718614,51.0331448],[-0.27181,51.0331574],[-0.2717608,51.03317710000001],[-0.2717089,51.0332096]]}},
{"type":"Feature","properties":{"id":93869,"nach":0.30328931361411171},"geometry":{"type":"LineString","coordinates":[[-0.2906998,51.0329411],[-0.2908081,51.0329721],[-0.2908475,51.0329827],[-0.2908832,51.03298980000001],[-0.2909208,51.0329969],[-0.2909988,51.03301110000001],[-0.2910327,51.0330193],[-0.2910674,51.0330288],[-0.2910994,51.0330394],[-0.2911266,51.0330519],[-0.2911404,51.0330598],[-0.2911576,51.0330709],[-0.2911748,51.0330856],[-0.2911881,51.0331002],[-0.2911995,51.0331165],[-0.2912073,51.0331318],[-0.2912127,51.0331476],[-0.2912163,51.0331627],[-0.2912184,51.0331812],[-0.2912186,51.0332033],[-0.2912152,51.0332356],[-0.2912107,51.033285],[-0.2912108,51.033303],[-0.2912149,51.0333167],[-0.2912212,51.033327500000013],[-0.2912338,51.0333387],[-0.2912459,51.0333463],[-0.2913738,51.0334209],[-0.2914099,51.03344280000001],[-0.2914339,51.0334576],[-0.2914573,51.033473],[-0.2914874,51.0334944],[-0.2915211,51.0335206],[-0.2915608,51.03355040000001],[-0.2915798,51.0335636],[-0.2916085,51.0335831],[-0.2917269,51.033652800000013]]}},
{"type":"Feature","properties":{"id":81761,"nach":0.36613745788045216},"geometry":{"type":"LineString","coordinates":[[-0.2865573,51.0379511],[-0.286369,51.0380529],[-0.2860109,51.0382174]]}},
{"type":"Feature","properties":{"id":81762,"nach":0.31871613464917131},"geometry":{"type":"LineString","coordinates":[[-0.286969,51.0377731],[-0.2865573,51.0379511]]}},
{"type":"Feature","properties":{"id":94061,"nach":0.39111775194601794},"geometry":{"type":"LineString","coordinates":[[-0.2916388,51.033031],[-0.2917524,51.0329453],[-0.2917636,51.0329385],[-0.2917745,51.032934],[-0.2917891,51.0329322],[-0.2918041,51.032933800000016],[-0.2918162,51.0329373],[-0.2918263,51.032942],[-0.2919409,51.0329961],[-0.2921246,51.03308590000001]]}},
{"type":"Feature","properties":{"id":94060,"nach":0.30694992685088113},"geometry":{"type":"LineString","coordinates":[[-0.2916388,51.033031],[-0.291467,51.0331545]]}},
{"type":"Feature","properties":{"id":94062,"nach":0.38269310259632322},"geometry":{"type":"LineString","coordinates":[[-0.2916388,51.033031],[-0.2915761,51.0330054],[-0.2915235,51.0329847],[-0.291282,51.03289860000001]]}},
{"type":"Feature","properties":{"id":93850,"nach":0.0},"geometry":{"type":"LineString","coordinates":[[-0.2836616,51.0349824],[-0.2836768,51.03502970000001],[-0.2836813,51.0350413],[-0.2836863,51.0350526],[-0.2836919,51.0350614],[-0.2836986,51.035068],[-0.283707,51.035074],[-0.2837176,51.0350786],[-0.2837305,51.0350817],[-0.2837433,51.0350832],[-0.2837573,51.0350825],[-0.2837724,51.03507960000001],[-0.2837847,51.0350758],[-0.2837986,51.0350684],[-0.2838065,51.0350614],[-0.283812,51.0350522],[-0.2838132,51.0350438],[-0.2838126,51.0350357],[-0.2838098,51.035028],[-0.2838031,51.0350199],[-0.2837964,51.0350146],[-0.2837869,51.0350101],[-0.2837707,51.0350044],[-0.283745,51.03499810000001],[-0.283712,51.0349918],[-0.2836735,51.0349848],[-0.2836616,51.0349824]]}},
{"type":"Feature","properties":{"id":81475,"nach":0.29839315025682495},"geometry":{"type":"LineString","coordinates":[[-0.2729372,51.032331],[-0.2725244,51.0326281],[-0.2724842,51.032652],[-0.2724484,51.0326633],[-0.2724194,51.0326633],[-0.2723881,51.0326605],[-0.2722741,51.032640799999989]]}},
{"type":"Feature","properties":{"id":81484,"nach":0.33943035843830838},"geometry":{"type":"LineString","coordinates":[[-0.2705216,51.0318607],[-0.2705862,51.031871],[-0.2725353,51.03224070000001],[-0.2729372,51.032331]]}},
{"type":"Feature","properties":{"id":82663,"nach":0.10804568703158159},"geometry":{"type":"LineString","coordinates":[[-0.2924121,51.0388717],[-0.2924971,51.0388548],[-0.292573,51.0388661],[-0.292649,51.0388745],[-0.2927295,51.0388576],[-0.292801,51.0388323],[-0.2952776,51.037722],[-0.2968959,51.0370614],[-0.2984471,51.0364093],[-0.2986125,51.0363334],[-0.2987511,51.0362856]]}},
{"type":"Feature","properties":{"id":82665,"nach":0.21598195567838052},"geometry":{"type":"LineString","coordinates":[[-0.2923495,51.0389195],[-0.2924121,51.0388717]]}},
{"type":"Feature","properties":{"id":82689,"nach":0.2215600759678357},"geometry":{"type":"LineString","coordinates":[[-0.2971378,51.0353603],[-0.296121601686463,51.034792157660924]]}},
{"type":"Feature","properties":{"id":82689,"nach":0.2215600759678357},"geometry":{"type":"LineString","coordinates":[[-0.296121601686463,51.034792157660924],[-0.3007001,51.0305394]]}},
{"type":"Feature","properties":{"id":93858,"nach":0.32493296346032802},"geometry":{"type":"LineString","coordinates":[[-0.2849677,51.03415960000001],[-0.2849559,51.0341855],[-0.2849448,51.0342044],[-0.2849322,51.0342213],[-0.2849164,51.034237700000013],[-0.2849006,51.034250599999986],[-0.2848848,51.0342595],[-0.2848555,51.034272],[-0.2848223,51.0342869],[-0.2848034,51.0342968],[-0.2847923,51.0343048],[-0.2847844,51.034313700000013],[-0.2847777,51.034326]]}},
{"type":"Feature","properties":{"id":93859,"nach":0.32493296346032802},"geometry":{"type":"LineString","coordinates":[[-0.2844999,51.0342874],[-0.2845592,51.0342963],[-0.2847777,51.034326]]}},
{"type":"Feature","properties":{"id":93877,"nach":0.34923006973514364},"geometry":{"type":"LineString","coordinates":[[-0.2906732,51.0311335],[-0.2894722,51.0310886],[-0.289179,51.0310874],[-0.2891132,51.0310874],[-0.2890474,51.0311004],[-0.288976,51.0311157],[-0.2888332,51.0311666],[-0.2886339,51.0312363],[-0.2885869,51.0312481],[-0.2884959,51.031260800000013]]}},
{"type":"Feature","properties":{"id":93911,"nach":0.37309530050548306},"geometry":{"type":"LineString","coordinates":[[-0.2892914,51.0304255],[-0.2892429,51.030432],[-0.2891852,51.0304466],[-0.2891272,51.0304637],[-0.2889887,51.0305215],[-0.28881,51.030627],[-0.2887237,51.0306741],[-0.2886423,51.0307277],[-0.2885959,51.0307724],[-0.2885585,51.030827],[-0.2885417,51.0308799],[-0.2885306,51.030952],[-0.2884959,51.031260800000013]]}},
{"type":"Feature","properties":{"id":93985,"nach":0.0},"geometry":{"type":"LineString","coordinates":[[-0.2916594,51.0300205],[-0.2916412,51.0300259],[-0.2916111,51.0300436],[-0.2916036,51.030063700000021],[-0.291613,51.0301098],[-0.2916281,51.0301784],[-0.2917051,51.0304668],[-0.2917559,51.0306323],[-0.2917765,51.0306937],[-0.2917822,51.0307446],[-0.2917803,51.0307871],[-0.2917747,51.0308356],[-0.2917671,51.0308793],[-0.2917389,51.0309573],[-0.2917032,51.0310342],[-0.2916732,51.0310874],[-0.2916375,51.0311181],[-0.2914551,51.0312552],[-0.2913818,51.031312],[-0.2913179,51.0313486],[-0.2911864,51.0314172],[-0.2911525,51.0314373],[-0.2910943,51.0314763],[-0.2910416,51.0315141],[-0.2910022,51.0315247],[-0.2909646,51.031530600000018],[-0.290927,51.031530600000011],[-0.2908687,51.0315235],[-0.290833,51.0315176],[-0.2907992,51.0315034],[-0.2907296,51.031468],[-0.2906789,51.0314384],[-0.2906676,51.0314207],[-0.2906732,51.0311335]]}},
{"type":"Feature","properties":{"id":93987,"nach":0.3445446284209166},"geometry":{"type":"LineString","coordinates":[[-0.290699,51.0306923],[-0.2907079,51.0307337],[-0.2907154,51.030814],[-0.2906732,51.0311335]]}},
{"type":"Feature","properties":{"id":93988,"nach":0.23330834624875993},"geometry":{"type":"LineString","coordinates":[[-0.290699,51.0306923],[-0.2906967,51.0306817],[-0.2906628,51.0306486],[-0.2906215,51.0306202],[-0.2905162,51.0305895],[-0.2903696,51.0305658],[-0.2901578,51.0305351],[-0.2895319,51.0304465],[-0.2894559,51.0304367],[-0.289371,51.0304268],[-0.2892914,51.0304255]]}},
{"type":"Feature","properties":{"id":93957,"nach":0.37441025774457726},"geometry":{"type":"LineString","coordinates":[[-0.2899936,51.0292421],[-0.2899248,51.0293377],[-0.2898501,51.0294493],[-0.2898168,51.0295105],[-0.2897956,51.029586],[-0.2897806,51.0296576],[-0.2897745,51.029785300000015],[-0.289774,51.0299051],[-0.2897737,51.030001],[-0.2897728,51.0302239],[-0.2897511,51.0302558],[-0.2897291,51.0302717],[-0.2892914,51.0304255]]}},
{"type":"Feature","properties":{"id":93984,"nach":0.26948100393678731},"geometry":{"type":"LineString","coordinates":[[-0.2916594,51.0300205],[-0.2917559,51.0299916],[-0.2921243,51.0299053],[-0.2923272,51.0298687],[-0.2923968,51.029858],[-0.2924344,51.0298639],[-0.2924607,51.0298781]]}},
{"type":"Feature","properties":{"id":93986,"nach":0.32078856505016978},"geometry":{"type":"LineString","coordinates":[[-0.2916594,51.0300205],[-0.2916204,51.0299926],[-0.2915869,51.0299743],[-0.29154,51.0299532],[-0.2914483,51.02992230000001],[-0.2914014,51.029908200000015],[-0.2913209,51.0298843],[-0.2912724,51.0298732],[-0.2912338,51.0298689]]}},
{"type":"Feature","properties":{"id":93989,"nach":0.33878050428566703},"geometry":{"type":"LineString","coordinates":[[-0.290699,51.0306923],[-0.2907348,51.0306837],[-0.290763,51.0306742],[-0.2907949,51.0306588],[-0.2909133,51.0305832],[-0.2909472,51.0305702],[-0.2909941,51.0305607],[-0.2911219,51.030543],[-0.291184,51.0305324],[-0.2912197,51.030517],[-0.2912366,51.0304981],[-0.2912422,51.0304733],[-0.2912479,51.0301931],[-0.291246,51.0301695],[-0.2912328,51.0301399],[-0.2912028,51.0300997],[-0.2911595,51.0300643],[-0.2910806,51.0300083],[-0.2909359,51.0299232],[-0.2909218,51.0299137],[-0.2909171,51.0299037],[-0.2909209,51.029896],[-0.290935,51.02989],[-0.2909544,51.0298871],[-0.2909901,51.0298843],[-0.2910438,51.0298787],[-0.2912338,51.0298689]]}},
{"type":"Feature","properties":{"id":93882,"nach":0.28753803029955344},"geometry":{"type":"LineString","coordinates":[[-0.2929815,51.0308062],[-0.2928911,51.0306784],[-0.2928422,51.0306122],[-0.292799,51.0305484],[-0.2927708,51.03049750000001],[-0.2927144,51.0303805],[-0.2926299,51.0301701],[-0.2924832,51.0299018],[-0.2924607,51.0298781]]}},
{"type":"Feature","properties":{"id":93964,"nach":0.3138364693138142},"geometry":{"type":"LineString","coordinates":[[-0.292464,51.0290358],[-0.2924749,51.0290846],[-0.2924936,51.0291296],[-0.2926121,51.0294133],[-0.2926121,51.0294333],[-0.2926027,51.0294558],[-0.2925669,51.0294948],[-0.2925425,51.0295256],[-0.2925425,51.0295504],[-0.2925613,51.0295669],[-0.2926384,51.0296012],[-0.2926872,51.0296248],[-0.2927117,51.0296485],[-0.2927211,51.0296863],[-0.2927173,51.0297135],[-0.2927004,51.0297572],[-0.2926835,51.0297821],[-0.2926515,51.0298057],[-0.2926233,51.0298199],[-0.2925688,51.029838800000014],[-0.2924607,51.0298781]]}},
{"type":"Feature","properties":{"id":93979,"nach":0.28797761525198678},"geometry":{"type":"LineString","coordinates":[[-0.291338,51.0292688],[-0.2912588,51.0292927],[-0.2911441,51.029327],[-0.2910652,51.0293447],[-0.2909806,51.0293612],[-0.2908791,51.0293778],[-0.2905088,51.0294121],[-0.2904374,51.0294192],[-0.2903792,51.0294227],[-0.2903378,51.0294203],[-0.2902814,51.0294062],[-0.290225,51.029392],[-0.2900634,51.029308],[-0.2900126,51.0292832],[-0.2899957,51.0292667],[-0.2899936,51.0292421]]}},
{"type":"Feature","properties":{"id":93978,"nach":0.36559469277912249},"geometry":{"type":"LineString","coordinates":[[-0.291338,51.0292688],[-0.2914317,51.0292407],[-0.2920388,51.0290421],[-0.2921065,51.0290196],[-0.2921497,51.02900420000001],[-0.2922021,51.0289806]]}},
{"type":"Feature","properties":{"id":93982,"nach":0.35148701806689314},"geometry":{"type":"LineString","coordinates":[[-0.2912338,51.0298689],[-0.2912852,51.029755],[-0.2913075,51.0297297],[-0.2913388,51.0297128],[-0.2914103,51.0296833],[-0.291455,51.0296622],[-0.2914819,51.0296369],[-0.2914886,51.02961160000001],[-0.2914796,51.0295694],[-0.291338,51.0292688]]}},
{"type":"Feature","properties":{"id":94058,"nach":0.27230818858879435},"geometry":{"type":"LineString","coordinates":[[-0.291282,51.03289860000001],[-0.2914962,51.0326847],[-0.2915225,51.0326646],[-0.2915676,51.0326398],[-0.2916184,51.0326173],[-0.2916748,51.032596],[-0.2917424,51.0325689],[-0.2918139,51.0325369],[-0.2918984,51.03249670000001],[-0.291953,51.0324672],[-0.2921071,51.0323845],[-0.2923815,51.032241400000011],[-0.2927856,51.0320204],[-0.292998,51.0318998],[-0.2931333,51.03182540000001],[-0.2938638,51.0314069]]}},
{"type":"Feature","properties":{"id":94354,"nach":0.30193524630294982},"geometry":{"type":"LineString","coordinates":[[-0.2779949,51.0289656],[-0.2778732,51.0289645]]}},
{"type":"Feature","properties":{"id":94356,"nach":0.28760578536440445},"geometry":{"type":"LineString","coordinates":[[-0.2780221,51.0285728],[-0.2780686,51.0285754],[-0.2780852,51.0285779],[-0.2781005,51.028582],[-0.2781098,51.0285891],[-0.2781138,51.0285971],[-0.2781145,51.028607500000014],[-0.2781118,51.0286376],[-0.2781078,51.0286752],[-0.2781025,51.0287187],[-0.2780945,51.0287526],[-0.2780879,51.0287743],[-0.2780786,51.028792699999983],[-0.2780673,51.0288081],[-0.2780526,51.0288257],[-0.27804,51.0288399],[-0.2780168,51.028866200000017],[-0.2780055,51.02888],[-0.2779988,51.0288917],[-0.2779962,51.0289022],[-0.2779949,51.0289656]]}}
]
}
