{
"type": "FeatureCollection",
"name": "CANTE_8_walking",
"crs": { "type": "name", "properties": { "name": "urn:ogc:def:crs:OGC:1.3:CRS84" } },
"features": [
{"type":"Feature","properties":{"highway":"footway","name":null,"category":"Footpath (pedestrian only)"},"geometry":{"type":"MultiLineString","coordinates":[[[1.0789251,51.2910087],[1.0789329,51.2909653],[1.0790016,51.2909178],[1.0791699,51.2908014],[1.0792611,51.2907387],[1.0794394,51.2906161],[1.0796341,51.2904848],[1.0796832,51.2904283],[1.0797533,51.2903026],[1.0797622,51.2902146],[1.079731,51.2901667],[1.0797014,51.2901344],[1.0796145,51.2900829],[1.0794835,51.2900118],[1.0793141,51.2899252],[1.0791347,51.2898201],[1.0789947,51.2897837]]]}},
{"type":"Feature","properties":{"highway":"footway","name":null,"category":"Footpath (pedestrian only)"},"geometry":{"type":"MultiLineString","coordinates":[[[1.0864835,51.2934374],[1.0863242,51.2933517]]]}},
{"type":"Feature","properties":{"highway":"footway","name":null,"category":"Footpath (pedestrian only)"},"geometry":{"type":"MultiLineString","coordinates":[[[1.0840739,51.2923914],[1.0839565,51.2925773],[1.0839163,51.2926409]]]}},
{"type":"Feature","properties":{"highway":"footway","name":null,"category":"Footpath (pedestrian only)"},"geometry":{"type":"MultiLineString","coordinates":[[[1.0863242,51.2933517],[1.0860987,51.2932425]]]}},
{"type":"Feature","properties":{"highway":"footway","name":null,"category":"Footpath (pedestrian only)"},"geometry":{"type":"MultiLineString","coordinates":[[[1.0860987,51.2932425],[1.08595,51.2931587]]]}},
{"type":"Feature","properties":{"highway":"footway","name":null,"category":"Footpath (pedestrian only)"},"geometry":{"type":"MultiLineString","coordinates":[[[1.08595,51.2931587],[1.0856019,51.2932612]]]}},
{"type":"Feature","properties":{"highway":"footway","name":null,"category":"Footpath (pedestrian only)"},"geometry":{"type":"MultiLineString","coordinates":[[[1.086645,51.293307],[1.086566,51.2933935],[1.0864835,51.2934374]]]}},
{"type":"Feature","properties":{"highway":"footway","name":null,"category":"Footpath (pedestrian only)"},"geometry":{"type":"MultiLineString","coordinates":[[[1.0871519,51.2935102],[1.0870227,51.2936161],[1.08672,51.2938931]]]}},
{"type":"Feature","properties":{"highway":"footway","name":null,"category":"Footpath (pedestrian only)"},"geometry":{"type":"MultiLineString","coordinates":[[[1.0870227,51.2936161],[1.0865511,51.2936262]]]}},
{"type":"Feature","properties":{"highway":"footway","name":null,"category":"Footpath (pedestrian only)"},"geometry":{"type":"MultiLineString","coordinates":[[[1.0864835,51.2934374],[1.0865355,51.2935923],[1.0865511,51.2936262],[1.0865878,51.2936928],[1.0866539,51.2938247],[1.08672,51.2938931],[1.0868012,51.2939768],[1.0869173,51.2940707],[1.0873122,51.2943027],[1.0873808,51.2943398],[1.087531,51.2944209],[1.0877417,51.2945348],[1.0878683,51.294595],[1.088062,51.2947121],[1.0881943,51.294804],[1.0883291,51.2948976],[1.0885809,51.2951049],[1.0886424,51.2951719],[1.0887413,51.29529],[1.0888055,51.2954011],[1.0888129,51.2954875],[1.0887833,51.2955615],[1.0887413,51.2956232],[1.0886919,51.2956603],[1.0881216,51.2958411],[1.0878212,51.2959162],[1.0875554,51.296026],[1.087217,51.2962106],[1.0870896,51.2962189]]]}},
{"type":"Feature","properties":{"highway":"footway","name":null,"category":"Footpath (pedestrian only)"},"geometry":{"type":"MultiLineString","coordinates":[[[1.0927423,51.2921183],[1.0926705,51.2920325],[1.0926601,51.2919288],[1.0927291,51.2917995],[1.0929441,51.2917422],[1.0932165,51.2916884],[1.0935104,51.291631],[1.093618,51.2916203],[1.0937112,51.291545],[1.0938294,51.291459],[1.0939441,51.2914052],[1.0940947,51.2913228],[1.0942739,51.2912798],[1.0943993,51.2912511],[1.0945212,51.291287],[1.0945929,51.2913551],[1.0946968,51.2914518],[1.0947936,51.2914984],[1.0948366,51.2916024],[1.0949743,51.2916833],[1.0951137,51.2916191],[1.0952293,51.2915255],[1.0954367,51.2914154],[1.0955909,51.2913475],[1.0954991,51.2913034],[1.0954055,51.2912466],[1.0953523,51.2911933],[1.0952991,51.2911291],[1.0952037,51.2910832],[1.0950715,51.2910374],[1.0949706,51.2909805],[1.0949321,51.2909089],[1.0947467,51.290852],[1.0946348,51.2907566],[1.0945081,51.2907382],[1.094398,51.2906887],[1.0942622,51.2906832],[1.0941374,51.290674],[1.0940457,51.2906813],[1.0939686,51.2907254],[1.0938824,51.2907364],[1.0937924,51.2907107],[1.0937337,51.2906501],[1.0935814,51.2905896],[1.0934841,51.2905364],[1.093385,51.2904868],[1.093319,51.2904978],[1.0932676,51.2905015],[1.0932052,51.290485],[1.0931208,51.2904556]]]}},
{"type":"Feature","properties":{"highway":"footway","name":null,"category":"Footpath (pedestrian only)"},"geometry":{"type":"MultiLineString","coordinates":[[[1.093385,51.2904868],[1.0933263,51.2904666],[1.0932694,51.2904501],[1.0932107,51.2904446],[1.0931208,51.2904556],[1.0931061,51.2904134],[1.0931281,51.2903602],[1.0930988,51.2903198],[1.0931593,51.2903162],[1.0932492,51.290318],[1.0932804,51.2902923],[1.093286,51.2902281],[1.0932382,51.2902042],[1.0931979,51.2901014],[1.0931116,51.2900501],[1.0930345,51.2900335],[1.0929336,51.2899051],[1.092996,51.2898867],[1.0930455,51.2897748],[1.0930547,51.2897142],[1.0928198,51.2896133],[1.0927648,51.2895931],[1.0926877,51.2894426],[1.0924785,51.2893821],[1.09235,51.2893454],[1.0922363,51.2893178],[1.0922267,51.2892772],[1.0921859,51.2892586],[1.0921427,51.289294],[1.0920638,51.2892371],[1.0920069,51.2891747],[1.0919371,51.2891105],[1.0918472,51.2890958],[1.0917701,51.289116],[1.091668,51.2890895],[1.0915615,51.2890661],[1.0914732,51.2890583],[1.0914043,51.2890752],[1.0913342,51.2890402],[1.0912589,51.289022],[1.0912134,51.2890376],[1.091155,51.2890869],[1.0911238,51.2891402],[1.0910718,51.2891869],[1.0910225,51.2892701],[1.0910004,51.2893259],[1.0909562,51.2893792],[1.0909328,51.2894051],[1.0909043,51.2894519],[1.0908796,51.2895181],[1.0908692,51.289574],[1.090864,51.2896402],[1.0908991,51.2896987],[1.0909432,51.2897636],[1.0910017,51.2898052],[1.0910796,51.2898104],[1.0911653,51.2898091],[1.0912225,51.2898143],[1.0912693,51.2898481],[1.0913316,51.2899013],[1.0913875,51.2899689],[1.0915134,51.2899117],[1.0915797,51.2899221],[1.0916641,51.2899143],[1.0917031,51.2899065],[1.0917524,51.2899416],[1.0918096,51.2899624],[1.0918875,51.2900117],[1.0919512,51.2900754],[1.0919797,51.2901273],[1.0919797,51.2902066],[1.0919538,51.2902468],[1.0918875,51.2902988],[1.0918135,51.2903377],[1.0917849,51.2903806],[1.0917693,51.2904248],[1.0916992,51.2904326],[1.0917304,51.2904871],[1.0917654,51.2904949],[1.0917784,51.2905508],[1.0917777,51.2906133],[1.0917811,51.2906846],[1.0918214,51.2907167],[1.0918984,51.2907524],[1.0919983,51.2908202],[1.0920673,51.2908512],[1.0921052,51.2908707],[1.0921201,51.2909224],[1.0921247,51.2909718],[1.0921753,51.2909845],[1.0922431,51.2910282],[1.0922489,51.2910569],[1.0922431,51.2911201],[1.0923098,51.2911396],[1.092358,51.2911534],[1.0923822,51.2911833],[1.0923281,51.2911925],[1.0922282,51.291212],[1.092204,51.2912465],[1.0921753,51.2913177],[1.0921822,51.2913706],[1.0922017,51.2914396],[1.0922224,51.2914579],[1.0923224,51.2914717],[1.0923741,51.2914373],[1.0924431,51.2913947],[1.092527,51.2913695],[1.0925821,51.2913143],[1.0925844,51.2912718],[1.092643,51.291266],[1.0926752,51.291304],[1.0927327,51.2912925],[1.0927281,51.2913545],[1.0927763,51.2913269],[1.0928499,51.2912706],[1.0929269,51.2912132],[1.0929935,51.2911948],[1.0930625,51.2911431],[1.0931303,51.2911235]]]}},
{"type":"Feature","properties":{"highway":"footway","name":null,"category":"Footpath (pedestrian only)"},"geometry":{"type":"MultiLineString","coordinates":[[[1.0931061,51.2904134],[1.0930033,51.2903547],[1.0929299,51.290318]]]}},
{"type":"Feature","properties":{"highway":"footway","name":null,"category":"Footpath (pedestrian only)"},"geometry":{"type":"MultiLineString","coordinates":[[[1.0919797,51.2902066],[1.0920707,51.2901338]]]}},
{"type":"Feature","properties":{"highway":"footway","name":null,"category":"Footpath (pedestrian only)"},"geometry":{"type":"MultiLineString","coordinates":[[[1.0921052,51.2908707],[1.0921673,51.2908466],[1.0922799,51.2908052],[1.0923891,51.2907788],[1.0925143,51.2907282]]]}},
{"type":"Feature","properties":{"highway":"footway","name":null,"category":"Footpath (pedestrian only)"},"geometry":{"type":"MultiLineString","coordinates":[[[1.0922489,51.2910569],[1.0923075,51.2910638],[1.0923822,51.2910488]]]}},
{"type":"Feature","properties":{"highway":"footway","name":null,"category":"Footpath (pedestrian only)"},"geometry":{"type":"MultiLineString","coordinates":[[[1.0923822,51.2911833],[1.0924419,51.291181],[1.092543,51.2911752],[1.0927258,51.2911362]]]}},
{"type":"Feature","properties":{"highway":"footway","name":null,"category":"Footpath (pedestrian only)"},"geometry":{"type":"MultiLineString","coordinates":[[[1.092204,51.2912465],[1.0920857,51.2912442],[1.0919512,51.291258],[1.0918788,51.2912902],[1.0917846,51.2913384],[1.0917398,51.2913867],[1.0917605,51.2914488],[1.0918237,51.2915131],[1.0919098,51.2915499],[1.0919972,51.2915752],[1.0920776,51.2916085]]]}},
{"type":"Feature","properties":{"highway":"footway","name":null,"category":"Footpath (pedestrian only)"},"geometry":{"type":"MultiLineString","coordinates":[[[1.0931303,51.2911235],[1.0930866,51.2911798],[1.0930303,51.2912143],[1.0929567,51.2912603],[1.0928637,51.2913269],[1.0927959,51.2913741],[1.0927441,51.2914051],[1.0926775,51.2914131],[1.0926269,51.2914062],[1.0925718,51.2914143],[1.0925028,51.2914327],[1.092435,51.2914591],[1.0923224,51.2914717]]]}},
{"type":"Feature","properties":{"highway":"footway","name":null,"category":"Footpath (pedestrian only)"},"geometry":{"type":"MultiLineString","coordinates":[[[1.0923224,51.2914717],[1.0923799,51.291489],[1.0924821,51.2914832],[1.0925971,51.2914775],[1.0926855,51.2914855],[1.0927453,51.2915189],[1.0928085,51.2915694]]]}},
{"type":"Feature","properties":{"highway":"footway","name":null,"category":"Footpath (pedestrian only)"},"geometry":{"type":"MultiLineString","coordinates":[[[1.0928085,51.2915694],[1.0928729,51.2915315],[1.092951,51.2915085],[1.0930142,51.2915051],[1.0930694,51.2915166]]]}},
{"type":"Feature","properties":{"highway":"footway","name":null,"category":"Footpath (pedestrian only)"},"geometry":{"type":"MultiLineString","coordinates":[[[1.0923224,51.2914717],[1.0922415,51.2915069],[1.0922435,51.2915744],[1.0921383,51.291626],[1.0920776,51.2916085],[1.0921045,51.2916578],[1.0921541,51.2916936],[1.092168,51.2917591],[1.0922316,51.2918187],[1.0923289,51.2918802],[1.0923746,51.2919259],[1.0925076,51.2919557],[1.0925414,51.2919596]]]}},
{"type":"Feature","properties":{"highway":"footway","name":null,"category":"Footpath (pedestrian only)"},"geometry":{"type":"MultiLineString","coordinates":[[[1.0924163,51.2920371],[1.0925414,51.2919596],[1.0926168,51.2919239],[1.0926601,51.2919288]]]}},
{"type":"Feature","properties":{"highway":"footway","name":null,"category":"Footpath (pedestrian only)"},"geometry":{"type":"MultiLineString","coordinates":[[[1.0928085,51.2915694],[1.0926824,51.2916499],[1.0925751,51.2917432],[1.0926248,51.2918048],[1.0926601,51.2919288]]]}},
{"type":"Feature","properties":{"highway":"footway","name":null,"category":"Footpath (pedestrian only)"},"geometry":{"type":"MultiLineString","coordinates":[[[1.0929441,51.2917422],[1.0928968,51.2916717],[1.0928085,51.2915694]]]}},
{"type":"Feature","properties":{"highway":"footway","name":null,"category":"Footpath (pedestrian only)"},"geometry":{"type":"MultiLineString","coordinates":[[[1.0939686,51.2907254],[1.0939321,51.2908249],[1.0938601,51.2909038],[1.0937898,51.2910118],[1.0938035,51.2910958],[1.0938189,51.2911403],[1.0938652,51.2911695],[1.0938909,51.2912192],[1.0939629,51.2912209],[1.0940298,51.2912517],[1.0940947,51.2913228]]]}},
{"type":"Feature","properties":{"highway":"footway","name":null,"category":"Footpath (pedestrian only)"},"geometry":{"type":"MultiLineString","coordinates":[[[1.0937898,51.2910118],[1.0937058,51.2909998],[1.0936081,51.2910015],[1.0935292,51.2910272],[1.0934692,51.2910546]]]}},
{"type":"Feature","properties":{"highway":"footway","name":null,"category":"Footpath (pedestrian only)"},"geometry":{"type":"MultiLineString","coordinates":[[[1.0938189,51.2911403],[1.0937966,51.2911557],[1.0938052,51.2912226],[1.0938069,51.2912877],[1.0937915,51.2913255],[1.0936938,51.2913632],[1.0936098,51.2914232],[1.0935721,51.2914883],[1.0934726,51.2915055],[1.0934932,51.2915843],[1.0935104,51.291631]]]}},
{"type":"Feature","properties":{"highway":"footway","name":null,"category":"Footpath (pedestrian only)"},"geometry":{"type":"MultiLineString","coordinates":[[[1.0852075,51.287342],[1.0852002,51.2873683],[1.0851916,51.2873996],[1.085153,51.287416],[1.0851193,51.2874299],[1.085108,51.2874506]]]}},
{"type":"Feature","properties":{"highway":"footway","name":null,"category":"Footpath (pedestrian only)"},"geometry":{"type":"MultiLineString","coordinates":[[[1.0891952,51.2893885],[1.0893199,51.2893262],[1.0895104,51.2892292]]]}},
{"type":"Feature","properties":{"highway":"footway","name":null,"category":"Footpath (pedestrian only)"},"geometry":{"type":"MultiLineString","coordinates":[[[1.0895104,51.2892292],[1.0899677,51.2895029]]]}},
{"type":"Feature","properties":{"highway":"footway","name":null,"category":"Footpath (pedestrian only)"},"geometry":{"type":"MultiLineString","coordinates":[[[1.0817577,51.3023403],[1.0818721,51.3022914],[1.0820203,51.3022435]]]}},
{"type":"Feature","properties":{"highway":"footway","name":null,"category":"Footpath (pedestrian only)"},"geometry":{"type":"MultiLineString","coordinates":[[[1.0924004,51.2941246],[1.0924241,51.2941041],[1.0924569,51.2940757],[1.0924801,51.2940556]]]}},
{"type":"Feature","properties":{"highway":"footway","name":null,"category":"Footpath (pedestrian only)"},"geometry":{"type":"MultiLineString","coordinates":[[[1.0916337,51.2943108],[1.0915911,51.2943451],[1.0913614,51.2945431],[1.0913334,51.2945295],[1.0911274,51.2947227],[1.0911525,51.2947336]]]}},
{"type":"Feature","properties":{"highway":"footway","name":null,"category":"Footpath (pedestrian only)"},"geometry":{"type":"MultiLineString","coordinates":[[[1.0869091,51.2985847],[1.0866697,51.2985488],[1.0857856,51.2983878],[1.083543,51.298423],[1.083138,51.29842],[1.082515,51.298176],[1.081484,51.297894],[1.08069,51.29776],[1.079739,51.297545],[1.077446,51.296883],[1.07681,51.296766],[1.076525,51.296651],[1.075088,51.296277],[1.0747862,51.2962333]]]}},
{"type":"Feature","properties":{"highway":"footway","name":null,"category":"Footpath (pedestrian only)"},"geometry":{"type":"MultiLineString","coordinates":[[[1.0863442,51.2957958],[1.0864349,51.2955714],[1.0865365,51.2953365]]]}},
{"type":"Feature","properties":{"highway":"footway","name":null,"category":"Footpath (pedestrian only)"},"geometry":{"type":"MultiLineString","coordinates":[[[1.0865911,51.2953469],[1.0866208,51.2952643],[1.0866918,51.2950936],[1.0868514,51.2950457]]]}},
{"type":"Feature","properties":{"highway":"footway","name":null,"category":"Footpath (pedestrian only)"},"geometry":{"type":"MultiLineString","coordinates":[[[1.0865864,51.2932852],[1.0871219,51.292815],[1.0876112,51.292415],[1.0877163,51.2923389],[1.0879208,51.2922166]]]}},
{"type":"Feature","properties":{"highway":"footway","name":null,"category":"Footpath (pedestrian only)"},"geometry":{"type":"MultiLineString","coordinates":[[[1.0876112,51.292415],[1.0878575,51.2925266],[1.0878391,51.2925618]]]}},
{"type":"Feature","properties":{"highway":"footway","name":null,"category":"Footpath (pedestrian only)"},"geometry":{"type":"MultiLineString","coordinates":[[[1.0871219,51.292815],[1.0872426,51.2928673],[1.0872164,51.2929148]]]}},
{"type":"Feature","properties":{"highway":"footway","name":null,"category":"Footpath (pedestrian only)"},"geometry":{"type":"MultiLineString","coordinates":[[[1.0869091,51.2985847],[1.0869205,51.298537],[1.0868996,51.2983043],[1.0869195,51.2982731]]]}},
{"type":"Feature","properties":{"highway":"footway","name":null,"category":"Footpath (pedestrian only)"},"geometry":{"type":"MultiLineString","coordinates":[[[1.0868007,51.297494],[1.0867981,51.2975718],[1.0868041,51.2976387],[1.0868295,51.2979204]]]}},
{"type":"Feature","properties":{"highway":"footway","name":null,"category":"Footpath (pedestrian only)"},"geometry":{"type":"MultiLineString","coordinates":[[[1.0867552,51.297394],[1.0867505,51.2970989],[1.0868342,51.296995],[1.0868943,51.2969681]]]}},
{"type":"Feature","properties":{"highway":"footway","name":null,"category":"Footpath (pedestrian only)"},"geometry":{"type":"MultiLineString","coordinates":[[[1.0866387,51.296552],[1.0864716,51.2963409],[1.0862849,51.2960894],[1.0863095,51.2960306]]]}},
{"type":"Feature","properties":{"highway":"footway","name":null,"category":"Footpath (pedestrian only)"},"geometry":{"type":"MultiLineString","coordinates":[[[1.084709,51.2977178],[1.0850007,51.2976248],[1.0852821,51.2975351],[1.085565,51.297445],[1.0857154,51.2973971]]]}},
{"type":"Feature","properties":{"highway":"footway","name":null,"category":"Footpath (pedestrian only)"},"geometry":{"type":"MultiLineString","coordinates":[[[1.0857511,51.2974415],[1.0865255,51.2972081],[1.0864227,51.2970879]]]}},
{"type":"Feature","properties":{"highway":"footway","name":null,"category":"Footpath (pedestrian only)"},"geometry":{"type":"MultiLineString","coordinates":[[[1.0859869,51.2959872],[1.0860709,51.2957616]]]}},
{"type":"Feature","properties":{"highway":"footway","name":null,"category":"Footpath (pedestrian only)"},"geometry":{"type":"MultiLineString","coordinates":[[[1.0860709,51.2957616],[1.0860869,51.2957209],[1.086164,51.2955248]]]}},
{"type":"Feature","properties":{"highway":"footway","name":null,"category":"Footpath (pedestrian only)"},"geometry":{"type":"MultiLineString","coordinates":[[[1.1006224,51.2970109],[1.1004707,51.2971184],[1.1001389,51.297078],[1.1001102,51.2970991],[1.1000901,51.2971338],[1.1000455,51.2972055],[1.0989238,51.2974632],[1.0983484,51.2975022],[1.0978252,51.2973045],[1.0972183,51.2970869],[1.0970051,51.2970486],[1.0965668,51.2970712],[1.0961811,51.2971828],[1.0958807,51.2971882],[1.0954258,51.2970325],[1.0948594,51.2970272],[1.0945675,51.2969628],[1.09431,51.2968823]]]}},
{"type":"Feature","properties":{"highway":"footway","name":null,"category":"Footpath (pedestrian only)"},"geometry":{"type":"MultiLineString","coordinates":[[[1.09431,51.2968823],[1.093995,51.2969713],[1.0900998,51.2975299],[1.0899245,51.2976462],[1.0894222,51.2975769],[1.0890486,51.2977222],[1.0881946,51.2984547]]]}},
{"type":"Feature","properties":{"highway":"footway","name":null,"category":"Footpath (pedestrian only)"},"geometry":{"type":"MultiLineString","coordinates":[[[1.0857793,51.2956728],[1.0859058,51.2956925]]]}},
{"type":"Feature","properties":{"highway":"footway","name":null,"category":"Footpath (pedestrian only)"},"geometry":{"type":"MultiLineString","coordinates":[[[1.0858603,51.2954786],[1.086164,51.2955248],[1.0864349,51.2955714],[1.0866745,51.295608],[1.0872033,51.2956889]]]}},
{"type":"Feature","properties":{"highway":"footway","name":"Ulcombe Gardens","category":"Footpath (pedestrian only)"},"geometry":{"type":"MultiLineString","coordinates":[[[1.0892032,51.2934863],[1.0894532,51.2932568],[1.0896523,51.293074],[1.0899467,51.2931994]]]}},
{"type":"Feature","properties":{"highway":"footway","name":"Ulcombe Gardens","category":"Footpath (pedestrian only)"},"geometry":{"type":"MultiLineString","coordinates":[[[1.0892032,51.2934863],[1.0890178,51.2936566],[1.0887371,51.2939143],[1.0890347,51.294041]]]}},
{"type":"Feature","properties":{"highway":"footway","name":null,"category":"Footpath (pedestrian only)"},"geometry":{"type":"MultiLineString","coordinates":[[[1.088062,51.2947121],[1.0882705,51.2945182],[1.0886508,51.2941749]]]}},
{"type":"Feature","properties":{"highway":"footway","name":"Kemsing Gardens","category":"Footpath (pedestrian only)"},"geometry":{"type":"MultiLineString","coordinates":[[[1.0899467,51.2931994],[1.0902409,51.2933247],[1.0900211,51.2935266],[1.0897919,51.293737],[1.0897499,51.2937756],[1.0895808,51.2939308],[1.0893258,51.294165]]]}},
{"type":"Feature","properties":{"highway":"footway","name":null,"category":"Footpath (pedestrian only)"},"geometry":{"type":"MultiLineString","coordinates":[[[1.0900211,51.2935266],[1.0902724,51.2936362],[1.0902388,51.2936689]]]}},
{"type":"Feature","properties":{"highway":"footway","name":null,"category":"Footpath (pedestrian only)"},"geometry":{"type":"MultiLineString","coordinates":[[[1.0895808,51.2939308],[1.0897695,51.2940127],[1.0897491,51.2940338]]]}},
{"type":"Feature","properties":{"highway":"footway","name":null,"category":"Footpath (pedestrian only)"},"geometry":{"type":"MultiLineString","coordinates":[[[1.0897919,51.293737],[1.0892032,51.2934863]]]}},
{"type":"Feature","properties":{"highway":"footway","name":null,"category":"Footpath (pedestrian only)"},"geometry":{"type":"MultiLineString","coordinates":[[[1.0849868,51.2968858],[1.084902,51.2967727],[1.0848728,51.2967354],[1.0848123,51.296658],[1.0846771,51.296485],[1.0846365,51.296434]]]}},
{"type":"Feature","properties":{"highway":"footway","name":null,"category":"Footpath (pedestrian only)"},"geometry":{"type":"MultiLineString","coordinates":[[[1.0848123,51.296658],[1.0845197,51.2967413],[1.0843835,51.2967851],[1.0842653,51.2968231],[1.0841604,51.2968568]]]}},
{"type":"Feature","properties":{"highway":"footway","name":null,"category":"Footpath (pedestrian only)"},"geometry":{"type":"MultiLineString","coordinates":[[[1.085479,51.2959166],[1.0856654,51.2961735],[1.0857208,51.2962502],[1.0859268,51.296515],[1.086109,51.2967629]]]}},
{"type":"Feature","properties":{"highway":"footway","name":null,"category":"Footpath (pedestrian only)"},"geometry":{"type":"MultiLineString","coordinates":[[[1.0860125,51.2950517],[1.0859426,51.2952478],[1.0858603,51.2954786],[1.0857793,51.2956728],[1.0856724,51.2959392]]]}},
{"type":"Feature","properties":{"highway":"footway","name":null,"category":"Footpath (pedestrian only)"},"geometry":{"type":"MultiLineString","coordinates":[[[1.0856751,51.2954505],[1.0855574,51.2954342],[1.0854634,51.2955027],[1.0847433,51.2956095]]]}},
{"type":"Feature","properties":{"highway":"footway","name":null,"category":"Footpath (pedestrian only)"},"geometry":{"type":"MultiLineString","coordinates":[[[1.0841164,51.2957406],[1.0840582,51.2958199],[1.0839853,51.2958642],[1.0838631,51.2958894],[1.0835656,51.2959533]]]}},
{"type":"Feature","properties":{"highway":"footway","name":null,"category":"Footpath (pedestrian only)"},"geometry":{"type":"MultiLineString","coordinates":[[[1.0852287,51.2966024],[1.0852739,51.2966577],[1.0854079,51.2968241],[1.0854945,51.2969315]]]}},
{"type":"Feature","properties":{"highway":"footway","name":null,"category":"Footpath (pedestrian only)"},"geometry":{"type":"MultiLineString","coordinates":[[[1.0850443,51.2963728],[1.0846771,51.296485]]]}},
{"type":"Feature","properties":{"highway":"footway","name":null,"category":"Footpath (pedestrian only)"},"geometry":{"type":"MultiLineString","coordinates":[[[1.0842593,51.2965227],[1.0841906,51.2967588],[1.0841604,51.2968568],[1.0840897,51.2970445],[1.0842608,51.2970692],[1.0840963,51.297492],[1.0841605,51.2975273]]]}},
{"type":"Feature","properties":{"highway":"footway","name":null,"category":"Footpath (pedestrian only)"},"geometry":{"type":"MultiLineString","coordinates":[[[1.0828378,51.2977827],[1.0828723,51.2977101],[1.0829502,51.297636],[1.0831328,51.2975697],[1.0832994,51.2974665],[1.0833473,51.2973719],[1.0833495,51.2972741],[1.0833141,51.2971219],[1.0833089,51.2970029],[1.0832379,51.2968447],[1.0833065,51.2966622],[1.083504,51.2966676],[1.083578,51.2961182],[1.0835656,51.2959533],[1.0828057,51.2954532]]]}},
{"type":"Feature","properties":{"highway":"footway","name":null,"category":"Footpath (pedestrian only)"},"geometry":{"type":"MultiLineString","coordinates":[[[1.0835656,51.2959533],[1.0831289,51.2959633],[1.0831293,51.2959894],[1.0828998,51.2959978]]]}},
{"type":"Feature","properties":{"highway":"footway","name":null,"category":"Footpath (pedestrian only)"},"geometry":{"type":"MultiLineString","coordinates":[[[1.083578,51.2961182],[1.0841992,51.2963027],[1.0843708,51.2963295],[1.0844481,51.296308],[1.0845191,51.2962829],[1.0848578,51.2961395],[1.0853748,51.2959406],[1.085479,51.2959166],[1.0856724,51.2959392],[1.0859869,51.2959872],[1.0863095,51.2960306],[1.0863285,51.2960334],[1.0871346,51.2961578]]]}},
{"type":"Feature","properties":{"highway":"footway","name":null,"category":"Footpath (pedestrian only)"},"geometry":{"type":"MultiLineString","coordinates":[[[1.0887413,51.2956232],[1.0881196,51.2955337]]]}},
{"type":"Feature","properties":{"highway":"path","name":null,"category":"Shared path"},"geometry":{"type":"MultiLineString","coordinates":[[[1.0844481,51.296308],[1.0844653,51.2963402],[1.0843794,51.2963939],[1.0843108,51.2965066],[1.0842593,51.2965227]]]}},
{"type":"Feature","properties":{"highway":"footway","name":null,"category":"Footpath (pedestrian only)"},"geometry":{"type":"MultiLineString","coordinates":[[[1.0864716,51.2963409],[1.0859268,51.296515]]]}},
{"type":"Feature","properties":{"highway":"footway","name":"Ulcombe Gardens","category":"Footpath (pedestrian only)"},"geometry":{"type":"MultiLineString","coordinates":[[[1.0894532,51.2932568],[1.0892186,51.2931645],[1.089144,51.2932244]]]}},
{"type":"Feature","properties":{"highway":"footway","name":"Ulcombe Gardens","category":"Footpath (pedestrian only)"},"geometry":{"type":"MultiLineString","coordinates":[[[1.0890178,51.2936566],[1.0888241,51.2935744],[1.0887541,51.2936374]]]}},
{"type":"Feature","properties":{"highway":"footway","name":null,"category":"Footpath (pedestrian only)"},"geometry":{"type":"MultiLineString","coordinates":[[[1.0889495,51.2947824],[1.0889705,51.2948601],[1.0887662,51.2950543],[1.0886424,51.2951719]]]}},
{"type":"Feature","properties":{"highway":"footway","name":null,"category":"Footpath (pedestrian only)"},"geometry":{"type":"MultiLineString","coordinates":[[[1.0878683,51.294595],[1.087712,51.2949458]]]}},
{"type":"Feature","properties":{"highway":"footway","name":null,"category":"Footpath (pedestrian only)"},"geometry":{"type":"MultiLineString","coordinates":[[[1.0837653,51.2876778],[1.0837266,51.2876878],[1.0835487,51.2876436],[1.0833526,51.2875552],[1.0832341,51.2874953]]]}},
{"type":"Feature","properties":{"highway":"track","name":"Stour View","category":"Track"},"geometry":{"type":"MultiLineString","coordinates":[[[1.0833642,51.2874413],[1.083364,51.2874802],[1.083364,51.287491],[1.0834256,51.2875309],[1.0837653,51.2876778],[1.0840686,51.2878118]]]}},
{"type":"Feature","properties":{"highway":"footway","name":null,"category":"Footpath (pedestrian only)"},"geometry":{"type":"MultiLineString","coordinates":[[[1.0871348,51.287623],[1.0872294,51.2873559]]]}},
{"type":"Feature","properties":{"highway":"footway","name":null,"category":"Footpath (pedestrian only)"},"geometry":{"type":"MultiLineString","coordinates":[[[1.0874667,51.2871603],[1.0873746,51.2873175],[1.0873271,51.2873576],[1.0872294,51.2873559]]]}},
{"type":"Feature","properties":{"highway":"footway","name":null,"category":"Footpath (pedestrian only)"},"geometry":{"type":"MultiLineString","coordinates":[[[1.0899632,51.2877315],[1.0899559,51.2877704],[1.0899253,51.2878053],[1.0895243,51.2879409],[1.089242,51.2880195],[1.0890389,51.2881271],[1.0888651,51.2881702],[1.0887188,51.2881519],[1.0885243,51.2880852],[1.0882231,51.2879452],[1.0880337,51.2878666],[1.087853,51.2878128],[1.0875845,51.2877224],[1.0872902,51.2876944],[1.087106,51.2876826],[1.0869528,51.2877127],[1.0866946,51.2877138],[1.0865191,51.2877482],[1.0863659,51.2877385],[1.0861989,51.287731],[1.085853,51.2876643],[1.0855877,51.2875968],[1.0852662,51.2875461],[1.085135,51.2875225],[1.0850383,51.2875428],[1.0849782,51.2875415],[1.084721,51.2875407]]]}},
{"type":"Feature","properties":{"highway":"footway","name":null,"category":"Footpath (pedestrian only)"},"geometry":{"type":"MultiLineString","coordinates":[[[1.0791347,51.2898201],[1.0784316,51.2905308],[1.0783083,51.2905084]]]}},
{"type":"Feature","properties":{"highway":"footway","name":null,"category":"Footpath (pedestrian only)"},"geometry":{"type":"MultiLineString","coordinates":[[[1.0864214,51.2872863],[1.0860767,51.2872286],[1.0861747,51.2870158],[1.0858984,51.2869468]]]}},
{"type":"Feature","properties":{"highway":"footway","name":null,"category":"Footpath (pedestrian only)"},"geometry":{"type":"MultiLineString","coordinates":[[[1.0771148,51.2966905],[1.0772138,51.2965382]]]}},
{"type":"Feature","properties":{"highway":"footway","name":null,"category":"Footpath (pedestrian only)"},"geometry":{"type":"MultiLineString","coordinates":[[[1.0790011,51.2969897],[1.0789307,51.2970977],[1.0789144,51.2970931]]]}},
{"type":"Feature","properties":{"highway":"footway","name":null,"category":"Footpath (pedestrian only)"},"geometry":{"type":"MultiLineString","coordinates":[[[1.078405,51.2969642],[1.0784404,51.2969025],[1.0784653,51.2968591],[1.0786069,51.2966125]]]}},
{"type":"Feature","properties":{"highway":"footway","name":null,"category":"Footpath (pedestrian only)"},"geometry":{"type":"MultiLineString","coordinates":[[[1.0800056,51.296728],[1.0802243,51.2967618],[1.0802463,51.2967577],[1.0803344,51.2969566],[1.0803764,51.2970515],[1.0803905,51.2970835]]]}},
{"type":"Feature","properties":{"highway":"footway","name":null,"category":"Footpath (pedestrian only)"},"geometry":{"type":"MultiLineString","coordinates":[[[1.0777377,51.2966725],[1.0776566,51.2967896]]]}},
{"type":"Feature","properties":{"highway":"footway","name":null,"category":"Footpath (pedestrian only)"},"geometry":{"type":"MultiLineString","coordinates":[[[1.0862849,51.2960894],[1.0857208,51.2962502]]]}},
{"type":"Feature","properties":{"highway":"footway","name":null,"category":"Footpath (pedestrian only)"},"geometry":{"type":"MultiLineString","coordinates":[[[1.0784404,51.2969025],[1.0783776,51.2968869],[1.078343,51.2969488],[1.0783659,51.2969545]]]}},
{"type":"Feature","properties":{"highway":"footway","name":null,"category":"Footpath (pedestrian only)"},"geometry":{"type":"MultiLineString","coordinates":[[[1.0796037,51.2965769],[1.0794992,51.2965566],[1.079312,51.2965091],[1.0789991,51.2964297],[1.0788156,51.296381],[1.0787393,51.2963688],[1.0785135,51.2963109],[1.0778253,51.2961325]]]}},
{"type":"Feature","properties":{"highway":"footway","name":null,"category":"Footpath (pedestrian only)"},"geometry":{"type":"MultiLineString","coordinates":[[[1.0790892,51.2970101],[1.0790011,51.2969897],[1.0789226,51.2969704],[1.078532,51.2968763],[1.0784653,51.2968591],[1.0781356,51.2967746],[1.0781026,51.2967661],[1.078031,51.2967478],[1.077981,51.2967349],[1.0777377,51.2966725],[1.0776843,51.2966589],[1.0776272,51.2966442],[1.0775707,51.2966297],[1.0773214,51.2965658],[1.077268,51.2965521],[1.0772138,51.2965382],[1.0771707,51.2965272],[1.0767912,51.2964275]]]}},
{"type":"Feature","properties":{"highway":"footway","name":null,"category":"Footpath (pedestrian only)"},"geometry":{"type":"MultiLineString","coordinates":[[[1.0775707,51.2966297],[1.0777283,51.2963902]]]}},
{"type":"Feature","properties":{"highway":"footway","name":null,"category":"Footpath (pedestrian only)"},"geometry":{"type":"MultiLineString","coordinates":[[[1.0795986,51.2972804],[1.0796713,51.2971657]]]}},
{"type":"Feature","properties":{"highway":"footway","name":null,"category":"Footpath (pedestrian only)"},"geometry":{"type":"MultiLineString","coordinates":[[[1.0776843,51.2966589],[1.0778366,51.2964171]]]}},
{"type":"Feature","properties":{"highway":"footway","name":null,"category":"Footpath (pedestrian only)"},"geometry":{"type":"MultiLineString","coordinates":[[[1.0798678,51.2974077],[1.0799727,51.2972423],[1.0800128,51.2971792]]]}},
{"type":"Feature","properties":{"highway":"footway","name":null,"category":"Footpath (pedestrian only)"},"geometry":{"type":"MultiLineString","coordinates":[[[1.0803344,51.2969566],[1.0801437,51.2969917],[1.0798024,51.2970535]]]}},
{"type":"Feature","properties":{"highway":"footway","name":null,"category":"Footpath (pedestrian only)"},"geometry":{"type":"MultiLineString","coordinates":[[[1.0786483,51.2961017],[1.0785135,51.2963109],[1.0783624,51.2965486]]]}},
{"type":"Feature","properties":{"highway":"footway","name":null,"category":"Footpath (pedestrian only)"},"geometry":{"type":"MultiLineString","coordinates":[[[1.0863285,51.2960334],[1.0864137,51.2958061]]]}},
{"type":"Feature","properties":{"highway":"footway","name":null,"category":"Footpath (pedestrian only)"},"geometry":{"type":"MultiLineString","coordinates":[[[1.077528,51.2967928],[1.0776272,51.2966442]]]}},
{"type":"Feature","properties":{"highway":"footway","name":null,"category":"Footpath (pedestrian only)"},"geometry":{"type":"MultiLineString","coordinates":[[[1.0803011,51.2970657],[1.0803764,51.2970515]]]}},
{"type":"Feature","properties":{"highway":"footway","name":null,"category":"Footpath (pedestrian only)"},"geometry":{"type":"MultiLineString","coordinates":[[[1.084902,51.2967727],[1.0852739,51.2966577],[1.0856147,51.2965524]]]}},
{"type":"Feature","properties":{"highway":"footway","name":null,"category":"Footpath (pedestrian only)"},"geometry":{"type":"MultiLineString","coordinates":[[[1.0872104,51.2957338],[1.0873912,51.2957249]]]}},
{"type":"Feature","properties":{"highway":"footway","name":null,"category":"Footpath (pedestrian only)"},"geometry":{"type":"MultiLineString","coordinates":[[[1.0799641,51.2966749],[1.0800544,51.2965405],[1.0801224,51.2964393]]]}},
{"type":"Feature","properties":{"highway":"footway","name":null,"category":"Footpath (pedestrian only)"},"geometry":{"type":"MultiLineString","coordinates":[[[1.0807524,51.2970222],[1.0803905,51.2970835],[1.0803342,51.2970941]]]}},
{"type":"Feature","properties":{"highway":"footway","name":null,"category":"Footpath (pedestrian only)"},"geometry":{"type":"MultiLineString","coordinates":[[[1.0795308,51.2972679],[1.0796073,51.2971495],[1.0797172,51.2969795]]]}},
{"type":"Feature","properties":{"highway":"footway","name":null,"category":"Footpath (pedestrian only)"},"geometry":{"type":"MultiLineString","coordinates":[[[1.079312,51.2965091],[1.0791644,51.2967437]]]}},
{"type":"Feature","properties":{"highway":"footway","name":null,"category":"Footpath (pedestrian only)"},"geometry":{"type":"MultiLineString","coordinates":[[[1.0855623,51.2972046],[1.0863703,51.2969531]]]}},
{"type":"Feature","properties":{"highway":"footway","name":null,"category":"Footpath (pedestrian only)"},"geometry":{"type":"MultiLineString","coordinates":[[[1.0866516,51.2970324],[1.0866044,51.2969766],[1.086372,51.2966753]]]}},
{"type":"Feature","properties":{"highway":"footway","name":null,"category":"Footpath (pedestrian only)"},"geometry":{"type":"MultiLineString","coordinates":[[[1.0845197,51.2967413],[1.0845587,51.2967931],[1.0845016,51.2968131]]]}},
{"type":"Feature","properties":{"highway":"footway","name":null,"category":"Footpath (pedestrian only)"},"geometry":{"type":"MultiLineString","coordinates":[[[1.0771707,51.2965272],[1.0773253,51.2962872]]]}},
{"type":"Feature","properties":{"highway":"footway","name":null,"category":"Footpath (pedestrian only)"},"geometry":{"type":"MultiLineString","coordinates":[[[1.0800544,51.2965405],[1.0802991,51.2966057]]]}},
{"type":"Feature","properties":{"highway":"footway","name":null,"category":"Footpath (pedestrian only)"},"geometry":{"type":"MultiLineString","coordinates":[[[1.0781356,51.2967746],[1.0782892,51.2965297]]]}},
{"type":"Feature","properties":{"highway":"footway","name":null,"category":"Footpath (pedestrian only)"},"geometry":{"type":"MultiLineString","coordinates":[[[1.0866044,51.2969766],[1.0865513,51.2969918]]]}},
{"type":"Feature","properties":{"highway":"footway","name":null,"category":"Footpath (pedestrian only)"},"geometry":{"type":"MultiLineString","coordinates":[[[1.0772461,51.2966816],[1.0773214,51.2965658]]]}},
{"type":"Feature","properties":{"highway":"footway","name":null,"category":"Footpath (pedestrian only)"},"geometry":{"type":"MultiLineString","coordinates":[[[1.0791839,51.2971964],[1.0792788,51.2970581],[1.079438,51.296808]]]}},
{"type":"Feature","properties":{"highway":"footway","name":null,"category":"Footpath (pedestrian only)"},"geometry":{"type":"MultiLineString","coordinates":[[[1.0780359,51.2968643],[1.0781026,51.2967661]]]}},
{"type":"Feature","properties":{"highway":"footway","name":null,"category":"Footpath (pedestrian only)"},"geometry":{"type":"MultiLineString","coordinates":[[[1.0870724,51.2953715],[1.0876217,51.2954679],[1.0877206,51.2952467]]]}},
{"type":"Feature","properties":{"highway":"footway","name":null,"category":"Footpath (pedestrian only)"},"geometry":{"type":"MultiLineString","coordinates":[[[1.078031,51.2967478],[1.0779658,51.2968489]]]}},
{"type":"Feature","properties":{"highway":"footway","name":null,"category":"Footpath (pedestrian only)"},"geometry":{"type":"MultiLineString","coordinates":[[[1.0842653,51.2968231],[1.0843882,51.2969738],[1.084281,51.2970195],[1.0842608,51.2970692]]]}},
{"type":"Feature","properties":{"highway":"footway","name":null,"category":"Footpath (pedestrian only)"},"geometry":{"type":"MultiLineString","coordinates":[[[1.0789226,51.2969704],[1.0790701,51.2967218]]]}},
{"type":"Feature","properties":{"highway":"footway","name":null,"category":"Footpath (pedestrian only)"},"geometry":{"type":"MultiLineString","coordinates":[[[1.077268,51.2965521],[1.0774257,51.296313]]]}},
{"type":"Feature","properties":{"highway":"footway","name":null,"category":"Footpath (pedestrian only)"},"geometry":{"type":"MultiLineString","coordinates":[[[1.077981,51.2967349],[1.0781341,51.2964911]]]}},
{"type":"Feature","properties":{"highway":"footway","name":null,"category":"Footpath (pedestrian only)"},"geometry":{"type":"MultiLineString","coordinates":[[[1.0848728,51.2967354],[1.0848524,51.2967406]]]}},
{"type":"Feature","properties":{"highway":"footway","name":null,"category":"Footpath (pedestrian only)"},"geometry":{"type":"MultiLineString","coordinates":[[[1.0804366,51.2973238],[1.0803342,51.2970941],[1.0803269,51.2970778],[1.0803011,51.2970657],[1.0801437,51.2969917]]]}},
{"type":"Feature","properties":{"highway":"footway","name":null,"category":"Footpath (pedestrian only)"},"geometry":{"type":"MultiLineString","coordinates":[[[1.0864365,51.2970281],[1.0864227,51.2970879]]]}},
{"type":"Feature","properties":{"highway":"footway","name":null,"category":"Footpath (pedestrian only)"},"geometry":{"type":"MultiLineString","coordinates":[[[1.0854079,51.2968241],[1.0857405,51.2967214]]]}},
{"type":"Feature","properties":{"highway":"footway","name":null,"category":"Footpath (pedestrian only)"},"geometry":{"type":"MultiLineString","coordinates":[[[1.0789587,51.2965038],[1.0789991,51.2964297],[1.0791209,51.2962358]]]}},
{"type":"Feature","properties":{"highway":"footway","name":null,"category":"Footpath (pedestrian only)"},"geometry":{"type":"MultiLineString","coordinates":[[[1.0856654,51.2961735],[1.0856582,51.2961689]]]}},
{"type":"Feature","properties":{"highway":"footway","name":null,"category":"Footpath (pedestrian only)"},"geometry":{"type":"MultiLineString","coordinates":[[[1.0790016,51.2909178],[1.0791159,51.2900188],[1.0791347,51.2898201]]]}},
{"type":"Feature","properties":{"highway":"footway","name":null,"category":"Footpath (pedestrian only)"},"geometry":{"type":"MultiLineString","coordinates":[[[1.0868132,51.2920244],[1.0869818,51.2919023],[1.0870989,51.2918147],[1.0872657,51.2917226],[1.0872863,51.2917315],[1.087299,51.2917227],[1.0873621,51.2916794],[1.0874311,51.2916491],[1.0874621,51.2916258],[1.0875203,51.2915838],[1.0875723,51.2915574],[1.0882898,51.2911707],[1.0890676,51.290709],[1.0890862,51.2906634]]]}},
{"type":"Feature","properties":{"highway":"footway","name":null,"category":"Footpath (pedestrian only)"},"geometry":{"type":"MultiLineString","coordinates":[[[1.0883304,51.2951725],[1.0880555,51.2951255],[1.0880984,51.2950165],[1.087712,51.2949458],[1.0875919,51.2949223],[1.0875415,51.2949],[1.0875251,51.2948796],[1.0875222,51.2947515],[1.0875132,51.2947208],[1.0874865,51.294706],[1.0874078,51.2946819],[1.0874563,51.2945792],[1.087531,51.2944209]]]}},
{"type":"Feature","properties":{"highway":"footway","name":null,"category":"Footpath (pedestrian only)"},"geometry":{"type":"MultiLineString","coordinates":[[[1.0858872,51.297611],[1.0857415,51.2976568],[1.0854544,51.2977473],[1.0851728,51.2978372],[1.0848837,51.2979294]]]}},
{"type":"Feature","properties":{"highway":"footway","name":null,"category":"Footpath (pedestrian only)"},"geometry":{"type":"MultiLineString","coordinates":[[[1.082574,51.2979902],[1.0828457,51.2979884],[1.0829289,51.2979878],[1.0834345,51.2979862],[1.0835138,51.2979864],[1.0836711,51.297987]]]}},
{"type":"Feature","properties":{"highway":"footway","name":null,"category":"Footpath (pedestrian only)"},"geometry":{"type":"MultiLineString","coordinates":[[[1.0859713,51.2979273],[1.0858838,51.2978091],[1.085871,51.2978124],[1.0857415,51.2976568],[1.085565,51.297445]]]}},
{"type":"Feature","properties":{"highway":"footway","name":null,"category":"Footpath (pedestrian only)"},"geometry":{"type":"MultiLineString","coordinates":[[[1.087243,51.2946477],[1.0872386,51.294657]]]}},
{"type":"Feature","properties":{"highway":"footway","name":null,"category":"Footpath (pedestrian only)"},"geometry":{"type":"MultiLineString","coordinates":[[[1.0855475,51.2981829],[1.0854749,51.2980882],[1.0856763,51.2980206],[1.0859713,51.2979273],[1.086021,51.2979116],[1.0860999,51.2980129]]]}},
{"type":"Feature","properties":{"highway":"footway","name":null,"category":"Footpath (pedestrian only)"},"geometry":{"type":"MultiLineString","coordinates":[[[1.0879205,51.2938511],[1.0873808,51.2943398]]]}},
{"type":"Feature","properties":{"highway":"footway","name":null,"category":"Footpath (pedestrian only)"},"geometry":{"type":"MultiLineString","coordinates":[[[1.0862265,51.2940788],[1.0863134,51.2938946]]]}},
{"type":"Feature","properties":{"highway":"footway","name":null,"category":"Footpath (pedestrian only)"},"geometry":{"type":"MultiLineString","coordinates":[[[1.0871143,51.294704],[1.0871437,51.2946409],[1.0871858,51.294648],[1.0872386,51.294657],[1.0874078,51.2946819]]]}},
{"type":"Feature","properties":{"highway":"footway","name":null,"category":"Footpath (pedestrian only)"},"geometry":{"type":"MultiLineString","coordinates":[[[1.0829252,51.2977882],[1.0829289,51.2979878]]]}},
{"type":"Feature","properties":{"highway":"footway","name":null,"category":"Footpath (pedestrian only)"},"geometry":{"type":"MultiLineString","coordinates":[[[1.0835138,51.2979864],[1.0835216,51.2981349],[1.0833916,51.2981804],[1.0832681,51.2981837],[1.083107,51.2981837],[1.0829783,51.2981828],[1.0828667,51.2981352],[1.0828457,51.2979884]]]}},
{"type":"Feature","properties":{"highway":"footway","name":null,"category":"Footpath (pedestrian only)"},"geometry":{"type":"MultiLineString","coordinates":[[[1.0874563,51.2945792],[1.0872883,51.2945519]]]}},
{"type":"Feature","properties":{"highway":"footway","name":null,"category":"Footpath (pedestrian only)"},"geometry":{"type":"MultiLineString","coordinates":[[[1.0854037,51.2976854],[1.0854544,51.2977473],[1.0856177,51.2979484],[1.0856763,51.2980206]]]}},
{"type":"Feature","properties":{"highway":"footway","name":null,"category":"Footpath (pedestrian only)"},"geometry":{"type":"MultiLineString","coordinates":[[[1.0834345,51.2979862],[1.0834359,51.297784]]]}},
{"type":"Feature","properties":{"highway":"footway","name":null,"category":"Footpath (pedestrian only)"},"geometry":{"type":"MultiLineString","coordinates":[[[1.0866745,51.295608],[1.086774,51.2953688]]]}},
{"type":"Feature","properties":{"highway":"footway","name":null,"category":"Footpath (pedestrian only)"},"geometry":{"type":"MultiLineString","coordinates":[[[1.080879,51.2963329],[1.0805955,51.2964434],[1.0804916,51.2965806]]]}},
{"type":"Feature","properties":{"highway":"footway","name":null,"category":"Footpath (pedestrian only)"},"geometry":{"type":"MultiLineString","coordinates":[[[1.0859426,51.2952478],[1.0860409,51.2952611]]]}},
{"type":"Feature","properties":{"highway":"footway","name":null,"category":"Footpath (pedestrian only)"},"geometry":{"type":"MultiLineString","coordinates":[[[1.0868012,51.2939768],[1.086489,51.2939242],[1.0863134,51.2938946],[1.0856333,51.2937799]]]}},
{"type":"Feature","properties":{"highway":"footway","name":null,"category":"Footpath (pedestrian only)"},"geometry":{"type":"MultiLineString","coordinates":[[[1.0855609,51.293863],[1.0856609,51.2939629],[1.0856874,51.2939739],[1.0862265,51.2940788],[1.0867263,51.2941762],[1.0866025,51.2944311]]]}},
{"type":"Feature","properties":{"highway":"footway","name":null,"category":"Footpath (pedestrian only)"},"geometry":{"type":"MultiLineString","coordinates":[[[1.0911274,51.2947227],[1.0910521,51.2947352]]]}},
{"type":"Feature","properties":{"highway":"footway","name":null,"category":"Footpath (pedestrian only)"},"geometry":{"type":"MultiLineString","coordinates":[[[1.0881851,51.29448],[1.0882979,51.2943785]]]}},
{"type":"Feature","properties":{"highway":"footway","name":null,"category":"Footpath (pedestrian only)"},"geometry":{"type":"MultiLineString","coordinates":[[[1.086489,51.2939242],[1.0865878,51.2936928]]]}},
{"type":"Feature","properties":{"highway":"footway","name":null,"category":"Footpath (pedestrian only)"},"geometry":{"type":"MultiLineString","coordinates":[[[1.0867567,51.2949288],[1.0873067,51.2950236],[1.0873421,51.2950026]]]}},
{"type":"Feature","properties":{"highway":"footway","name":null,"category":"Footpath (pedestrian only)"},"geometry":{"type":"MultiLineString","coordinates":[[[1.0882705,51.2945182],[1.0881851,51.29448],[1.0879665,51.2943801],[1.0879764,51.2943704]]]}},
{"type":"Feature","properties":{"highway":"footway","name":null,"category":"Footpath (pedestrian only)"},"geometry":{"type":"MultiLineString","coordinates":[[[1.0869091,51.2985847],[1.0869205,51.2985871],[1.0869474,51.2987198],[1.0869542,51.2987407],[1.0872079,51.2993241],[1.0872882,51.2998347],[1.0873363,51.30029],[1.0873594,51.3005081],[1.0874116,51.30071],[1.0876971,51.30145],[1.0878066,51.3017678],[1.0882525,51.3025546],[1.0884585,51.3027765],[1.087573,51.3037637],[1.0871579,51.304284]]]}},
{"type":"Feature","properties":{"highway":"footway","name":null,"category":"Footpath (pedestrian only)"},"geometry":{"type":"MultiLineString","coordinates":[[[1.0888107,51.295723],[1.0887413,51.2956232]]]}},
{"type":"Feature","properties":{"highway":"footway","name":null,"category":"Footpath (pedestrian only)"},"geometry":{"type":"MultiLineString","coordinates":[[[1.0889907,51.2951486],[1.0889457,51.2952028]]]}},
{"type":"Feature","properties":{"highway":"footway","name":null,"category":"Footpath (pedestrian only)"},"geometry":{"type":"MultiLineString","coordinates":[[[1.0881943,51.294804],[1.0887662,51.2950543],[1.0889907,51.2951486],[1.0892346,51.2952511],[1.0892569,51.2952974],[1.089321,51.2953131],[1.0893466,51.2952894],[1.0894468,51.2952836],[1.0896104,51.2952435]]]}},
{"type":"Feature","properties":{"highway":"track","name":null,"category":"Track"},"geometry":{"type":"MultiLineString","coordinates":[[[1.0850241,51.2880287],[1.0850656,51.2879907],[1.0850958,51.287967],[1.085148,51.2879598],[1.0852911,51.2879924],[1.0853904,51.2880112],[1.0859484,51.288117],[1.0860548,51.288117],[1.0867546,51.2880892],[1.0869325,51.2880964],[1.087091,51.2881182],[1.0872998,51.2881581],[1.087557,51.2882209],[1.0876188,51.2882451],[1.0876304,51.2882741],[1.0876053,51.2883056],[1.0867404,51.2889026],[1.0866883,51.2889392]]]}},
{"type":"Feature","properties":{"highway":"track","name":null,"category":"Track"},"geometry":{"type":"MultiLineString","coordinates":[[[1.0867546,51.2880892],[1.0860934,51.2885559],[1.0860393,51.2885341],[1.0853665,51.2881266],[1.0853201,51.288094],[1.0853904,51.2880112]]]}},
{"type":"Feature","properties":{"highway":"footway","name":null,"category":"Footpath (pedestrian only)"},"geometry":{"type":"MultiLineString","coordinates":[[[1.0869474,51.2987198],[1.0871006,51.2987749],[1.0873304,51.2988234],[1.0876832,51.2988599],[1.0877981,51.2988381],[1.0878968,51.2988194],[1.0881946,51.2984547]]]}},
{"type":"Feature","properties":{"highway":"footway","name":null,"category":"Footpath (pedestrian only)"},"geometry":{"type":"MultiLineString","coordinates":[[[1.0890353,51.3016681],[1.0888615,51.3016431],[1.0887045,51.3016087],[1.0885281,51.3015652],[1.0882449,51.3015126],[1.0880207,51.3014652],[1.0878007,51.3014159],[1.0876971,51.30145]]]}},
{"type":"Feature","properties":{"highway":"footway","name":null,"category":"Footpath (pedestrian only)"},"geometry":{"type":"MultiLineString","coordinates":[[[1.0900364,51.3020091],[1.0899239,51.3019754],[1.0897062,51.3018829],[1.0890353,51.3016681],[1.0892018,51.3012133],[1.0892455,51.3007668],[1.0891642,51.3004038],[1.0888866,51.3001017],[1.0887247,51.2999864],[1.0885808,51.2998838],[1.0869474,51.2987198]]]}},
{"type":"Feature","properties":{"highway":"footway","name":null,"category":"Footpath (pedestrian only)"},"geometry":{"type":"MultiLineString","coordinates":[[[1.0857822,51.3010286],[1.0858555,51.3010073]]]}},
{"type":"Feature","properties":{"highway":"footway","name":null,"category":"Footpath (pedestrian only)"},"geometry":{"type":"MultiLineString","coordinates":[[[1.0859316,51.3070872],[1.0860495,51.3070017],[1.0860211,51.3063169],[1.0858159,51.3058883],[1.0858222,51.3055843],[1.0860836,51.3053448],[1.0864259,51.3050509],[1.0868334,51.3046475],[1.0869517,51.3045169],[1.0870671,51.3043927],[1.0871579,51.304284]]]}},
{"type":"Feature","properties":{"highway":"footway","name":null,"category":"Footpath (pedestrian only)"},"geometry":{"type":"MultiLineString","coordinates":[[[1.0767073,51.2916264],[1.0769595,51.2916316]]]}},
{"type":"Feature","properties":{"highway":"footway","name":null,"category":"Footpath (pedestrian only)"},"geometry":{"type":"MultiLineString","coordinates":[[[1.0821289,51.2952136],[1.0820826,51.2948064],[1.0820898,51.2947951]]]}},
{"type":"Feature","properties":{"highway":"footway","name":null,"category":"Footpath (pedestrian only)"},"geometry":{"type":"MultiLineString","coordinates":[[[1.0811578,51.2971923],[1.0811011,51.2971403],[1.0812347,51.2969476],[1.0809483,51.29687]]]}},
{"type":"Feature","properties":{"highway":"footway","name":null,"category":"Footpath (pedestrian only)"},"geometry":{"type":"MultiLineString","coordinates":[[[1.0777242,51.29609],[1.0778351,51.2961186]]]}},
{"type":"Feature","properties":{"highway":"footway","name":null,"category":"Footpath (pedestrian only)"},"geometry":{"type":"MultiLineString","coordinates":[[[1.0776171,51.2962462],[1.0777253,51.2962743]]]}},
{"type":"Feature","properties":{"highway":"footway","name":null,"category":"Footpath (pedestrian only)"},"geometry":{"type":"MultiLineString","coordinates":[[[1.0777568,51.2960425],[1.0772557,51.2959184],[1.0767253,51.2957878]]]}},
{"type":"Feature","properties":{"highway":"footway","name":null,"category":"Footpath (pedestrian only)"},"geometry":{"type":"MultiLineString","coordinates":[[[1.0772874,51.2958659],[1.0772557,51.2959184],[1.0771528,51.2960613]]]}},
{"type":"Feature","properties":{"highway":"footway","name":null,"category":"Footpath (pedestrian only)"},"geometry":{"type":"MultiLineString","coordinates":[[[1.0778379,51.2959242],[1.0777568,51.2960425],[1.0777242,51.29609],[1.0776171,51.2962462],[1.0775494,51.2963448]]]}},
{"type":"Feature","properties":{"highway":"footway","name":null,"category":"Footpath (pedestrian only)"},"geometry":{"type":"MultiLineString","coordinates":[[[1.0819924,51.2968005],[1.0822303,51.2968595],[1.0821965,51.2969207],[1.0826085,51.2971057]]]}},
{"type":"Feature","properties":{"highway":"footway","name":null,"category":"Footpath (pedestrian only)"},"geometry":{"type":"MultiLineString","coordinates":[[[1.0850609,51.2963933],[1.0850913,51.2963847]]]}},
{"type":"Feature","properties":{"highway":"footway","name":null,"category":"Footpath (pedestrian only)"},"geometry":{"type":"MultiLineString","coordinates":[[[1.0849517,51.2974181],[1.0851395,51.2973594]]]}},
{"type":"Feature","properties":{"highway":"footway","name":null,"category":"Footpath (pedestrian only)"},"geometry":{"type":"MultiLineString","coordinates":[[[1.0850785,51.2972843],[1.0850978,51.2972783]]]}},
{"type":"Feature","properties":{"highway":"footway","name":null,"category":"Footpath (pedestrian only)"},"geometry":{"type":"MultiLineString","coordinates":[[[1.0850007,51.2976248],[1.0851728,51.2978372]]]}},
{"type":"Feature","properties":{"highway":"footway","name":null,"category":"Footpath (pedestrian only)"},"geometry":{"type":"MultiLineString","coordinates":[[[1.0849838,51.2971677],[1.0846616,51.2972607],[1.0846058,51.2972858],[1.0847292,51.2974336]]]}},
{"type":"Feature","properties":{"highway":"footway","name":null,"category":"Footpath (pedestrian only)"},"geometry":{"type":"MultiLineString","coordinates":[[[1.0856177,51.2979484],[1.0851207,51.298114],[1.0850077,51.2980734],[1.0848837,51.2979294],[1.0848501,51.2978904]]]}},
{"type":"Feature","properties":{"highway":"footway","name":null,"category":"Footpath (pedestrian only)"},"geometry":{"type":"MultiLineString","coordinates":[[[1.0868943,51.2969681],[1.0869142,51.2967742],[1.087217,51.2962106]]]}},
{"type":"Feature","properties":{"highway":"footway","name":null,"category":"Footpath (pedestrian only)"},"geometry":{"type":"MultiLineString","coordinates":[[[1.0868943,51.2969681],[1.0865858,51.2965789]]]}},
{"type":"Feature","properties":{"highway":"footway","name":null,"category":"Footpath (pedestrian only)"},"geometry":{"type":"MultiLineString","coordinates":[[[1.0869221,51.2982143],[1.0869195,51.2982731]]]}},
{"type":"Feature","properties":{"highway":"footway","name":null,"category":"Footpath (pedestrian only)"},"geometry":{"type":"MultiLineString","coordinates":[[[1.0868295,51.2979204],[1.0868625,51.2981503],[1.0868888,51.2981866],[1.0869221,51.2982143]]]}},
{"type":"Feature","properties":{"highway":"footway","name":null,"category":"Footpath (pedestrian only)"},"geometry":{"type":"MultiLineString","coordinates":[[[1.0864227,51.2970879],[1.0866516,51.2970324],[1.0868943,51.2969681]]]}},
{"type":"Feature","properties":{"highway":"footway","name":null,"category":"Footpath (pedestrian only)"},"geometry":{"type":"MultiLineString","coordinates":[[[1.0766268,51.2925439],[1.0767351,51.2923668],[1.0768259,51.2921052],[1.076967,51.2917206],[1.0769265,51.2916732]]]}},
{"type":"Feature","properties":{"highway":"footway","name":null,"category":"Footpath (pedestrian only)"},"geometry":{"type":"MultiLineString","coordinates":[[[1.0766686,51.2913675],[1.0767586,51.2913688],[1.0770432,51.291373]]]}},
{"type":"Feature","properties":{"highway":"footway","name":null,"category":"Footpath (pedestrian only)"},"geometry":{"type":"MultiLineString","coordinates":[[[1.0866918,51.2950936],[1.0864948,51.2950644]]]}},
{"type":"Feature","properties":{"highway":"footway","name":null,"category":"Footpath (pedestrian only)"},"geometry":{"type":"MultiLineString","coordinates":[[[1.0866272,51.2947758],[1.0865134,51.2948176],[1.0856511,51.2946828]]]}},
{"type":"Feature","properties":{"highway":"path","name":null,"category":"Shared path"},"geometry":{"type":"MultiLineString","coordinates":[[[1.100665,51.2958572],[1.1005181,51.2958072],[1.1002759,51.2958072],[1.0998975,51.2959515],[1.0995947,51.2961385],[1.0994661,51.2962047],[1.0992844,51.2962686],[1.0990687,51.2962307],[1.0987735,51.2961597],[1.0985502,51.2961527],[1.0983648,51.2960604],[1.0984102,51.2959491],[1.098361,51.295703],[1.098395,51.2954049],[1.0985426,51.2952203],[1.0988416,51.2949718],[1.0992125,51.2948038],[1.0992806,51.2947067],[1.0993222,51.2945766],[1.0992201,51.2942666],[1.0988719,51.2937436],[1.0987432,51.2934288],[1.0984745,51.2932087],[1.0983118,51.2930478],[1.0982512,51.2929531],[1.0978993,51.2928632],[1.0976533,51.2927188],[1.0974451,51.2926502],[1.0973278,51.2926218],[1.0971991,51.2925389],[1.09707,51.2925148],[1.096931,51.2924694],[1.0968728,51.2924396],[1.096755,51.2923871],[1.0966302,51.2923161],[1.0965209,51.2922594],[1.0964315,51.2921657],[1.0963308,51.2920664],[1.0962556,51.2919798],[1.0961775,51.2919103],[1.0960952,51.2918436],[1.0960413,51.2917883],[1.095986,51.291706],[1.0959548,51.2916549],[1.0959023,51.2916067],[1.0958654,51.2915173],[1.09582,51.2914407],[1.0957788,51.2913711],[1.0957434,51.2913271],[1.0956199,51.2912463],[1.0955376,51.2911966],[1.0954596,51.2911299],[1.0952552,51.291015],[1.0950637,51.2909284],[1.094936,51.2908717],[1.0948494,51.2907993],[1.0948083,51.2907582],[1.0947274,51.2907213],[1.0946451,51.2907128],[1.09456,51.2907128],[1.094438,51.2906787],[1.0943372,51.2906574],[1.0942152,51.2906319],[1.0940648,51.2905907],[1.0939257,51.2905524],[1.0938094,51.2904928],[1.093737,51.2904347],[1.0936874,51.2903907],[1.0936476,51.2903509],[1.0936377,51.290314],[1.0936093,51.2902814],[1.0935086,51.2902034],[1.0934192,51.2901253],[1.0933695,51.2900218],[1.0933241,51.289921],[1.0932574,51.2897919],[1.0931879,51.289667],[1.0931496,51.2895947],[1.0930999,51.2895549],[1.0930247,51.2894882],[1.092941,51.2894286],[1.092836,51.2893861],[1.0926629,51.2893449],[1.092504,51.2892811],[1.092277,51.2891732],[1.0921677,51.2891207],[1.0920485,51.2890839],[1.0918868,51.2890413],[1.0917023,51.2890285],[1.0915547,51.28902],[1.0914157,51.2890058],[1.091288,51.2889973],[1.0912241,51.2890129],[1.0911262,51.2890555],[1.091051,51.2891023],[1.0910099,51.2891732],[1.0909815,51.2892555],[1.0909517,51.2892811],[1.0908857,51.2893989],[1.0908199,51.2894544],[1.0906467,51.2895133],[1.0904561,51.2895237]]]}},
{"type":"Feature","properties":{"highway":"footway","name":null,"category":"Footpath (pedestrian only)"},"geometry":{"type":"MultiLineString","coordinates":[[[1.0900141,51.2948613],[1.0900601,51.294826]]]}},
{"type":"Feature","properties":{"highway":"footway","name":null,"category":"Footpath (pedestrian only)"},"geometry":{"type":"MultiLineString","coordinates":[[[1.0899639,51.2949],[1.0899943,51.2948766]]]}},
{"type":"Feature","properties":{"highway":"footway","name":null,"category":"Footpath (pedestrian only)"},"geometry":{"type":"MultiLineString","coordinates":[[[1.0894468,51.2952836],[1.0898405,51.2949192],[1.089929,51.2949268],[1.0899459,51.2949138]]]}},
{"type":"Feature","properties":{"highway":"footway","name":null,"category":"Footpath (pedestrian only)"},"geometry":{"type":"MultiLineString","coordinates":[[[1.089321,51.2953131],[1.0892571,51.2953822],[1.0895871,51.2955222],[1.0896219,51.2954954],[1.0900014,51.2956537]]]}},
{"type":"Feature","properties":{"highway":"footway","name":null,"category":"Footpath (pedestrian only)"},"geometry":{"type":"MultiLineString","coordinates":[[[1.086534,51.2946657],[1.0866018,51.2946585],[1.0870962,51.294743]]]}},
{"type":"Feature","properties":{"highway":"footway","name":null,"category":"Footpath (pedestrian only)"},"geometry":{"type":"MultiLineString","coordinates":[[[1.0876923,51.2949883],[1.0875841,51.2952214]]]}},
{"type":"Feature","properties":{"highway":"footway","name":null,"category":"Footpath (pedestrian only)"},"geometry":{"type":"MultiLineString","coordinates":[[[1.0881051,51.2952413],[1.0880287,51.2951817]]]}},
{"type":"Feature","properties":{"highway":"footway","name":null,"category":"Footpath (pedestrian only)"},"geometry":{"type":"MultiLineString","coordinates":[[[1.0884726,51.2953126],[1.0882419,51.2952765],[1.0882191,51.295296],[1.0882016,51.295336],[1.0881452,51.2954719]]]}},
{"type":"Feature","properties":{"highway":"footway","name":null,"category":"Footpath (pedestrian only)"},"geometry":{"type":"MultiLineString","coordinates":[[[1.0873099,51.2948454],[1.0870685,51.2948035],[1.0870962,51.294743]]]}},
{"type":"Feature","properties":{"highway":"footway","name":null,"category":"Footpath (pedestrian only)"},"geometry":{"type":"MultiLineString","coordinates":[[[1.0832745,51.294358],[1.0833134,51.2944043],[1.0833818,51.2944714],[1.0834193,51.2945008],[1.0834582,51.2945176],[1.0835226,51.2945234],[1.083599,51.2945209],[1.0836562,51.2945208]]]}},
{"type":"Feature","properties":{"highway":"footway","name":null,"category":"Footpath (pedestrian only)"},"geometry":{"type":"MultiLineString","coordinates":[[[1.0847154,51.294605],[1.084637,51.2946199],[1.0846295,51.2946484]]]}},
{"type":"Feature","properties":{"highway":"footway","name":null,"category":"Footpath (pedestrian only)"},"geometry":{"type":"MultiLineString","coordinates":[[[1.0849291,51.2940235],[1.0849605,51.29408],[1.0849808,51.2941879],[1.0849786,51.294318],[1.0849718,51.2944197],[1.0849111,51.2944846],[1.0847154,51.294605],[1.0847522,51.2947047],[1.0847644,51.2947373],[1.0848945,51.2951247],[1.0848985,51.29515]]]}},
{"type":"Feature","properties":{"highway":"footway","name":null,"category":"Footpath (pedestrian only)"},"geometry":{"type":"MultiLineString","coordinates":[[[1.0832169,51.2952077],[1.0835266,51.2952119],[1.0836419,51.2951725],[1.083695,51.2951524]]]}},
{"type":"Feature","properties":{"highway":"footway","name":null,"category":"Footpath (pedestrian only)"},"geometry":{"type":"MultiLineString","coordinates":[[[1.0923441,51.2941734],[1.092382,51.2941403]]]}},
{"type":"Feature","properties":{"highway":"footway","name":null,"category":"Footpath (pedestrian only)"},"geometry":{"type":"MultiLineString","coordinates":[[[1.0924992,51.2940391],[1.0925201,51.294021]]]}},
{"type":"Feature","properties":{"highway":"footway","name":null,"category":"Footpath (pedestrian only)"},"geometry":{"type":"MultiLineString","coordinates":[[[1.0919836,51.2944691],[1.0923441,51.2941734]]]}},
{"type":"Feature","properties":{"highway":"footway","name":null,"category":"Footpath (pedestrian only)"},"geometry":{"type":"MultiLineString","coordinates":[[[1.0925201,51.294021],[1.0925427,51.2939875],[1.0932995,51.2934823]]]}},
{"type":"Feature","properties":{"highway":"footway","name":null,"category":"Footpath (pedestrian only)"},"geometry":{"type":"MultiLineString","coordinates":[[[1.0908449,51.2950068],[1.0911193,51.2947631],[1.0911525,51.2947336]]]}},
{"type":"Feature","properties":{"highway":"footway","name":null,"category":"Footpath (pedestrian only)"},"geometry":{"type":"MultiLineString","coordinates":[[[1.0893258,51.294165],[1.0890347,51.294041],[1.0888111,51.2942463]]]}},
{"type":"Feature","properties":{"highway":"footway","name":null,"category":"Footpath (pedestrian only)"},"geometry":{"type":"MultiLineString","coordinates":[[[1.0897499,51.2937756],[1.0901148,51.2939217],[1.0901874,51.2938514]]]}},
{"type":"Feature","properties":{"highway":"footway","name":null,"category":"Footpath (pedestrian only)"},"geometry":{"type":"MultiLineString","coordinates":[[[1.0893258,51.294165],[1.0896729,51.2943188],[1.0897472,51.2942466]]]}},
{"type":"Feature","properties":{"highway":"footway","name":null,"category":"Footpath (pedestrian only)"},"geometry":{"type":"MultiLineString","coordinates":[[[1.0903056,51.2937841],[1.0908625,51.2940199]]]}},
{"type":"Feature","properties":{"highway":"footway","name":null,"category":"Footpath (pedestrian only)"},"geometry":{"type":"MultiLineString","coordinates":[[[1.0904218,51.2944146],[1.0898657,51.2941788]]]}},
{"type":"Feature","properties":{"highway":"footway","name":null,"category":"Footpath (pedestrian only)"},"geometry":{"type":"MultiLineString","coordinates":[[[1.0877981,51.2988381],[1.0885808,51.2998838]]]}},
{"type":"Feature","properties":{"highway":"footway","name":null,"category":"Footpath (pedestrian only)"},"geometry":{"type":"MultiLineString","coordinates":[[[1.0820203,51.3022435],[1.083472,51.3007856],[1.0836436,51.3006649],[1.083944,51.3006515],[1.0857637,51.3010525]]]}},
{"type":"Feature","properties":{"highway":"footway","name":null,"category":"Footpath (pedestrian only)"},"geometry":{"type":"MultiLineString","coordinates":[[[1.0860898,51.3006917],[1.0864546,51.3001282],[1.0865833,51.2998197],[1.0869052,51.2990818],[1.0869542,51.2987407]]]}},
{"type":"Feature","properties":{"highway":"footway","name":null,"category":"Footpath (pedestrian only)"},"geometry":{"type":"MultiLineString","coordinates":[[[1.0857637,51.3010525],[1.0873987,51.3014698],[1.0876971,51.30145]]]}},
{"type":"Feature","properties":{"highway":"footway","name":null,"category":"Footpath (pedestrian only)"},"geometry":{"type":"MultiLineString","coordinates":[[[1.0878007,51.3014159],[1.0879995,51.3012954],[1.088021,51.3008795],[1.0879781,51.3005576],[1.0880225,51.3003316],[1.0881283,51.3001148]]]}},
{"type":"Feature","properties":{"highway":"footway","name":null,"category":"Footpath (pedestrian only)"},"geometry":{"type":"MultiLineString","coordinates":[[[1.0888866,51.3001017],[1.0890081,51.2997123],[1.0892655,51.2989744]]]}},
{"type":"Feature","properties":{"highway":"footway","name":null,"category":"Footpath (pedestrian only)"},"geometry":{"type":"MultiLineString","coordinates":[[[1.0860898,51.3006917],[1.0868194,51.3005441],[1.0873363,51.30029],[1.0881283,51.3001148]]]}},
{"type":"Feature","properties":{"highway":"footway","name":null,"category":"Footpath (pedestrian only)"},"geometry":{"type":"MultiLineString","coordinates":[[[1.0858555,51.3010073],[1.0860291,51.3009376]]]}},
{"type":"Feature","properties":{"highway":"footway","name":null,"category":"Footpath (pedestrian only)"},"geometry":{"type":"MultiLineString","coordinates":[[[1.0884585,51.3027765],[1.0904092,51.3042983],[1.0907311,51.3045532],[1.0908384,51.3046873],[1.0907096,51.3049019],[1.0907096,51.3050495],[1.0908598,51.3051971],[1.0916108,51.3052373],[1.0918469,51.3053178],[1.0919971,51.3054922],[1.0919113,51.3057471],[1.0916538,51.3061898],[1.0909671,51.3069812],[1.0909422,51.3072294]]]}},
{"type":"Feature","properties":{"highway":"footway","name":null,"category":"Footpath (pedestrian only)"},"geometry":{"type":"MultiLineString","coordinates":[[[1.0857637,51.3010525],[1.0857822,51.3010286]]]}},
{"type":"Feature","properties":{"highway":"footway","name":null,"category":"Footpath (pedestrian only)"},"geometry":{"type":"MultiLineString","coordinates":[[[1.0848196,51.2873128],[1.0848268,51.2873032],[1.0848257,51.2872758],[1.0848121,51.287247],[1.0847946,51.287221],[1.0847528,51.2871717],[1.0847417,51.2871489],[1.084741,51.2871174],[1.0847476,51.2870877],[1.0847792,51.2869836],[1.0847819,51.2869354],[1.0847718,51.2868784],[1.0847528,51.2868034],[1.0847215,51.2867379],[1.0847019,51.2867101],[1.0846055,51.2866578],[1.0845012,51.2865962],[1.0844681,51.2865802],[1.0844104,51.2865693],[1.0843135,51.286546],[1.0842723,51.286524],[1.0842401,51.2864938],[1.0842097,51.2864293],[1.0841756,51.2863607]]]}},
{"type":"Feature","properties":{"highway":"footway","name":null,"category":"Footpath (pedestrian only)"},"geometry":{"type":"MultiLineString","coordinates":[[[1.0849525,51.2873923],[1.0849151,51.287367],[1.0848196,51.2873128]]]}},
{"type":"Feature","properties":{"highway":"footway","name":null,"category":"Footpath (pedestrian only)"},"geometry":{"type":"MultiLineString","coordinates":[[[1.0849395,51.2875116],[1.0849006,51.28764],[1.0848791,51.2876827],[1.0848664,51.2877033]]]}},
{"type":"Feature","properties":{"highway":"footway","name":null,"category":"Footpath (pedestrian only)"},"geometry":{"type":"MultiLineString","coordinates":[[[1.0852002,51.2873683],[1.0851286,51.2873703],[1.0850722,51.2873787],[1.0850119,51.2874085],[1.0849696,51.2874395],[1.0849495,51.2874739],[1.0849395,51.2875116]]]}},
{"type":"Feature","properties":{"highway":"footway","name":null,"category":"Footpath (pedestrian only)"},"geometry":{"type":"MultiLineString","coordinates":[[[1.0846531,51.2877201],[1.084692,51.287741],[1.0847544,51.2877658],[1.0847966,51.2877842]]]}},
{"type":"Feature","properties":{"highway":"footway","name":null,"category":"Footpath (pedestrian only)"},"geometry":{"type":"MultiLineString","coordinates":[[[1.0848442,51.2878664],[1.0847978,51.2879043],[1.0847591,51.2879331]]]}},
{"type":"Feature","properties":{"highway":"footway","name":null,"category":"Footpath (pedestrian only)"},"geometry":{"type":"MultiLineString","coordinates":[[[1.0848664,51.2877033],[1.0848261,51.2877469],[1.0847966,51.2877842],[1.0847966,51.2878157],[1.0848107,51.2878375],[1.0848335,51.287858],[1.0848442,51.2878664]]]}},
{"type":"Feature","properties":{"highway":"footway","name":null,"category":"Footpath (pedestrian only)"},"geometry":{"type":"MultiLineString","coordinates":[[[1.0848261,51.2874752],[1.0848556,51.2874219],[1.0849151,51.287367]]]}},
{"type":"Feature","properties":{"highway":"footway","name":null,"category":"Footpath (pedestrian only)"},"geometry":{"type":"MultiLineString","coordinates":[[[1.0847691,51.2876488],[1.0847812,51.2876249],[1.0848261,51.2874752]]]}},
{"type":"Feature","properties":{"highway":"footway","name":null,"category":"Footpath (pedestrian only)"},"geometry":{"type":"MultiLineString","coordinates":[[[1.0830116,51.287354],[1.0830494,51.2873215],[1.08308,51.2872973]]]}},
{"type":"Feature","properties":{"highway":"footway","name":null,"category":"Footpath (pedestrian only)"},"geometry":{"type":"MultiLineString","coordinates":[[[1.0847591,51.2879331],[1.0846813,51.2879004],[1.0845485,51.2878408],[1.084342,51.287762],[1.0841314,51.2876999],[1.0838605,51.2876177],[1.0835896,51.2875431],[1.083364,51.2874802],[1.0830867,51.2873871],[1.0830116,51.287354],[1.0824866,51.2871107],[1.0823491,51.2870575],[1.0822532,51.2870197],[1.0821989,51.2870084],[1.0821587,51.2870055],[1.0820889,51.2870138],[1.0820326,51.2870357],[1.081979,51.2870742],[1.0819146,51.2871405],[1.0818274,51.2872697],[1.081806,51.2873208],[1.081814,51.2873779],[1.0818489,51.2874148],[1.0819025,51.2874366],[1.0820487,51.2874861],[1.0820165,51.2875297]]]}},
{"type":"Feature","properties":{"highway":"footway","name":null,"category":"Footpath (pedestrian only)"},"geometry":{"type":"MultiLineString","coordinates":[[[1.0844386,51.285832],[1.0842818,51.2859094],[1.0840528,51.2860075],[1.0839791,51.2860328],[1.0839142,51.2860602],[1.0838351,51.2860937],[1.0835615,51.2862212],[1.083257,51.2863542],[1.0829308,51.2865056],[1.0823585,51.2867652],[1.0823337,51.2867815],[1.0823243,51.2868058],[1.0823223,51.2868297],[1.082325,51.2868541],[1.0823364,51.2868792],[1.0823572,51.2869048],[1.0824001,51.2869509],[1.0825074,51.287018],[1.0827287,51.2871271],[1.08308,51.2872973],[1.0832624,51.287372],[1.0834931,51.2874441],[1.0837492,51.2875112],[1.0841328,51.2876001],[1.0842749,51.2876286],[1.0843635,51.2876563],[1.0844681,51.2876949],[1.0845418,51.2877192],[1.0845686,51.2877259],[1.0846122,51.287728],[1.0846531,51.2877201],[1.0847155,51.2876949],[1.0847691,51.2876488]]]}},
{"type":"Feature","properties":{"highway":"track","name":null,"category":"Track"},"geometry":{"type":"MultiLineString","coordinates":[[[1.0801671,51.293764],[1.0794675,51.2935187],[1.0789458,51.2933291],[1.0786929,51.2932086]]]}},
{"type":"Feature","properties":{"highway":"footway","name":null,"category":"Footpath (pedestrian only)"},"geometry":{"type":"MultiLineString","coordinates":[[[1.0854755,51.2863882],[1.0857134,51.2864806],[1.085903,51.2865542]]]}},
{"type":"Feature","properties":{"highway":"footway","name":null,"category":"Footpath (pedestrian only)"},"geometry":{"type":"MultiLineString","coordinates":[[[1.0830759,51.286541],[1.0831298,51.2866047],[1.0831612,51.2866326],[1.0832008,51.2866588],[1.0832691,51.2866918],[1.0833221,51.286727],[1.0833712,51.2867692],[1.0835001,51.2869194],[1.0835945,51.2870594],[1.0836681,51.287151],[1.083716,51.2871941],[1.0837982,51.2872328],[1.0838699,51.2872667],[1.0839399,51.2872936],[1.0840517,51.2873116],[1.0841666,51.28733],[1.0844012,51.2873705],[1.0844862,51.2873795],[1.0845693,51.2873791],[1.0846315,51.2873764],[1.0846813,51.287367],[1.084751,51.2873439],[1.0848196,51.2873128]]]}},
{"type":"Feature","properties":{"highway":"footway","name":null,"category":"Footpath (pedestrian only)"},"geometry":{"type":"MultiLineString","coordinates":[[[1.0852157,51.2866671],[1.0851545,51.286671],[1.0850507,51.2866467]]]}},
{"type":"Feature","properties":{"highway":"footway","name":null,"category":"Footpath (pedestrian only)"},"geometry":{"type":"MultiLineString","coordinates":[[[1.0854755,51.2863882],[1.0855304,51.2863308]]]}},
{"type":"Feature","properties":{"highway":"footway","name":null,"category":"Footpath (pedestrian only)"},"geometry":{"type":"MultiLineString","coordinates":[[[1.0899677,51.2895029],[1.0901825,51.2895271],[1.0904561,51.2895237]]]}},
{"type":"Feature","properties":{"highway":"footway","name":null,"category":"Footpath (pedestrian only)"},"geometry":{"type":"MultiLineString","coordinates":[[[1.0919836,51.2944691],[1.0916337,51.2943108]]]}},
{"type":"Feature","properties":{"highway":"footway","name":null,"category":"Footpath (pedestrian only)"},"geometry":{"type":"MultiLineString","coordinates":[[[1.0916416,51.2947968],[1.0919836,51.2944691]]]}},
{"type":"Feature","properties":{"highway":"footway","name":null,"category":"Footpath (pedestrian only)"},"geometry":{"type":"MultiLineString","coordinates":[[[1.0848578,51.2961395],[1.0850443,51.2963728],[1.0850609,51.2963933],[1.085185,51.2965483]]]}},
{"type":"Feature","properties":{"highway":"footway","name":null,"category":"Footpath (pedestrian only)"},"geometry":{"type":"MultiLineString","coordinates":[[[1.085185,51.2965483],[1.0852287,51.2966024]]]}},
{"type":"Feature","properties":{"highway":"footway","name":null,"category":"Footpath (pedestrian only)"},"geometry":{"type":"MultiLineString","coordinates":[[[1.0859729,51.2957025],[1.0860869,51.2957209]]]}},
{"type":"Feature","properties":{"highway":"footway","name":null,"category":"Footpath (pedestrian only)"},"geometry":{"type":"MultiLineString","coordinates":[[[1.0859058,51.2956925],[1.0859729,51.2957025]]]}},
{"type":"Feature","properties":{"highway":"footway","name":null,"category":"Footpath (pedestrian only)"},"geometry":{"type":"MultiLineString","coordinates":[[[1.0858603,51.2954786],[1.0857411,51.2954605]]]}},
{"type":"Feature","properties":{"highway":"footway","name":null,"category":"Footpath (pedestrian only)"},"geometry":{"type":"MultiLineString","coordinates":[[[1.0857411,51.2954605],[1.0856751,51.2954505]]]}},
{"type":"Feature","properties":{"highway":"footway","name":null,"category":"Footpath (pedestrian only)"},"geometry":{"type":"MultiLineString","coordinates":[[[1.0845936,51.2963797],[1.0845191,51.2962829]]]}},
{"type":"Feature","properties":{"highway":"footway","name":null,"category":"Footpath (pedestrian only)"},"geometry":{"type":"MultiLineString","coordinates":[[[1.0846365,51.296434],[1.0845936,51.2963797]]]}},
{"type":"Feature","properties":{"highway":"footway","name":null,"category":"Footpath (pedestrian only)"},"geometry":{"type":"MultiLineString","coordinates":[[[1.0851023,51.2970291],[1.085031,51.2969397]]]}},
{"type":"Feature","properties":{"highway":"footway","name":null,"category":"Footpath (pedestrian only)"},"geometry":{"type":"MultiLineString","coordinates":[[[1.085031,51.2969397],[1.0849868,51.2968858]]]}},
{"type":"Feature","properties":{"highway":"footway","name":null,"category":"Footpath (pedestrian only)"},"geometry":{"type":"MultiLineString","coordinates":[[[1.0849088,51.2970753],[1.0849838,51.2971677],[1.0850785,51.2972843],[1.0851395,51.2973594],[1.0851948,51.2974261]]]}},
{"type":"Feature","properties":{"highway":"footway","name":null,"category":"Footpath (pedestrian only)"},"geometry":{"type":"MultiLineString","coordinates":[[[1.0851948,51.2974261],[1.0852291,51.2974686]]]}},
{"type":"Feature","properties":{"highway":"footway","name":null,"category":"Footpath (pedestrian only)"},"geometry":{"type":"MultiLineString","coordinates":[[[1.0852291,51.2974686],[1.0852821,51.2975351],[1.0853684,51.2976433]]]}},
{"type":"Feature","properties":{"highway":"footway","name":null,"category":"Footpath (pedestrian only)"},"geometry":{"type":"MultiLineString","coordinates":[[[1.0853684,51.2976433],[1.0854037,51.2976854]]]}},
{"type":"Feature","properties":{"highway":"footway","name":null,"category":"Footpath (pedestrian only)"},"geometry":{"type":"MultiLineString","coordinates":[[[1.0801356,51.2972837],[1.0799727,51.2972423],[1.0796713,51.2971657],[1.0796073,51.2971495],[1.0795012,51.2971183]]]}},
{"type":"Feature","properties":{"highway":"footway","name":null,"category":"Footpath (pedestrian only)"},"geometry":{"type":"MultiLineString","coordinates":[[[1.0795012,51.2971183],[1.0794344,51.2971003]]]}},
{"type":"Feature","properties":{"highway":"footway","name":null,"category":"Footpath (pedestrian only)"},"geometry":{"type":"MultiLineString","coordinates":[[[1.0794344,51.2971003],[1.0792788,51.2970581],[1.0791495,51.2970254]]]}},
{"type":"Feature","properties":{"highway":"footway","name":null,"category":"Footpath (pedestrian only)"},"geometry":{"type":"MultiLineString","coordinates":[[[1.0791495,51.2970254],[1.0790892,51.2970101]]]}},
{"type":"Feature","properties":{"highway":"footway","name":null,"category":"Footpath (pedestrian only)"},"geometry":{"type":"MultiLineString","coordinates":[[[1.0788604,51.2966728],[1.0789231,51.2965651]]]}},
{"type":"Feature","properties":{"highway":"footway","name":null,"category":"Footpath (pedestrian only)"},"geometry":{"type":"MultiLineString","coordinates":[[[1.0789231,51.2965651],[1.0789587,51.2965038]]]}},
{"type":"Feature","properties":{"highway":"footway","name":null,"category":"Footpath (pedestrian only)"},"geometry":{"type":"MultiLineString","coordinates":[[[1.0773188,51.2958175],[1.0772874,51.2958659]]]}},
{"type":"Feature","properties":{"highway":"footway","name":null,"category":"Footpath (pedestrian only)"},"geometry":{"type":"MultiLineString","coordinates":[[[1.0773872,51.2957223],[1.0773188,51.2958175]]]}},
{"type":"Feature","properties":{"highway":"footway","name":null,"category":"Footpath (pedestrian only)"},"geometry":{"type":"MultiLineString","coordinates":[[[1.0766746,51.2957744],[1.0764087,51.2957087]]]}},
{"type":"Feature","properties":{"highway":"footway","name":null,"category":"Footpath (pedestrian only)"},"geometry":{"type":"MultiLineString","coordinates":[[[1.0767253,51.2957878],[1.0766746,51.2957744]]]}},
{"type":"Feature","properties":{"highway":"footway","name":null,"category":"Footpath (pedestrian only)"},"geometry":{"type":"MultiLineString","coordinates":[[[1.0771222,51.29611],[1.077055,51.2962177]]]}},
{"type":"Feature","properties":{"highway":"footway","name":null,"category":"Footpath (pedestrian only)"},"geometry":{"type":"MultiLineString","coordinates":[[[1.0771528,51.2960613],[1.0771222,51.29611]]]}},
{"type":"Feature","properties":{"highway":"track","name":null,"category":"Track"},"geometry":{"type":"MultiLineString","coordinates":[[[1.0997513,51.2985201],[1.0996075,51.298286],[1.0992728,51.2980794],[1.0990838,51.2980406],[1.0981612,51.2978997],[1.0974789,51.2977037],[1.0966249,51.2975346],[1.09574,51.2974031],[1.094886,51.2972368],[1.0943238,51.2971616]]]}},
{"type":"Feature","properties":{"highway":"footway","name":null,"category":"Footpath (pedestrian only)"},"geometry":{"type":"MultiLineString","coordinates":[[[1.0789251,51.2910087],[1.0792905,51.2910648]]]}},
{"type":"Feature","properties":{"highway":"footway","name":null,"category":"Footpath (pedestrian only)"},"geometry":{"type":"MultiLineString","coordinates":[[[1.0843835,51.2967851],[1.0844281,51.2968336]]]}},
{"type":"Feature","properties":{"highway":"footway","name":null,"category":"Footpath (pedestrian only)"},"geometry":{"type":"MultiLineString","coordinates":[[[1.0885808,51.2998838],[1.0888364,51.2995111],[1.0892655,51.2989744],[1.0893943,51.298639],[1.0897591,51.2981024],[1.0899245,51.2976462]]]}},
{"type":"Feature","properties":{"highway":"footway","name":null,"category":"Footpath (pedestrian only)"},"geometry":{"type":"MultiLineString","coordinates":[[[1.0881283,51.3001148],[1.0884502,51.2999672],[1.0885808,51.2998838]]]}},
{"type":"Feature","properties":{"highway":"footway","name":null,"category":"Footpath (pedestrian only)"},"geometry":{"type":"MultiLineString","coordinates":[[[1.0881283,51.3001148],[1.0887247,51.2999864]]]}},
{"type":"Feature","properties":{"highway":"footway","name":null,"category":"Footpath (pedestrian only)"},"geometry":{"type":"MultiLineString","coordinates":[[[1.0860291,51.3009376],[1.0860898,51.3006917]]]}}
]
}
