{
"type": "FeatureCollection",
"name": "83c7e3c8d088_foliage",
"crs": { "type": "name", "properties": { "name": "urn:ogc:def:crs:OGC:1.3:CRS84" } },
"features": [
{ "type": "Feature", "properties": { "max_height": 3.9468765258789062, "mean_height": 0.3713531494140625, "std_height": 0.93912655115127563, "count_pixels": 42, "percent_cover": 1.4752370916754478, "percent_above_0.1m": 16.666666666666664, "low_level_<0.5": 2.3809523809523809, "mid_level_0.5-2": 7.1428571428571423, "tall_2+": 7.1428571428571423 }, "geometry": { "type": "Point", "coordinates": [ -0.142690312386918, 51.24894273384465 ] } },
{ "type": "Feature", "properties": { "max_height": 0.3781280517578125, "mean_height": 0.043451398611068726, "std_height": 0.060152497142553329, "count_pixels": 42, "percent_cover": 1.4752370916754478, "percent_above_0.1m": 7.1428571428571423, "low_level_<0.5": 4.7619047619047619, "mid_level_0.5-2": 0.0, "tall_2+": 0.0 }, "geometry": { "type": "Point", "coordinates": [ -0.142491885848914, 51.248939583403015 ] } },
{ "type": "Feature", "properties": { "max_height": 1.6818695068359375, "mean_height": 0.0924973264336586, "std_height": 0.28836175799369812, "count_pixels": 42, "percent_cover": 1.4752370916754478, "percent_above_0.1m": 4.7619047619047619, "low_level_<0.5": 0.0, "mid_level_0.5-2": 4.7619047619047619, "tall_2+": 0.0 }, "geometry": { "type": "Point", "coordinates": [ -0.142293459346714, 51.248936432625051 ] } },
{ "type": "Feature", "properties": { "max_height": 0.2918701171875, "mean_height": 0.030989298596978188, "std_height": 0.042923834174871445, "count_pixels": 41, "percent_cover": 1.4401123990165086, "percent_above_0.1m": 2.4390243902439024, "low_level_<0.5": 2.4390243902439024, "mid_level_0.5-2": 0.0, "tall_2+": 0.0 }, "geometry": { "type": "Point", "coordinates": [ -0.142095032880309, 51.248933281510773 ] } },
{ "type": "Feature", "properties": { "max_height": 0.05124664306640625, "mean_height": 0.020565396174788475, "std_height": 0.011425533331930637, "count_pixels": 42, "percent_cover": 1.4752370916754478, "percent_above_0.1m": 0.0, "low_level_<0.5": 0.0, "mid_level_0.5-2": 0.0, "tall_2+": 0.0 }, "geometry": { "type": "Point", "coordinates": [ -0.141896606449702, 51.248930130060195 ] } },
{ "type": "Feature", "properties": { "max_height": 0.03437042236328125, "mean_height": 0.0125672472640872, "std_height": 0.0093001239001750946, "count_pixels": 42, "percent_cover": 1.4752370916754478, "percent_above_0.1m": 0.0, "low_level_<0.5": 0.0, "mid_level_0.5-2": 0.0, "tall_2+": 0.0 }, "geometry": { "type": "Point", "coordinates": [ -0.1416981800549, 51.248926978273303 ] } },
{ "type": "Feature", "properties": { "max_height": 6.1368789672851562, "mean_height": 1.4146320819854736, "std_height": 1.7024660110473633, "count_pixels": 41, "percent_cover": 1.4401123990165086, "percent_above_0.1m": 75.609756097560975, "low_level_<0.5": 14.634146341463413, "mid_level_0.5-2": 21.951219512195124, "tall_2+": 29.268292682926827 }, "geometry": { "type": "Point", "coordinates": [ -0.142785183584313, 51.249052156945211 ] } },
{ "type": "Feature", "properties": { "max_height": 1.0699996948242188, "mean_height": 0.09479086846113205, "std_height": 0.21211075782775879, "count_pixels": 42, "percent_cover": 1.4752370916754478, "percent_above_0.1m": 19.047619047619047, "low_level_<0.5": 4.7619047619047619, "mid_level_0.5-2": 4.7619047619047619, "tall_2+": 0.0 }, "geometry": { "type": "Point", "coordinates": [ -0.142586756566138, 51.249049006660933 ] } },
{ "type": "Feature", "properties": { "max_height": 1.0262451171875, "mean_height": 0.31220135092735291, "std_height": 0.26472580432891846, "count_pixels": 42, "percent_cover": 1.4752370916754478, "percent_above_0.1m": 85.714285714285708, "low_level_<0.5": 57.142857142857139, "mid_level_0.5-2": 16.666666666666664, "tall_2+": 0.0 }, "geometry": { "type": "Point", "coordinates": [ -0.142388329583755, 51.249045856040347 ] } },
{ "type": "Feature", "properties": { "max_height": 6.8562469482421875, "mean_height": 0.6999090313911438, "std_height": 1.6235224008560181, "count_pixels": 42, "percent_cover": 1.4752370916754478, "percent_above_0.1m": 30.952380952380953, "low_level_<0.5": 4.7619047619047619, "mid_level_0.5-2": 0.0, "tall_2+": 16.666666666666664 }, "geometry": { "type": "Point", "coordinates": [ -0.142189902637167, 51.249042705083433 ] } },
{ "type": "Feature", "properties": { "max_height": 6.514373779296875, "mean_height": 0.32711029052734375, "std_height": 1.1459183692932129, "count_pixels": 42, "percent_cover": 1.4752370916754478, "percent_above_0.1m": 14.285714285714285, "low_level_<0.5": 4.7619047619047619, "mid_level_0.5-2": 4.7619047619047619, "tall_2+": 4.7619047619047619 }, "geometry": { "type": "Point", "coordinates": [ -0.141991475726383, 51.249039553790219 ] } },
{ "type": "Feature", "properties": { "max_height": 6.0999984741210938, "mean_height": 0.97332143783569336, "std_height": 1.8796818256378174, "count_pixels": 38, "percent_cover": 1.3347383210396908, "percent_above_0.1m": 31.578947368421051, "low_level_<0.5": 7.8947368421052628, "mid_level_0.5-2": 5.2631578947368416, "tall_2+": 18.421052631578945 }, "geometry": { "type": "Point", "coordinates": [ -0.141793048851398, 51.249036402160684 ] } },
{ "type": "Feature", "properties": { "max_height": 2.6587448120117188, "mean_height": 0.51266300678253174, "std_height": 0.8753846287727356, "count_pixels": 42, "percent_cover": 1.4752370916754478, "percent_above_0.1m": 35.714285714285715, "low_level_<0.5": 2.3809523809523809, "mid_level_0.5-2": 11.904761904761903, "tall_2+": 14.285714285714285 }, "geometry": { "type": "Point", "coordinates": [ -0.141594622012221, 51.249033250194842 ] } },
{ "type": "Feature", "properties": { "max_height": 0.58562469482421875, "mean_height": 0.039343900978565216, "std_height": 0.088029585778713226, "count_pixels": 43, "percent_cover": 1.5103617843343871, "percent_above_0.1m": 6.9767441860465116, "low_level_<0.5": 0.0, "mid_level_0.5-2": 2.3255813953488373, "tall_2+": 0.0 }, "geometry": { "type": "Point", "coordinates": [ -0.141396195208854, 51.249030097892671 ] } },
{ "type": "Feature", "properties": { "max_height": 4.8331222534179688, "mean_height": 0.50739431381225586, "std_height": 1.1545084714889526, "count_pixels": 42, "percent_cover": 1.4752370916754478, "percent_above_0.1m": 30.952380952380953, "low_level_<0.5": 11.904761904761903, "mid_level_0.5-2": 9.5238095238095237, "tall_2+": 9.5238095238095237 }, "geometry": { "type": "Point", "coordinates": [ -0.142284772838395, 51.249152128580604 ] } },
{ "type": "Feature", "properties": { "max_height": 1.0737533569335938, "mean_height": 0.14249885082244873, "std_height": 0.24366910755634308, "count_pixels": 41, "percent_cover": 1.4401123990165086, "percent_above_0.1m": 34.146341463414636, "low_level_<0.5": 19.512195121951219, "mid_level_0.5-2": 9.7560975609756095, "tall_2+": 0.0 }, "geometry": { "type": "Point", "coordinates": [ -0.142086345447424, 51.249148977444754 ] } },
{ "type": "Feature", "properties": { "max_height": 6.6131210327148438, "mean_height": 1.7304596900939941, "std_height": 2.2770729064941406, "count_pixels": 42, "percent_cover": 1.4752370916754478, "percent_above_0.1m": 47.619047619047613, "low_level_<0.5": 4.7619047619047619, "mid_level_0.5-2": 4.7619047619047619, "tall_2+": 38.095238095238095 }, "geometry": { "type": "Point", "coordinates": [ -0.141887918092253, 51.24914582597259 ] } },
{ "type": "Feature", "properties": { "max_height": 5.6624984741210938, "mean_height": 0.4282422661781311, "std_height": 1.0980232954025269, "count_pixels": 42, "percent_cover": 1.4752370916754478, "percent_above_0.1m": 28.571428571428569, "low_level_<0.5": 7.1428571428571423, "mid_level_0.5-2": 9.5238095238095237, "tall_2+": 7.1428571428571423 }, "geometry": { "type": "Point", "coordinates": [ -0.141689490772893, 51.249142674164098 ] } },
{ "type": "Feature", "properties": { "max_height": 2.3031234741210938, "mean_height": 0.38466402888298035, "std_height": 0.73314440250396729, "count_pixels": 41, "percent_cover": 1.4401123990165086, "percent_above_0.1m": 29.268292682926827, "low_level_<0.5": 12.195121951219512, "mid_level_0.5-2": 4.8780487804878048, "tall_2+": 12.195121951219512 }, "geometry": { "type": "Point", "coordinates": [ -0.141491063489337, 51.249139522019291 ] } },
{ "type": "Feature", "properties": { "max_height": 0.5625, "mean_height": 0.053016103804111481, "std_height": 0.12122360616922379, "count_pixels": 41, "percent_cover": 1.4401123990165086, "percent_above_0.1m": 7.3170731707317067, "low_level_<0.5": 2.4390243902439024, "mid_level_0.5-2": 4.8780487804878048, "tall_2+": 0.0 }, "geometry": { "type": "Point", "coordinates": [ -0.141292636241597, 51.249136369538185 ] } },
{ "type": "Feature", "properties": { "max_height": 8.3756256103515625, "mean_height": 1.6302510499954224, "std_height": 2.4339075088500977, "count_pixels": 42, "percent_cover": 1.4752370916754478, "percent_above_0.1m": 50.0, "low_level_<0.5": 9.5238095238095237, "mid_level_0.5-2": 14.285714285714285, "tall_2+": 26.190476190476193 }, "geometry": { "type": "Point", "coordinates": [ -0.14158593221418, 51.249248946070445 ] } },
{ "type": "Feature", "properties": { "max_height": 6.07061767578125, "mean_height": 0.88723540306091309, "std_height": 1.3357293605804443, "count_pixels": 43, "percent_cover": 1.5103617843343871, "percent_above_0.1m": 48.837209302325576, "low_level_<0.5": 4.6511627906976747, "mid_level_0.5-2": 27.906976744186046, "tall_2+": 13.953488372093023 }, "geometry": { "type": "Point", "coordinates": [ -0.141387504486243, 51.249245793746681 ] } }
]
}
