{
"type": "FeatureCollection",
"name": "DARTF_21",
"crs": { "type": "name", "properties": { "name": "urn:ogc:def:crs:OGC:1.3:CRS84" } },
"features": [
{ "type": "Feature", "properties": { "osm_id": 11056822589, "name": null, "amenity": "bench", "man_made": null, "leisure": null, "playground": null, "memorial": null }, "geometry": { "type": "Point", "coordinates": [ 0.2240966, 51.4404616 ] } },
{ "type": "Feature", "properties": { "osm_id": 9216066425, "name": null, "amenity": "bench", "man_made": null, "leisure": null, "playground": null, "memorial": null }, "geometry": { "type": "Point", "coordinates": [ 0.2223692, 51.4384001 ] } },
{ "type": "Feature", "properties": { "osm_id": 10584963304, "name": null, "amenity": "bench", "man_made": null, "leisure": null, "playground": null, "memorial": null }, "geometry": { "type": "Point", "coordinates": [ 0.2221175, 51.4390874 ] } },
{ "type": "Feature", "properties": { "osm_id": 10584963302, "name": null, "amenity": "bench", "man_made": null, "leisure": null, "playground": null, "memorial": null }, "geometry": { "type": "Point", "coordinates": [ 0.2210925, 51.43971 ] } },
{ "type": "Feature", "properties": { "osm_id": 11053378855, "name": null, "amenity": "bench", "man_made": null, "leisure": null, "playground": null, "memorial": null }, "geometry": { "type": "Point", "coordinates": [ 0.2215176, 51.4401815 ] } },
{ "type": "Feature", "properties": { "osm_id": 11056822590, "name": null, "amenity": "bench", "man_made": null, "leisure": null, "playground": null, "memorial": null }, "geometry": { "type": "Point", "coordinates": [ 0.2239973, 51.4404499 ] } },
{ "type": "Feature", "properties": { "osm_id": 11056822591, "name": null, "amenity": "bench", "man_made": null, "leisure": null, "playground": null, "memorial": null }, "geometry": { "type": "Point", "coordinates": [ 0.2239879, 51.440477 ] } },
{ "type": "Feature", "properties": { "osm_id": 9216066360, "name": null, "amenity": null, "man_made": null, "leisure": "picnic_table", "playground": null, "memorial": null }, "geometry": { "type": "Point", "coordinates": [ 0.2191507, 51.4409337 ] } },
{ "type": "Feature", "properties": { "osm_id": 9216066357, "name": null, "amenity": "bench", "man_made": null, "leisure": null, "playground": null, "memorial": null }, "geometry": { "type": "Point", "coordinates": [ 0.2193321, 51.4416476 ] } },
{ "type": "Feature", "properties": { "osm_id": 9216066358, "name": null, "amenity": "bench", "man_made": null, "leisure": null, "playground": null, "memorial": null }, "geometry": { "type": "Point", "coordinates": [ 0.2190004, 51.4418856 ] } }
]
}
