{
"type": "FeatureCollection",
"name": "ab6de4ac570f_foliage",
"crs": { "type": "name", "properties": { "name": "urn:ogc:def:crs:OGC:1.3:CRS84" } },
"features": [
{ "type": "Feature", "properties": { "max_height": 9.7460060119628906, "mean_height": 2.7749969959259033, "std_height": 2.5985283851623535, "count_pixels": 43, "percent_cover": 1.096938775510204, "percent_above_0.1m": 83.720930232558146, "low_level_<0.5": 16.279069767441861, "mid_level_0.5-2": 11.627906976744185, "tall_2+": 55.813953488372093 }, "geometry": { "type": "Point", "coordinates": [ -1.301061769522092, 51.628656360953414 ] } },
{ "type": "Feature", "properties": { "max_height": 10.153499603271484, "mean_height": 1.9738922119140625, "std_height": 2.9814777374267578, "count_pixels": 43, "percent_cover": 1.096938775510204, "percent_above_0.1m": 60.465116279069761, "low_level_<0.5": 6.9767441860465116, "mid_level_0.5-2": 23.255813953488371, "tall_2+": 25.581395348837212 }, "geometry": { "type": "Point", "coordinates": [ -1.300861601252302, 51.628655171063741 ] } },
{ "type": "Feature", "properties": { "max_height": 5.4257469177246094, "mean_height": 2.430462121963501, "std_height": 1.7177469730377197, "count_pixels": 43, "percent_cover": 1.096938775510204, "percent_above_0.1m": 88.372093023255815, "low_level_<0.5": 6.9767441860465116, "mid_level_0.5-2": 20.930232558139537, "tall_2+": 55.813953488372093 }, "geometry": { "type": "Point", "coordinates": [ -1.300661432996528, 51.628653980832844 ] } },
{ "type": "Feature", "properties": { "max_height": 7.145751953125, "mean_height": 2.6543340682983398, "std_height": 1.8608254194259644, "count_pixels": 43, "percent_cover": 1.096938775510204, "percent_above_0.1m": 90.697674418604649, "low_level_<0.5": 4.6511627906976747, "mid_level_0.5-2": 23.255813953488371, "tall_2+": 60.465116279069761 }, "geometry": { "type": "Point", "coordinates": [ -1.300461264754777, 51.628652790260787 ] } },
{ "type": "Feature", "properties": { "max_height": 15.876502990722656, "mean_height": 9.6384983062744141, "std_height": 5.7247958183288574, "count_pixels": 42, "percent_cover": 1.0714285714285714, "percent_above_0.1m": 90.476190476190482, "low_level_<0.5": 7.1428571428571423, "mid_level_0.5-2": 4.7619047619047619, "tall_2+": 78.571428571428569 }, "geometry": { "type": "Point", "coordinates": [ -1.300261096527049, 51.628651599347506 ] } },
{ "type": "Feature", "properties": { "max_height": 12.332496643066406, "mean_height": 3.7332644462585449, "std_height": 2.8163266181945801, "count_pixels": 42, "percent_cover": 1.0714285714285714, "percent_above_0.1m": 90.476190476190482, "low_level_<0.5": 4.7619047619047619, "mid_level_0.5-2": 19.047619047619047, "tall_2+": 66.666666666666657 }, "geometry": { "type": "Point", "coordinates": [ -1.301560532382186, 51.628767223169099 ] } },
{ "type": "Feature", "properties": { "max_height": 6.4152450561523438, "mean_height": 2.445655345916748, "std_height": 2.5061075687408447, "count_pixels": 41, "percent_cover": 1.0459183673469388, "percent_above_0.1m": 68.292682926829272, "low_level_<0.5": 9.7560975609756095, "mid_level_0.5-2": 12.195121951219512, "tall_2+": 43.902439024390247 }, "geometry": { "type": "Point", "coordinates": [ -1.301360366573923, 51.628766034419314 ] } },
{ "type": "Feature", "properties": { "max_height": 6.3772506713867188, "mean_height": 1.0944660902023315, "std_height": 1.808632493019104, "count_pixels": 41, "percent_cover": 1.0459183673469388, "percent_above_0.1m": 60.975609756097562, "low_level_<0.5": 24.390243902439025, "mid_level_0.5-2": 14.634146341463413, "tall_2+": 19.512195121951219 }, "geometry": { "type": "Point", "coordinates": [ -1.301160197803819, 51.628764845033857 ] } },
{ "type": "Feature", "properties": { "max_height": 5.2230033874511719, "mean_height": 1.0236860513687134, "std_height": 1.5634351968765259, "count_pixels": 41, "percent_cover": 1.0459183673469388, "percent_above_0.1m": 58.536585365853654, "low_level_<0.5": 9.7560975609756095, "mid_level_0.5-2": 12.195121951219512, "tall_2+": 21.951219512195124 }, "geometry": { "type": "Point", "coordinates": [ -1.300960029042516, 51.628763655308411 ] } },
{ "type": "Feature", "properties": { "max_height": 4.4132537841796875, "mean_height": 1.0958845615386963, "std_height": 1.452730655670166, "count_pixels": 36, "percent_cover": 0.91836734693877564, "percent_above_0.1m": 52.777777777777779, "low_level_<0.5": 5.5555555555555554, "mid_level_0.5-2": 19.444444444444446, "tall_2+": 25.0 }, "geometry": { "type": "Point", "coordinates": [ -1.300759860295224, 51.628762465241778 ] } },
{ "type": "Feature", "properties": { "max_height": 8.95550537109375, "mean_height": 2.3765764236450195, "std_height": 2.9652783870697021, "count_pixels": 41, "percent_cover": 1.0459183673469388, "percent_above_0.1m": 63.414634146341463, "low_level_<0.5": 7.3170731707317067, "mid_level_0.5-2": 17.073170731707318, "tall_2+": 39.024390243902438 }, "geometry": { "type": "Point", "coordinates": [ -1.300559691561951, 51.628761274833941 ] } },
{ "type": "Feature", "properties": { "max_height": 11.809249877929688, "mean_height": 4.6888995170593262, "std_height": 3.503406286239624, "count_pixels": 41, "percent_cover": 1.0459183673469388, "percent_above_0.1m": 90.243902439024396, "low_level_<0.5": 4.8780487804878048, "mid_level_0.5-2": 9.7560975609756095, "tall_2+": 70.731707317073173 }, "geometry": { "type": "Point", "coordinates": [ -1.3003595228427, 51.628760084084902 ] } },
{ "type": "Feature", "properties": { "max_height": 11.887248992919922, "mean_height": 3.1248717308044434, "std_height": 3.8954958915710449, "count_pixels": 42, "percent_cover": 1.0714285714285714, "percent_above_0.1m": 64.285714285714292, "low_level_<0.5": 7.1428571428571423, "mid_level_0.5-2": 9.5238095238095237, "tall_2+": 40.476190476190474 }, "geometry": { "type": "Point", "coordinates": [ -1.301458794524349, 51.628874518187452 ] } },
{ "type": "Feature", "properties": { "max_height": 1.6205024719238281, "mean_height": 0.31086349487304688, "std_height": 0.47769656777381897, "count_pixels": 43, "percent_cover": 1.096938775510204, "percent_above_0.1m": 32.558139534883722, "low_level_<0.5": 4.6511627906976747, "mid_level_0.5-2": 27.906976744186046, "tall_2+": 0.0 }, "geometry": { "type": "Point", "coordinates": [ -1.301258626563041, 51.628873329033283 ] } },
{ "type": "Feature", "properties": { "max_height": 5.1955070495605469, "mean_height": 1.3977237939834595, "std_height": 1.5273022651672363, "count_pixels": 43, "percent_cover": 1.096938775510204, "percent_above_0.1m": 72.093023255813947, "low_level_<0.5": 13.953488372093023, "mid_level_0.5-2": 25.581395348837212, "tall_2+": 32.558139534883722 }, "geometry": { "type": "Point", "coordinates": [ -1.301058457310217, 51.628872139472094 ] } },
{ "type": "Feature", "properties": { "max_height": 5.0712509155273438, "mean_height": 1.6360259056091309, "std_height": 1.5647621154785156, "count_pixels": 43, "percent_cover": 1.096938775510204, "percent_above_0.1m": 83.720930232558146, "low_level_<0.5": 11.627906976744185, "mid_level_0.5-2": 25.581395348837212, "tall_2+": 37.209302325581397 }, "geometry": { "type": "Point", "coordinates": [ -1.300858288071406, 51.628870949569695 ] } },
{ "type": "Feature", "properties": { "max_height": 3.1897544860839844, "mean_height": 0.3704267144203186, "std_height": 0.70959693193435669, "count_pixels": 43, "percent_cover": 1.096938775510204, "percent_above_0.1m": 44.186046511627907, "low_level_<0.5": 11.627906976744185, "mid_level_0.5-2": 18.604651162790699, "tall_2+": 4.6511627906976747 }, "geometry": { "type": "Point", "coordinates": [ -1.300658118846613, 51.628869759326101 ] } },
{ "type": "Feature", "properties": { "max_height": 6.3492546081542969, "mean_height": 0.63479340076446533, "std_height": 1.1310514211654663, "count_pixels": 43, "percent_cover": 1.096938775510204, "percent_above_0.1m": 69.767441860465112, "low_level_<0.5": 23.255813953488371, "mid_level_0.5-2": 32.558139534883722, "tall_2+": 4.6511627906976747 }, "geometry": { "type": "Point", "coordinates": [ -1.30045794963584, 51.628868568741311 ] } },
{ "type": "Feature", "properties": { "max_height": 10.197250366210938, "mean_height": 4.1408538818359375, "std_height": 3.4091463088989258, "count_pixels": 42, "percent_cover": 1.0714285714285714, "percent_above_0.1m": 92.857142857142861, "low_level_<0.5": 0.0, "mid_level_0.5-2": 28.571428571428569, "tall_2+": 61.904761904761905 }, "geometry": { "type": "Point", "coordinates": [ -1.300257780439088, 51.628867377815311 ] } },
{ "type": "Feature", "properties": { "max_height": 6.7600059509277344, "mean_height": 1.1568479537963867, "std_height": 1.7979421615600586, "count_pixels": 42, "percent_cover": 1.0714285714285714, "percent_above_0.1m": 50.0, "low_level_<0.5": 11.904761904761903, "mid_level_0.5-2": 16.666666666666664, "tall_2+": 21.428571428571427 }, "geometry": { "type": "Point", "coordinates": [ -1.301557222630322, 51.628983001724635 ] } },
{ "type": "Feature", "properties": { "max_height": 2.2930030822753906, "mean_height": 0.4358745813369751, "std_height": 0.56836754083633423, "count_pixels": 41, "percent_cover": 1.0459183673469388, "percent_above_0.1m": 56.09756097560976, "low_level_<0.5": 29.268292682926827, "mid_level_0.5-2": 21.951219512195124, "tall_2+": 4.8780487804878048 }, "geometry": { "type": "Point", "coordinates": [ -1.301357055799757, 51.628981812951707 ] } },
{ "type": "Feature", "properties": { "max_height": 2.4120063781738281, "mean_height": 0.65394753217697144, "std_height": 0.65176588296890259, "count_pixels": 41, "percent_cover": 1.0459183673469388, "percent_above_0.1m": 73.170731707317074, "low_level_<0.5": 21.951219512195124, "mid_level_0.5-2": 43.902439024390247, "tall_2+": 2.4390243902439024 }, "geometry": { "type": "Point", "coordinates": [ -1.301156886055418, 51.628980623554781 ] } },
{ "type": "Feature", "properties": { "max_height": 4.5085029602050781, "mean_height": 0.68336254358291626, "std_height": 0.97549015283584595, "count_pixels": 41, "percent_cover": 1.0459183673469388, "percent_above_0.1m": 58.536585365853654, "low_level_<0.5": 14.634146341463413, "mid_level_0.5-2": 34.146341463414636, "tall_2+": 7.3170731707317067 }, "geometry": { "type": "Point", "coordinates": [ -1.30095671632508, 51.62897943381661 ] } },
{ "type": "Feature", "properties": { "max_height": 3.5495033264160156, "mean_height": 0.68892693519592285, "std_height": 1.0098847150802612, "count_pixels": 36, "percent_cover": 0.91836734693877564, "percent_above_0.1m": 47.222222222222221, "low_level_<0.5": 5.5555555555555554, "mid_level_0.5-2": 25.0, "tall_2+": 13.888888888888889 }, "geometry": { "type": "Point", "coordinates": [ -1.300756546608765, 51.628978243737265 ] } },
{ "type": "Feature", "properties": { "max_height": 8.0787506103515625, "mean_height": 1.7031313180923462, "std_height": 2.4840524196624756, "count_pixels": 41, "percent_cover": 1.0459183673469388, "percent_above_0.1m": 53.658536585365859, "low_level_<0.5": 12.195121951219512, "mid_level_0.5-2": 9.7560975609756095, "tall_2+": 31.707317073170731 }, "geometry": { "type": "Point", "coordinates": [ -1.300556376906468, 51.62897705331671 ] } },
{ "type": "Feature", "properties": { "max_height": 8.6937522888183594, "mean_height": 1.8295269012451172, "std_height": 2.7672450542449951, "count_pixels": 41, "percent_cover": 1.0459183673469388, "percent_above_0.1m": 56.09756097560976, "low_level_<0.5": 9.7560975609756095, "mid_level_0.5-2": 14.634146341463413, "tall_2+": 29.268292682926827 }, "geometry": { "type": "Point", "coordinates": [ -1.300356207218187, 51.62897586255496 ] } },
{ "type": "Feature", "properties": { "max_height": 3.2215042114257812, "mean_height": 0.70490145683288574, "std_height": 0.7915998101234436, "count_pixels": 42, "percent_cover": 1.0714285714285714, "percent_above_0.1m": 64.285714285714292, "low_level_<0.5": 7.1428571428571423, "mid_level_0.5-2": 42.857142857142854, "tall_2+": 7.1428571428571423 }, "geometry": { "type": "Point", "coordinates": [ -1.300156037543935, 51.628974671451999 ] } },
{ "type": "Feature", "properties": { "max_height": 9.1814994812011719, "mean_height": 2.4073841571807861, "std_height": 3.1164963245391846, "count_pixels": 42, "percent_cover": 1.0714285714285714, "percent_above_0.1m": 69.047619047619051, "low_level_<0.5": 11.904761904761903, "mid_level_0.5-2": 23.809523809523807, "tall_2+": 33.333333333333329 }, "geometry": { "type": "Point", "coordinates": [ -1.301455484251433, 51.6290902967256 ] } },
{ "type": "Feature", "properties": { "max_height": 0.3950042724609375, "mean_height": 0.032154083251953125, "std_height": 0.069670200347900391, "count_pixels": 43, "percent_cover": 1.096938775510204, "percent_above_0.1m": 9.3023255813953494, "low_level_<0.5": 4.6511627906976747, "mid_level_0.5-2": 0.0, "tall_2+": 0.0 }, "geometry": { "type": "Point", "coordinates": [ -1.301255315278115, 51.629089107556446 ] } },
{ "type": "Feature", "properties": { "max_height": 4.5355033874511719, "mean_height": 1.0465842485427856, "std_height": 1.5366644859313965, "count_pixels": 43, "percent_cover": 1.096938775510204, "percent_above_0.1m": 41.860465116279073, "low_level_<0.5": 4.6511627906976747, "mid_level_0.5-2": 9.3023255813953494, "tall_2+": 27.906976744186046 }, "geometry": { "type": "Point", "coordinates": [ -1.301055145056255, 51.629087917982524 ] } },
{ "type": "Feature", "properties": { "max_height": 7.8860015869140625, "mean_height": 2.0684618949890137, "std_height": 3.0409252643585205, "count_pixels": 43, "percent_cover": 1.096938775510204, "percent_above_0.1m": 41.860465116279073, "low_level_<0.5": 4.6511627906976747, "mid_level_0.5-2": 4.6511627906976747, "tall_2+": 32.558139534883722 }, "geometry": { "type": "Point", "coordinates": [ -1.300854974848409, 51.629086728067435 ] } },
{ "type": "Feature", "properties": { "max_height": 8.0390090942382812, "mean_height": 2.8254098892211914, "std_height": 2.600893497467041, "count_pixels": 43, "percent_cover": 1.096938775510204, "percent_above_0.1m": 76.744186046511629, "low_level_<0.5": 2.3255813953488373, "mid_level_0.5-2": 20.930232558139537, "tall_2+": 53.488372093023251 }, "geometry": { "type": "Point", "coordinates": [ -1.300654804654584, 51.629085537811136 ] } },
{ "type": "Feature", "properties": { "max_height": 8.9172592163085938, "mean_height": 1.8012063503265381, "std_height": 2.24472975730896, "count_pixels": 43, "percent_cover": 1.096938775510204, "percent_above_0.1m": 81.395348837209298, "low_level_<0.5": 16.279069767441861, "mid_level_0.5-2": 32.558139534883722, "tall_2+": 30.232558139534881 }, "geometry": { "type": "Point", "coordinates": [ -1.300454634474778, 51.629084347213606 ] } },
{ "type": "Feature", "properties": { "max_height": 4.8025054931640625, "mean_height": 1.7251989841461182, "std_height": 1.4116886854171753, "count_pixels": 42, "percent_cover": 1.0714285714285714, "percent_above_0.1m": 83.333333333333343, "low_level_<0.5": 2.3809523809523809, "mid_level_0.5-2": 38.095238095238095, "tall_2+": 38.095238095238095 }, "geometry": { "type": "Point", "coordinates": [ -1.300254464308993, 51.629083156274888 ] } },
{ "type": "Feature", "properties": { "max_height": 12.081501007080078, "mean_height": 2.3344967365264893, "std_height": 2.758805513381958, "count_pixels": 41, "percent_cover": 1.0459183673469388, "percent_above_0.1m": 75.609756097560975, "low_level_<0.5": 17.073170731707318, "mid_level_0.5-2": 17.073170731707318, "tall_2+": 41.463414634146339 }, "geometry": { "type": "Point", "coordinates": [ -1.301353744978309, 51.629197591477116 ] } },
{ "type": "Feature", "properties": { "max_height": 2.8457527160644531, "mean_height": 0.43804576992988586, "std_height": 0.71922415494918823, "count_pixels": 41, "percent_cover": 1.0459183673469388, "percent_above_0.1m": 53.658536585365859, "low_level_<0.5": 12.195121951219512, "mid_level_0.5-2": 19.512195121951219, "tall_2+": 7.3170731707317067 }, "geometry": { "type": "Point", "coordinates": [ -1.301153574264931, 51.629196402067464 ] } },
{ "type": "Feature", "properties": { "max_height": 7.6292572021484375, "mean_height": 2.5034480094909668, "std_height": 2.3867809772491455, "count_pixels": 41, "percent_cover": 1.0459183673469388, "percent_above_0.1m": 92.682926829268297, "low_level_<0.5": 26.829268292682929, "mid_level_0.5-2": 21.951219512195124, "tall_2+": 43.902439024390247 }, "geometry": { "type": "Point", "coordinates": [ -1.300953403565558, 51.629195212316596 ] } },
{ "type": "Feature", "properties": { "max_height": 7.0865058898925781, "mean_height": 1.9408711194992065, "std_height": 2.3579332828521729, "count_pixels": 36, "percent_cover": 0.91836734693877564, "percent_above_0.1m": 61.111111111111114, "low_level_<0.5": 5.5555555555555554, "mid_level_0.5-2": 11.111111111111111, "tall_2+": 38.888888888888893 }, "geometry": { "type": "Point", "coordinates": [ -1.300753232880203, 51.629194022224546 ] } },
{ "type": "Feature", "properties": { "max_height": 2.7932510375976562, "mean_height": 0.49222239851951599, "std_height": 0.85891282558441162, "count_pixels": 41, "percent_cover": 1.0459183673469388, "percent_above_0.1m": 26.829268292682929, "low_level_<0.5": 0.0, "mid_level_0.5-2": 14.634146341463413, "tall_2+": 12.195121951219512 }, "geometry": { "type": "Point", "coordinates": [ -1.30055306220886, 51.629192831791279 ] } },
{ "type": "Feature", "properties": { "max_height": 2.2775039672851562, "mean_height": 0.11202128231525421, "std_height": 0.37608996033668518, "count_pixels": 41, "percent_cover": 1.0459183673469388, "percent_above_0.1m": 9.7560975609756095, "low_level_<0.5": 0.0, "mid_level_0.5-2": 7.3170731707317067, "tall_2+": 2.4390243902439024 }, "geometry": { "type": "Point", "coordinates": [ -1.300352891551543, 51.629191641016796 ] } },
{ "type": "Feature", "properties": { "max_height": 7.8700027465820312, "mean_height": 0.6700323224067688, "std_height": 1.8436335325241089, "count_pixels": 43, "percent_cover": 1.096938775510204, "percent_above_0.1m": 25.581395348837212, "low_level_<0.5": 4.6511627906976747, "mid_level_0.5-2": 6.9767441860465116, "tall_2+": 9.3023255813953494 }, "geometry": { "type": "Point", "coordinates": [ -1.301252003951104, 51.629304886071395 ] } }
]
}
