{
"type": "FeatureCollection",
"name": "HORSH_1292_walking",
"crs": { "type": "name", "properties": { "name": "urn:ogc:def:crs:OGC:1.3:CRS84" } },
"features": [
{"type":"Feature","properties":{"highway":"track","name":null,"category":"Track"},"geometry":{"type":"MultiLineString","coordinates":[[[-0.4678985,50.9316687],[-0.4677571,50.9318021],[-0.4677789,50.9317958],[-0.4677923,50.9317933],[-0.467814,50.9317903],[-0.4678405,50.9317876],[-0.4679172,50.9317823]]]}},
{"type":"Feature","properties":{"highway":"track","name":null,"category":"Track"},"geometry":{"type":"MultiLineString","coordinates":[[[-0.4677571,50.9318021],[-0.4677436,50.9318143],[-0.4677288,50.9318283],[-0.4675561,50.9320329],[-0.467535,50.9320621],[-0.4675228,50.9320809],[-0.4675114,50.9321035],[-0.467501,50.9321292],[-0.4674932,50.93216],[-0.4674867,50.9321933],[-0.4674561,50.9323499],[-0.4673154,50.932494]]]}},
{"type":"Feature","properties":{"highway":"bridleway","name":null,"category":"Bridleway"},"geometry":{"type":"MultiLineString","coordinates":[[[-0.4673154,50.932494],[-0.4673098,50.9325129],[-0.46725,50.9330935],[-0.4671671,50.9335542],[-0.4670282,50.9343068],[-0.4668955,50.9348327],[-0.4668881,50.9348825],[-0.4668832,50.9349402],[-0.4668992,50.9350286],[-0.4669805,50.9355754],[-0.4669826,50.9356448],[-0.4669774,50.935705],[-0.4669615,50.935753],[-0.4669391,50.9358067],[-0.4668988,50.9358702],[-0.4668423,50.9359397],[-0.4667641,50.9360229],[-0.4661924,50.9366329]]]}},
{"type":"Feature","properties":{"highway":"track","name":null,"category":"Track"},"geometry":{"type":"MultiLineString","coordinates":[[[-0.4741725,50.9340466],[-0.474131,50.9341953]]]}},
{"type":"Feature","properties":{"highway":"track","name":null,"category":"Track"},"geometry":{"type":"MultiLineString","coordinates":[[[-0.4661562,50.9366527],[-0.4661924,50.9366329],[-0.4662616,50.9366004],[-0.4664629,50.9365058],[-0.4669388,50.9362886],[-0.4669707,50.9362764],[-0.4670066,50.936265],[-0.4670518,50.9362557],[-0.4670917,50.9362523],[-0.467161,50.9362503],[-0.4672856,50.9362491],[-0.4673862,50.9362496],[-0.4674839,50.9362488],[-0.4675969,50.9362491],[-0.4677085,50.9362513],[-0.4677783,50.9362538],[-0.4678283,50.9362581],[-0.4683632,50.9363176],[-0.4684896,50.9363295],[-0.4685894,50.9363413],[-0.4686801,50.9363549],[-0.4686949,50.9363576],[-0.4687657,50.9363704],[-0.4688174,50.9363829],[-0.4688899,50.9364047],[-0.4689438,50.936423],[-0.4689958,50.936438],[-0.4690626,50.9364546],[-0.4691138,50.9364626],[-0.4691679,50.9364662],[-0.4692073,50.9364682],[-0.4692687,50.9364667],[-0.4693398,50.9364625],[-0.4694415,50.93645]]]}},
{"type":"Feature","properties":{"highway":"footway","name":null,"category":"Footpath (pedestrian only)"},"geometry":{"type":"MultiLineString","coordinates":[[[-0.4809507,50.935447],[-0.4808371,50.9354881],[-0.4807929,50.9354965],[-0.4807359,50.9354993],[-0.4806828,50.9354951],[-0.4806163,50.935488],[-0.4805235,50.9354754],[-0.4800964,50.9354086],[-0.4794364,50.9353535],[-0.477534,50.9349552],[-0.4762166,50.9343175],[-0.4753596,50.9341107],[-0.4752986,50.9340619],[-0.4750928,50.9339594]]]}},
{"type":"Feature","properties":{"highway":"track","name":null,"category":"Track"},"geometry":{"type":"MultiLineString","coordinates":[[[-0.474131,50.9341953],[-0.4741025,50.9342191],[-0.4740874,50.9342361],[-0.474065,50.9342719],[-0.4740549,50.9342983],[-0.4740059,50.9345609],[-0.4739882,50.934662],[-0.4739741,50.9347453],[-0.4739657,50.9347752],[-0.47396,50.9347967],[-0.4739536,50.9348118],[-0.4739528,50.9348324],[-0.4739545,50.9348564],[-0.4739598,50.9348732],[-0.4740064,50.9350089]]]}},
{"type":"Feature","properties":{"highway":"footway","name":null,"category":"Footpath (pedestrian only)"},"geometry":{"type":"MultiLineString","coordinates":[[[-0.4746197,50.9296868],[-0.4737452,50.9302251],[-0.4733506,50.9299701],[-0.4732476,50.9297919],[-0.4731304,50.9292917],[-0.4724416,50.9284207],[-0.4720389,50.9283386],[-0.4709097,50.9276397],[-0.4707775,50.9271682],[-0.4703088,50.9262362],[-0.4700666,50.9257454],[-0.469992,50.9252737],[-0.4701893,50.9248525],[-0.4701216,50.9247275],[-0.470923,50.9240655],[-0.4709146,50.9239602],[-0.4708924,50.9239222]]]}},
{"type":"Feature","properties":{"highway":"track","name":null,"category":"Track"},"geometry":{"type":"MultiLineString","coordinates":[[[-0.474131,50.9341953],[-0.4742019,50.9341588],[-0.4743194,50.9341039]]]}},
{"type":"Feature","properties":{"highway":"footway","name":null,"category":"Footpath (pedestrian only)"},"geometry":{"type":"MultiLineString","coordinates":[[[-0.4665715,50.9327971],[-0.4665334,50.9328195],[-0.4665106,50.9328259],[-0.4664704,50.9328303],[-0.4662493,50.932827],[-0.4661059,50.9328256],[-0.4658712,50.9328238],[-0.4655748,50.9328141],[-0.4649979,50.9327828],[-0.4647334,50.9327748],[-0.4646422,50.9327727],[-0.4645574,50.9327717],[-0.4645222,50.9327734],[-0.4635415,50.9328143],[-0.4615973,50.9329455],[-0.4610535,50.9329837],[-0.4606409,50.9330139],[-0.4601325,50.9330517],[-0.4595524,50.9330984],[-0.459403,50.9331098]]]}},
{"type":"Feature","properties":{"highway":"track","name":"Hurston Place Farm","category":"Track"},"geometry":{"type":"MultiLineString","coordinates":[[[-0.4740064,50.9350089],[-0.4740228,50.9350398],[-0.4740456,50.9350687],[-0.4740657,50.935089],[-0.4740857,50.9351093],[-0.4740998,50.9351285],[-0.4741158,50.9351558],[-0.4741851,50.935304],[-0.4742084,50.9353502],[-0.4742293,50.9353841],[-0.4742516,50.9354181],[-0.4743753,50.9355733],[-0.4743943,50.9355972],[-0.4745666,50.9358307],[-0.4749093,50.9362953],[-0.4750315,50.936466],[-0.4758885,50.9376468],[-0.476,50.9378004],[-0.4766214,50.9386465],[-0.4771937,50.9394337],[-0.4772493,50.9395102],[-0.4774438,50.9397777],[-0.4775726,50.9399511]]]}},
{"type":"Feature","properties":{"highway":"bridleway","name":null,"category":"Bridleway"},"geometry":{"type":"MultiLineString","coordinates":[[[-0.4694415,50.93645],[-0.4699498,50.9363436],[-0.4703253,50.9362354],[-0.4710695,50.936111]]]}},
{"type":"Feature","properties":{"highway":"bridleway","name":null,"category":"Bridleway"},"geometry":{"type":"MultiLineString","coordinates":[[[-0.4710695,50.936111],[-0.4714113,50.9360141],[-0.4715633,50.9359656],[-0.4716746,50.9359257],[-0.4718566,50.9358543],[-0.4724643,50.9355831],[-0.4727243,50.9354646]]]}},
{"type":"Feature","properties":{"highway":"path","name":null,"category":"Shared path"},"geometry":{"type":"MultiLineString","coordinates":[[[-0.4731516,50.9408124],[-0.4728766,50.940446],[-0.4726694,50.9401972]]]}},
{"type":"Feature","properties":{"highway":"path","name":null,"category":"Shared path"},"geometry":{"type":"MultiLineString","coordinates":[[[-0.4733236,50.9411659],[-0.473165,50.9411338],[-0.4730648,50.9411105],[-0.4730092,50.9410921],[-0.4729656,50.9410706],[-0.4729345,50.9410438],[-0.4729055,50.941003],[-0.4728868,50.9409754],[-0.4728755,50.9409632],[-0.4728673,50.9409568],[-0.4728561,50.9409526],[-0.4728386,50.9409519],[-0.4728178,50.9409538],[-0.4727923,50.9409596],[-0.4725025,50.9410434],[-0.4724316,50.9410631],[-0.4723651,50.9410782],[-0.4722833,50.9410955],[-0.472237,50.9411031],[-0.4721988,50.9411055],[-0.4721458,50.941104],[-0.472025,50.941095],[-0.4719264,50.9410872],[-0.47187,50.9410875],[-0.4718329,50.9410928],[-0.4717981,50.9411028],[-0.4717338,50.9411222],[-0.4716291,50.941163],[-0.4715012,50.9412057],[-0.4714103,50.9412358],[-0.4713518,50.9412542]]]}},
{"type":"Feature","properties":{"highway":"path","name":null,"category":"Shared path"},"geometry":{"type":"MultiLineString","coordinates":[[[-0.4705607,50.9387147],[-0.4705374,50.9386632],[-0.4705351,50.9386029],[-0.4705421,50.9385308],[-0.4705958,50.938316],[-0.4706004,50.9382586],[-0.4705981,50.9382041]]]}},
{"type":"Feature","properties":{"highway":"path","name":null,"category":"Shared path"},"geometry":{"type":"MultiLineString","coordinates":[[[-0.470904,50.9387398],[-0.470939,50.9385735],[-0.4709527,50.9385208],[-0.4709629,50.9384795],[-0.4709649,50.9384472],[-0.4709608,50.9384241],[-0.4709478,50.9383957],[-0.4709167,50.9383556],[-0.4708993,50.9383381],[-0.4708526,50.9382572],[-0.4708106,50.9381601],[-0.4707475,50.9380732]]]}},
{"type":"Feature","properties":{"highway":"path","name":null,"category":"Shared path"},"geometry":{"type":"MultiLineString","coordinates":[[[-0.4751874,50.9419362],[-0.4751009,50.9418763],[-0.4749627,50.9417968],[-0.4748884,50.941751],[-0.4748706,50.94174],[-0.4746335,50.9416128],[-0.4745291,50.9415616],[-0.4743769,50.9415047],[-0.4743405,50.9414856],[-0.4743168,50.9414657],[-0.4742938,50.9414425],[-0.474269,50.9414089],[-0.474251,50.9413809],[-0.4742185,50.9413528],[-0.4741797,50.9413325],[-0.4741352,50.9413197],[-0.4740453,50.9413132]]]}},
{"type":"Feature","properties":{"highway":"path","name":null,"category":"Shared path"},"geometry":{"type":"MultiLineString","coordinates":[[[-0.4719372,50.9409437],[-0.4718881,50.9409385],[-0.4718403,50.9409422],[-0.4716406,50.9410091],[-0.4715706,50.9410246]]]}},
{"type":"Feature","properties":{"highway":"path","name":null,"category":"Shared path"},"geometry":{"type":"MultiLineString","coordinates":[[[-0.4695501,50.9423574],[-0.4695774,50.9423589],[-0.4696047,50.9423555],[-0.469624,50.9423484],[-0.4696405,50.9423368],[-0.4696635,50.9423106],[-0.469694,50.9422663],[-0.469713,50.9422281],[-0.4697295,50.9421868],[-0.4697447,50.9421389],[-0.4697561,50.9420851],[-0.4697676,50.9420263],[-0.4697742,50.9419801],[-0.4697758,50.9419567],[-0.4697886,50.9418562],[-0.4697922,50.9418283],[-0.4700127,50.941733]]]}},
{"type":"Feature","properties":{"highway":"path","name":null,"category":"Shared path"},"geometry":{"type":"MultiLineString","coordinates":[[[-0.4695501,50.9423574],[-0.4695162,50.942345],[-0.4694771,50.9423262],[-0.4694504,50.9423095],[-0.4694252,50.942289],[-0.469406,50.9422688],[-0.4693931,50.9422494],[-0.4693846,50.9422271],[-0.4693812,50.9422015],[-0.4693818,50.9421724],[-0.4693883,50.9421366],[-0.4693973,50.9420894],[-0.4694039,50.9420529],[-0.4694142,50.9420189],[-0.469422,50.9420043],[-0.4694378,50.9419879],[-0.4694553,50.9419752],[-0.4694856,50.9419601],[-0.4695788,50.9419173],[-0.4697922,50.9418283]]]}},
{"type":"Feature","properties":{"highway":"path","name":null,"category":"Shared path"},"geometry":{"type":"MultiLineString","coordinates":[[[-0.4700683,50.938946],[-0.4702364,50.9389695],[-0.470347,50.9389729],[-0.4704377,50.9389673],[-0.470527,50.9389655]]]}},
{"type":"Feature","properties":{"highway":"path","name":null,"category":"Shared path"},"geometry":{"type":"MultiLineString","coordinates":[[[-0.4694521,50.938939],[-0.4689704,50.9388352]]]}},
{"type":"Feature","properties":{"highway":"path","name":null,"category":"Shared path"},"geometry":{"type":"MultiLineString","coordinates":[[[-0.4695427,50.9352288],[-0.4695708,50.9352818],[-0.4696413,50.9354492],[-0.4696694,50.9355032],[-0.4697043,50.9355653],[-0.4697179,50.9356112],[-0.4697263,50.9356762],[-0.4697331,50.9357303],[-0.4697491,50.9357695],[-0.4697741,50.9358187],[-0.4698135,50.9358804],[-0.4698264,50.9358973]]]}},
{"type":"Feature","properties":{"highway":"path","name":null,"category":"Shared path"},"geometry":{"type":"MultiLineString","coordinates":[[[-0.4698655,50.9359364],[-0.4699372,50.9360649],[-0.4699721,50.9361362],[-0.4699949,50.9361959],[-0.4700214,50.9362753],[-0.4700233,50.9362837]]]}},
{"type":"Feature","properties":{"highway":"path","name":null,"category":"Shared path"},"geometry":{"type":"MultiLineString","coordinates":[[[-0.4698264,50.9358973],[-0.4698655,50.9359364]]]}},
{"type":"Feature","properties":{"highway":"path","name":null,"category":"Shared path"},"geometry":{"type":"MultiLineString","coordinates":[[[-0.4687542,50.9383487],[-0.4686748,50.9383789],[-0.4686261,50.9384067],[-0.4685918,50.9384386],[-0.4685747,50.9384653],[-0.4685684,50.9384943],[-0.4685693,50.9385432],[-0.4685756,50.9385972],[-0.4685846,50.9386466],[-0.468599,50.9387359],[-0.4686207,50.9388257],[-0.4686378,50.9388536],[-0.4686676,50.9388922],[-0.468692,50.9389389],[-0.4687208,50.9390008],[-0.4687533,50.9390338],[-0.4687975,50.9390617]]]}},
{"type":"Feature","properties":{"highway":"path","name":null,"category":"Shared path"},"geometry":{"type":"MultiLineString","coordinates":[[[-0.4688349,50.9388397],[-0.4688215,50.9389024],[-0.4688189,50.938949],[-0.4688119,50.9389981],[-0.4688061,50.9390318],[-0.4687975,50.9390617],[-0.468803,50.9390841],[-0.4688093,50.9391336],[-0.4688183,50.9391657],[-0.4688374,50.9392336],[-0.4688546,50.9392943],[-0.4688719,50.939335],[-0.4688916,50.9393707],[-0.4689248,50.9394206],[-0.4689427,50.939456],[-0.4689599,50.9395126],[-0.4689803,50.9395512],[-0.4690052,50.9396023],[-0.4690384,50.939673],[-0.4690664,50.9397321],[-0.4690875,50.9397848],[-0.469097,50.9398238],[-0.469097,50.9398612],[-0.4690945,50.9398937]]]}},
{"type":"Feature","properties":{"highway":"path","name":null,"category":"Shared path"},"geometry":{"type":"MultiLineString","coordinates":[[[-0.4694247,50.9400663],[-0.4694056,50.9399819],[-0.4694069,50.9398854],[-0.4694133,50.9398098],[-0.4694273,50.9397359],[-0.4694503,50.9396482],[-0.4694719,50.9395662],[-0.4694707,50.9394754],[-0.469477,50.939391],[-0.4694949,50.93935],[-0.4695217,50.9392977]]]}},
{"type":"Feature","properties":{"highway":"path","name":null,"category":"Shared path"},"geometry":{"type":"MultiLineString","coordinates":[[[-0.4695458,50.9400558],[-0.4696173,50.9399078],[-0.4696377,50.9398146],[-0.4696747,50.9397277],[-0.4697079,50.9396409],[-0.4697372,50.9395685],[-0.4697755,50.9394793],[-0.4698125,50.9393667]]]}},
{"type":"Feature","properties":{"highway":"path","name":null,"category":"Shared path"},"geometry":{"type":"MultiLineString","coordinates":[[[-0.471223,50.9391813],[-0.4712828,50.9391936],[-0.471368,50.9392059],[-0.471426,50.9392095],[-0.4714785,50.9392119],[-0.471539,50.9392115],[-0.471605,50.9392064],[-0.4716389,50.939201],[-0.4717205,50.9391859],[-0.4718292,50.9391641]]]}},
{"type":"Feature","properties":{"highway":"path","name":null,"category":"Shared path"},"geometry":{"type":"MultiLineString","coordinates":[[[-0.4726694,50.9401972],[-0.4726256,50.9401739],[-0.4725813,50.940158],[-0.4725347,50.9401476],[-0.4724569,50.9401307],[-0.4723829,50.9401026],[-0.4723318,50.9400733],[-0.4722783,50.9400288],[-0.4722132,50.9399611],[-0.4721698,50.9399217],[-0.4720971,50.9398855],[-0.4720167,50.9398573],[-0.4718942,50.9398268],[-0.4718608,50.9398144],[-0.4718248,50.9397956],[-0.4718005,50.9397715],[-0.4717889,50.9397485],[-0.4717831,50.9397182],[-0.4717845,50.9396901],[-0.4717909,50.939625],[-0.471796,50.9394746],[-0.4718024,50.9393661],[-0.4718292,50.9391641],[-0.4718985,50.9391522],[-0.4719386,50.9391456],[-0.4719828,50.9391438],[-0.4720148,50.9391453],[-0.4720457,50.9391507],[-0.4720747,50.9391592],[-0.4721083,50.9391728],[-0.4721915,50.9392169],[-0.4722859,50.9392688],[-0.4723794,50.9393205],[-0.4724548,50.9393642],[-0.4725144,50.9394029],[-0.4725921,50.9394554],[-0.4727478,50.9395695],[-0.4728448,50.9396604],[-0.4729175,50.939756],[-0.4730183,50.9398847],[-0.4730577,50.9399255],[-0.4730899,50.9399503],[-0.4731434,50.9399816],[-0.4732075,50.9400124],[-0.4733042,50.9400547],[-0.4734088,50.9400974]]]}},
{"type":"Feature","properties":{"highway":"path","name":null,"category":"Shared path"},"geometry":{"type":"MultiLineString","coordinates":[[[-0.4734951,50.940198],[-0.4732756,50.9401875],[-0.4730345,50.9401899],[-0.4728099,50.9401923],[-0.4726694,50.9401972],[-0.4724757,50.9402044],[-0.4722677,50.9402084],[-0.4721159,50.9402156],[-0.4720036,50.9402325],[-0.4718977,50.940255],[-0.4717829,50.9402872],[-0.4716757,50.9403089],[-0.4715736,50.9403169],[-0.4714269,50.940321],[-0.4711832,50.9403153],[-0.4710454,50.940321],[-0.4709102,50.9403314],[-0.4707864,50.940333],[-0.4706639,50.9403298],[-0.4706214,50.94033],[-0.4705019,50.9403306]]]}},
{"type":"Feature","properties":{"highway":"path","name":null,"category":"Shared path"},"geometry":{"type":"MultiLineString","coordinates":[[[-0.4706214,50.94033],[-0.470615,50.9404849],[-0.4706113,50.9406082],[-0.4706099,50.9406545],[-0.4706138,50.9407863],[-0.4706291,50.9408828],[-0.4706508,50.9410299]]]}},
{"type":"Feature","properties":{"highway":"path","name":null,"category":"Shared path"},"geometry":{"type":"MultiLineString","coordinates":[[[-0.468997,50.9407568],[-0.4690146,50.9408131],[-0.4690479,50.94086],[-0.4691102,50.9409355],[-0.4691921,50.941012],[-0.4692922,50.9411],[-0.4693438,50.9411612],[-0.4694015,50.9412195],[-0.4694227,50.9412568],[-0.4694136,50.9412988],[-0.4694075,50.9413428],[-0.4694273,50.9413916],[-0.4694723,50.9414427],[-0.4695077,50.9414757],[-0.4695315,50.9415091],[-0.469549,50.9415584],[-0.4695541,50.9416001],[-0.4695669,50.941709],[-0.4695744,50.9417472],[-0.4695822,50.9417642],[-0.4696078,50.9417816],[-0.4696898,50.9417998],[-0.4697535,50.9418094],[-0.4697922,50.9418283]]]}},
{"type":"Feature","properties":{"highway":"path","name":null,"category":"Shared path"},"geometry":{"type":"MultiLineString","coordinates":[[[-0.4745417,50.9402096],[-0.4746289,50.9402973],[-0.4747109,50.9403809],[-0.4747759,50.940448],[-0.4748472,50.940531],[-0.474895,50.9405986],[-0.4749609,50.9407032],[-0.4750105,50.940789],[-0.4750426,50.940834],[-0.4750479,50.9408738],[-0.4750407,50.9409406],[-0.475006,50.9410107],[-0.4749735,50.9410727],[-0.4749257,50.9411557],[-0.4748797,50.9412296],[-0.4748373,50.9412967],[-0.474821,50.9413427],[-0.4748228,50.9414092],[-0.4748391,50.9414729],[-0.4748563,50.9415125],[-0.4748725,50.9415496],[-0.4748869,50.941644],[-0.4748884,50.941751],[-0.4748887,50.9417713],[-0.4748977,50.9418697],[-0.4748914,50.9419624],[-0.4748842,50.9420692],[-0.474877,50.9421545],[-0.4748634,50.9422341],[-0.4748598,50.9422852],[-0.4748707,50.9423472],[-0.474886,50.9424382],[-0.4749058,50.9425354],[-0.474904,50.9426337],[-0.4749022,50.9427275],[-0.4748914,50.9427991],[-0.4748679,50.9428584],[-0.4748256,50.9429071],[-0.4747635,50.9429558],[-0.4746695,50.9430332],[-0.4745391,50.9431402],[-0.4744489,50.9432158],[-0.4743614,50.9432914]]]}},
{"type":"Feature","properties":{"highway":"path","name":null,"category":"Shared path"},"geometry":{"type":"MultiLineString","coordinates":[[[-0.4700233,50.9362837],[-0.4700328,50.9363245]]]}},
{"type":"Feature","properties":{"highway":"bridleway","name":null,"category":"Bridleway"},"geometry":{"type":"MultiLineString","coordinates":[[[-0.47145,50.9373835],[-0.4715143,50.9372917],[-0.4715675,50.9372154],[-0.4715941,50.9371679],[-0.4716207,50.9370926],[-0.471663,50.9369524],[-0.4717553,50.9366673],[-0.4719311,50.9363596],[-0.4720982,50.9361317],[-0.4721907,50.9360063],[-0.4722568,50.935925],[-0.4724347,50.9357262],[-0.4725346,50.9356192],[-0.4726244,50.9355422],[-0.4727243,50.9354646],[-0.4731716,50.9352176],[-0.4733198,50.9351399],[-0.4733703,50.9351095],[-0.4734076,50.9350824],[-0.4734351,50.9350642],[-0.4734573,50.9350447],[-0.4735015,50.9350009],[-0.4735464,50.9349402]]]}},
{"type":"Feature","properties":{"highway":"bridleway","name":null,"category":"Bridleway"},"geometry":{"type":"MultiLineString","coordinates":[[[-0.4685201,50.9409016],[-0.4687117,50.9408585],[-0.468774,50.9408423],[-0.468826,50.9408261],[-0.4688709,50.9408109],[-0.468997,50.9407568],[-0.4691161,50.9407007],[-0.469182,50.9406629],[-0.4692334,50.9406319],[-0.46932,50.9405689],[-0.4693805,50.940513],[-0.4694498,50.9404489],[-0.4695743,50.9403215],[-0.4696246,50.9402782],[-0.4696944,50.9402069],[-0.4697572,50.9401266],[-0.4698285,50.940043],[-0.4698566,50.9399816],[-0.4699241,50.939847],[-0.4699583,50.9397955],[-0.4700543,50.9396768],[-0.4701032,50.9396035],[-0.4701739,50.9395196],[-0.4702501,50.9394298],[-0.4702904,50.9393554],[-0.4703298,50.9392627],[-0.4703886,50.9391694],[-0.470498,50.9390096],[-0.470527,50.9389655],[-0.4706138,50.9388335],[-0.4706943,50.9387131],[-0.4707647,50.9385692],[-0.4708791,50.9384024],[-0.4709167,50.9383556],[-0.4709668,50.9382932],[-0.4710634,50.9381885],[-0.4710889,50.938153],[-0.4710993,50.9381161],[-0.4711205,50.9380245],[-0.4711476,50.9379649],[-0.4711803,50.9379018],[-0.4712971,50.9376776],[-0.4713569,50.9375669],[-0.4714255,50.9374353],[-0.47145,50.9373835]]]}},
{"type":"Feature","properties":{"highway":"path","name":null,"category":"Shared path"},"geometry":{"type":"MultiLineString","coordinates":[[[-0.4695122,50.9405013],[-0.4694723,50.9405],[-0.4694478,50.9405013],[-0.4694149,50.9405071],[-0.4693805,50.940513]]]}},
{"type":"Feature","properties":{"highway":"path","name":null,"category":"Shared path"},"geometry":{"type":"MultiLineString","coordinates":[[[-0.4740453,50.9413132],[-0.4739962,50.9413253],[-0.4739668,50.9413438],[-0.47395,50.9413712],[-0.4739388,50.9413976],[-0.4739472,50.9414427],[-0.4739668,50.9415221],[-0.4739822,50.9415874],[-0.4740466,50.9417313],[-0.4740856,50.941831],[-0.4741136,50.9419324],[-0.4741246,50.9420101],[-0.4741261,50.9420663],[-0.47412,50.9421201],[-0.4741079,50.9421708],[-0.4740786,50.9422461],[-0.4740518,50.9423137],[-0.4740347,50.9423782],[-0.4740298,50.9424474],[-0.4740493,50.9425119],[-0.4740688,50.9425564],[-0.4741057,50.9426166],[-0.474175,50.9426979],[-0.4742468,50.9427762],[-0.4742932,50.9428299],[-0.47432,50.9428806]]]}},
{"type":"Feature","properties":{"highway":"path","name":null,"category":"Shared path"},"geometry":{"type":"MultiLineString","coordinates":[[[-0.4718521,50.9389401],[-0.4718539,50.9389875],[-0.4718468,50.9390384],[-0.471838,50.9390872],[-0.4718291,50.9391462],[-0.4718292,50.9391641]]]}},
{"type":"Feature","properties":{"highway":"path","name":null,"category":"Shared path"},"geometry":{"type":"MultiLineString","coordinates":[[[-0.4752665,50.9417395],[-0.4751726,50.9416735],[-0.4751133,50.9416347],[-0.4750685,50.9416074],[-0.4749666,50.9415579],[-0.4748563,50.9415125],[-0.4747453,50.9414551],[-0.4745851,50.9413891],[-0.4744949,50.9413506],[-0.4744562,50.9413389],[-0.4744097,50.9413309],[-0.4743522,50.9413249],[-0.4741352,50.9413197]]]}},
{"type":"Feature","properties":{"highway":"track","name":null,"category":"Track"},"geometry":{"type":"MultiLineString","coordinates":[[[-0.4673154,50.932494],[-0.4672759,50.9324938],[-0.467247,50.932496],[-0.4672244,50.9325022],[-0.4671986,50.9325135],[-0.4671747,50.9325272],[-0.4671677,50.9325322],[-0.467139,50.9325529],[-0.4671085,50.9325827],[-0.4670859,50.9326065],[-0.4670615,50.9326329],[-0.4670414,50.932652],[-0.4670107,50.9326775],[-0.4669812,50.9326992],[-0.4669454,50.932718],[-0.4669036,50.9327359],[-0.4668558,50.9327529],[-0.4667861,50.9327713],[-0.4667021,50.9327877],[-0.4666573,50.9327937],[-0.4666127,50.9327966],[-0.4665715,50.9327971]]]}},
{"type":"Feature","properties":{"highway":"track","name":null,"category":"Track"},"geometry":{"type":"MultiLineString","coordinates":[[[-0.4665715,50.9327971],[-0.4665339,50.9327929],[-0.466496,50.9327869],[-0.4664628,50.932779],[-0.4664296,50.932767],[-0.4663964,50.9327501],[-0.4663695,50.9327321],[-0.4663458,50.9327102],[-0.4663316,50.9326883],[-0.466319,50.9326594],[-0.4663126,50.9326315],[-0.4663126,50.9326036],[-0.4663158,50.9325728],[-0.4663237,50.9325369],[-0.4663757,50.932335],[-0.4663822,50.9323098],[-0.4664912,50.9319488],[-0.4662075,50.9319167],[-0.465712,50.9318606],[-0.4656709,50.9318576],[-0.4655714,50.9318566],[-0.4654923,50.9318596],[-0.4654339,50.9318645],[-0.4653975,50.9318675],[-0.4653754,50.9318705],[-0.4653817,50.9318904],[-0.465388,50.9319133],[-0.4653896,50.9319353],[-0.465388,50.9319691],[-0.4653801,50.9320737],[-0.465358,50.9323307],[-0.4653548,50.9323696],[-0.4653469,50.9323975],[-0.4653375,50.9324204],[-0.4653201,50.9324502],[-0.4652964,50.9324801],[-0.4652711,50.932504],[-0.4652379,50.9325289],[-0.4651952,50.9325528],[-0.4651494,50.9325728],[-0.4650846,50.9325927],[-0.4650071,50.9326146],[-0.4649155,50.9326365],[-0.464857,50.9326495],[-0.4647985,50.9326604],[-0.4647337,50.9326694],[-0.4646752,50.9326764],[-0.4646057,50.9326823],[-0.4645251,50.9326883],[-0.4641157,50.9327033],[-0.4639893,50.9327112],[-0.4638802,50.9327192],[-0.4634788,50.9327541],[-0.4630252,50.9327989],[-0.4628798,50.9328118],[-0.4626743,50.9328268],[-0.4622412,50.9328606],[-0.4613814,50.9329204],[-0.4604995,50.9329802],[-0.4598389,50.933017],[-0.4597156,50.933022],[-0.4596271,50.933025],[-0.459556,50.933023],[-0.4595244,50.93302],[-0.4594754,50.933012],[-0.4594311,50.9329981],[-0.4593932,50.9329792],[-0.4593584,50.9329553],[-0.4592952,50.9328985],[-0.4592509,50.9328557],[-0.4592209,50.9328178],[-0.4592051,50.9327899],[-0.4591988,50.932772],[-0.4591956,50.9327471],[-0.4592004,50.9327252],[-0.4592177,50.9326953],[-0.459243,50.9326694],[-0.4592825,50.9326445],[-0.45933,50.9326216],[-0.4593837,50.9325997],[-0.4594501,50.9325787],[-0.4595117,50.9325618],[-0.4595718,50.9325489],[-0.4596808,50.9325299],[-0.4600854,50.9324562],[-0.4610195,50.9322939],[-0.4617876,50.9321674],[-0.4618596,50.9321544],[-0.4619315,50.9321395],[-0.4619899,50.9321245],[-0.46205,50.9321096],[-0.4620864,50.9320986],[-0.4621464,50.9320787],[-0.4622444,50.9320438],[-0.4623487,50.932004],[-0.4624704,50.9319572],[-0.4626743,50.9318725],[-0.4628861,50.9317799],[-0.4630015,50.9317301],[-0.4630805,50.9316992],[-0.4631722,50.9316623],[-0.4632464,50.9316364],[-0.4633097,50.9316175],[-0.463365,50.9316036],[-0.4634235,50.9315906],[-0.4634756,50.9315816],[-0.4635325,50.9315757],[-0.4636194,50.9315707],[-0.4636922,50.9315697],[-0.463768,50.9315707],[-0.4639656,50.9315806],[-0.4644129,50.9316065],[-0.4647005,50.9316245],[-0.4648032,50.9316324],[-0.4648997,50.9316434],[-0.4650008,50.9316583],[-0.4650672,50.9316703],[-0.4651304,50.9316852],[-0.4651826,50.9317012],[-0.4652205,50.9317161],[-0.4652537,50.9317341],[-0.4652837,50.931754],[-0.465309,50.9317759],[-0.4653343,50.9318048],[-0.4653501,50.9318267],[-0.4653612,50.9318436],[-0.4653754,50.9318705]]]}},
{"type":"Feature","properties":{"highway":"track","name":null,"category":"Track"},"geometry":{"type":"MultiLineString","coordinates":[[[-0.4664912,50.9319488],[-0.4666337,50.9319663],[-0.4666566,50.9319669],[-0.4666712,50.9319656],[-0.4666837,50.931961],[-0.4666921,50.9319551],[-0.4666962,50.9319452],[-0.4666973,50.9319275],[-0.4666931,50.931867],[-0.4666921,50.9318414],[-0.4666879,50.9318269],[-0.4666816,50.9318151],[-0.4666712,50.9318026],[-0.4666524,50.9317862],[-0.4666295,50.9317717],[-0.466593,50.931752],[-0.4665628,50.9317409],[-0.4665315,50.931733],[-0.4664919,50.9317257],[-0.4664491,50.9317198],[-0.4664116,50.9317172],[-0.466374,50.9317185],[-0.4663417,50.9317231],[-0.4663156,50.931731],[-0.4662906,50.9317422],[-0.4662718,50.9317547],[-0.4662562,50.9317711],[-0.4662468,50.9317855],[-0.4662395,50.9318],[-0.4662322,50.9318204],[-0.4662075,50.9319167]]]}},
{"type":"Feature","properties":{"highway":"track","name":null,"category":"Track"},"geometry":{"type":"MultiLineString","coordinates":[[[-0.4669099,50.931598],[-0.4668415,50.9318934],[-0.4668363,50.9319164],[-0.4668332,50.931938],[-0.4668311,50.9319571],[-0.4668311,50.9319735],[-0.4668384,50.9319867],[-0.4668499,50.9319952],[-0.4668655,50.9320031],[-0.466879,50.9320064],[-0.4669281,50.9320163],[-0.4669984,50.9320281],[-0.4672482,50.9320662],[-0.4675114,50.9321035]]]}},
{"type":"Feature","properties":{"highway":"track","name":null,"category":"Track"},"geometry":{"type":"MultiLineString","coordinates":[[[-0.4681633,50.9325009],[-0.4681096,50.9324999],[-0.4680946,50.9324984],[-0.4680819,50.9324949],[-0.4680709,50.9324894],[-0.4680614,50.9324805],[-0.4680551,50.932469],[-0.4680401,50.9324327],[-0.4680298,50.9324122],[-0.4680235,50.9324003],[-0.4680132,50.9323863],[-0.4680005,50.9323719],[-0.4679847,50.9323579],[-0.467965,50.932345],[-0.4679413,50.9323316],[-0.4678986,50.9323106],[-0.4678472,50.9322892],[-0.4678109,50.9322758],[-0.4677722,50.9322633],[-0.4677105,50.9322444],[-0.4676686,50.9322329],[-0.467637,50.9322255],[-0.4675841,50.9322135],[-0.4674867,50.9321933]]]}},
{"type":"Feature","properties":{"highway":"track","name":null,"category":"Track"},"geometry":{"type":"MultiLineString","coordinates":[[[-0.4723226,50.9340232],[-0.4710865,50.933988]]]}},
{"type":"Feature","properties":{"highway":"track","name":null,"category":"Track"},"geometry":{"type":"MultiLineString","coordinates":[[[-0.47396,50.9347967],[-0.4738823,50.9347997],[-0.4738524,50.9348057],[-0.4738129,50.9348156],[-0.4737528,50.9348375],[-0.4736991,50.9348644],[-0.4736153,50.9349093],[-0.4735632,50.9349332],[-0.4735464,50.9349402],[-0.4734684,50.934973],[-0.4734257,50.9349919],[-0.4733925,50.9350099],[-0.4733593,50.9350318],[-0.4732992,50.9350746],[-0.4732518,50.9351065],[-0.4732155,50.9351254],[-0.4731617,50.9351423],[-0.4731317,50.9351473],[-0.4730669,50.9351503],[-0.4730211,50.9351473],[-0.4729579,50.9351393],[-0.472912,50.9351344],[-0.4728551,50.9351334],[-0.4728077,50.9351364],[-0.4726291,50.9351513],[-0.4725991,50.9351513],[-0.4725706,50.9351453],[-0.4725501,50.9351334],[-0.4725327,50.9351105],[-0.4724379,50.9349063],[-0.4723699,50.9347579],[-0.4723573,50.934723],[-0.4723478,50.9346782],[-0.4723415,50.9346094],[-0.4723367,50.9344351],[-0.4723226,50.9340232],[-0.4723209,50.9334212],[-0.4723067,50.9328175],[-0.4723035,50.9328036],[-0.472294,50.9327847],[-0.4722656,50.9327627],[-0.4722356,50.9327458],[-0.4721945,50.9327309],[-0.4721075,50.932709],[-0.4718626,50.9326592],[-0.4716808,50.9326283],[-0.471518,50.9326034],[-0.47145,50.9325954],[-0.4713963,50.9325934],[-0.471341,50.9325974],[-0.4712873,50.9326054],[-0.4712383,50.9326183],[-0.4712082,50.9326333],[-0.471175,50.9326562]]]}},
{"type":"Feature","properties":{"highway":"track","name":null,"category":"Track"},"geometry":{"type":"MultiLineString","coordinates":[[[-0.4653236,50.9370297],[-0.4659157,50.9367628],[-0.4661024,50.9366784]]]}},
{"type":"Feature","properties":{"highway":"track","name":null,"category":"Track"},"geometry":{"type":"MultiLineString","coordinates":[[[-0.4661024,50.9366784],[-0.4661562,50.9366527]]]}},
{"type":"Feature","properties":{"highway":"track","name":null,"category":"Track"},"geometry":{"type":"MultiLineString","coordinates":[[[-0.4687481,50.9358293],[-0.4687368,50.9358637],[-0.4687312,50.9358809],[-0.4687293,50.935898],[-0.4687302,50.9359194],[-0.4687326,50.9359368],[-0.4687387,50.9359579],[-0.4687594,50.936036],[-0.468765,50.9360633],[-0.4687678,50.9361],[-0.4687659,50.9361237],[-0.4687641,50.9361423],[-0.4686949,50.9363576]]]}},
{"type":"Feature","properties":{"highway":"track","name":null,"category":"Track"},"geometry":{"type":"MultiLineString","coordinates":[[[-0.4743753,50.9355733],[-0.4746577,50.9354783],[-0.474679,50.9354709],[-0.474694,50.9354664],[-0.4747091,50.9354634],[-0.4747233,50.9354624],[-0.4747351,50.9354634],[-0.4747441,50.9354673],[-0.4747588,50.9354768],[-0.4747707,50.9354858],[-0.4748876,50.9356004],[-0.4749074,50.9356228],[-0.4749169,50.9356362],[-0.4749248,50.9356502],[-0.4749287,50.9356631],[-0.4749303,50.9356746],[-0.4749264,50.9356885],[-0.4749161,50.9357019],[-0.474905,50.9357124],[-0.4748884,50.9357239],[-0.4748671,50.9357333],[-0.4748292,50.9357478],[-0.4745666,50.9358307]]]}},
{"type":"Feature","properties":{"highway":"track","name":null,"category":"Track"},"geometry":{"type":"MultiLineString","coordinates":[[[-0.4780384,50.9367042],[-0.4776418,50.9369884],[-0.477561,50.9370464],[-0.477514,50.9370749],[-0.4774764,50.9370926],[-0.4774238,50.9371128],[-0.4768148,50.9373248],[-0.4758885,50.9376468]]]}},
{"type":"Feature","properties":{"highway":"track","name":null,"category":"Track"},"geometry":{"type":"MultiLineString","coordinates":[[[-0.4738089,50.9342518],[-0.4738536,50.9345751],[-0.4738823,50.9347997]]]}},
{"type":"Feature","properties":{"highway":"track","name":null,"category":"Track"},"geometry":{"type":"MultiLineString","coordinates":[[[-0.4706839,50.9324442],[-0.4706948,50.9324149],[-0.4707054,50.9323973],[-0.4707227,50.9323814],[-0.4707453,50.932368],[-0.470867,50.9323079],[-0.47093,50.9322767]]]}},
{"type":"Feature","properties":{"highway":"track","name":null,"category":"Track"},"geometry":{"type":"MultiLineString","coordinates":[[[-0.470867,50.9323079],[-0.4708445,50.9322939],[-0.4708157,50.9322834],[-0.4707838,50.9322809],[-0.470628,50.9322753]]]}},
{"type":"Feature","properties":{"highway":"track","name":null,"category":"Track"},"geometry":{"type":"MultiLineString","coordinates":[[[-0.4684365,50.9311185],[-0.4682968,50.9313157],[-0.4681784,50.9315038],[-0.4681672,50.9315242],[-0.4681616,50.9315376],[-0.4681616,50.9315482],[-0.468165,50.9315602],[-0.4681761,50.9315742],[-0.4681896,50.9315848],[-0.4682052,50.9315912],[-0.4682387,50.9316024],[-0.4682779,50.9316144],[-0.4682935,50.9316214],[-0.4683058,50.9316278],[-0.4683136,50.9316383],[-0.4683136,50.9316503],[-0.4683114,50.9316609],[-0.4683047,50.9316743],[-0.4682946,50.9316891],[-0.4681563,50.9318657]]]}},
{"type":"Feature","properties":{"highway":"track","name":null,"category":"Track"},"geometry":{"type":"MultiLineString","coordinates":[[[-0.4686332,50.9305953],[-0.4687906,50.9306414],[-0.4688878,50.9306681],[-0.4688118,50.9307752],[-0.468804,50.9307942],[-0.468804,50.9308111],[-0.4688129,50.9308294],[-0.4688364,50.9308492],[-0.468861,50.9308625],[-0.4688923,50.9308752],[-0.4689381,50.9308872],[-0.4689806,50.9308949],[-0.4690197,50.9308999],[-0.4690521,50.9309013],[-0.4690912,50.9308999],[-0.4691258,50.9308942],[-0.4691627,50.930883],[-0.4691873,50.9308703],[-0.4692052,50.9308562],[-0.4692354,50.9308231],[-0.4693069,50.9307358],[-0.4693136,50.9307245],[-0.4693192,50.9307076],[-0.4693192,50.9306928],[-0.4693125,50.9306766],[-0.4692979,50.9306639],[-0.4692734,50.9306491],[-0.4692342,50.9306336],[-0.4691348,50.9306033],[-0.4691001,50.9305949],[-0.4690711,50.9305914],[-0.4690286,50.9305899],[-0.4690063,50.9305921],[-0.4689817,50.930597],[-0.4689582,50.9306047],[-0.468937,50.930616],[-0.4689191,50.9306294],[-0.4688878,50.9306681]]]}},
{"type":"Feature","properties":{"highway":"track","name":null,"category":"Track"},"geometry":{"type":"MultiLineString","coordinates":[[[-0.4663757,50.932335],[-0.466687,50.9324083],[-0.4669464,50.9324717],[-0.4670141,50.9324877],[-0.4670723,50.9324996],[-0.4671118,50.9325084],[-0.4671362,50.932515],[-0.4671522,50.9325221],[-0.4671677,50.9325322]]]}},
{"type":"Feature","properties":{"highway":"track","name":null,"category":"Track"},"geometry":{"type":"MultiLineString","coordinates":[[[-0.4667265,50.9323254],[-0.4667096,50.9323781],[-0.4667058,50.9323858],[-0.466687,50.9324083]]]}},
{"type":"Feature","properties":{"highway":"track","name":null,"category":"Track"},"geometry":{"type":"MultiLineString","coordinates":[[[-0.4690676,50.9300963],[-0.4691487,50.9300728],[-0.4692072,50.9300544],[-0.4692364,50.9300427],[-0.469263,50.9300293],[-0.4692896,50.93001],[-0.4693148,50.9299882],[-0.4693361,50.9299639],[-0.4693693,50.9299179],[-0.4693866,50.9299003],[-0.4694052,50.9298885],[-0.4694238,50.9298827],[-0.469445,50.929881],[-0.469465,50.9298835],[-0.4694783,50.9298877],[-0.4694902,50.9298978],[-0.4694995,50.9299103],[-0.4695049,50.9299204],[-0.4695181,50.9299664],[-0.4695787,50.930236],[-0.4695973,50.9303105],[-0.4696013,50.9303366],[-0.469604,50.9303541],[-0.4696053,50.9303867],[-0.4696027,50.9304102],[-0.4695947,50.9304286],[-0.4695814,50.9304454],[-0.4695615,50.9304579],[-0.4695349,50.9304672],[-0.4695043,50.930473],[-0.4694751,50.9304747],[-0.4694338,50.9304739],[-0.4693642,50.9304691],[-0.4693116,50.9304632],[-0.4692195,50.9304466],[-0.4691763,50.9304371],[-0.469118,50.9304229],[-0.4689846,50.930385],[-0.4689094,50.9303613],[-0.4688624,50.9303483],[-0.4688154,50.9303412],[-0.4687665,50.9303407]]]}},
{"type":"Feature","properties":{"highway":"track","name":null,"category":"Track"},"geometry":{"type":"MultiLineString","coordinates":[[[-0.4696013,50.9303366],[-0.4695434,50.9303384],[-0.4695128,50.9303358],[-0.4694902,50.9303325],[-0.4694597,50.930325],[-0.4694238,50.9303124],[-0.4693507,50.9302822]]]}},
{"type":"Feature","properties":{"highway":"track","name":null,"category":"Track"},"geometry":{"type":"MultiLineString","coordinates":[[[-0.4695814,50.9304454],[-0.4696045,50.9304615],[-0.4696311,50.9304841],[-0.4696657,50.9305151],[-0.4697055,50.9305461],[-0.4697441,50.9305679],[-0.469784,50.9305897],[-0.4698278,50.9306098],[-0.4698743,50.9306299],[-0.4699634,50.9306625],[-0.470075,50.9307011],[-0.4701627,50.9307295],[-0.470293,50.9307689],[-0.4704166,50.9308007],[-0.4705056,50.9308225],[-0.4707515,50.9308812],[-0.4710997,50.9309708],[-0.4716579,50.9311082],[-0.4718612,50.9311551]]]}}
]
}
