{
"type": "FeatureCollection",
"name": "HORSH_405_walking",
"crs": { "type": "name", "properties": { "name": "urn:ogc:def:crs:OGC:1.3:CRS84" } },
"features": [
{"type":"Feature","properties":{"highway":"footway","name":null,"category":"Footpath (pedestrian only)"},"geometry":{"type":"MultiLineString","coordinates":[[[-0.3742445,50.9128123],[-0.3739537,50.9127861],[-0.3736332,50.9128647],[-0.3733483,50.9132015],[-0.3732011,50.9132141],[-0.3730337,50.9132089],[-0.3721565,50.9131984],[-0.3704078,50.9132006]]]}},
{"type":"Feature","properties":{"highway":"track","name":null,"category":"Track"},"geometry":{"type":"MultiLineString","coordinates":[[[-0.3544765,50.9075218],[-0.3536564,50.9077335],[-0.3528005,50.9079124],[-0.3515508,50.9081512]]]}},
{"type":"Feature","properties":{"highway":"track","name":null,"category":"Track"},"geometry":{"type":"MultiLineString","coordinates":[[[-0.3528005,50.9079124],[-0.3530859,50.9085647],[-0.3533467,50.9092637],[-0.3537737,50.9092073],[-0.3542167,50.9105403],[-0.3539669,50.9106907],[-0.3539874,50.9107957],[-0.3539928,50.9109208],[-0.3540035,50.9110257],[-0.3539982,50.9111102],[-0.3539928,50.9111812]]]}},
{"type":"Feature","properties":{"highway":"footway","name":null,"category":"Footpath (pedestrian only)"},"geometry":{"type":"MultiLineString","coordinates":[[[-0.3729062,50.916058],[-0.3728838,50.9160073],[-0.3722957,50.9157947],[-0.3704461,50.9148822],[-0.3703688,50.9145739],[-0.3704078,50.9132006],[-0.3703513,50.9118442],[-0.3699634,50.9112443],[-0.3688668,50.9095049]]]}},
{"type":"Feature","properties":{"highway":"track","name":"Buncton Manor Farm","category":"Track"},"geometry":{"type":"MultiLineString","coordinates":[[[-0.3711211,50.9094887],[-0.3712823,50.9103917],[-0.371214,50.9104572],[-0.3710888,50.9104948],[-0.3707013,50.9107979]]]}},
{"type":"Feature","properties":{"highway":"track","name":null,"category":"Track"},"geometry":{"type":"MultiLineString","coordinates":[[[-0.3570851,50.9083751],[-0.3568842,50.9086488],[-0.356734,50.9086538],[-0.3566106,50.908664],[-0.3565034,50.9086944]]]}},
{"type":"Feature","properties":{"highway":"track","name":"Daisy Lane","category":"Track"},"geometry":{"type":"MultiLineString","coordinates":[[[-0.3667761,50.9164325],[-0.3665344,50.9162089],[-0.3663789,50.9159631],[-0.3661627,50.9155307],[-0.3660459,50.9152971],[-0.3660235,50.9152221],[-0.3660268,50.9151188],[-0.3659495,50.9148992],[-0.3659145,50.914619],[-0.3658959,50.9144845],[-0.365885,50.9144059],[-0.3658608,50.914296],[-0.365864,50.9142292]]]}},
{"type":"Feature","properties":{"highway":"track","name":"Daisy Lane","category":"Track"},"geometry":{"type":"MultiLineString","coordinates":[[[-0.365864,50.9142292],[-0.3658378,50.9138733],[-0.3658426,50.9135576],[-0.3657666,50.9126031],[-0.3656781,50.9122968],[-0.3654956,50.9120831],[-0.365328,50.9118129],[-0.3652696,50.9117187]]]}},
{"type":"Feature","properties":{"highway":"track","name":null,"category":"Track"},"geometry":{"type":"MultiLineString","coordinates":[[[-0.3665344,50.9162089],[-0.3663785,50.9162331],[-0.3662176,50.9162669],[-0.3659762,50.9162906],[-0.3657401,50.916294],[-0.365547,50.9162602],[-0.3653485,50.9161824],[-0.3651983,50.9161485],[-0.364914,50.9161418],[-0.3645761,50.9161012],[-0.3642488,50.9160538],[-0.3639001,50.9159862],[-0.3635729,50.9159253],[-0.3633154,50.9158949],[-0.3630901,50.9158746],[-0.3629399,50.9158645],[-0.3627522,50.9158475],[-0.3626288,50.9158306],[-0.3625322,50.9157596],[-0.3624678,50.9156209],[-0.3624088,50.9154552],[-0.3623606,50.9152861],[-0.3623498,50.9151745],[-0.3623552,50.9150629],[-0.3623874,50.914931],[-0.3624196,50.9148329],[-0.3624464,50.9147348],[-0.3624357,50.9146401],[-0.3624035,50.914559],[-0.3623123,50.9144947],[-0.3622103,50.9144237],[-0.3620441,50.9143019],[-0.3619099,50.9141768],[-0.3617919,50.9141058],[-0.3615773,50.9140415],[-0.3612877,50.9140009],[-0.361057,50.9139569],[-0.3607415,50.9139054],[-0.3606027,50.9138858],[-0.3604819,50.9138914],[-0.3603437,50.91386],[-0.3602344,50.913723],[-0.360259,50.9135168]]]}},
{"type":"Feature","properties":{"highway":"footway","name":null,"category":"Footpath (pedestrian only)"},"geometry":{"type":"MultiLineString","coordinates":[[[-0.351738,50.9094455],[-0.3529136,50.9117399],[-0.3523212,50.9146074],[-0.352365,50.9147121],[-0.3526644,50.9149362],[-0.3531677,50.9164374],[-0.3535875,50.9179073],[-0.3536297,50.9184094]]]}},
{"type":"Feature","properties":{"highway":"path","name":null,"category":"Shared path"},"geometry":{"type":"MultiLineString","coordinates":[[[-0.3699634,50.9112443],[-0.3690768,50.9112835],[-0.3677416,50.9113098],[-0.3667462,50.911291],[-0.3663926,50.9111955],[-0.3661258,50.9112113],[-0.3650354,50.9114626]]]}},
{"type":"Feature","properties":{"highway":"footway","name":null,"category":"Footpath (pedestrian only)"},"geometry":{"type":"MultiLineString","coordinates":[[[-0.3436626,50.9099296],[-0.3438907,50.9099033],[-0.3440257,50.9098116],[-0.3457069,50.9097465],[-0.3478236,50.9097965],[-0.3487857,50.909749],[-0.3497652,50.909683],[-0.351738,50.9094455],[-0.3516747,50.9090663],[-0.3515508,50.9081512]]]}},
{"type":"Feature","properties":{"highway":"track","name":null,"category":"Track"},"geometry":{"type":"MultiLineString","coordinates":[[[-0.3672648,50.9064532],[-0.3670107,50.9064701],[-0.366907,50.9064547],[-0.3666976,50.9063829],[-0.3663175,50.9063573]]]}}
]
}
