{
"type": "FeatureCollection",
"name": "HORSH_1153_walking",
"crs": { "type": "name", "properties": { "name": "urn:ogc:def:crs:OGC:1.3:CRS84" } },
"features": [
{"type":"Feature","properties":{"highway":"track","name":null,"category":"Track"},"geometry":{"type":"MultiLineString","coordinates":[[[-0.4712427,50.9838675],[-0.4701626,50.9813706],[-0.4701024,50.9813159]]]}},
{"type":"Feature","properties":{"highway":"footway","name":null,"category":"Footpath (pedestrian only)"},"geometry":{"type":"MultiLineString","coordinates":[[[-0.4761556,50.9754413],[-0.4762056,50.9754318],[-0.4763434,50.9754134],[-0.4764228,50.9753949],[-0.476554,50.9753557],[-0.4767544,50.9752779],[-0.4778408,50.9747585],[-0.4787796,50.974408],[-0.4796849,50.9741589],[-0.4810179,50.9739115],[-0.4811211,50.9738969],[-0.4812139,50.9738887],[-0.4813386,50.9738847],[-0.4814108,50.973883],[-0.4815475,50.9738843],[-0.481757,50.9739013],[-0.4820411,50.9739325],[-0.4821373,50.9739405],[-0.4822184,50.973945],[-0.4822998,50.973945],[-0.4829638,50.9739072],[-0.4830414,50.9739073],[-0.4831251,50.9739098],[-0.4841881,50.9739951],[-0.4842702,50.9739983],[-0.4843808,50.9739956],[-0.4844502,50.9739906],[-0.484555,50.9739829],[-0.4846143,50.973977],[-0.4846727,50.9739699],[-0.4848089,50.9739524],[-0.4851199,50.9739148],[-0.4854167,50.9738871],[-0.4868155,50.9738127],[-0.4869216,50.973809]]]}},
{"type":"Feature","properties":{"highway":"footway","name":null,"category":"Footpath (pedestrian only)"},"geometry":{"type":"MultiLineString","coordinates":[[[-0.4763769,50.9761243],[-0.4756933,50.9763311],[-0.4737904,50.9769318],[-0.4737314,50.976952]]]}},
{"type":"Feature","properties":{"highway":"footway","name":null,"category":"Footpath (pedestrian only)"},"geometry":{"type":"MultiLineString","coordinates":[[[-0.4799301,50.9794942],[-0.4799707,50.9795487],[-0.4800063,50.9795828],[-0.4804228,50.9799038],[-0.480779,50.9803829],[-0.4808035,50.9804158],[-0.4808573,50.9804881],[-0.4814457,50.9810756],[-0.4820554,50.9811817]]]}},
{"type":"Feature","properties":{"highway":"footway","name":null,"category":"Footpath (pedestrian only)"},"geometry":{"type":"MultiLineString","coordinates":[[[-0.4840638,50.9782357],[-0.4841628,50.9783234]]]}},
{"type":"Feature","properties":{"highway":"footway","name":null,"category":"Footpath (pedestrian only)"},"geometry":{"type":"MultiLineString","coordinates":[[[-0.4841959,50.9783539],[-0.4843813,50.9782629],[-0.4844181,50.9782913],[-0.4844594,50.9783223],[-0.4844895,50.9783432],[-0.484522,50.9783537],[-0.4845447,50.9783607],[-0.4845829,50.9783662],[-0.4846302,50.9783664]]]}},
{"type":"Feature","properties":{"highway":"footway","name":null,"category":"Footpath (pedestrian only)"},"geometry":{"type":"MultiLineString","coordinates":[[[-0.473807,50.9770157],[-0.4737373,50.9779033],[-0.473577,50.9783325],[-0.4738448,50.9794643],[-0.4740802,50.98005]]]}},
{"type":"Feature","properties":{"highway":"footway","name":null,"category":"Footpath (pedestrian only)"},"geometry":{"type":"MultiLineString","coordinates":[[[-0.4732055,50.980085],[-0.4720481,50.9807119],[-0.4718988,50.980789],[-0.4717279,50.9808594],[-0.4715152,50.9809331],[-0.4701858,50.9812735],[-0.4701024,50.9813159]]]}},
{"type":"Feature","properties":{"highway":"track","name":null,"category":"Track"},"geometry":{"type":"MultiLineString","coordinates":[[[-0.4737889,50.9770008],[-0.474207,50.9768546],[-0.4742694,50.9768334],[-0.47433,50.9768152],[-0.4743809,50.9768039],[-0.474418,50.9767987],[-0.4744483,50.9767979],[-0.4744841,50.9768013],[-0.474513,50.9768091],[-0.4745364,50.9768195],[-0.4745652,50.9768377],[-0.4745914,50.9768594],[-0.4746175,50.9768845],[-0.4746354,50.9769057],[-0.4746533,50.976927],[-0.4746946,50.9769789]]]}},
{"type":"Feature","properties":{"highway":"footway","name":null,"category":"Footpath (pedestrian only)"},"geometry":{"type":"MultiLineString","coordinates":[[[-0.4690703,50.9815025],[-0.4690269,50.9815143],[-0.468997,50.9815276],[-0.4689683,50.9815452],[-0.4689434,50.9815631],[-0.4689185,50.9815866],[-0.4679459,50.9822813],[-0.4677582,50.9822274],[-0.467426,50.9821885],[-0.4672824,50.9823633],[-0.4663321,50.9823289],[-0.4656053,50.9821861],[-0.4647771,50.9821499],[-0.4646574,50.9821915]]]}},
{"type":"Feature","properties":{"highway":"footway","name":null,"category":"Footpath (pedestrian only)"},"geometry":{"type":"MultiLineString","coordinates":[[[-0.4732055,50.980085],[-0.4715457,50.9799457],[-0.4712628,50.9799015],[-0.47116,50.9798809],[-0.4710622,50.9798567],[-0.4709571,50.9798273],[-0.4707884,50.9797727],[-0.4707224,50.9797511],[-0.470681,50.9797392],[-0.470625,50.9797259],[-0.4705735,50.9797168],[-0.4704852,50.9797042],[-0.4704292,50.9796992],[-0.4703845,50.9796943],[-0.4703192,50.9796821],[-0.4702695,50.9796655],[-0.4701974,50.9796306],[-0.470103,50.9795639],[-0.4697625,50.9793256],[-0.4697206,50.9792963],[-0.4695185,50.9791549],[-0.4694217,50.979089],[-0.469332,50.9790374],[-0.4691089,50.9789072],[-0.4686528,50.9787456],[-0.4685883,50.978748],[-0.4685417,50.9787621],[-0.4684849,50.978786],[-0.4683477,50.9788549],[-0.4682986,50.978873],[-0.4682317,50.978891],[-0.4681975,50.9789017],[-0.468171,50.9789097],[-0.4680835,50.9789357],[-0.4680542,50.9789419],[-0.4680241,50.9789434],[-0.4679777,50.9789441],[-0.4676698,50.9789398],[-0.4676401,50.9789415],[-0.467604,50.9789487],[-0.4675689,50.9789576],[-0.4675416,50.9789623],[-0.46751,50.9789633],[-0.4674674,50.978961],[-0.4674271,50.9789556],[-0.4673868,50.9789466],[-0.4673384,50.9789312],[-0.4673036,50.9789194],[-0.4672844,50.978909],[-0.4672628,50.9788932],[-0.4672513,50.9788799],[-0.4672421,50.9788672],[-0.4672348,50.9788476],[-0.4672315,50.9788281],[-0.4672296,50.9787651],[-0.4669782,50.978768]]]}},
{"type":"Feature","properties":{"highway":"track","name":null,"category":"Track"},"geometry":{"type":"MultiLineString","coordinates":[[[-0.4694138,50.981102],[-0.4695086,50.9811084],[-0.4695896,50.9811237],[-0.4696944,50.9811563],[-0.4698744,50.981221],[-0.4701024,50.9813159]]]}},
{"type":"Feature","properties":{"highway":"track","name":"Wansey Valley Farm","category":"Track"},"geometry":{"type":"MultiLineString","coordinates":[[[-0.4770793,50.9787549],[-0.4803689,50.9783524],[-0.4805468,50.9787686],[-0.4806364,50.9789569],[-0.4808975,50.9789337],[-0.4809244,50.9789325],[-0.4809524,50.9789335],[-0.4809778,50.9789368],[-0.4810197,50.9789448],[-0.4811571,50.9789712],[-0.4811854,50.9789754],[-0.4812131,50.9789765],[-0.4812455,50.9789738],[-0.481274,50.9789681],[-0.4817846,50.9788364],[-0.4818121,50.9788315],[-0.4818429,50.9788276],[-0.4818752,50.9788276],[-0.4818968,50.9788295],[-0.4819216,50.9788362],[-0.4819465,50.9788477],[-0.4819623,50.9788611],[-0.4819709,50.9788715],[-0.4820289,50.9789459]]]}},
{"type":"Feature","properties":{"highway":"track","name":null,"category":"Track"},"geometry":{"type":"MultiLineString","coordinates":[[[-0.4701024,50.9813159],[-0.4700013,50.9813344],[-0.4690703,50.9815025]]]}},
{"type":"Feature","properties":{"highway":"track","name":null,"category":"Track"},"geometry":{"type":"MultiLineString","coordinates":[[[-0.4849849,50.9777594],[-0.484738,50.9779158],[-0.4846976,50.9779469],[-0.4846036,50.9779958],[-0.4845228,50.9780367],[-0.4840638,50.9782357],[-0.4820289,50.9789459],[-0.4813996,50.9791737],[-0.4811559,50.979254],[-0.4809302,50.9793117],[-0.4807827,50.9793398],[-0.4799301,50.9794942],[-0.4794986,50.9795584],[-0.4791204,50.9795985]]]}},
{"type":"Feature","properties":{"highway":"path","name":null,"category":"Shared path"},"geometry":{"type":"MultiLineString","coordinates":[[[-0.484794,50.9777233],[-0.4847721,50.977717],[-0.4847608,50.977717],[-0.4847477,50.9777199],[-0.4847326,50.9777252],[-0.4847141,50.977731],[-0.4846988,50.9777323],[-0.4846831,50.9777322],[-0.4844843,50.9777164]]]}},
{"type":"Feature","properties":{"highway":"footway","name":null,"category":"Footpath (pedestrian only)"},"geometry":{"type":"MultiLineString","coordinates":[[[-0.4847078,50.9805237],[-0.484769,50.9805461]]]}},
{"type":"Feature","properties":{"highway":"footway","name":null,"category":"Footpath (pedestrian only)"},"geometry":{"type":"MultiLineString","coordinates":[[[-0.4848153,50.978447],[-0.4852748,50.9792472],[-0.485284,50.9792735],[-0.4852905,50.9792966],[-0.4852947,50.979329],[-0.4852968,50.9793612],[-0.485295,50.9793974],[-0.4852921,50.9794442],[-0.4852304,50.9799407],[-0.4852276,50.979956],[-0.4852221,50.9799657],[-0.4852091,50.9799853],[-0.4847078,50.9805237]]]}},
{"type":"Feature","properties":{"highway":"footway","name":null,"category":"Footpath (pedestrian only)"},"geometry":{"type":"MultiLineString","coordinates":[[[-0.4847233,50.9783316],[-0.4847677,50.9783862],[-0.4848153,50.978447]]]}},
{"type":"Feature","properties":{"highway":"track","name":null,"category":"Track"},"geometry":{"type":"MultiLineString","coordinates":[[[-0.4803689,50.9783524],[-0.4801765,50.9778614]]]}},
{"type":"Feature","properties":{"highway":"footway","name":null,"category":"Footpath (pedestrian only)"},"geometry":{"type":"MultiLineString","coordinates":[[[-0.4770217,50.985362],[-0.4770378,50.9853241],[-0.4771501,50.9851507],[-0.4781638,50.9837424],[-0.4786173,50.9831008],[-0.4786829,50.9830072]]]}},
{"type":"Feature","properties":{"highway":"footway","name":null,"category":"Footpath (pedestrian only)"},"geometry":{"type":"MultiLineString","coordinates":[[[-0.4768245,50.985925],[-0.4759928,50.9859083],[-0.4759683,50.9859064],[-0.4759418,50.9859015],[-0.4759143,50.9858948],[-0.4758979,50.9859183],[-0.4758041,50.9858898],[-0.4757634,50.9858783],[-0.4756753,50.9858559],[-0.4753762,50.9857824],[-0.4752475,50.9857559],[-0.4751447,50.9857387],[-0.4750607,50.9857257],[-0.4744676,50.9856745],[-0.4742163,50.9856643],[-0.4739715,50.9855875],[-0.4738883,50.9855659],[-0.4738029,50.9855497],[-0.4736785,50.9855305],[-0.4735599,50.9855132],[-0.4734778,50.9855042],[-0.4733723,50.9854953],[-0.4732958,50.9854828],[-0.473227,50.9854658],[-0.4731407,50.9854395],[-0.4730514,50.9854078],[-0.4729884,50.9853871],[-0.4727734,50.985301],[-0.4726986,50.9852701],[-0.4726368,50.9852502],[-0.4725987,50.9852457],[-0.4724869,50.9852557]]]}},
{"type":"Feature","properties":{"highway":"footway","name":null,"category":"Footpath (pedestrian only)"},"geometry":{"type":"MultiLineString","coordinates":[[[-0.4771501,50.9851507],[-0.476483,50.9850137],[-0.4764121,50.9849945],[-0.4763713,50.9849835],[-0.4763082,50.9849664],[-0.4767181,50.9840434],[-0.4766005,50.9839378],[-0.4752966,50.9826159],[-0.475265,50.982586]]]}},
{"type":"Feature","properties":{"highway":"footway","name":null,"category":"Footpath (pedestrian only)"},"geometry":{"type":"MultiLineString","coordinates":[[[-0.4834838,50.9840021],[-0.4851363,50.9847855],[-0.4852214,50.9848207],[-0.4853272,50.9848586],[-0.485431,50.9848914],[-0.4854742,50.9848669],[-0.4863587,50.9850449],[-0.4867396,50.9851174],[-0.4869769,50.985153],[-0.4871789,50.985178],[-0.4875516,50.9852006],[-0.4877372,50.9847556],[-0.4877975,50.9847826]]]}},
{"type":"Feature","properties":{"highway":"footway","name":null,"category":"Footpath (pedestrian only)"},"geometry":{"type":"MultiLineString","coordinates":[[[-0.4749745,50.9826951],[-0.4746808,50.9823878],[-0.4745525,50.9821662],[-0.4745292,50.9820194],[-0.4745329,50.9819083],[-0.4746506,50.9815576],[-0.4740802,50.98005]]]}},
{"type":"Feature","properties":{"highway":"track","name":null,"category":"Track"},"geometry":{"type":"MultiLineString","coordinates":[[[-0.4693282,50.9808553],[-0.4693847,50.9809677],[-0.4693976,50.9809958],[-0.4694055,50.9810202],[-0.4694112,50.981046],[-0.4694147,50.9810802],[-0.4694138,50.981102]]]}},
{"type":"Feature","properties":{"highway":"track","name":null,"category":"Track"},"geometry":{"type":"MultiLineString","coordinates":[[[-0.4690361,50.981073],[-0.4690164,50.9810684],[-0.4689411,50.9810582]]]}},
{"type":"Feature","properties":{"highway":"track","name":null,"category":"Track"},"geometry":{"type":"MultiLineString","coordinates":[[[-0.4690361,50.981073],[-0.4691411,50.9810934],[-0.4691869,50.9811011],[-0.4692182,50.9811046],[-0.4692473,50.9811053],[-0.4693479,50.9811032],[-0.4694004,50.9811018],[-0.4694138,50.981102]]]}},
{"type":"Feature","properties":{"highway":"path","name":null,"category":"Shared path"},"geometry":{"type":"MultiLineString","coordinates":[[[-0.4734946,50.9802639],[-0.4734406,50.9802659]]]}},
{"type":"Feature","properties":{"highway":"path","name":null,"category":"Shared path"},"geometry":{"type":"MultiLineString","coordinates":[[[-0.4734406,50.9802659],[-0.473374,50.9802689],[-0.47335,50.9802694],[-0.4733489,50.9802497],[-0.4732276,50.9802539]]]}},
{"type":"Feature","properties":{"highway":"path","name":null,"category":"Shared path"},"geometry":{"type":"MultiLineString","coordinates":[[[-0.473559,50.9802609],[-0.4734946,50.9802639]]]}},
{"type":"Feature","properties":{"highway":"path","name":null,"category":"Shared path"},"geometry":{"type":"MultiLineString","coordinates":[[[-0.4732293,50.9802687],[-0.473238,50.9803394]]]}},
{"type":"Feature","properties":{"highway":"path","name":null,"category":"Shared path"},"geometry":{"type":"MultiLineString","coordinates":[[[-0.4734425,50.9772005],[-0.4733941,50.977219],[-0.4733717,50.9772296],[-0.4733594,50.9772373],[-0.4733516,50.9772443],[-0.473346,50.9772549],[-0.473346,50.9772647],[-0.4733583,50.9773119],[-0.4733605,50.9773231],[-0.4733561,50.9773407],[-0.4733438,50.9773626],[-0.4733326,50.9773801],[-0.473327,50.97739],[-0.4733248,50.9774055],[-0.4733248,50.977732],[-0.4733248,50.9777446],[-0.4733203,50.9777601],[-0.4733114,50.977777],[-0.4731963,50.9779381],[-0.4731739,50.9779733],[-0.4731549,50.9780071],[-0.4731426,50.9780444],[-0.4731381,50.9780838],[-0.4731381,50.978126],[-0.4731426,50.9781816],[-0.4731472,50.9782331],[-0.473163,50.9783269]]]}},
{"type":"Feature","properties":{"highway":"path","name":null,"category":"Shared path"},"geometry":{"type":"MultiLineString","coordinates":[[[-0.4733248,50.977732],[-0.4730878,50.9777323]]]}},
{"type":"Feature","properties":{"highway":"path","name":null,"category":"Shared path"},"geometry":{"type":"MultiLineString","coordinates":[[[-0.4702506,50.9791344],[-0.4702606,50.9791237],[-0.4702651,50.9791139],[-0.4702651,50.9791033],[-0.4702629,50.9790934],[-0.4702528,50.9790815],[-0.470226,50.979059],[-0.4702115,50.9790442],[-0.4702025,50.9790322],[-0.4701981,50.9790196],[-0.4701958,50.9789999],[-0.4701972,50.9789621]]]}},
{"type":"Feature","properties":{"highway":"track","name":null,"category":"Track"},"geometry":{"type":"MultiLineString","coordinates":[[[-0.4756605,50.9771097],[-0.4755917,50.9770067],[-0.4753303,50.9766662],[-0.4753255,50.976659],[-0.4753192,50.9766497],[-0.4753137,50.9766376],[-0.4753124,50.9766203],[-0.4753165,50.9766003],[-0.4753275,50.9765865],[-0.4753454,50.9765718],[-0.4753743,50.9765562],[-0.4754059,50.9765432],[-0.4754427,50.9765297],[-0.4757414,50.9764359],[-0.475755,50.9764291],[-0.4757622,50.9764205],[-0.4757671,50.9764099],[-0.4757662,50.9763962],[-0.4757689,50.9763831],[-0.4757771,50.9763734],[-0.4757898,50.9763654],[-0.4758052,50.9763573],[-0.4758283,50.9763503],[-0.4763334,50.9762054],[-0.4763496,50.9762017],[-0.4763659,50.976198],[-0.4763836,50.9761948],[-0.4763988,50.9761927]]]}},
{"type":"Feature","properties":{"highway":"track","name":null,"category":"Track"},"geometry":{"type":"MultiLineString","coordinates":[[[-0.4745914,50.9768594],[-0.4753255,50.976659]]]}},
{"type":"Feature","properties":{"highway":"path","name":null,"category":"Shared path"},"geometry":{"type":"MultiLineString","coordinates":[[[-0.4743621,50.9770084],[-0.4744111,50.9770062]]]}},
{"type":"Feature","properties":{"highway":"path","name":null,"category":"Shared path"},"geometry":{"type":"MultiLineString","coordinates":[[[-0.4844238,50.9777168],[-0.4843923,50.977721],[-0.4843626,50.977728],[-0.4843308,50.9777387],[-0.4842779,50.9777591],[-0.4842574,50.977766],[-0.4842406,50.9777699],[-0.4842265,50.9777732],[-0.4842026,50.9777791],[-0.4841827,50.9777845],[-0.4841694,50.9777904],[-0.4841594,50.9777958],[-0.4841521,50.9778013],[-0.4841461,50.9778075],[-0.4841409,50.9778168]]]}},
{"type":"Feature","properties":{"highway":"path","name":null,"category":"Shared path"},"geometry":{"type":"MultiLineString","coordinates":[[[-0.4844843,50.9777164],[-0.4844238,50.9777168]]]}},
{"type":"Feature","properties":{"highway":"path","name":null,"category":"Shared path"},"geometry":{"type":"MultiLineString","coordinates":[[[-0.4842406,50.9777699],[-0.4842221,50.9778259]]]}},
{"type":"Feature","properties":{"highway":"track","name":null,"category":"Track"},"geometry":{"type":"MultiLineString","coordinates":[[[-0.4806364,50.9789569],[-0.4806803,50.9790537],[-0.4806893,50.9790643],[-0.4807027,50.9790734],[-0.4807284,50.9790868],[-0.4808502,50.9791346],[-0.4808659,50.9791431],[-0.4808759,50.9791515],[-0.4808893,50.979167]]]}},
{"type":"Feature","properties":{"highway":"footway","name":null,"category":"Footpath (pedestrian only)"},"geometry":{"type":"MultiLineString","coordinates":[[[-0.4855225,50.9808097],[-0.4851104,50.9806628],[-0.484769,50.9805461]]]}},
{"type":"Feature","properties":{"highway":"track","name":null,"category":"Track"},"geometry":{"type":"MultiLineString","coordinates":[[[-0.4786829,50.9830072],[-0.4787463,50.9829022],[-0.4787963,50.9828114],[-0.4788827,50.9826384],[-0.4789493,50.9824953],[-0.4790779,50.9822168],[-0.4792042,50.9819196],[-0.4792409,50.9818535],[-0.4792723,50.9818039],[-0.4793198,50.9817453]]]}},
{"type":"Feature","properties":{"highway":"track","name":null,"category":"Track"},"geometry":{"type":"MultiLineString","coordinates":[[[-0.4831277,50.9841823],[-0.4831338,50.9841603],[-0.4831354,50.9841488],[-0.4831338,50.9841367],[-0.483129,50.9841247],[-0.4831219,50.9841131],[-0.4831067,50.9840961],[-0.4830669,50.9840564],[-0.4830326,50.9840223],[-0.4829999,50.9839877],[-0.4829656,50.983949],[-0.4829505,50.983934],[-0.4829282,50.9839154],[-0.4829059,50.9839004],[-0.4828796,50.9838853],[-0.4828365,50.9838662],[-0.4826157,50.9837689],[-0.4823878,50.9836685]]]}},
{"type":"Feature","properties":{"highway":"footway","name":null,"category":"Footpath (pedestrian only)"},"geometry":{"type":"MultiLineString","coordinates":[[[-0.4669782,50.978768],[-0.4670482,50.9788736],[-0.4674384,50.9791675],[-0.4677254,50.9793207],[-0.4679604,50.9794751],[-0.4680924,50.9795692],[-0.4682166,50.9796606],[-0.4683099,50.9797316],[-0.4683854,50.979797],[-0.4686249,50.9799959],[-0.4688555,50.9802223],[-0.4688832,50.9802548],[-0.4689138,50.9802963],[-0.4691247,50.9806171],[-0.4692083,50.9807455],[-0.4692249,50.9807669],[-0.4692425,50.980783],[-0.4692764,50.980807],[-0.4692938,50.9808191],[-0.4693135,50.9808382],[-0.4693282,50.9808553]]]}},
{"type":"Feature","properties":{"highway":"track","name":null,"category":"Track"},"geometry":{"type":"MultiLineString","coordinates":[[[-0.4709826,50.9839412],[-0.4699851,50.9843297],[-0.4697322,50.9844385],[-0.469594,50.9845039],[-0.4694551,50.9845839],[-0.4692412,50.9847247],[-0.4691889,50.9847734],[-0.4691589,50.9848146],[-0.4691074,50.9849167],[-0.4690894,50.9849513],[-0.4690731,50.9849932],[-0.4690488,50.9850615],[-0.4690296,50.9851172]]]}},
{"type":"Feature","properties":{"highway":"footway","name":null,"category":"Footpath (pedestrian only)"},"geometry":{"type":"MultiLineString","coordinates":[[[-0.4820554,50.9811817],[-0.4821879,50.9815499],[-0.4823482,50.9819723],[-0.4823549,50.9820036]]]}}
]
}
