{
"type": "FeatureCollection",
"name": "04ea18ce0eb3_visibility",
"crs": { "type": "name", "properties": { "name": "urn:ogc:def:crs:OGC:1.3:CRS84" } },
"features": [
{ "type": "Feature", "properties": { "visible_points": 0, "total_points": 54, "visibility_pct": 0.0 }, "geometry": { "type": "Point", "coordinates": [ -0.152201059438028, 50.835347728143013 ] } },
{ "type": "Feature", "properties": { "visible_points": 0, "total_points": 48, "visibility_pct": 0.0 }, "geometry": { "type": "Point", "coordinates": [ -0.152004392632571, 50.835344614246637 ] } },
{ "type": "Feature", "properties": { "visible_points": 6, "total_points": 64, "visibility_pct": 9.375 }, "geometry": { "type": "Point", "coordinates": [ -0.152295136151235, 50.83545714127726 ] } },
{ "type": "Feature", "properties": { "visible_points": 0, "total_points": 57, "visibility_pct": 0.0 }, "geometry": { "type": "Point", "coordinates": [ -0.152098468873425, 50.835454027522971 ] } },
{ "type": "Feature", "properties": { "visible_points": 0, "total_points": 50, "visibility_pct": 0.0 }, "geometry": { "type": "Point", "coordinates": [ -0.151901801630643, 50.835450913437974 ] } },
{ "type": "Feature", "properties": { "visible_points": 10, "total_points": 85, "visibility_pct": 11.76470588235294 }, "geometry": { "type": "Point", "coordinates": [ -0.152782548907115, 50.835572780581835 ] } },
{ "type": "Feature", "properties": { "visible_points": 7, "total_points": 81, "visibility_pct": 8.6419753086419746 }, "geometry": { "type": "Point", "coordinates": [ -0.152585881086929, 50.835569667630978 ] } },
{ "type": "Feature", "properties": { "visible_points": 0, "total_points": 74, "visibility_pct": 0.0 }, "geometry": { "type": "Point", "coordinates": [ -0.152389213301752, 50.835566554349398 ] } },
{ "type": "Feature", "properties": { "visible_points": 1, "total_points": 67, "visibility_pct": 1.4925373134328357 }, "geometry": { "type": "Point", "coordinates": [ -0.152192545551599, 50.835563440737161 ] } },
{ "type": "Feature", "properties": { "visible_points": 1, "total_points": 59, "visibility_pct": 1.6949152542372881 }, "geometry": { "type": "Point", "coordinates": [ -0.151995877836463, 50.835560326794216 ] } },
{ "type": "Feature", "properties": { "visible_points": 0, "total_points": 80, "visibility_pct": 0.0 }, "geometry": { "type": "Point", "coordinates": [ -0.153466632527286, 50.835691529750008 ] } },
{ "type": "Feature", "properties": { "visible_points": 0, "total_points": 84, "visibility_pct": 0.0 }, "geometry": { "type": "Point", "coordinates": [ -0.153269964129739, 50.835688417933262 ] } },
{ "type": "Feature", "properties": { "visible_points": 0, "total_points": 88, "visibility_pct": 0.0 }, "geometry": { "type": "Point", "coordinates": [ -0.153073295767188, 50.835685305785837 ] } },
{ "type": "Feature", "properties": { "visible_points": 7, "total_points": 93, "visibility_pct": 7.5268817204301079 }, "geometry": { "type": "Point", "coordinates": [ -0.152876627439647, 50.835682193307704 ] } },
{ "type": "Feature", "properties": { "visible_points": 2, "total_points": 91, "visibility_pct": 2.197802197802198 }, "geometry": { "type": "Point", "coordinates": [ -0.152679959147115, 50.835679080498892 ] } },
{ "type": "Feature", "properties": { "visible_points": 4, "total_points": 85, "visibility_pct": 4.7058823529411766 }, "geometry": { "type": "Point", "coordinates": [ -0.152483290889587, 50.835675967359379 ] } },
{ "type": "Feature", "properties": { "visible_points": 1, "total_points": 77, "visibility_pct": 1.2987012987012987 }, "geometry": { "type": "Point", "coordinates": [ -0.152286622667081, 50.835672853889186 ] } },
{ "type": "Feature", "properties": { "visible_points": 1, "total_points": 68, "visibility_pct": 1.4705882352941175 }, "geometry": { "type": "Point", "coordinates": [ -0.152089954479591, 50.835669740088314 ] } },
{ "type": "Feature", "properties": { "visible_points": 9, "total_points": 80, "visibility_pct": 11.25 }, "geometry": { "type": "Point", "coordinates": [ -0.154150719733825, 50.835810275027377 ] } },
{ "type": "Feature", "properties": { "visible_points": 2, "total_points": 83, "visibility_pct": 2.4096385542168677 }, "geometry": { "type": "Point", "coordinates": [ -0.153954050758956, 50.835807164344786 ] } },
{ "type": "Feature", "properties": { "visible_points": 0, "total_points": 86, "visibility_pct": 0.0 }, "geometry": { "type": "Point", "coordinates": [ -0.153757381819076, 50.835804053331493 ] } },
{ "type": "Feature", "properties": { "visible_points": 2, "total_points": 89, "visibility_pct": 2.2471910112359552 }, "geometry": { "type": "Point", "coordinates": [ -0.153560712914187, 50.835800941987529 ] } },
{ "type": "Feature", "properties": { "visible_points": 2, "total_points": 92, "visibility_pct": 2.1739130434782608 }, "geometry": { "type": "Point", "coordinates": [ -0.153364044044292, 50.835797830312828 ] } },
{ "type": "Feature", "properties": { "visible_points": 4, "total_points": 96, "visibility_pct": 4.1666666666666661 }, "geometry": { "type": "Point", "coordinates": [ -0.153167375209399, 50.835794718307469 ] } },
{ "type": "Feature", "properties": { "visible_points": 4, "total_points": 100, "visibility_pct": 4.0 }, "geometry": { "type": "Point", "coordinates": [ -0.152970706409506, 50.83579160597143 ] } },
{ "type": "Feature", "properties": { "visible_points": 0, "total_points": 98, "visibility_pct": 0.0 }, "geometry": { "type": "Point", "coordinates": [ -0.15277403764462, 50.835788493304683 ] } },
{ "type": "Feature", "properties": { "visible_points": 0, "total_points": 93, "visibility_pct": 0.0 }, "geometry": { "type": "Point", "coordinates": [ -0.152577368914745, 50.835785380307229 ] } },
{ "type": "Feature", "properties": { "visible_points": 2, "total_points": 86, "visibility_pct": 2.3255813953488373 }, "geometry": { "type": "Point", "coordinates": [ -0.152380700219883, 50.835782266979088 ] } },
{ "type": "Feature", "properties": { "visible_points": 0, "total_points": 77, "visibility_pct": 0.0 }, "geometry": { "type": "Point", "coordinates": [ -0.15218403156004, 50.835779153320274 ] } },
{ "type": "Feature", "properties": { "visible_points": 26, "total_points": 80, "visibility_pct": 32.5 }, "geometry": { "type": "Point", "coordinates": [ -0.154834810526611, 50.835929016413942 ] } },
{ "type": "Feature", "properties": { "visible_points": 16, "total_points": 83, "visibility_pct": 19.277108433734941 }, "geometry": { "type": "Point", "coordinates": [ -0.15463814097446, 50.835925906865498 ] } },
{ "type": "Feature", "properties": { "visible_points": 0, "total_points": 86, "visibility_pct": 0.0 }, "geometry": { "type": "Point", "coordinates": [ -0.154441471457289, 50.83592279698636 ] } },
{ "type": "Feature", "properties": { "visible_points": 2, "total_points": 89, "visibility_pct": 2.2471910112359552 }, "geometry": { "type": "Point", "coordinates": [ -0.154244801975093, 50.835919686776542 ] } },
{ "type": "Feature", "properties": { "visible_points": 0, "total_points": 92, "visibility_pct": 0.0 }, "geometry": { "type": "Point", "coordinates": [ -0.154048132527883, 50.835916576236016 ] } },
{ "type": "Feature", "properties": { "visible_points": 0, "total_points": 95, "visibility_pct": 0.0 }, "geometry": { "type": "Point", "coordinates": [ -0.153851463115656, 50.83591346536479 ] } },
{ "type": "Feature", "properties": { "visible_points": 0, "total_points": 98, "visibility_pct": 0.0 }, "geometry": { "type": "Point", "coordinates": [ -0.153654793738422, 50.83591035416287 ] } },
{ "type": "Feature", "properties": { "visible_points": 0, "total_points": 100, "visibility_pct": 0.0 }, "geometry": { "type": "Point", "coordinates": [ -0.15345812439618, 50.835907242630292 ] } },
{ "type": "Feature", "properties": { "visible_points": 0, "total_points": 103, "visibility_pct": 0.0 }, "geometry": { "type": "Point", "coordinates": [ -0.153261455088937, 50.835904130766991 ] } },
{ "type": "Feature", "properties": { "visible_points": 2, "total_points": 106, "visibility_pct": 1.8867924528301887 }, "geometry": { "type": "Point", "coordinates": [ -0.153064785816695, 50.835901018572983 ] } },
{ "type": "Feature", "properties": { "visible_points": 0, "total_points": 104, "visibility_pct": 0.0 }, "geometry": { "type": "Point", "coordinates": [ -0.152868116579452, 50.835897906048309 ] } },
{ "type": "Feature", "properties": { "visible_points": 0, "total_points": 99, "visibility_pct": 0.0 }, "geometry": { "type": "Point", "coordinates": [ -0.152671447377226, 50.835894793192921 ] } },
{ "type": "Feature", "properties": { "visible_points": 2, "total_points": 92, "visibility_pct": 2.1739130434782608 }, "geometry": { "type": "Point", "coordinates": [ -0.152474778210008, 50.835891680006874 ] } },
{ "type": "Feature", "properties": { "visible_points": 0, "total_points": 82, "visibility_pct": 0.0 }, "geometry": { "type": "Point", "coordinates": [ -0.152278109077804, 50.835888566490112 ] } },
{ "type": "Feature", "properties": { "visible_points": 36, "total_points": 81, "visibility_pct": 44.444444444444443 }, "geometry": { "type": "Point", "coordinates": [ -0.155518904905521, 50.83604775390959 ] } },
{ "type": "Feature", "properties": { "visible_points": 42, "total_points": 84, "visibility_pct": 50.0 }, "geometry": { "type": "Point", "coordinates": [ -0.155322234776129, 50.836044645495328 ] } },
{ "type": "Feature", "properties": { "visible_points": 36, "total_points": 87, "visibility_pct": 41.379310344827587 }, "geometry": { "type": "Point", "coordinates": [ -0.155125564681707, 50.836041536750351 ] } },
{ "type": "Feature", "properties": { "visible_points": 33, "total_points": 89, "visibility_pct": 37.078651685393261 }, "geometry": { "type": "Point", "coordinates": [ -0.154928894622251, 50.836038427674687 ] } },
{ "type": "Feature", "properties": { "visible_points": 4, "total_points": 92, "visibility_pct": 4.3478260869565215 }, "geometry": { "type": "Point", "coordinates": [ -0.154732224597761, 50.836035318268337 ] } },
{ "type": "Feature", "properties": { "visible_points": 4, "total_points": 95, "visibility_pct": 4.2105263157894735 }, "geometry": { "type": "Point", "coordinates": [ -0.154535554608248, 50.836032208531279 ] } },
{ "type": "Feature", "properties": { "visible_points": 1, "total_points": 98, "visibility_pct": 1.0204081632653061 }, "geometry": { "type": "Point", "coordinates": [ -0.154338884653708, 50.836029098463527 ] } },
{ "type": "Feature", "properties": { "visible_points": 0, "total_points": 100, "visibility_pct": 0.0 }, "geometry": { "type": "Point", "coordinates": [ -0.154142214734152, 50.836025988065089 ] } },
{ "type": "Feature", "properties": { "visible_points": 4, "total_points": 103, "visibility_pct": 3.8834951456310676 }, "geometry": { "type": "Point", "coordinates": [ -0.15394554484958, 50.836022877335949 ] } },
{ "type": "Feature", "properties": { "visible_points": 4, "total_points": 106, "visibility_pct": 3.7735849056603774 }, "geometry": { "type": "Point", "coordinates": [ -0.153748875, 50.836019766276117 ] } },
{ "type": "Feature", "properties": { "visible_points": 0, "total_points": 108, "visibility_pct": 0.0 }, "geometry": { "type": "Point", "coordinates": [ -0.153552205185405, 50.836016654885576 ] } },
{ "type": "Feature", "properties": { "visible_points": 0, "total_points": 110, "visibility_pct": 0.0 }, "geometry": { "type": "Point", "coordinates": [ -0.153355535405809, 50.836013543164349 ] } },
{ "type": "Feature", "properties": { "visible_points": 0, "total_points": 112, "visibility_pct": 0.0 }, "geometry": { "type": "Point", "coordinates": [ -0.153158865661211, 50.83601043111242 ] } },
{ "type": "Feature", "properties": { "visible_points": 0, "total_points": 109, "visibility_pct": 0.0 }, "geometry": { "type": "Point", "coordinates": [ -0.15296219595162, 50.836007318729806 ] } },
{ "type": "Feature", "properties": { "visible_points": 0, "total_points": 103, "visibility_pct": 0.0 }, "geometry": { "type": "Point", "coordinates": [ -0.152765526277031, 50.83600420601649 ] } },
{ "type": "Feature", "properties": { "visible_points": 0, "total_points": 96, "visibility_pct": 0.0 }, "geometry": { "type": "Point", "coordinates": [ -0.152568856637458, 50.836001092972488 ] } },
{ "type": "Feature", "properties": { "visible_points": 2, "total_points": 86, "visibility_pct": 2.3255813953488373 }, "geometry": { "type": "Point", "coordinates": [ -0.152372187032897, 50.835997979597806 ] } },
{ "type": "Feature", "properties": { "visible_points": 3, "total_points": 58, "visibility_pct": 5.1724137931034484 }, "geometry": { "type": "Point", "coordinates": [ -0.156399673611966, 50.836169594463712 ] } },
{ "type": "Feature", "properties": { "visible_points": 2, "total_points": 68, "visibility_pct": 2.9411764705882351 }, "geometry": { "type": "Point", "coordinates": [ -0.156203002870436, 50.836166487514312 ] } },
{ "type": "Feature", "properties": { "visible_points": 0, "total_points": 78, "visibility_pct": 0.0 }, "geometry": { "type": "Point", "coordinates": [ -0.156006332163852, 50.836163380234233 ] } },
{ "type": "Feature", "properties": { "visible_points": 0, "total_points": 87, "visibility_pct": 0.0 }, "geometry": { "type": "Point", "coordinates": [ -0.155809661492214, 50.836160272623452 ] } },
{ "type": "Feature", "properties": { "visible_points": 37, "total_points": 90, "visibility_pct": 41.111111111111107 }, "geometry": { "type": "Point", "coordinates": [ -0.155612990855533, 50.836157164681957 ] } },
{ "type": "Feature", "properties": { "visible_points": 41, "total_points": 93, "visibility_pct": 44.086021505376344 }, "geometry": { "type": "Point", "coordinates": [ -0.155416320253809, 50.836154056409761 ] } },
{ "type": "Feature", "properties": { "visible_points": 40, "total_points": 96, "visibility_pct": 41.666666666666671 }, "geometry": { "type": "Point", "coordinates": [ -0.155219649687046, 50.836150947806892 ] } },
{ "type": "Feature", "properties": { "visible_points": 38, "total_points": 98, "visibility_pct": 38.775510204081634 }, "geometry": { "type": "Point", "coordinates": [ -0.155022979155244, 50.836147838873316 ] } },
{ "type": "Feature", "properties": { "visible_points": 33, "total_points": 100, "visibility_pct": 33.0 }, "geometry": { "type": "Point", "coordinates": [ -0.154826308658415, 50.836144729609032 ] } },
{ "type": "Feature", "properties": { "visible_points": 0, "total_points": 103, "visibility_pct": 0.0 }, "geometry": { "type": "Point", "coordinates": [ -0.154629638196556, 50.836141620014061 ] } },
{ "type": "Feature", "properties": { "visible_points": 0, "total_points": 106, "visibility_pct": 0.0 }, "geometry": { "type": "Point", "coordinates": [ -0.154432967769671, 50.836138510088382 ] } },
{ "type": "Feature", "properties": { "visible_points": 0, "total_points": 108, "visibility_pct": 0.0 }, "geometry": { "type": "Point", "coordinates": [ -0.154236297377767, 50.836135399832017 ] } },
{ "type": "Feature", "properties": { "visible_points": 3, "total_points": 110, "visibility_pct": 2.7272727272727271 }, "geometry": { "type": "Point", "coordinates": [ -0.154039627020848, 50.836132289244951 ] } },
{ "type": "Feature", "properties": { "visible_points": 2, "total_points": 112, "visibility_pct": 1.7857142857142856 }, "geometry": { "type": "Point", "coordinates": [ -0.153842956698911, 50.836129178327184 ] } },
{ "type": "Feature", "properties": { "visible_points": 3, "total_points": 114, "visibility_pct": 2.6315789473684208 }, "geometry": { "type": "Point", "coordinates": [ -0.153646286411968, 50.836126067078723 ] } },
{ "type": "Feature", "properties": { "visible_points": 2, "total_points": 116, "visibility_pct": 1.7241379310344827 }, "geometry": { "type": "Point", "coordinates": [ -0.153449616160017, 50.836122955499562 ] } },
{ "type": "Feature", "properties": { "visible_points": 1, "total_points": 118, "visibility_pct": 0.84745762711864403 }, "geometry": { "type": "Point", "coordinates": [ -0.153252945943067, 50.836119843589714 ] } },
{ "type": "Feature", "properties": { "visible_points": 0, "total_points": 113, "visibility_pct": 0.0 }, "geometry": { "type": "Point", "coordinates": [ -0.153056275761114, 50.836116731349172 ] } },
{ "type": "Feature", "properties": { "visible_points": 0, "total_points": 106, "visibility_pct": 0.0 }, "geometry": { "type": "Point", "coordinates": [ -0.152859605614173, 50.836113618777915 ] } },
{ "type": "Feature", "properties": { "visible_points": 1, "total_points": 97, "visibility_pct": 1.0309278350515463 }, "geometry": { "type": "Point", "coordinates": [ -0.152662935502237, 50.836110505875979 ] } },
{ "type": "Feature", "properties": { "visible_points": 0, "total_points": 87, "visibility_pct": 0.0 }, "geometry": { "type": "Point", "coordinates": [ -0.152466265425314, 50.836107392643363 ] } },
{ "type": "Feature", "properties": { "visible_points": 1, "total_points": 48, "visibility_pct": 2.083333333333333 }, "geometry": { "type": "Point", "coordinates": [ -0.156690433137496, 50.836282111082149 ] } },
{ "type": "Feature", "properties": { "visible_points": 3, "total_points": 58, "visibility_pct": 5.1724137931034484 }, "geometry": { "type": "Point", "coordinates": [ -0.15649376188869, 50.836279004605558 ] } },
{ "type": "Feature", "properties": { "visible_points": 0, "total_points": 68, "visibility_pct": 0.0 }, "geometry": { "type": "Point", "coordinates": [ -0.156297090674826, 50.836275897798266 ] } },
{ "type": "Feature", "properties": { "visible_points": 0, "total_points": 79, "visibility_pct": 0.0 }, "geometry": { "type": "Point", "coordinates": [ -0.156100419495905, 50.83627279066026 ] } },
{ "type": "Feature", "properties": { "visible_points": 3, "total_points": 90, "visibility_pct": 3.3333333333333335 }, "geometry": { "type": "Point", "coordinates": [ -0.155903748351933, 50.836269683191567 ] } },
{ "type": "Feature", "properties": { "visible_points": 35, "total_points": 99, "visibility_pct": 35.353535353535356 }, "geometry": { "type": "Point", "coordinates": [ -0.155707077242915, 50.836266575392159 ] } },
{ "type": "Feature", "properties": { "visible_points": 42, "total_points": 101, "visibility_pct": 41.584158415841586 }, "geometry": { "type": "Point", "coordinates": [ -0.155510406168848, 50.836263467262064 ] } },
{ "type": "Feature", "properties": { "visible_points": 46, "total_points": 104, "visibility_pct": 44.230769230769226 }, "geometry": { "type": "Point", "coordinates": [ -0.155313735129742, 50.836260358801269 ] } },
{ "type": "Feature", "properties": { "visible_points": 40, "total_points": 106, "visibility_pct": 37.735849056603776 }, "geometry": { "type": "Point", "coordinates": [ -0.155117064125602, 50.836257250009766 ] } },
{ "type": "Feature", "properties": { "visible_points": 38, "total_points": 108, "visibility_pct": 35.185185185185183 }, "geometry": { "type": "Point", "coordinates": [ -0.154920393156422, 50.836254140887576 ] } },
{ "type": "Feature", "properties": { "visible_points": 38, "total_points": 110, "visibility_pct": 34.545454545454547 }, "geometry": { "type": "Point", "coordinates": [ -0.15472372222222, 50.836251031434678 ] } },
{ "type": "Feature", "properties": { "visible_points": 1, "total_points": 112, "visibility_pct": 0.89285714285714279 }, "geometry": { "type": "Point", "coordinates": [ -0.154527051322985, 50.836247921651079 ] } },
{ "type": "Feature", "properties": { "visible_points": 5, "total_points": 114, "visibility_pct": 4.3859649122807012 }, "geometry": { "type": "Point", "coordinates": [ -0.154330380458737, 50.836244811536787 ] } },
{ "type": "Feature", "properties": { "visible_points": 0, "total_points": 116, "visibility_pct": 0.0 }, "geometry": { "type": "Point", "coordinates": [ -0.154133709629459, 50.836241701091794 ] } },
{ "type": "Feature", "properties": { "visible_points": 2, "total_points": 118, "visibility_pct": 1.6949152542372881 }, "geometry": { "type": "Point", "coordinates": [ -0.153937038835171, 50.836238590316114 ] } },
{ "type": "Feature", "properties": { "visible_points": 2, "total_points": 119, "visibility_pct": 1.680672268907563 }, "geometry": { "type": "Point", "coordinates": [ -0.153740368075877, 50.836235479209726 ] } },
{ "type": "Feature", "properties": { "visible_points": 2, "total_points": 120, "visibility_pct": 1.6666666666666667 }, "geometry": { "type": "Point", "coordinates": [ -0.153543697351569, 50.836232367772624 ] } },
{ "type": "Feature", "properties": { "visible_points": 0, "total_points": 119, "visibility_pct": 0.0 }, "geometry": { "type": "Point", "coordinates": [ -0.153347026662259, 50.836229256004863 ] } },
{ "type": "Feature", "properties": { "visible_points": 0, "total_points": 113, "visibility_pct": 0.0 }, "geometry": { "type": "Point", "coordinates": [ -0.153150356007954, 50.836226143906366 ] } },
{ "type": "Feature", "properties": { "visible_points": 0, "total_points": 105, "visibility_pct": 0.0 }, "geometry": { "type": "Point", "coordinates": [ -0.152953685388646, 50.836223031477203 ] } },
{ "type": "Feature", "properties": { "visible_points": 0, "total_points": 96, "visibility_pct": 0.0 }, "geometry": { "type": "Point", "coordinates": [ -0.152757014804346, 50.836219918717333 ] } },
{ "type": "Feature", "properties": { "visible_points": 1, "total_points": 86, "visibility_pct": 1.1627906976744187 }, "geometry": { "type": "Point", "coordinates": [ -0.152560344255066, 50.836216805626762 ] } },
{ "type": "Feature", "properties": { "visible_points": 2, "total_points": 56, "visibility_pct": 3.5714285714285712 }, "geometry": { "type": "Point", "coordinates": [ -0.156587850602791, 50.836388414685239 ] } },
{ "type": "Feature", "properties": { "visible_points": 0, "total_points": 67, "visibility_pct": 0.0 }, "geometry": { "type": "Point", "coordinates": [ -0.156391178916591, 50.83638530802002 ] } },
{ "type": "Feature", "properties": { "visible_points": 15, "total_points": 78, "visibility_pct": 19.230769230769234 }, "geometry": { "type": "Point", "coordinates": [ -0.156194507265332, 50.836382201024115 ] } },
{ "type": "Feature", "properties": { "visible_points": 25, "total_points": 90, "visibility_pct": 27.777777777777779 }, "geometry": { "type": "Point", "coordinates": [ -0.155997835649025, 50.836379093697509 ] } },
{ "type": "Feature", "properties": { "visible_points": 38, "total_points": 102, "visibility_pct": 37.254901960784316 }, "geometry": { "type": "Point", "coordinates": [ -0.155801164067662, 50.83637598604021 ] } },
{ "type": "Feature", "properties": { "visible_points": 43, "total_points": 109, "visibility_pct": 39.449541284403672 }, "geometry": { "type": "Point", "coordinates": [ -0.155604492521252, 50.836372878052181 ] } },
{ "type": "Feature", "properties": { "visible_points": 50, "total_points": 111, "visibility_pct": 45.045045045045043 }, "geometry": { "type": "Point", "coordinates": [ -0.155407821009806, 50.83636976973348 ] } },
{ "type": "Feature", "properties": { "visible_points": 49, "total_points": 112, "visibility_pct": 43.75 }, "geometry": { "type": "Point", "coordinates": [ -0.15521114953332, 50.836366661084057 ] } },
{ "type": "Feature", "properties": { "visible_points": 44, "total_points": 114, "visibility_pct": 38.596491228070171 }, "geometry": { "type": "Point", "coordinates": [ -0.155014478091795, 50.836363552103947 ] } },
{ "type": "Feature", "properties": { "visible_points": 42, "total_points": 116, "visibility_pct": 36.206896551724135 }, "geometry": { "type": "Point", "coordinates": [ -0.154817806685238, 50.836360442793136 ] } },
{ "type": "Feature", "properties": { "visible_points": 34, "total_points": 118, "visibility_pct": 28.8135593220339 }, "geometry": { "type": "Point", "coordinates": [ -0.154621135313659, 50.836357333151625 ] } },
{ "type": "Feature", "properties": { "visible_points": 25, "total_points": 119, "visibility_pct": 21.008403361344538 }, "geometry": { "type": "Point", "coordinates": [ -0.154424463977051, 50.836354223179399 ] } },
{ "type": "Feature", "properties": { "visible_points": 0, "total_points": 120, "visibility_pct": 0.0 }, "geometry": { "type": "Point", "coordinates": [ -0.154227792675427, 50.836351112876493 ] } },
{ "type": "Feature", "properties": { "visible_points": 0, "total_points": 120, "visibility_pct": 0.0 }, "geometry": { "type": "Point", "coordinates": [ -0.154031121408789, 50.836348002242879 ] } },
{ "type": "Feature", "properties": { "visible_points": 1, "total_points": 120, "visibility_pct": 0.83333333333333337 }, "geometry": { "type": "Point", "coordinates": [ -0.153834450177127, 50.836344891278578 ] } },
{ "type": "Feature", "properties": { "visible_points": 1, "total_points": 120, "visibility_pct": 0.83333333333333337 }, "geometry": { "type": "Point", "coordinates": [ -0.153637778980468, 50.836341779983563 ] } },
{ "type": "Feature", "properties": { "visible_points": 1, "total_points": 118, "visibility_pct": 0.84745762711864403 }, "geometry": { "type": "Point", "coordinates": [ -0.153441107818799, 50.836338668357854 ] } },
{ "type": "Feature", "properties": { "visible_points": 1, "total_points": 112, "visibility_pct": 0.89285714285714279 }, "geometry": { "type": "Point", "coordinates": [ -0.153244436692128, 50.836335556401444 ] } },
{ "type": "Feature", "properties": { "visible_points": 5, "total_points": 104, "visibility_pct": 4.8076923076923084 }, "geometry": { "type": "Point", "coordinates": [ -0.153047765600459, 50.836332444114333 ] } },
{ "type": "Feature", "properties": { "visible_points": 1, "total_points": 95, "visibility_pct": 1.0526315789473684 }, "geometry": { "type": "Point", "coordinates": [ -0.152851094543799, 50.836329331496536 ] } },
{ "type": "Feature", "properties": { "visible_points": 0, "total_points": 85, "visibility_pct": 0.0 }, "geometry": { "type": "Point", "coordinates": [ -0.152654423522145, 50.836326218548045 ] } },
{ "type": "Feature", "properties": { "visible_points": 6, "total_points": 64, "visibility_pct": 9.375 }, "geometry": { "type": "Point", "coordinates": [ -0.156485267595735, 50.836494718179644 ] } },
{ "type": "Feature", "properties": { "visible_points": 0, "total_points": 76, "visibility_pct": 0.0 }, "geometry": { "type": "Point", "coordinates": [ -0.156288595472142, 50.836491611325826 ] } },
{ "type": "Feature", "properties": { "visible_points": 24, "total_points": 88, "visibility_pct": 27.27272727272727 }, "geometry": { "type": "Point", "coordinates": [ -0.156091923383487, 50.836488504141293 ] } },
{ "type": "Feature", "properties": { "visible_points": 36, "total_points": 100, "visibility_pct": 36.0 }, "geometry": { "type": "Point", "coordinates": [ -0.155895251329783, 50.836485396626074 ] } },
{ "type": "Feature", "properties": { "visible_points": 48, "total_points": 110, "visibility_pct": 43.636363636363633 }, "geometry": { "type": "Point", "coordinates": [ -0.155698579311033, 50.836482288780147 ] } },
{ "type": "Feature", "properties": { "visible_points": 49, "total_points": 117, "visibility_pct": 41.880341880341881 }, "geometry": { "type": "Point", "coordinates": [ -0.155501907327236, 50.83647918060354 ] } },
{ "type": "Feature", "properties": { "visible_points": 53, "total_points": 118, "visibility_pct": 44.915254237288138 }, "geometry": { "type": "Point", "coordinates": [ -0.1553052353784, 50.836476072096225 ] } },
{ "type": "Feature", "properties": { "visible_points": 53, "total_points": 119, "visibility_pct": 44.537815126050425 }, "geometry": { "type": "Point", "coordinates": [ -0.155108563464527, 50.836472963258174 ] } },
{ "type": "Feature", "properties": { "visible_points": 50, "total_points": 120, "visibility_pct": 41.666666666666671 }, "geometry": { "type": "Point", "coordinates": [ -0.154911891585626, 50.836469854089444 ] } },
{ "type": "Feature", "properties": { "visible_points": 43, "total_points": 120, "visibility_pct": 35.833333333333336 }, "geometry": { "type": "Point", "coordinates": [ -0.15471521974169, 50.836466744590012 ] } },
{ "type": "Feature", "properties": { "visible_points": 34, "total_points": 120, "visibility_pct": 28.333333333333332 }, "geometry": { "type": "Point", "coordinates": [ -0.15451854793273, 50.83646363475988 ] } },
{ "type": "Feature", "properties": { "visible_points": 25, "total_points": 120, "visibility_pct": 20.833333333333336 }, "geometry": { "type": "Point", "coordinates": [ -0.154321876158749, 50.836460524599055 ] } },
{ "type": "Feature", "properties": { "visible_points": 0, "total_points": 120, "visibility_pct": 0.0 }, "geometry": { "type": "Point", "coordinates": [ -0.154125204419749, 50.8364574141075 ] } },
{ "type": "Feature", "properties": { "visible_points": 0, "total_points": 120, "visibility_pct": 0.0 }, "geometry": { "type": "Point", "coordinates": [ -0.153928532715736, 50.836454303285258 ] } },
{ "type": "Feature", "properties": { "visible_points": 1, "total_points": 120, "visibility_pct": 0.83333333333333337 }, "geometry": { "type": "Point", "coordinates": [ -0.153731861046714, 50.836451192132351 ] } },
{ "type": "Feature", "properties": { "visible_points": 2, "total_points": 117, "visibility_pct": 1.7094017094017095 }, "geometry": { "type": "Point", "coordinates": [ -0.15353518941268, 50.836448080648701 ] } },
{ "type": "Feature", "properties": { "visible_points": 1, "total_points": 111, "visibility_pct": 0.90090090090090091 }, "geometry": { "type": "Point", "coordinates": [ -0.15333851781365, 50.836444968834378 ] } },
{ "type": "Feature", "properties": { "visible_points": 3, "total_points": 103, "visibility_pct": 2.912621359223301 }, "geometry": { "type": "Point", "coordinates": [ -0.153141846249617, 50.836441856689341 ] } },
{ "type": "Feature", "properties": { "visible_points": 0, "total_points": 94, "visibility_pct": 0.0 }, "geometry": { "type": "Point", "coordinates": [ -0.15294517472059, 50.836438744213602 ] } },
{ "type": "Feature", "properties": { "visible_points": 0, "total_points": 84, "visibility_pct": 0.0 }, "geometry": { "type": "Point", "coordinates": [ -0.152748503226566, 50.836435631407163 ] } },
{ "type": "Feature", "properties": { "visible_points": 6, "total_points": 71, "visibility_pct": 8.4507042253521121 }, "geometry": { "type": "Point", "coordinates": [ -0.156382684116327, 50.836601021565357 ] } },
{ "type": "Feature", "properties": { "visible_points": 0, "total_points": 84, "visibility_pct": 0.0 }, "geometry": { "type": "Point", "coordinates": [ -0.156186011555328, 50.836597914522933 ] } },
{ "type": "Feature", "properties": { "visible_points": 26, "total_points": 97, "visibility_pct": 26.804123711340207 }, "geometry": { "type": "Point", "coordinates": [ -0.155989339029281, 50.836594807149794 ] } },
{ "type": "Feature", "properties": { "visible_points": 42, "total_points": 107, "visibility_pct": 39.252336448598129 }, "geometry": { "type": "Point", "coordinates": [ -0.155792666538183, 50.836591699445968 ] } },
{ "type": "Feature", "properties": { "visible_points": 48, "total_points": 115, "visibility_pct": 41.739130434782609 }, "geometry": { "type": "Point", "coordinates": [ -0.155595994082039, 50.836588591411427 ] } },
{ "type": "Feature", "properties": { "visible_points": 51, "total_points": 120, "visibility_pct": 42.5 }, "geometry": { "type": "Point", "coordinates": [ -0.155399321660856, 50.836585483046179 ] } },
{ "type": "Feature", "properties": { "visible_points": 55, "total_points": 120, "visibility_pct": 45.833333333333329 }, "geometry": { "type": "Point", "coordinates": [ -0.155202649274629, 50.836582374350243 ] } },
{ "type": "Feature", "properties": { "visible_points": 51, "total_points": 120, "visibility_pct": 42.5 }, "geometry": { "type": "Point", "coordinates": [ -0.155005976923373, 50.836579265323586 ] } },
{ "type": "Feature", "properties": { "visible_points": 51, "total_points": 120, "visibility_pct": 42.5 }, "geometry": { "type": "Point", "coordinates": [ -0.154809304607084, 50.836576155966249 ] } },
{ "type": "Feature", "properties": { "visible_points": 43, "total_points": 120, "visibility_pct": 35.833333333333336 }, "geometry": { "type": "Point", "coordinates": [ -0.154612632325771, 50.836573046278183 ] } },
{ "type": "Feature", "properties": { "visible_points": 29, "total_points": 120, "visibility_pct": 24.166666666666668 }, "geometry": { "type": "Point", "coordinates": [ -0.154415960079431, 50.836569936259437 ] } },
{ "type": "Feature", "properties": { "visible_points": 0, "total_points": 120, "visibility_pct": 0.0 }, "geometry": { "type": "Point", "coordinates": [ -0.154219287868071, 50.836566825909976 ] } },
{ "type": "Feature", "properties": { "visible_points": 0, "total_points": 120, "visibility_pct": 0.0 }, "geometry": { "type": "Point", "coordinates": [ -0.154022615691695, 50.836563715229815 ] } },
{ "type": "Feature", "properties": { "visible_points": 0, "total_points": 120, "visibility_pct": 0.0 }, "geometry": { "type": "Point", "coordinates": [ -0.153825943550313, 50.83656060421896 ] } },
{ "type": "Feature", "properties": { "visible_points": 0, "total_points": 116, "visibility_pct": 0.0 }, "geometry": { "type": "Point", "coordinates": [ -0.153629271443919, 50.836557492877404 ] } },
{ "type": "Feature", "properties": { "visible_points": 4, "total_points": 110, "visibility_pct": 3.6363636363636362 }, "geometry": { "type": "Point", "coordinates": [ -0.153432599372519, 50.836554381205147 ] } },
{ "type": "Feature", "properties": { "visible_points": 4, "total_points": 102, "visibility_pct": 3.9215686274509802 }, "geometry": { "type": "Point", "coordinates": [ -0.153235927336119, 50.836551269202182 ] } },
{ "type": "Feature", "properties": { "visible_points": 1, "total_points": 93, "visibility_pct": 1.0752688172043012 }, "geometry": { "type": "Point", "coordinates": [ -0.153039255334722, 50.83654815686851 ] } },
{ "type": "Feature", "properties": { "visible_points": 0, "total_points": 83, "visibility_pct": 0.0 }, "geometry": { "type": "Point", "coordinates": [ -0.152842583368329, 50.836545044204158 ] } },
{ "type": "Feature", "properties": { "visible_points": 3, "total_points": 76, "visibility_pct": 3.9473684210526314 }, "geometry": { "type": "Point", "coordinates": [ -0.156280100164553, 50.836707324842386 ] } },
{ "type": "Feature", "properties": { "visible_points": 0, "total_points": 88, "visibility_pct": 0.0 }, "geometry": { "type": "Point", "coordinates": [ -0.15608342716616, 50.836704217611342 ] } },
{ "type": "Feature", "properties": { "visible_points": 34, "total_points": 98, "visibility_pct": 34.693877551020407 }, "geometry": { "type": "Point", "coordinates": [ -0.15588675420271, 50.83670111004961 ] } },
{ "type": "Feature", "properties": { "visible_points": 42, "total_points": 107, "visibility_pct": 39.252336448598129 }, "geometry": { "type": "Point", "coordinates": [ -0.15569008127422, 50.836698002157156 ] } },
{ "type": "Feature", "properties": { "visible_points": 54, "total_points": 115, "visibility_pct": 46.956521739130437 }, "geometry": { "type": "Point", "coordinates": [ -0.155493408380681, 50.836694893934009 ] } },
{ "type": "Feature", "properties": { "visible_points": 56, "total_points": 120, "visibility_pct": 46.666666666666664 }, "geometry": { "type": "Point", "coordinates": [ -0.155296735522107, 50.83669178538014 ] } },
{ "type": "Feature", "properties": { "visible_points": 58, "total_points": 120, "visibility_pct": 48.333333333333336 }, "geometry": { "type": "Point", "coordinates": [ -0.155100062698492, 50.836688676495591 ] } },
{ "type": "Feature", "properties": { "visible_points": 54, "total_points": 120, "visibility_pct": 45.0 }, "geometry": { "type": "Point", "coordinates": [ -0.154903389909845, 50.836685567280334 ] } },
{ "type": "Feature", "properties": { "visible_points": 50, "total_points": 120, "visibility_pct": 41.666666666666671 }, "geometry": { "type": "Point", "coordinates": [ -0.154706717156172, 50.836682457734362 ] } },
{ "type": "Feature", "properties": { "visible_points": 9, "total_points": 120, "visibility_pct": 7.5 }, "geometry": { "type": "Point", "coordinates": [ -0.154510044437476, 50.836679347857682 ] } },
{ "type": "Feature", "properties": { "visible_points": 0, "total_points": 120, "visibility_pct": 0.0 }, "geometry": { "type": "Point", "coordinates": [ -0.154313371753756, 50.836676237650302 ] } },
{ "type": "Feature", "properties": { "visible_points": 0, "total_points": 120, "visibility_pct": 0.0 }, "geometry": { "type": "Point", "coordinates": [ -0.154116699105017, 50.836673127112221 ] } },
{ "type": "Feature", "properties": { "visible_points": 0, "total_points": 120, "visibility_pct": 0.0 }, "geometry": { "type": "Point", "coordinates": [ -0.153920026491269, 50.836670016243438 ] } },
{ "type": "Feature", "properties": { "visible_points": 0, "total_points": 115, "visibility_pct": 0.0 }, "geometry": { "type": "Point", "coordinates": [ -0.153723353912506, 50.836666905043955 ] } },
{ "type": "Feature", "properties": { "visible_points": 1, "total_points": 109, "visibility_pct": 0.91743119266055051 }, "geometry": { "type": "Point", "coordinates": [ -0.153526681368741, 50.836663793513772 ] } },
{ "type": "Feature", "properties": { "visible_points": 0, "total_points": 101, "visibility_pct": 0.0 }, "geometry": { "type": "Point", "coordinates": [ -0.153330008859973, 50.836660681652887 ] } },
{ "type": "Feature", "properties": { "visible_points": 1, "total_points": 92, "visibility_pct": 1.0869565217391304 }, "geometry": { "type": "Point", "coordinates": [ -0.153133336386203, 50.836657569461273 ] } },
{ "type": "Feature", "properties": { "visible_points": 0, "total_points": 82, "visibility_pct": 0.0 }, "geometry": { "type": "Point", "coordinates": [ -0.152936663947442, 50.836654456938994 ] } },
{ "type": "Feature", "properties": { "visible_points": 5, "total_points": 77, "visibility_pct": 6.4935064935064926 }, "geometry": { "type": "Point", "coordinates": [ -0.15617751574042, 50.836813628010738 ] } },
{ "type": "Feature", "properties": { "visible_points": 0, "total_points": 88, "visibility_pct": 0.0 }, "geometry": { "type": "Point", "coordinates": [ -0.155980842304624, 50.836810520591094 ] } },
{ "type": "Feature", "properties": { "visible_points": 37, "total_points": 98, "visibility_pct": 37.755102040816325 }, "geometry": { "type": "Point", "coordinates": [ -0.155784168903775, 50.836807412840756 ] } },
{ "type": "Feature", "properties": { "visible_points": 44, "total_points": 107, "visibility_pct": 41.121495327102799 }, "geometry": { "type": "Point", "coordinates": [ -0.155587495537886, 50.836804304759667 ] } },
{ "type": "Feature", "properties": { "visible_points": 54, "total_points": 115, "visibility_pct": 46.956521739130437 }, "geometry": { "type": "Point", "coordinates": [ -0.155390822206951, 50.836801196347899 ] } },
{ "type": "Feature", "properties": { "visible_points": 54, "total_points": 120, "visibility_pct": 45.0 }, "geometry": { "type": "Point", "coordinates": [ -0.155194148910984, 50.836798087605445 ] } },
{ "type": "Feature", "properties": { "visible_points": 52, "total_points": 120, "visibility_pct": 43.333333333333336 }, "geometry": { "type": "Point", "coordinates": [ -0.15499747564998, 50.836794978532247 ] } },
{ "type": "Feature", "properties": { "visible_points": 47, "total_points": 120, "visibility_pct": 39.166666666666664 }, "geometry": { "type": "Point", "coordinates": [ -0.154800802423944, 50.836791869128369 ] } },
{ "type": "Feature", "properties": { "visible_points": 32, "total_points": 120, "visibility_pct": 26.666666666666668 }, "geometry": { "type": "Point", "coordinates": [ -0.154604129232887, 50.836788759393755 ] } },
{ "type": "Feature", "properties": { "visible_points": 0, "total_points": 120, "visibility_pct": 0.0 }, "geometry": { "type": "Point", "coordinates": [ -0.154407456076801, 50.836785649328483 ] } },
{ "type": "Feature", "properties": { "visible_points": 0, "total_points": 120, "visibility_pct": 0.0 }, "geometry": { "type": "Point", "coordinates": [ -0.154210782955702, 50.836782538932475 ] } },
{ "type": "Feature", "properties": { "visible_points": 0, "total_points": 120, "visibility_pct": 0.0 }, "geometry": { "type": "Point", "coordinates": [ -0.154014109869584, 50.836779428205766 ] } },
{ "type": "Feature", "properties": { "visible_points": 0, "total_points": 115, "visibility_pct": 0.0 }, "geometry": { "type": "Point", "coordinates": [ -0.153817436818453, 50.836776317148363 ] } },
{ "type": "Feature", "properties": { "visible_points": 0, "total_points": 108, "visibility_pct": 0.0 }, "geometry": { "type": "Point", "coordinates": [ -0.153620763802319, 50.836773205760245 ] } },
{ "type": "Feature", "properties": { "visible_points": 0, "total_points": 100, "visibility_pct": 0.0 }, "geometry": { "type": "Point", "coordinates": [ -0.153424090821178, 50.836770094041427 ] } },
{ "type": "Feature", "properties": { "visible_points": 0, "total_points": 91, "visibility_pct": 0.0 }, "geometry": { "type": "Point", "coordinates": [ -0.153227417875037, 50.836766981991914 ] } },
{ "type": "Feature", "properties": { "visible_points": 2, "total_points": 81, "visibility_pct": 2.4691358024691357 }, "geometry": { "type": "Point", "coordinates": [ -0.153030744963902, 50.836763869611694 ] } },
{ "type": "Feature", "properties": { "visible_points": 4, "total_points": 77, "visibility_pct": 5.1948051948051948 }, "geometry": { "type": "Point", "coordinates": [ -0.156074930843918, 50.836919931070405 ] } },
{ "type": "Feature", "properties": { "visible_points": 0, "total_points": 88, "visibility_pct": 0.0 }, "geometry": { "type": "Point", "coordinates": [ -0.15587825697072, 50.836916823462154 ] } },
{ "type": "Feature", "properties": { "visible_points": 34, "total_points": 98, "visibility_pct": 34.693877551020407 }, "geometry": { "type": "Point", "coordinates": [ -0.15568158313247, 50.836913715523174 ] } },
{ "type": "Feature", "properties": { "visible_points": 42, "total_points": 107, "visibility_pct": 39.252336448598129 }, "geometry": { "type": "Point", "coordinates": [ -0.155484909329181, 50.836910607253486 ] } },
{ "type": "Feature", "properties": { "visible_points": 47, "total_points": 115, "visibility_pct": 40.869565217391305 }, "geometry": { "type": "Point", "coordinates": [ -0.155288235560854, 50.836907498653112 ] } },
{ "type": "Feature", "properties": { "visible_points": 43, "total_points": 120, "visibility_pct": 35.833333333333336 }, "geometry": { "type": "Point", "coordinates": [ -0.155091561827486, 50.836904389722022 ] } },
{ "type": "Feature", "properties": { "visible_points": 41, "total_points": 120, "visibility_pct": 34.166666666666664 }, "geometry": { "type": "Point", "coordinates": [ -0.15489488812909, 50.836901280460211 ] } },
{ "type": "Feature", "properties": { "visible_points": 30, "total_points": 120, "visibility_pct": 25.0 }, "geometry": { "type": "Point", "coordinates": [ -0.154698214465667, 50.836898170867705 ] } },
{ "type": "Feature", "properties": { "visible_points": 0, "total_points": 120, "visibility_pct": 0.0 }, "geometry": { "type": "Point", "coordinates": [ -0.15450154083722, 50.836895060944485 ] } },
{ "type": "Feature", "properties": { "visible_points": 1, "total_points": 120, "visibility_pct": 0.83333333333333337 }, "geometry": { "type": "Point", "coordinates": [ -0.154304867243746, 50.836891950690578 ] } },
{ "type": "Feature", "properties": { "visible_points": 0, "total_points": 120, "visibility_pct": 0.0 }, "geometry": { "type": "Point", "coordinates": [ -0.154108193685265, 50.836888840105949 ] } },
{ "type": "Feature", "properties": { "visible_points": 0, "total_points": 115, "visibility_pct": 0.0 }, "geometry": { "type": "Point", "coordinates": [ -0.153911520161765, 50.836885729190627 ] } },
{ "type": "Feature", "properties": { "visible_points": 0, "total_points": 107, "visibility_pct": 0.0 }, "geometry": { "type": "Point", "coordinates": [ -0.153714846673255, 50.836882617944568 ] } },
{ "type": "Feature", "properties": { "visible_points": 0, "total_points": 99, "visibility_pct": 0.0 }, "geometry": { "type": "Point", "coordinates": [ -0.153518173219743, 50.836879506367836 ] } },
{ "type": "Feature", "properties": { "visible_points": 0, "total_points": 90, "visibility_pct": 0.0 }, "geometry": { "type": "Point", "coordinates": [ -0.153321499801228, 50.83687639446039 ] } },
{ "type": "Feature", "properties": { "visible_points": 0, "total_points": 80, "visibility_pct": 0.0 }, "geometry": { "type": "Point", "coordinates": [ -0.153124826417712, 50.83687328222225 ] } },
{ "type": "Feature", "properties": { "visible_points": 0, "total_points": 88, "visibility_pct": 0.0 }, "geometry": { "type": "Point", "coordinates": [ -0.15577567116444, 50.837023126224508 ] } },
{ "type": "Feature", "properties": { "visible_points": 30, "total_points": 98, "visibility_pct": 30.612244897959183 }, "geometry": { "type": "Point", "coordinates": [ -0.15557899688879, 50.837020018096936 ] } },
{ "type": "Feature", "properties": { "visible_points": 39, "total_points": 107, "visibility_pct": 36.44859813084112 }, "geometry": { "type": "Point", "coordinates": [ -0.155382322648102, 50.837016909638635 ] } },
{ "type": "Feature", "properties": { "visible_points": 38, "total_points": 115, "visibility_pct": 33.043478260869563 }, "geometry": { "type": "Point", "coordinates": [ -0.155185648442373, 50.837013800849626 ] } },
{ "type": "Feature", "properties": { "visible_points": 36, "total_points": 120, "visibility_pct": 30.0 }, "geometry": { "type": "Point", "coordinates": [ -0.154988974271611, 50.837010691729915 ] } },
{ "type": "Feature", "properties": { "visible_points": 0, "total_points": 120, "visibility_pct": 0.0 }, "geometry": { "type": "Point", "coordinates": [ -0.154792300135822, 50.837007582279497 ] } },
{ "type": "Feature", "properties": { "visible_points": 2, "total_points": 120, "visibility_pct": 1.6666666666666667 }, "geometry": { "type": "Point", "coordinates": [ -0.154595626035006, 50.837004472498357 ] } },
{ "type": "Feature", "properties": { "visible_points": 19, "total_points": 120, "visibility_pct": 15.833333333333332 }, "geometry": { "type": "Point", "coordinates": [ -0.154398951969165, 50.837001362386516 ] } },
{ "type": "Feature", "properties": { "visible_points": 16, "total_points": 120, "visibility_pct": 13.333333333333334 }, "geometry": { "type": "Point", "coordinates": [ -0.154202277938313, 50.836998251943974 ] } },
{ "type": "Feature", "properties": { "visible_points": 0, "total_points": 114, "visibility_pct": 0.0 }, "geometry": { "type": "Point", "coordinates": [ -0.15400560394244, 50.836995141170732 ] } },
{ "type": "Feature", "properties": { "visible_points": 4, "total_points": 106, "visibility_pct": 3.7735849056603774 }, "geometry": { "type": "Point", "coordinates": [ -0.15380892998156, 50.836992030066774 ] } },
{ "type": "Feature", "properties": { "visible_points": 0, "total_points": 97, "visibility_pct": 0.0 }, "geometry": { "type": "Point", "coordinates": [ -0.153612256055668, 50.836988918632109 ] } },
{ "type": "Feature", "properties": { "visible_points": 0, "total_points": 88, "visibility_pct": 0.0 }, "geometry": { "type": "Point", "coordinates": [ -0.153415582164771, 50.836985806866714 ] } },
{ "type": "Feature", "properties": { "visible_points": 0, "total_points": 78, "visibility_pct": 0.0 }, "geometry": { "type": "Point", "coordinates": [ -0.153218908308883, 50.836982694770647 ] } },
{ "type": "Feature", "properties": { "visible_points": 0, "total_points": 88, "visibility_pct": 0.0 }, "geometry": { "type": "Point", "coordinates": [ -0.155673084885788, 50.837129428878185 ] } },
{ "type": "Feature", "properties": { "visible_points": 28, "total_points": 98, "visibility_pct": 28.571428571428569 }, "geometry": { "type": "Point", "coordinates": [ -0.155476410172733, 50.837126320561985 ] } },
{ "type": "Feature", "properties": { "visible_points": 31, "total_points": 107, "visibility_pct": 28.971962616822427 }, "geometry": { "type": "Point", "coordinates": [ -0.155279735494639, 50.83712321191507 ] } },
{ "type": "Feature", "properties": { "visible_points": 26, "total_points": 115, "visibility_pct": 22.608695652173914 }, "geometry": { "type": "Point", "coordinates": [ -0.155083060851515, 50.837120102937433 ] } },
{ "type": "Feature", "properties": { "visible_points": 0, "total_points": 120, "visibility_pct": 0.0 }, "geometry": { "type": "Point", "coordinates": [ -0.154886386243357, 50.837116993629103 ] } },
{ "type": "Feature", "properties": { "visible_points": 17, "total_points": 120, "visibility_pct": 14.166666666666666 }, "geometry": { "type": "Point", "coordinates": [ -0.154689711670169, 50.837113883990057 ] } },
{ "type": "Feature", "properties": { "visible_points": 21, "total_points": 120, "visibility_pct": 17.5 }, "geometry": { "type": "Point", "coordinates": [ -0.154493037131957, 50.83711077402031 ] } },
{ "type": "Feature", "properties": { "visible_points": 18, "total_points": 119, "visibility_pct": 15.126050420168067 }, "geometry": { "type": "Point", "coordinates": [ -0.154296362628729, 50.837107663719841 ] } },
{ "type": "Feature", "properties": { "visible_points": 17, "total_points": 113, "visibility_pct": 15.044247787610621 }, "geometry": { "type": "Point", "coordinates": [ -0.154099688160486, 50.837104553088679 ] } },
{ "type": "Feature", "properties": { "visible_points": 16, "total_points": 105, "visibility_pct": 15.238095238095239 }, "geometry": { "type": "Point", "coordinates": [ -0.153903013727224, 50.837101442126801 ] } },
{ "type": "Feature", "properties": { "visible_points": 0, "total_points": 96, "visibility_pct": 0.0 }, "geometry": { "type": "Point", "coordinates": [ -0.153706339328959, 50.837098330834195 ] } },
{ "type": "Feature", "properties": { "visible_points": 1, "total_points": 86, "visibility_pct": 1.1627906976744187 }, "geometry": { "type": "Point", "coordinates": [ -0.153509664965684, 50.837095219210916 ] } },
{ "type": "Feature", "properties": { "visible_points": 0, "total_points": 88, "visibility_pct": 0.0 }, "geometry": { "type": "Point", "coordinates": [ -0.155570498134757, 50.837235731423192 ] } },
{ "type": "Feature", "properties": { "visible_points": 3, "total_points": 98, "visibility_pct": 3.0612244897959182 }, "geometry": { "type": "Point", "coordinates": [ -0.155373822984294, 50.837232622918343 ] } },
{ "type": "Feature", "properties": { "visible_points": 0, "total_points": 107, "visibility_pct": 0.0 }, "geometry": { "type": "Point", "coordinates": [ -0.155177147868798, 50.837229514082821 ] } },
{ "type": "Feature", "properties": { "visible_points": 0, "total_points": 115, "visibility_pct": 0.0 }, "geometry": { "type": "Point", "coordinates": [ -0.15498047278827, 50.837226404916571 ] } },
{ "type": "Feature", "properties": { "visible_points": 18, "total_points": 120, "visibility_pct": 15.0 }, "geometry": { "type": "Point", "coordinates": [ -0.154783797742713, 50.837223295419605 ] } },
{ "type": "Feature", "properties": { "visible_points": 19, "total_points": 120, "visibility_pct": 15.833333333333332 }, "geometry": { "type": "Point", "coordinates": [ -0.154587122732128, 50.837220185591931 ] } },
{ "type": "Feature", "properties": { "visible_points": 20, "total_points": 118, "visibility_pct": 16.949152542372879 }, "geometry": { "type": "Point", "coordinates": [ -0.154390447756524, 50.837217075433571 ] } },
{ "type": "Feature", "properties": { "visible_points": 16, "total_points": 112, "visibility_pct": 14.285714285714285 }, "geometry": { "type": "Point", "coordinates": [ -0.1541937728159, 50.837213964944468 ] } },
{ "type": "Feature", "properties": { "visible_points": 19, "total_points": 104, "visibility_pct": 18.269230769230766 }, "geometry": { "type": "Point", "coordinates": [ -0.153997097910263, 50.837210854124677 ] } },
{ "type": "Feature", "properties": { "visible_points": 9, "total_points": 95, "visibility_pct": 9.4736842105263168 }, "geometry": { "type": "Point", "coordinates": [ -0.153800423039621, 50.837207742974172 ] } },
{ "type": "Feature", "properties": { "visible_points": 6, "total_points": 85, "visibility_pct": 7.0588235294117645 }, "geometry": { "type": "Point", "coordinates": [ -0.153603748203962, 50.837204631492938 ] } },
{ "type": "Feature", "properties": { "visible_points": 0, "total_points": 88, "visibility_pct": 0.0 }, "geometry": { "type": "Point", "coordinates": [ -0.155467910911337, 50.837342033859485 ] } },
{ "type": "Feature", "properties": { "visible_points": 0, "total_points": 98, "visibility_pct": 0.0 }, "geometry": { "type": "Point", "coordinates": [ -0.155271235323469, 50.837338925166037 ] } },
{ "type": "Feature", "properties": { "visible_points": 0, "total_points": 107, "visibility_pct": 0.0 }, "geometry": { "type": "Point", "coordinates": [ -0.155074559770572, 50.837335816141866 ] } },
{ "type": "Feature", "properties": { "visible_points": 22, "total_points": 115, "visibility_pct": 19.130434782608695 }, "geometry": { "type": "Point", "coordinates": [ -0.154877884252635, 50.837332706786995 ] } },
{ "type": "Feature", "properties": { "visible_points": 18, "total_points": 120, "visibility_pct": 15.0 }, "geometry": { "type": "Point", "coordinates": [ -0.154681208769681, 50.837329597101409 ] } },
{ "type": "Feature", "properties": { "visible_points": 21, "total_points": 117, "visibility_pct": 17.948717948717949 }, "geometry": { "type": "Point", "coordinates": [ -0.154484533321694, 50.837326487085129 ] } },
{ "type": "Feature", "properties": { "visible_points": 20, "total_points": 111, "visibility_pct": 18.018018018018019 }, "geometry": { "type": "Point", "coordinates": [ -0.154287857908697, 50.837323376738105 ] } },
{ "type": "Feature", "properties": { "visible_points": 22, "total_points": 103, "visibility_pct": 21.359223300970871 }, "geometry": { "type": "Point", "coordinates": [ -0.154091182530677, 50.837320266060388 ] } },
{ "type": "Feature", "properties": { "visible_points": 0, "total_points": 94, "visibility_pct": 0.0 }, "geometry": { "type": "Point", "coordinates": [ -0.153894507187649, 50.837317155051977 ] } },
{ "type": "Feature", "properties": { "visible_points": 1, "total_points": 84, "visibility_pct": 1.1904761904761905 }, "geometry": { "type": "Point", "coordinates": [ -0.153697831879613, 50.837314043712837 ] } },
{ "type": "Feature", "properties": { "visible_points": 2, "total_points": 88, "visibility_pct": 2.2727272727272729 }, "geometry": { "type": "Point", "coordinates": [ -0.155365323215535, 50.837448336187101 ] } },
{ "type": "Feature", "properties": { "visible_points": 9, "total_points": 98, "visibility_pct": 9.183673469387756 }, "geometry": { "type": "Point", "coordinates": [ -0.155168647190258, 50.837445227305025 ] } },
{ "type": "Feature", "properties": { "visible_points": 21, "total_points": 107, "visibility_pct": 19.626168224299064 }, "geometry": { "type": "Point", "coordinates": [ -0.154971971199951, 50.837442118092241 ] } },
{ "type": "Feature", "properties": { "visible_points": 19, "total_points": 115, "visibility_pct": 16.521739130434781 }, "geometry": { "type": "Point", "coordinates": [ -0.154775295244612, 50.837439008548749 ] } },
{ "type": "Feature", "properties": { "visible_points": 19, "total_points": 115, "visibility_pct": 16.521739130434781 }, "geometry": { "type": "Point", "coordinates": [ -0.154578619324252, 50.837435898674528 ] } },
{ "type": "Feature", "properties": { "visible_points": 20, "total_points": 109, "visibility_pct": 18.348623853211009 }, "geometry": { "type": "Point", "coordinates": [ -0.154381943438868, 50.837432788469606 ] } },
{ "type": "Feature", "properties": { "visible_points": 18, "total_points": 101, "visibility_pct": 17.82178217821782 }, "geometry": { "type": "Point", "coordinates": [ -0.154185267588471, 50.837429677933976 ] } },
{ "type": "Feature", "properties": { "visible_points": 0, "total_points": 92, "visibility_pct": 0.0 }, "geometry": { "type": "Point", "coordinates": [ -0.153988591773054, 50.837426567067624 ] } },
{ "type": "Feature", "properties": { "visible_points": 2, "total_points": 82, "visibility_pct": 2.4390243902439024 }, "geometry": { "type": "Point", "coordinates": [ -0.153791915992634, 50.837423455870557 ] } },
{ "type": "Feature", "properties": { "visible_points": 0, "total_points": 88, "visibility_pct": 0.0 }, "geometry": { "type": "Point", "coordinates": [ -0.155262735047341, 50.837554638406012 ] } },
{ "type": "Feature", "properties": { "visible_points": 13, "total_points": 98, "visibility_pct": 13.26530612244898 }, "geometry": { "type": "Point", "coordinates": [ -0.155066058584653, 50.837551529335322 ] } },
{ "type": "Feature", "properties": { "visible_points": 24, "total_points": 106, "visibility_pct": 22.641509433962266 }, "geometry": { "type": "Point", "coordinates": [ -0.154869382156936, 50.83754841993391 ] } },
{ "type": "Feature", "properties": { "visible_points": 23, "total_points": 108, "visibility_pct": 21.296296296296298 }, "geometry": { "type": "Point", "coordinates": [ -0.154672705764194, 50.837545310201783 ] } },
{ "type": "Feature", "properties": { "visible_points": 21, "total_points": 107, "visibility_pct": 19.626168224299064 }, "geometry": { "type": "Point", "coordinates": [ -0.154476029406426, 50.837542200138948 ] } },
{ "type": "Feature", "properties": { "visible_points": 13, "total_points": 99, "visibility_pct": 13.131313131313133 }, "geometry": { "type": "Point", "coordinates": [ -0.154279353083643, 50.837539089745405 ] } },
{ "type": "Feature", "properties": { "visible_points": 0, "total_points": 90, "visibility_pct": 0.0 }, "geometry": { "type": "Point", "coordinates": [ -0.154082676795843, 50.837535979021133 ] } },
{ "type": "Feature", "properties": { "visible_points": 2, "total_points": 80, "visibility_pct": 2.5 }, "geometry": { "type": "Point", "coordinates": [ -0.153886000543031, 50.837532867966168 ] } },
{ "type": "Feature", "properties": { "visible_points": 0, "total_points": 86, "visibility_pct": 0.0 }, "geometry": { "type": "Point", "coordinates": [ -0.155160146406748, 50.83766094051623 ] } },
{ "type": "Feature", "properties": { "visible_points": 17, "total_points": 93, "visibility_pct": 18.27956989247312 }, "geometry": { "type": "Point", "coordinates": [ -0.154963469506651, 50.837657831256905 ] } },
{ "type": "Feature", "properties": { "visible_points": 23, "total_points": 96, "visibility_pct": 23.958333333333336 }, "geometry": { "type": "Point", "coordinates": [ -0.154766792641527, 50.837654721666873 ] } },
{ "type": "Feature", "properties": { "visible_points": 15, "total_points": 97, "visibility_pct": 15.463917525773196 }, "geometry": { "type": "Point", "coordinates": [ -0.154570115811375, 50.837651611746132 ] } },
{ "type": "Feature", "properties": { "visible_points": 0, "total_points": 95, "visibility_pct": 0.0 }, "geometry": { "type": "Point", "coordinates": [ -0.154373439016202, 50.837648501494662 ] } },
{ "type": "Feature", "properties": { "visible_points": 0, "total_points": 87, "visibility_pct": 0.0 }, "geometry": { "type": "Point", "coordinates": [ -0.154176762256013, 50.837645390912485 ] } },
{ "type": "Feature", "properties": { "visible_points": 1, "total_points": 78, "visibility_pct": 1.2820512820512819 }, "geometry": { "type": "Point", "coordinates": [ -0.153980085530814, 50.837642279999585 ] } },
{ "type": "Feature", "properties": { "visible_points": 0, "total_points": 80, "visibility_pct": 0.0 }, "geometry": { "type": "Point", "coordinates": [ -0.155057557293761, 50.837767242517756 ] } },
{ "type": "Feature", "properties": { "visible_points": 16, "total_points": 84, "visibility_pct": 19.047619047619047 }, "geometry": { "type": "Point", "coordinates": [ -0.154860879956252, 50.837764133069825 ] } },
{ "type": "Feature", "properties": { "visible_points": 0, "total_points": 85, "visibility_pct": 0.0 }, "geometry": { "type": "Point", "coordinates": [ -0.154664202653708, 50.837761023291158 ] } },
{ "type": "Feature", "properties": { "visible_points": 1, "total_points": 85, "visibility_pct": 1.1764705882352942 }, "geometry": { "type": "Point", "coordinates": [ -0.154467525386154, 50.837757913181761 ] } },
{ "type": "Feature", "properties": { "visible_points": 1, "total_points": 82, "visibility_pct": 1.2195121951219512 }, "geometry": { "type": "Point", "coordinates": [ -0.154270848153573, 50.837754802741692 ] } },
{ "type": "Feature", "properties": { "visible_points": 0, "total_points": 72, "visibility_pct": 0.0 }, "geometry": { "type": "Point", "coordinates": [ -0.154954967708373, 50.837873544410591 ] } },
{ "type": "Feature", "properties": { "visible_points": 5, "total_points": 74, "visibility_pct": 6.756756756756757 }, "geometry": { "type": "Point", "coordinates": [ -0.154758289933445, 50.837870434774018 ] } },
{ "type": "Feature", "properties": { "visible_points": 2, "total_points": 74, "visibility_pct": 2.7027027027027026 }, "geometry": { "type": "Point", "coordinates": [ -0.154561612193493, 50.837867324806737 ] } },
{ "type": "Feature", "properties": { "visible_points": 2, "total_points": 73, "visibility_pct": 2.7397260273972601 }, "geometry": { "type": "Point", "coordinates": [ -0.154364934488524, 50.837864214508727 ] } },
{ "type": "Feature", "properties": { "visible_points": 0, "total_points": 63, "visibility_pct": 0.0 }, "geometry": { "type": "Point", "coordinates": [ -0.154852377650574, 50.837979846194742 ] } },
{ "type": "Feature", "properties": { "visible_points": 0, "total_points": 64, "visibility_pct": 0.0 }, "geometry": { "type": "Point", "coordinates": [ -0.154655699438235, 50.837976736369534 ] } },
{ "type": "Feature", "properties": { "visible_points": 0, "total_points": 63, "visibility_pct": 0.0 }, "geometry": { "type": "Point", "coordinates": [ -0.154459021260866, 50.837973626213603 ] } },
{ "type": "Feature", "properties": { "visible_points": 0, "total_points": 54, "visibility_pct": 0.0 }, "geometry": { "type": "Point", "coordinates": [ -0.15474978712037, 50.838086147870179 ] } }
]
}
