{
"type": "FeatureCollection",
"name": "bba3887b1bca_visibility",
"crs": { "type": "name", "properties": { "name": "urn:ogc:def:crs:OGC:1.3:CRS84" } },
"features": [
{ "type": "Feature", "properties": { "visible_points": 11, "total_points": 76, "visibility_pct": 14.473684210526317 }, "geometry": { "type": "Point", "coordinates": [ -0.705461791207906, 51.304453366558683 ] } },
{ "type": "Feature", "properties": { "visible_points": 9, "total_points": 72, "visibility_pct": 12.5 }, "geometry": { "type": "Point", "coordinates": [ -0.705263073875727, 51.304451166339511 ] } },
{ "type": "Feature", "properties": { "visible_points": 8, "total_points": 67, "visibility_pct": 11.940298507462686 }, "geometry": { "type": "Point", "coordinates": [ -0.705064356569048, 51.304448965783543 ] } },
{ "type": "Feature", "properties": { "visible_points": 9, "total_points": 62, "visibility_pct": 14.516129032258066 }, "geometry": { "type": "Point", "coordinates": [ -0.704865639287872, 51.304446764890749 ] } },
{ "type": "Feature", "properties": { "visible_points": 0, "total_points": 62, "visibility_pct": 0.0 }, "geometry": { "type": "Point", "coordinates": [ -0.706949139750563, 51.304577730199313 ] } },
{ "type": "Feature", "properties": { "visible_points": 0, "total_points": 71, "visibility_pct": 0.0 }, "geometry": { "type": "Point", "coordinates": [ -0.706750421751991, 51.304575532489892 ] } },
{ "type": "Feature", "properties": { "visible_points": 0, "total_points": 79, "visibility_pct": 0.0 }, "geometry": { "type": "Point", "coordinates": [ -0.706551703778885, 51.30457333444366 ] } },
{ "type": "Feature", "properties": { "visible_points": 0, "total_points": 84, "visibility_pct": 0.0 }, "geometry": { "type": "Point", "coordinates": [ -0.706352985831248, 51.304571136060595 ] } },
{ "type": "Feature", "properties": { "visible_points": 3, "total_points": 87, "visibility_pct": 3.4482758620689653 }, "geometry": { "type": "Point", "coordinates": [ -0.706154267909087, 51.304568937340711 ] } },
{ "type": "Feature", "properties": { "visible_points": 6, "total_points": 90, "visibility_pct": 6.666666666666667 }, "geometry": { "type": "Point", "coordinates": [ -0.705955550012409, 51.304566738284002 ] } },
{ "type": "Feature", "properties": { "visible_points": 5, "total_points": 91, "visibility_pct": 5.4945054945054945 }, "geometry": { "type": "Point", "coordinates": [ -0.705756832141212, 51.304564538890489 ] } },
{ "type": "Feature", "properties": { "visible_points": 3, "total_points": 89, "visibility_pct": 3.3707865168539324 }, "geometry": { "type": "Point", "coordinates": [ -0.705558114295506, 51.304562339160135 ] } },
{ "type": "Feature", "properties": { "visible_points": 0, "total_points": 85, "visibility_pct": 0.0 }, "geometry": { "type": "Point", "coordinates": [ -0.705359396475291, 51.304560139092992 ] } },
{ "type": "Feature", "properties": { "visible_points": 0, "total_points": 80, "visibility_pct": 0.0 }, "geometry": { "type": "Point", "coordinates": [ -0.705160678680569, 51.304557938689008 ] } },
{ "type": "Feature", "properties": { "visible_points": 8, "total_points": 75, "visibility_pct": 10.666666666666668 }, "geometry": { "type": "Point", "coordinates": [ -0.704961960911348, 51.304555737948206 ] } },
{ "type": "Feature", "properties": { "visible_points": 6, "total_points": 71, "visibility_pct": 8.4507042253521121 }, "geometry": { "type": "Point", "coordinates": [ -0.704763243167631, 51.3045535368706 ] } },
{ "type": "Feature", "properties": { "visible_points": 0, "total_points": 63, "visibility_pct": 0.0 }, "geometry": { "type": "Point", "coordinates": [ -0.707045466716941, 51.304686701666604 ] } },
{ "type": "Feature", "properties": { "visible_points": 0, "total_points": 73, "visibility_pct": 0.0 }, "geometry": { "type": "Point", "coordinates": [ -0.706846748230338, 51.30468450410919 ] } },
{ "type": "Feature", "properties": { "visible_points": 0, "total_points": 83, "visibility_pct": 0.0 }, "geometry": { "type": "Point", "coordinates": [ -0.706648029769199, 51.304682306214964 ] } },
{ "type": "Feature", "properties": { "visible_points": 0, "total_points": 92, "visibility_pct": 0.0 }, "geometry": { "type": "Point", "coordinates": [ -0.706449311333532, 51.304680107983906 ] } },
{ "type": "Feature", "properties": { "visible_points": 0, "total_points": 96, "visibility_pct": 0.0 }, "geometry": { "type": "Point", "coordinates": [ -0.706250592923337, 51.304677909416021 ] } },
{ "type": "Feature", "properties": { "visible_points": 10, "total_points": 99, "visibility_pct": 10.1010101010101 }, "geometry": { "type": "Point", "coordinates": [ -0.706051874538627, 51.304675710511326 ] } },
{ "type": "Feature", "properties": { "visible_points": 1, "total_points": 100, "visibility_pct": 1.0 }, "geometry": { "type": "Point", "coordinates": [ -0.705853156179393, 51.304673511269804 ] } },
{ "type": "Feature", "properties": { "visible_points": 6, "total_points": 101, "visibility_pct": 5.9405940594059405 }, "geometry": { "type": "Point", "coordinates": [ -0.705654437845643, 51.304671311691457 ] } },
{ "type": "Feature", "properties": { "visible_points": 11, "total_points": 98, "visibility_pct": 11.224489795918368 }, "geometry": { "type": "Point", "coordinates": [ -0.705455719537387, 51.304669111776313 ] } },
{ "type": "Feature", "properties": { "visible_points": 10, "total_points": 93, "visibility_pct": 10.75268817204301 }, "geometry": { "type": "Point", "coordinates": [ -0.705257001254625, 51.304666911524315 ] } },
{ "type": "Feature", "properties": { "visible_points": 16, "total_points": 88, "visibility_pct": 18.181818181818183 }, "geometry": { "type": "Point", "coordinates": [ -0.70505828299736, 51.304664710935512 ] } },
{ "type": "Feature", "properties": { "visible_points": 10, "total_points": 84, "visibility_pct": 11.904761904761903 }, "geometry": { "type": "Point", "coordinates": [ -0.704859564765599, 51.304662510009898 ] } },
{ "type": "Feature", "properties": { "visible_points": 0, "total_points": 62, "visibility_pct": 0.0 }, "geometry": { "type": "Point", "coordinates": [ -0.707141794145876, 51.304795673063722 ] } },
{ "type": "Feature", "properties": { "visible_points": 0, "total_points": 73, "visibility_pct": 0.0 }, "geometry": { "type": "Point", "coordinates": [ -0.70694307517124, 51.304793475658329 ] } },
{ "type": "Feature", "properties": { "visible_points": 0, "total_points": 84, "visibility_pct": 0.0 }, "geometry": { "type": "Point", "coordinates": [ -0.706744356222073, 51.304791277916109 ] } },
{ "type": "Feature", "properties": { "visible_points": 15, "total_points": 95, "visibility_pct": 15.789473684210526 }, "geometry": { "type": "Point", "coordinates": [ -0.706545637298372, 51.304789079837057 ] } },
{ "type": "Feature", "properties": { "visible_points": 15, "total_points": 105, "visibility_pct": 14.285714285714285 }, "geometry": { "type": "Point", "coordinates": [ -0.706346918400139, 51.304786881421187 ] } },
{ "type": "Feature", "properties": { "visible_points": 20, "total_points": 107, "visibility_pct": 18.691588785046729 }, "geometry": { "type": "Point", "coordinates": [ -0.706148199527388, 51.304784682668476 ] } },
{ "type": "Feature", "properties": { "visible_points": 4, "total_points": 108, "visibility_pct": 3.7037037037037033 }, "geometry": { "type": "Point", "coordinates": [ -0.705949480680118, 51.304782483578975 ] } },
{ "type": "Feature", "properties": { "visible_points": 0, "total_points": 109, "visibility_pct": 0.0 }, "geometry": { "type": "Point", "coordinates": [ -0.70575076185833, 51.304780284152621 ] } },
{ "type": "Feature", "properties": { "visible_points": 6, "total_points": 110, "visibility_pct": 5.4545454545454541 }, "geometry": { "type": "Point", "coordinates": [ -0.705552043062028, 51.304778084389476 ] } },
{ "type": "Feature", "properties": { "visible_points": 11, "total_points": 106, "visibility_pct": 10.377358490566039 }, "geometry": { "type": "Point", "coordinates": [ -0.705353324291219, 51.304775884289477 ] } },
{ "type": "Feature", "properties": { "visible_points": 10, "total_points": 101, "visibility_pct": 9.9009900990099009 }, "geometry": { "type": "Point", "coordinates": [ -0.705154605545913, 51.304773683852666 ] } },
{ "type": "Feature", "properties": { "visible_points": 12, "total_points": 96, "visibility_pct": 12.5 }, "geometry": { "type": "Point", "coordinates": [ -0.704955886826099, 51.304771483079023 ] } },
{ "type": "Feature", "properties": { "visible_points": 15, "total_points": 91, "visibility_pct": 16.483516483516482 }, "geometry": { "type": "Point", "coordinates": [ -0.704757168131791, 51.304769281968589 ] } },
{ "type": "Feature", "properties": { "visible_points": 0, "total_points": 59, "visibility_pct": 0.0 }, "geometry": { "type": "Point", "coordinates": [ -0.707238122037372, 51.304904644390703 ] } },
{ "type": "Feature", "properties": { "visible_points": 0, "total_points": 71, "visibility_pct": 0.0 }, "geometry": { "type": "Point", "coordinates": [ -0.707039402574706, 51.304902447137309 ] } },
{ "type": "Feature", "properties": { "visible_points": 0, "total_points": 83, "visibility_pct": 0.0 }, "geometry": { "type": "Point", "coordinates": [ -0.706840683137501, 51.304900249547082 ] } },
{ "type": "Feature", "properties": { "visible_points": 17, "total_points": 95, "visibility_pct": 17.894736842105264 }, "geometry": { "type": "Point", "coordinates": [ -0.706641963725765, 51.304898051620022 ] } },
{ "type": "Feature", "properties": { "visible_points": 22, "total_points": 107, "visibility_pct": 20.5607476635514 }, "geometry": { "type": "Point", "coordinates": [ -0.706443244339495, 51.304895853356165 ] } },
{ "type": "Feature", "properties": { "visible_points": 23, "total_points": 115, "visibility_pct": 20.0 }, "geometry": { "type": "Point", "coordinates": [ -0.706244524978704, 51.304893654755475 ] } },
{ "type": "Feature", "properties": { "visible_points": 25, "total_points": 115, "visibility_pct": 21.739130434782609 }, "geometry": { "type": "Point", "coordinates": [ -0.706045805643391, 51.304891455817973 ] } },
{ "type": "Feature", "properties": { "visible_points": 9, "total_points": 115, "visibility_pct": 7.8260869565217401 }, "geometry": { "type": "Point", "coordinates": [ -0.705847086333558, 51.304889256543625 ] } },
{ "type": "Feature", "properties": { "visible_points": 20, "total_points": 116, "visibility_pct": 17.241379310344829 }, "geometry": { "type": "Point", "coordinates": [ -0.705648367049215, 51.304887056932458 ] } },
{ "type": "Feature", "properties": { "visible_points": 14, "total_points": 117, "visibility_pct": 11.965811965811966 }, "geometry": { "type": "Point", "coordinates": [ -0.70544964779036, 51.304884856984458 ] } },
{ "type": "Feature", "properties": { "visible_points": 13, "total_points": 113, "visibility_pct": 11.504424778761061 }, "geometry": { "type": "Point", "coordinates": [ -0.705250928557, 51.304882656699654 ] } },
{ "type": "Feature", "properties": { "visible_points": 14, "total_points": 107, "visibility_pct": 13.084112149532709 }, "geometry": { "type": "Point", "coordinates": [ -0.705052209349138, 51.304880456078024 ] } },
{ "type": "Feature", "properties": { "visible_points": 10, "total_points": 103, "visibility_pct": 9.7087378640776691 }, "geometry": { "type": "Point", "coordinates": [ -0.704853490166778, 51.304878255119547 ] } },
{ "type": "Feature", "properties": { "visible_points": 28, "total_points": 95, "visibility_pct": 29.473684210526311 }, "geometry": { "type": "Point", "coordinates": [ -0.704654771009929, 51.304876053824273 ] } },
{ "type": "Feature", "properties": { "visible_points": 0, "total_points": 66, "visibility_pct": 0.0 }, "geometry": { "type": "Point", "coordinates": [ -0.707135730440734, 51.305011418546101 ] } },
{ "type": "Feature", "properties": { "visible_points": 0, "total_points": 79, "visibility_pct": 0.0 }, "geometry": { "type": "Point", "coordinates": [ -0.706937010515494, 51.305009221107888 ] } },
{ "type": "Feature", "properties": { "visible_points": 14, "total_points": 92, "visibility_pct": 15.217391304347828 }, "geometry": { "type": "Point", "coordinates": [ -0.706738290615718, 51.305007023332855 ] } },
{ "type": "Feature", "properties": { "visible_points": 23, "total_points": 105, "visibility_pct": 21.904761904761905 }, "geometry": { "type": "Point", "coordinates": [ -0.706539570741412, 51.30500482522099 ] } },
{ "type": "Feature", "properties": { "visible_points": 27, "total_points": 115, "visibility_pct": 23.478260869565219 }, "geometry": { "type": "Point", "coordinates": [ -0.706340850892577, 51.3050026267723 ] } },
{ "type": "Feature", "properties": { "visible_points": 26, "total_points": 120, "visibility_pct": 21.666666666666668 }, "geometry": { "type": "Point", "coordinates": [ -0.706142131069218, 51.305000427986805 ] } },
{ "type": "Feature", "properties": { "visible_points": 28, "total_points": 120, "visibility_pct": 23.333333333333332 }, "geometry": { "type": "Point", "coordinates": [ -0.705943411271344, 51.304998228864449 ] } },
{ "type": "Feature", "properties": { "visible_points": 38, "total_points": 120, "visibility_pct": 31.666666666666664 }, "geometry": { "type": "Point", "coordinates": [ -0.70574469149895, 51.304996029405309 ] } },
{ "type": "Feature", "properties": { "visible_points": 21, "total_points": 120, "visibility_pct": 17.5 }, "geometry": { "type": "Point", "coordinates": [ -0.705545971752048, 51.304993829609316 ] } },
{ "type": "Feature", "properties": { "visible_points": 13, "total_points": 120, "visibility_pct": 10.833333333333334 }, "geometry": { "type": "Point", "coordinates": [ -0.705347252030636, 51.30499162947649 ] } },
{ "type": "Feature", "properties": { "visible_points": 15, "total_points": 115, "visibility_pct": 13.043478260869565 }, "geometry": { "type": "Point", "coordinates": [ -0.705148532334725, 51.304989429006859 ] } },
{ "type": "Feature", "properties": { "visible_points": 8, "total_points": 109, "visibility_pct": 7.3394495412844041 }, "geometry": { "type": "Point", "coordinates": [ -0.704949812664307, 51.304987228200389 ] } },
{ "type": "Feature", "properties": { "visible_points": 19, "total_points": 103, "visibility_pct": 18.446601941747574 }, "geometry": { "type": "Point", "coordinates": [ -0.704751093019399, 51.3049850270571 ] } },
{ "type": "Feature", "properties": { "visible_points": 37, "total_points": 92, "visibility_pct": 40.217391304347828 }, "geometry": { "type": "Point", "coordinates": [ -0.7045523734, 51.304982825576985 ] } },
{ "type": "Feature", "properties": { "visible_points": 15, "total_points": 54, "visibility_pct": 27.777777777777779 }, "geometry": { "type": "Point", "coordinates": [ -0.703956214694887, 51.30497621911573 ] } },
{ "type": "Feature", "properties": { "visible_points": 11, "total_points": 42, "visibility_pct": 26.190476190476193 }, "geometry": { "type": "Point", "coordinates": [ -0.703757495177556, 51.30497401628832 ] } },
{ "type": "Feature", "properties": { "visible_points": 0, "total_points": 71, "visibility_pct": 0.0 }, "geometry": { "type": "Point", "coordinates": [ -0.707033338356052, 51.305118192598549 ] } },
{ "type": "Feature", "properties": { "visible_points": 0, "total_points": 84, "visibility_pct": 0.0 }, "geometry": { "type": "Point", "coordinates": [ -0.706834617968236, 51.305115994975502 ] } },
{ "type": "Feature", "properties": { "visible_points": 19, "total_points": 97, "visibility_pct": 19.587628865979383 }, "geometry": { "type": "Point", "coordinates": [ -0.706635897605887, 51.305113797015657 ] } },
{ "type": "Feature", "properties": { "visible_points": 26, "total_points": 107, "visibility_pct": 24.299065420560748 }, "geometry": { "type": "Point", "coordinates": [ -0.706437177269009, 51.305111598718973 ] } },
{ "type": "Feature", "properties": { "visible_points": 24, "total_points": 115, "visibility_pct": 20.869565217391305 }, "geometry": { "type": "Point", "coordinates": [ -0.706238456957603, 51.30510940008547 ] } },
{ "type": "Feature", "properties": { "visible_points": 25, "total_points": 120, "visibility_pct": 20.833333333333336 }, "geometry": { "type": "Point", "coordinates": [ -0.70603973667168, 51.305107201115142 ] } },
{ "type": "Feature", "properties": { "visible_points": 34, "total_points": 120, "visibility_pct": 28.333333333333332 }, "geometry": { "type": "Point", "coordinates": [ -0.705841016411241, 51.305105001807974 ] } },
{ "type": "Feature", "properties": { "visible_points": 21, "total_points": 120, "visibility_pct": 17.5 }, "geometry": { "type": "Point", "coordinates": [ -0.705642296176286, 51.305102802163994 ] } },
{ "type": "Feature", "properties": { "visible_points": 13, "total_points": 120, "visibility_pct": 10.833333333333334 }, "geometry": { "type": "Point", "coordinates": [ -0.705443575966822, 51.305100602183181 ] } },
{ "type": "Feature", "properties": { "visible_points": 15, "total_points": 119, "visibility_pct": 12.605042016806722 }, "geometry": { "type": "Point", "coordinates": [ -0.705244855782852, 51.305098401865536 ] } },
{ "type": "Feature", "properties": { "visible_points": 20, "total_points": 115, "visibility_pct": 17.391304347826086 }, "geometry": { "type": "Point", "coordinates": [ -0.705046135624385, 51.305096201211065 ] } },
{ "type": "Feature", "properties": { "visible_points": 2, "total_points": 108, "visibility_pct": 1.8518518518518516 }, "geometry": { "type": "Point", "coordinates": [ -0.704847415491414, 51.305094000219775 ] } },
{ "type": "Feature", "properties": { "visible_points": 19, "total_points": 101, "visibility_pct": 18.811881188118811 }, "geometry": { "type": "Point", "coordinates": [ -0.704648695383954, 51.305091798891659 ] } },
{ "type": "Feature", "properties": { "visible_points": 15, "total_points": 88, "visibility_pct": 17.045454545454543 }, "geometry": { "type": "Point", "coordinates": [ -0.704449975302006, 51.305089597226726 ] } },
{ "type": "Feature", "properties": { "visible_points": 12, "total_points": 75, "visibility_pct": 16.0 }, "geometry": { "type": "Point", "coordinates": [ -0.704251255245567, 51.305087395224966 ] } },
{ "type": "Feature", "properties": { "visible_points": 15, "total_points": 62, "visibility_pct": 24.193548387096776 }, "geometry": { "type": "Point", "coordinates": [ -0.704052535214652, 51.305085192886359 ] } },
{ "type": "Feature", "properties": { "visible_points": 14, "total_points": 50, "visibility_pct": 28.000000000000004 }, "geometry": { "type": "Point", "coordinates": [ -0.703853815209256, 51.305082990210963 ] } },
{ "type": "Feature", "properties": { "visible_points": 1, "total_points": 75, "visibility_pct": 1.3333333333333335 }, "geometry": { "type": "Point", "coordinates": [ -0.706930945783323, 51.305224966547996 ] } },
{ "type": "Feature", "properties": { "visible_points": 0, "total_points": 87, "visibility_pct": 0.0 }, "geometry": { "type": "Point", "coordinates": [ -0.706732224932929, 51.305222768740144 ] } },
{ "type": "Feature", "properties": { "visible_points": 19, "total_points": 98, "visibility_pct": 19.387755102040817 }, "geometry": { "type": "Point", "coordinates": [ -0.706533504108005, 51.305220570595473 ] } },
{ "type": "Feature", "properties": { "visible_points": 26, "total_points": 107, "visibility_pct": 24.299065420560748 }, "geometry": { "type": "Point", "coordinates": [ -0.706334783308551, 51.305218372113977 ] } },
{ "type": "Feature", "properties": { "visible_points": 27, "total_points": 115, "visibility_pct": 23.478260869565219 }, "geometry": { "type": "Point", "coordinates": [ -0.706136062534579, 51.305216173295648 ] } },
{ "type": "Feature", "properties": { "visible_points": 33, "total_points": 120, "visibility_pct": 27.5 }, "geometry": { "type": "Point", "coordinates": [ -0.705937341786087, 51.305213974140486 ] } },
{ "type": "Feature", "properties": { "visible_points": 36, "total_points": 120, "visibility_pct": 30.0 }, "geometry": { "type": "Point", "coordinates": [ -0.705738621063079, 51.305211774648519 ] } },
{ "type": "Feature", "properties": { "visible_points": 18, "total_points": 120, "visibility_pct": 15.0 }, "geometry": { "type": "Point", "coordinates": [ -0.705539900365559, 51.305209574819706 ] } },
{ "type": "Feature", "properties": { "visible_points": 13, "total_points": 119, "visibility_pct": 10.92436974789916 }, "geometry": { "type": "Point", "coordinates": [ -0.705341179693533, 51.305207374654053 ] } },
{ "type": "Feature", "properties": { "visible_points": 18, "total_points": 118, "visibility_pct": 15.254237288135593 }, "geometry": { "type": "Point", "coordinates": [ -0.705142459047008, 51.305205174151595 ] } },
{ "type": "Feature", "properties": { "visible_points": 11, "total_points": 113, "visibility_pct": 9.7345132743362832 }, "geometry": { "type": "Point", "coordinates": [ -0.70494373842598, 51.305202973312291 ] } },
{ "type": "Feature", "properties": { "visible_points": 21, "total_points": 105, "visibility_pct": 20.0 }, "geometry": { "type": "Point", "coordinates": [ -0.704745017830455, 51.305200772136168 ] } },
{ "type": "Feature", "properties": { "visible_points": 22, "total_points": 72, "visibility_pct": 30.555555555555557 }, "geometry": { "type": "Point", "coordinates": [ -0.704148856196956, 51.305194166586865 ] } },
{ "type": "Feature", "properties": { "visible_points": 1, "total_points": 76, "visibility_pct": 1.3157894736842104 }, "geometry": { "type": "Point", "coordinates": [ -0.706828552722539, 51.305331740394472 ] } },
{ "type": "Feature", "properties": { "visible_points": 0, "total_points": 88, "visibility_pct": 0.0 }, "geometry": { "type": "Point", "coordinates": [ -0.706629831409569, 51.305329542401815 ] } },
{ "type": "Feature", "properties": { "visible_points": 19, "total_points": 98, "visibility_pct": 19.387755102040817 }, "geometry": { "type": "Point", "coordinates": [ -0.706431110122066, 51.30532734407231 ] } },
{ "type": "Feature", "properties": { "visible_points": 23, "total_points": 107, "visibility_pct": 21.495327102803738 }, "geometry": { "type": "Point", "coordinates": [ -0.706232388860041, 51.305325145405995 ] } },
{ "type": "Feature", "properties": { "visible_points": 28, "total_points": 115, "visibility_pct": 24.347826086956523 }, "geometry": { "type": "Point", "coordinates": [ -0.706033667623494, 51.305322946402846 ] } },
{ "type": "Feature", "properties": { "visible_points": 31, "total_points": 120, "visibility_pct": 25.833333333333336 }, "geometry": { "type": "Point", "coordinates": [ -0.705834946412429, 51.305320747062865 ] } },
{ "type": "Feature", "properties": { "visible_points": 18, "total_points": 120, "visibility_pct": 15.0 }, "geometry": { "type": "Point", "coordinates": [ -0.705636225226857, 51.305318547386058 ] } },
{ "type": "Feature", "properties": { "visible_points": 10, "total_points": 119, "visibility_pct": 8.4033613445378155 }, "geometry": { "type": "Point", "coordinates": [ -0.705437504066773, 51.305316347372418 ] } },
{ "type": "Feature", "properties": { "visible_points": 20, "total_points": 118, "visibility_pct": 16.949152542372879 }, "geometry": { "type": "Point", "coordinates": [ -0.705238782932179, 51.305314147021953 ] } },
{ "type": "Feature", "properties": { "visible_points": 11, "total_points": 115, "visibility_pct": 9.5652173913043477 }, "geometry": { "type": "Point", "coordinates": [ -0.70504006182309, 51.305311946334669 ] } },
{ "type": "Feature", "properties": { "visible_points": 32, "total_points": 110, "visibility_pct": 29.09090909090909 }, "geometry": { "type": "Point", "coordinates": [ -0.704841340739507, 51.305309745310538 ] } },
{ "type": "Feature", "properties": { "visible_points": 0, "total_points": 77, "visibility_pct": 0.0 }, "geometry": { "type": "Point", "coordinates": [ -0.706726159173704, 51.30543851413799 ] } },
{ "type": "Feature", "properties": { "visible_points": 0, "total_points": 88, "visibility_pct": 0.0 }, "geometry": { "type": "Point", "coordinates": [ -0.706527437398147, 51.305436315960499 ] } },
{ "type": "Feature", "properties": { "visible_points": 19, "total_points": 98, "visibility_pct": 19.387755102040817 }, "geometry": { "type": "Point", "coordinates": [ -0.706328715648073, 51.305434117446183 ] } },
{ "type": "Feature", "properties": { "visible_points": 21, "total_points": 106, "visibility_pct": 19.811320754716981 }, "geometry": { "type": "Point", "coordinates": [ -0.706129993923466, 51.305431918595048 ] } },
{ "type": "Feature", "properties": { "visible_points": 25, "total_points": 113, "visibility_pct": 22.123893805309734 }, "geometry": { "type": "Point", "coordinates": [ -0.705931272224348, 51.305429719407066 ] } },
{ "type": "Feature", "properties": { "visible_points": 25, "total_points": 117, "visibility_pct": 21.367521367521366 }, "geometry": { "type": "Point", "coordinates": [ -0.705732550550711, 51.305427519882265 ] } },
{ "type": "Feature", "properties": { "visible_points": 27, "total_points": 117, "visibility_pct": 23.076923076923077 }, "geometry": { "type": "Point", "coordinates": [ -0.705533828902566, 51.305425320020632 ] } },
{ "type": "Feature", "properties": { "visible_points": 19, "total_points": 115, "visibility_pct": 16.521739130434781 }, "geometry": { "type": "Point", "coordinates": [ -0.705335107279915, 51.305423119822173 ] } },
{ "type": "Feature", "properties": { "visible_points": 0, "total_points": 114, "visibility_pct": 0.0 }, "geometry": { "type": "Point", "coordinates": [ -0.705136385682759, 51.305420919286867 ] } },
{ "type": "Feature", "properties": { "visible_points": 20, "total_points": 111, "visibility_pct": 18.018018018018019 }, "geometry": { "type": "Point", "coordinates": [ -0.704937664111103, 51.305418718414742 ] } },
{ "type": "Feature", "properties": { "visible_points": 24, "total_points": 107, "visibility_pct": 22.429906542056074 }, "geometry": { "type": "Point", "coordinates": [ -0.704738942564958, 51.305416517205785 ] } },
{ "type": "Feature", "properties": { "visible_points": 4, "total_points": 76, "visibility_pct": 5.2631578947368416 }, "geometry": { "type": "Point", "coordinates": [ -0.706623765136808, 51.305545287778514 ] } },
{ "type": "Feature", "properties": { "visible_points": 0, "total_points": 85, "visibility_pct": 0.0 }, "geometry": { "type": "Point", "coordinates": [ -0.706425042898665, 51.305543089416219 ] } },
{ "type": "Feature", "properties": { "visible_points": 15, "total_points": 93, "visibility_pct": 16.129032258064516 }, "geometry": { "type": "Point", "coordinates": [ -0.70622632068601, 51.30554089071709 ] } },
{ "type": "Feature", "properties": { "visible_points": 18, "total_points": 100, "visibility_pct": 18.0 }, "geometry": { "type": "Point", "coordinates": [ -0.706027598498826, 51.305538691681114 ] } },
{ "type": "Feature", "properties": { "visible_points": 21, "total_points": 107, "visibility_pct": 19.626168224299064 }, "geometry": { "type": "Point", "coordinates": [ -0.705828876337132, 51.305536492308299 ] } },
{ "type": "Feature", "properties": { "visible_points": 12, "total_points": 112, "visibility_pct": 10.714285714285714 }, "geometry": { "type": "Point", "coordinates": [ -0.705630154200926, 51.305534292598679 ] } },
{ "type": "Feature", "properties": { "visible_points": 14, "total_points": 112, "visibility_pct": 12.5 }, "geometry": { "type": "Point", "coordinates": [ -0.705431432090209, 51.305532092552212 ] } },
{ "type": "Feature", "properties": { "visible_points": 0, "total_points": 111, "visibility_pct": 0.0 }, "geometry": { "type": "Point", "coordinates": [ -0.70523271000498, 51.305529892168913 ] } },
{ "type": "Feature", "properties": { "visible_points": 1, "total_points": 108, "visibility_pct": 0.92592592592592582 }, "geometry": { "type": "Point", "coordinates": [ -0.705033987945265, 51.305527691448788 ] } },
{ "type": "Feature", "properties": { "visible_points": 20, "total_points": 106, "visibility_pct": 18.867924528301888 }, "geometry": { "type": "Point", "coordinates": [ -0.704835265911044, 51.30552549039183 ] } },
{ "type": "Feature", "properties": { "visible_points": 19, "total_points": 102, "visibility_pct": 18.627450980392158 }, "geometry": { "type": "Point", "coordinates": [ -0.704636543902334, 51.305523288998046 ] } },
{ "type": "Feature", "properties": { "visible_points": 4, "total_points": 72, "visibility_pct": 5.5555555555555554 }, "geometry": { "type": "Point", "coordinates": [ -0.706521370611845, 51.30565206131606 ] } },
{ "type": "Feature", "properties": { "visible_points": 0, "total_points": 80, "visibility_pct": 0.0 }, "geometry": { "type": "Point", "coordinates": [ -0.706322647911123, 51.305649862768938 ] } },
{ "type": "Feature", "properties": { "visible_points": 5, "total_points": 87, "visibility_pct": 5.7471264367816088 }, "geometry": { "type": "Point", "coordinates": [ -0.706123925235883, 51.305647663884976 ] } },
{ "type": "Feature", "properties": { "visible_points": 12, "total_points": 94, "visibility_pct": 12.76595744680851 }, "geometry": { "type": "Point", "coordinates": [ -0.705925202586124, 51.305645464664188 ] } },
{ "type": "Feature", "properties": { "visible_points": 13, "total_points": 101, "visibility_pct": 12.871287128712872 }, "geometry": { "type": "Point", "coordinates": [ -0.705726479961846, 51.305643265106546 ] } },
{ "type": "Feature", "properties": { "visible_points": 0, "total_points": 106, "visibility_pct": 0.0 }, "geometry": { "type": "Point", "coordinates": [ -0.705527757363064, 51.305641065212093 ] } },
{ "type": "Feature", "properties": { "visible_points": 5, "total_points": 106, "visibility_pct": 4.716981132075472 }, "geometry": { "type": "Point", "coordinates": [ -0.705329034789772, 51.305638864980807 ] } },
{ "type": "Feature", "properties": { "visible_points": 0, "total_points": 105, "visibility_pct": 0.0 }, "geometry": { "type": "Point", "coordinates": [ -0.705130312241982, 51.305636664412688 ] } },
{ "type": "Feature", "properties": { "visible_points": 0, "total_points": 103, "visibility_pct": 0.0 }, "geometry": { "type": "Point", "coordinates": [ -0.70493158971969, 51.305634463507729 ] } },
{ "type": "Feature", "properties": { "visible_points": 19, "total_points": 101, "visibility_pct": 18.811881188118811 }, "geometry": { "type": "Point", "coordinates": [ -0.704732867222904, 51.305632262265945 ] } },
{ "type": "Feature", "properties": { "visible_points": 15, "total_points": 97, "visibility_pct": 15.463917525773196 }, "geometry": { "type": "Point", "coordinates": [ -0.704534144751629, 51.305630060687307 ] } },
{ "type": "Feature", "properties": { "visible_points": 4, "total_points": 67, "visibility_pct": 5.9701492537313428 }, "geometry": { "type": "Point", "coordinates": [ -0.706418975598815, 51.305758834750648 ] } },
{ "type": "Feature", "properties": { "visible_points": 0, "total_points": 74, "visibility_pct": 0.0 }, "geometry": { "type": "Point", "coordinates": [ -0.706220252435511, 51.305756636018685 ] } },
{ "type": "Feature", "properties": { "visible_points": 3, "total_points": 81, "visibility_pct": 3.7037037037037033 }, "geometry": { "type": "Point", "coordinates": [ -0.706021529297688, 51.305754436949897 ] } },
{ "type": "Feature", "properties": { "visible_points": 0, "total_points": 88, "visibility_pct": 0.0 }, "geometry": { "type": "Point", "coordinates": [ -0.705822806185339, 51.30575223754429 ] } },
{ "type": "Feature", "properties": { "visible_points": 0, "total_points": 95, "visibility_pct": 0.0 }, "geometry": { "type": "Point", "coordinates": [ -0.705624083098489, 51.305750037801829 ] } },
{ "type": "Feature", "properties": { "visible_points": 2, "total_points": 100, "visibility_pct": 2.0 }, "geometry": { "type": "Point", "coordinates": [ -0.705425360037126, 51.305747837722528 ] } },
{ "type": "Feature", "properties": { "visible_points": 0, "total_points": 100, "visibility_pct": 0.0 }, "geometry": { "type": "Point", "coordinates": [ -0.705027913990896, 51.305743436553449 ] } },
{ "type": "Feature", "properties": { "visible_points": 1, "total_points": 98, "visibility_pct": 1.0204081632653061 }, "geometry": { "type": "Point", "coordinates": [ -0.704829191006035, 51.305741235463657 ] } },
{ "type": "Feature", "properties": { "visible_points": 6, "total_points": 96, "visibility_pct": 6.25 }, "geometry": { "type": "Point", "coordinates": [ -0.70463046804668, 51.305739034037053 ] } },
{ "type": "Feature", "properties": { "visible_points": 4, "total_points": 61, "visibility_pct": 6.557377049180328 }, "geometry": { "type": "Point", "coordinates": [ -0.706316580097716, 51.305865608082229 ] } },
{ "type": "Feature", "properties": { "visible_points": 0, "total_points": 68, "visibility_pct": 0.0 }, "geometry": { "type": "Point", "coordinates": [ -0.706117856471823, 51.305863409165454 ] } },
{ "type": "Feature", "properties": { "visible_points": 0, "total_points": 75, "visibility_pct": 0.0 }, "geometry": { "type": "Point", "coordinates": [ -0.705919132871413, 51.305861209911846 ] } },
{ "type": "Feature", "properties": { "visible_points": 0, "total_points": 82, "visibility_pct": 0.0 }, "geometry": { "type": "Point", "coordinates": [ -0.705720409296487, 51.305859010321406 ] } },
{ "type": "Feature", "properties": { "visible_points": 0, "total_points": 95, "visibility_pct": 0.0 }, "geometry": { "type": "Point", "coordinates": [ -0.704925515251731, 51.305850208591259 ] } },
{ "type": "Feature", "properties": { "visible_points": 4, "total_points": 93, "visibility_pct": 4.3010752688172049 }, "geometry": { "type": "Point", "coordinates": [ -0.704726791804293, 51.305848007316627 ] } },
{ "type": "Feature", "properties": { "visible_points": 7, "total_points": 91, "visibility_pct": 7.6923076923076925 }, "geometry": { "type": "Point", "coordinates": [ -0.704528068382371, 51.305845805705161 ] } },
{ "type": "Feature", "properties": { "visible_points": 3, "total_points": 55, "visibility_pct": 5.4545454545454541 }, "geometry": { "type": "Point", "coordinates": [ -0.706214184108542, 51.305972381310859 ] } },
{ "type": "Feature", "properties": { "visible_points": 0, "total_points": 62, "visibility_pct": 0.0 }, "geometry": { "type": "Point", "coordinates": [ -0.706015460020057, 51.305970182209251 ] } },
{ "type": "Feature", "properties": { "visible_points": 0, "total_points": 90, "visibility_pct": 0.0 }, "geometry": { "type": "Point", "coordinates": [ -0.704823116024473, 51.305956980526041 ] } },
{ "type": "Feature", "properties": { "visible_points": 6, "total_points": 88, "visibility_pct": 6.8181818181818175 }, "geometry": { "type": "Point", "coordinates": [ -0.704624392114465, 51.305954779066589 ] } },
{ "type": "Feature", "properties": { "visible_points": 9, "total_points": 83, "visibility_pct": 10.843373493975903 }, "geometry": { "type": "Point", "coordinates": [ -0.704425668229971, 51.30595257727029 ] } },
{ "type": "Feature", "properties": { "visible_points": 0, "total_points": 85, "visibility_pct": 0.0 }, "geometry": { "type": "Point", "coordinates": [ -0.70472071630913, 51.306063752357851 ] } },
{ "type": "Feature", "properties": { "visible_points": 7, "total_points": 81, "visibility_pct": 8.6419753086419746 }, "geometry": { "type": "Point", "coordinates": [ -0.704521991936542, 51.306061550713544 ] } },
{ "type": "Feature", "properties": { "visible_points": 7, "total_points": 75, "visibility_pct": 9.3333333333333339 }, "geometry": { "type": "Point", "coordinates": [ -0.704323267589474, 51.306059348732425 ] } },
{ "type": "Feature", "properties": { "visible_points": 9, "total_points": 69, "visibility_pct": 13.043478260869565 }, "geometry": { "type": "Point", "coordinates": [ -0.704124543267922, 51.306057146414446 ] } },
{ "type": "Feature", "properties": { "visible_points": 12, "total_points": 61, "visibility_pct": 19.672131147540984 }, "geometry": { "type": "Point", "coordinates": [ -0.703925818971894, 51.306054943759641 ] } },
{ "type": "Feature", "properties": { "visible_points": 0, "total_points": 76, "visibility_pct": 0.0 }, "geometry": { "type": "Point", "coordinates": [ -0.704618316105684, 51.306170524086653 ] } },
{ "type": "Feature", "properties": { "visible_points": 8, "total_points": 71, "visibility_pct": 11.267605633802818 }, "geometry": { "type": "Point", "coordinates": [ -0.704419591270527, 51.306168322257541 ] } },
{ "type": "Feature", "properties": { "visible_points": 10, "total_points": 66, "visibility_pct": 15.151515151515152 }, "geometry": { "type": "Point", "coordinates": [ -0.704220866460876, 51.306166120091561 ] } },
{ "type": "Feature", "properties": { "visible_points": 0, "total_points": 61, "visibility_pct": 0.0 }, "geometry": { "type": "Point", "coordinates": [ -0.704022141676754, 51.306163917588748 ] } },
{ "type": "Feature", "properties": { "visible_points": 0, "total_points": 67, "visibility_pct": 0.0 }, "geometry": { "type": "Point", "coordinates": [ -0.704515915414144, 51.306277295712476 ] } },
{ "type": "Feature", "properties": { "visible_points": 8, "total_points": 63, "visibility_pct": 12.698412698412698 }, "geometry": { "type": "Point", "coordinates": [ -0.704317190116402, 51.30627509369851 ] } },
{ "type": "Feature", "properties": { "visible_points": 12, "total_points": 59, "visibility_pct": 20.33898305084746 }, "geometry": { "type": "Point", "coordinates": [ -0.704118464844183, 51.306272891347689 ] } },
{ "type": "Feature", "properties": { "visible_points": 5, "total_points": 59, "visibility_pct": 8.4745762711864394 }, "geometry": { "type": "Point", "coordinates": [ -0.704413514234501, 51.3063840672353 ] } },
{ "type": "Feature", "properties": { "visible_points": 14, "total_points": 56, "visibility_pct": 25.0 }, "geometry": { "type": "Point", "coordinates": [ -0.70421478847418, 51.306381865036485 ] } },
{ "type": "Feature", "properties": { "visible_points": 0, "total_points": 53, "visibility_pct": 0.0 }, "geometry": { "type": "Point", "coordinates": [ -0.704509838815175, 51.306493040701945 ] } },
{ "type": "Feature", "properties": { "visible_points": 9, "total_points": 52, "visibility_pct": 17.307692307692307 }, "geometry": { "type": "Point", "coordinates": [ -0.704311112566749, 51.306490838655144 ] } },
{ "type": "Feature", "properties": { "visible_points": 0, "total_points": 45, "visibility_pct": 0.0 }, "geometry": { "type": "Point", "coordinates": [ -0.704407437121899, 51.306599812203622 ] } }
]
}
