{
"type": "FeatureCollection",
"name": "073d86616fb7_visibility",
"crs": { "type": "name", "properties": { "name": "urn:ogc:def:crs:OGC:1.3:CRS84" } },
"features": [
{ "type": "Feature", "properties": { "visible_points": 4, "total_points": 59, "visibility_pct": 6.7796610169491522 }, "geometry": { "type": "Point", "coordinates": [ -1.178664432667661, 51.949775726430069 ] } },
{ "type": "Feature", "properties": { "visible_points": 3, "total_points": 68, "visibility_pct": 4.4117647058823533 }, "geometry": { "type": "Point", "coordinates": [ -1.178462842400303, 51.949774319066655 ] } },
{ "type": "Feature", "properties": { "visible_points": 0, "total_points": 76, "visibility_pct": 0.0 }, "geometry": { "type": "Point", "coordinates": [ -1.178261252149363, 51.949772911358025 ] } },
{ "type": "Feature", "properties": { "visible_points": 0, "total_points": 78, "visibility_pct": 0.0 }, "geometry": { "type": "Point", "coordinates": [ -1.178059661914822, 51.949771503304177 ] } },
{ "type": "Feature", "properties": { "visible_points": 0, "total_points": 74, "visibility_pct": 0.0 }, "geometry": { "type": "Point", "coordinates": [ -1.1778580716967, 51.949770094905119 ] } },
{ "type": "Feature", "properties": { "visible_points": 0, "total_points": 67, "visibility_pct": 0.0 }, "geometry": { "type": "Point", "coordinates": [ -1.177656481494997, 51.949768686160837 ] } },
{ "type": "Feature", "properties": { "visible_points": 10, "total_points": 59, "visibility_pct": 16.949152542372879 }, "geometry": { "type": "Point", "coordinates": [ -1.17745489130971, 51.949767277071338 ] } },
{ "type": "Feature", "properties": { "visible_points": 6, "total_points": 57, "visibility_pct": 10.526315789473683 }, "geometry": { "type": "Point", "coordinates": [ -1.178763258007085, 51.949884310281504 ] } },
{ "type": "Feature", "properties": { "visible_points": 2, "total_points": 66, "visibility_pct": 3.0303030303030303 }, "geometry": { "type": "Point", "coordinates": [ -1.178561667251678, 51.949882903088003 ] } },
{ "type": "Feature", "properties": { "visible_points": 3, "total_points": 75, "visibility_pct": 4.0 }, "geometry": { "type": "Point", "coordinates": [ -1.178360076512682, 51.949881495549292 ] } },
{ "type": "Feature", "properties": { "visible_points": 4, "total_points": 82, "visibility_pct": 4.8780487804878048 }, "geometry": { "type": "Point", "coordinates": [ -1.178158485790087, 51.949880087665377 ] } },
{ "type": "Feature", "properties": { "visible_points": 15, "total_points": 82, "visibility_pct": 18.292682926829269 }, "geometry": { "type": "Point", "coordinates": [ -1.177956895083905, 51.949878679436232 ] } },
{ "type": "Feature", "properties": { "visible_points": 13, "total_points": 74, "visibility_pct": 17.567567567567568 }, "geometry": { "type": "Point", "coordinates": [ -1.177755304394141, 51.949877270861862 ] } },
{ "type": "Feature", "properties": { "visible_points": 13, "total_points": 66, "visibility_pct": 19.696969696969695 }, "geometry": { "type": "Point", "coordinates": [ -1.177553713720792, 51.949875861942282 ] } },
{ "type": "Feature", "properties": { "visible_points": 7, "total_points": 57, "visibility_pct": 12.280701754385964 }, "geometry": { "type": "Point", "coordinates": [ -1.177352123063874, 51.949874452677491 ] } },
{ "type": "Feature", "properties": { "visible_points": 0, "total_points": 62, "visibility_pct": 0.0 }, "geometry": { "type": "Point", "coordinates": [ -1.178660492574693, 51.949991487023773 ] } },
{ "type": "Feature", "properties": { "visible_points": 8, "total_points": 71, "visibility_pct": 11.267605633802818 }, "geometry": { "type": "Point", "coordinates": [ -1.178458901347638, 51.949990079654981 ] } },
{ "type": "Feature", "properties": { "visible_points": 16, "total_points": 80, "visibility_pct": 20.0 }, "geometry": { "type": "Point", "coordinates": [ -1.178257310136984, 51.949988671940972 ] } },
{ "type": "Feature", "properties": { "visible_points": 17, "total_points": 84, "visibility_pct": 20.238095238095237 }, "geometry": { "type": "Point", "coordinates": [ -1.178055718942743, 51.949987263881752 ] } },
{ "type": "Feature", "properties": { "visible_points": 16, "total_points": 79, "visibility_pct": 20.253164556962027 }, "geometry": { "type": "Point", "coordinates": [ -1.177854127764917, 51.949985855477308 ] } },
{ "type": "Feature", "properties": { "visible_points": 14, "total_points": 71, "visibility_pct": 19.718309859154928 }, "geometry": { "type": "Point", "coordinates": [ -1.177652536603505, 51.949984446727647 ] } },
{ "type": "Feature", "properties": { "visible_points": 13, "total_points": 62, "visibility_pct": 20.967741935483872 }, "geometry": { "type": "Point", "coordinates": [ -1.177450945458518, 51.949983037632769 ] } },
{ "type": "Feature", "properties": { "visible_points": 5, "total_points": 57, "visibility_pct": 8.7719298245614024 }, "geometry": { "type": "Point", "coordinates": [ -1.178759318369354, 51.950100070873916 ] } },
{ "type": "Feature", "properties": { "visible_points": 7, "total_points": 66, "visibility_pct": 10.606060606060606 }, "geometry": { "type": "Point", "coordinates": [ -1.178557726654236, 51.95009866367505 ] } },
{ "type": "Feature", "properties": { "visible_points": 16, "total_points": 75, "visibility_pct": 21.333333333333336 }, "geometry": { "type": "Point", "coordinates": [ -1.178356134955526, 51.95009725613096 ] } },
{ "type": "Feature", "properties": { "visible_points": 19, "total_points": 82, "visibility_pct": 23.170731707317074 }, "geometry": { "type": "Point", "coordinates": [ -1.178154543273221, 51.950095848241666 ] } },
{ "type": "Feature", "properties": { "visible_points": 17, "total_points": 82, "visibility_pct": 20.73170731707317 }, "geometry": { "type": "Point", "coordinates": [ -1.177952951607328, 51.950094440007149 ] } },
{ "type": "Feature", "properties": { "visible_points": 17, "total_points": 75, "visibility_pct": 22.666666666666664 }, "geometry": { "type": "Point", "coordinates": [ -1.177751359957852, 51.950093031427414 ] } },
{ "type": "Feature", "properties": { "visible_points": 15, "total_points": 66, "visibility_pct": 22.727272727272727 }, "geometry": { "type": "Point", "coordinates": [ -1.177549768324796, 51.950091622502455 ] } },
{ "type": "Feature", "properties": { "visible_points": 11, "total_points": 57, "visibility_pct": 19.298245614035086 }, "geometry": { "type": "Point", "coordinates": [ -1.177348176708161, 51.950090213232251 ] } },
{ "type": "Feature", "properties": { "visible_points": 4, "total_points": 59, "visibility_pct": 6.7796610169491522 }, "geometry": { "type": "Point", "coordinates": [ -1.178656552432481, 51.950207247609541 ] } },
{ "type": "Feature", "properties": { "visible_points": 12, "total_points": 68, "visibility_pct": 17.647058823529413 }, "geometry": { "type": "Point", "coordinates": [ -1.178454960245707, 51.950205840235377 ] } },
{ "type": "Feature", "properties": { "visible_points": 18, "total_points": 77, "visibility_pct": 23.376623376623375 }, "geometry": { "type": "Point", "coordinates": [ -1.178253368075342, 51.950204432515989 ] } },
{ "type": "Feature", "properties": { "visible_points": 16, "total_points": 79, "visibility_pct": 20.253164556962027 }, "geometry": { "type": "Point", "coordinates": [ -1.178051775921377, 51.95020302445139 ] } },
{ "type": "Feature", "properties": { "visible_points": 16, "total_points": 76, "visibility_pct": 21.052631578947366 }, "geometry": { "type": "Point", "coordinates": [ -1.177850183783833, 51.950201616041575 ] } },
{ "type": "Feature", "properties": { "visible_points": 15, "total_points": 68, "visibility_pct": 22.058823529411764 }, "geometry": { "type": "Point", "coordinates": [ -1.17764859166271, 51.950200207286528 ] } },
{ "type": "Feature", "properties": { "visible_points": 0, "total_points": 59, "visibility_pct": 0.0 }, "geometry": { "type": "Point", "coordinates": [ -1.177446999558001, 51.950198798186264 ] } },
{ "type": "Feature", "properties": { "visible_points": 1, "total_points": 58, "visibility_pct": 1.7241379310344827 }, "geometry": { "type": "Point", "coordinates": [ -1.178553786007542, 51.950314424254181 ] } },
{ "type": "Feature", "properties": { "visible_points": 0, "total_points": 65, "visibility_pct": 0.0 }, "geometry": { "type": "Point", "coordinates": [ -1.178352193349102, 51.950313016704726 ] } },
{ "type": "Feature", "properties": { "visible_points": 0, "total_points": 69, "visibility_pct": 0.0 }, "geometry": { "type": "Point", "coordinates": [ -1.178150600707075, 51.95031160881004 ] } },
{ "type": "Feature", "properties": { "visible_points": 0, "total_points": 68, "visibility_pct": 0.0 }, "geometry": { "type": "Point", "coordinates": [ -1.17794900808146, 51.950310200570144 ] } },
{ "type": "Feature", "properties": { "visible_points": 13, "total_points": 63, "visibility_pct": 20.634920634920633 }, "geometry": { "type": "Point", "coordinates": [ -1.177747415472264, 51.950308791985016 ] } },
{ "type": "Feature", "properties": { "visible_points": 0, "total_points": 56, "visibility_pct": 0.0 }, "geometry": { "type": "Point", "coordinates": [ -1.177545822879481, 51.950307383054671 ] } }
]
}
