{
"type": "FeatureCollection",
"name": "5659678996bd_foliage",
"crs": { "type": "name", "properties": { "name": "urn:ogc:def:crs:OGC:1.3:CRS84" } },
"features": [
{ "type": "Feature", "properties": { "max_height": 12.425003051757812, "mean_height": 6.3640990257263184, "std_height": 3.4999117851257324, "count_pixels": 43, "percent_cover": 0.77561327561327564, "percent_above_0.1m": 95.348837209302332, "low_level_<0.5": 4.6511627906976747, "mid_level_0.5-2": 6.9767441860465116, "tall_2+": 81.395348837209298 }, "geometry": { "type": "Point", "coordinates": [ -1.15250435378586, 51.904694690683577 ] } },
{ "type": "Feature", "properties": { "max_height": 4.608001708984375, "mean_height": 1.0462141036987305, "std_height": 1.2893809080123901, "count_pixels": 42, "percent_cover": 0.75757575757575757, "percent_above_0.1m": 54.761904761904766, "low_level_<0.5": 7.1428571428571423, "mid_level_0.5-2": 26.190476190476193, "tall_2+": 21.428571428571427 }, "geometry": { "type": "Point", "coordinates": [ -1.152302966436551, 51.904693239743523 ] } },
{ "type": "Feature", "properties": { "max_height": 0.31374359130859375, "mean_height": 0.01732853427529335, "std_height": 0.063795275986194611, "count_pixels": 42, "percent_cover": 0.75757575757575757, "percent_above_0.1m": 7.1428571428571423, "low_level_<0.5": 7.1428571428571423, "mid_level_0.5-2": 0.0, "tall_2+": 0.0 }, "geometry": { "type": "Point", "coordinates": [ -1.152101579104115, 51.904691788459068 ] } },
{ "type": "Feature", "properties": { "max_height": 9.821502685546875, "mean_height": 2.0347616672515869, "std_height": 2.3687574863433838, "count_pixels": 41, "percent_cover": 0.73953823953823949, "percent_above_0.1m": 63.414634146341463, "low_level_<0.5": 2.4390243902439024, "mid_level_0.5-2": 24.390243902439025, "tall_2+": 36.585365853658537 }, "geometry": { "type": "Point", "coordinates": [ -1.15260301816234, 51.904803296424362 ] } },
{ "type": "Feature", "properties": { "max_height": 3.9509963989257812, "mean_height": 0.48282343149185181, "std_height": 0.86377418041229248, "count_pixels": 41, "percent_cover": 0.73953823953823949, "percent_above_0.1m": 36.585365853658537, "low_level_<0.5": 7.3170731707317067, "mid_level_0.5-2": 21.951219512195124, "tall_2+": 7.3170731707317067 }, "geometry": { "type": "Point", "coordinates": [ -1.152401630326488, 51.904801845645281 ] } },
{ "type": "Feature", "properties": { "max_height": 5.8802490234375, "mean_height": 0.70039969682693481, "std_height": 1.0965210199356079, "count_pixels": 38, "percent_cover": 0.68542568542568538, "percent_above_0.1m": 55.26315789473685, "low_level_<0.5": 13.157894736842104, "mid_level_0.5-2": 34.210526315789473, "tall_2+": 7.8947368421052628 }, "geometry": { "type": "Point", "coordinates": [ -1.152200242507512, 51.904800394521786 ] } },
{ "type": "Feature", "properties": { "max_height": 7.2634963989257812, "mean_height": 3.0482189655303955, "std_height": 1.8467249870300293, "count_pixels": 41, "percent_cover": 0.73953823953823949, "percent_above_0.1m": 97.560975609756099, "low_level_<0.5": 2.4390243902439024, "mid_level_0.5-2": 29.268292682926827, "tall_2+": 65.853658536585371 }, "geometry": { "type": "Point", "coordinates": [ -1.15350723646666, 51.90491770111624 ] } },
{ "type": "Feature", "properties": { "max_height": 6.602752685546875, "mean_height": 4.0170855522155762, "std_height": 1.736825704574585, "count_pixels": 41, "percent_cover": 0.73953823953823949, "percent_above_0.1m": 95.121951219512198, "low_level_<0.5": 0.0, "mid_level_0.5-2": 12.195121951219512, "tall_2+": 82.926829268292678 }, "geometry": { "type": "Point", "coordinates": [ -1.153305848076829, 51.904916251875854 ] } },
{ "type": "Feature", "properties": { "max_height": 8.6822509765625, "mean_height": 5.0943269729614258, "std_height": 2.2057397365570068, "count_pixels": 42, "percent_cover": 0.75757575757575757, "percent_above_0.1m": 100.0, "low_level_<0.5": 4.7619047619047619, "mid_level_0.5-2": 4.7619047619047619, "tall_2+": 90.476190476190482 }, "geometry": { "type": "Point", "coordinates": [ -1.152903071347736, 51.904913352361802 ] } },
{ "type": "Feature", "properties": { "max_height": 6.0517501831054688, "mean_height": 0.71886748075485229, "std_height": 1.1292625665664673, "count_pixels": 43, "percent_cover": 0.77561327561327564, "percent_above_0.1m": 58.139534883720934, "low_level_<0.5": 13.953488372093023, "mid_level_0.5-2": 27.906976744186046, "tall_2+": 13.953488372093023 }, "geometry": { "type": "Point", "coordinates": [ -1.152701683008482, 51.904911902088124 ] } },
{ "type": "Feature", "properties": { "max_height": 2.0315017700195312, "mean_height": 0.33319801092147827, "std_height": 0.44491639733314514, "count_pixels": 43, "percent_cover": 0.77561327561327564, "percent_above_0.1m": 53.488372093023251, "low_level_<0.5": 30.232558139534881, "mid_level_0.5-2": 20.930232558139537, "tall_2+": 2.3255813953488373 }, "geometry": { "type": "Point", "coordinates": [ -1.152500294686088, 51.904910451470016 ] } },
{ "type": "Feature", "properties": { "max_height": 13.016250610351562, "mean_height": 5.3710761070251465, "std_height": 3.6571602821350098, "count_pixels": 42, "percent_cover": 0.75757575757575757, "percent_above_0.1m": 95.238095238095227, "low_level_<0.5": 2.3809523809523809, "mid_level_0.5-2": 23.809523809523807, "tall_2+": 69.047619047619051 }, "geometry": { "type": "Point", "coordinates": [ -1.153807292621835, 51.905027754794069 ] } },
{ "type": "Feature", "properties": { "max_height": 8.65875244140625, "mean_height": 2.5176193714141846, "std_height": 2.5610003471374512, "count_pixels": 42, "percent_cover": 0.75757575757575757, "percent_above_0.1m": 61.904761904761905, "low_level_<0.5": 0.0, "mid_level_0.5-2": 11.904761904761903, "tall_2+": 50.0 }, "geometry": { "type": "Point", "coordinates": [ -1.153605903728625, 51.905026306059113 ] } },
{ "type": "Feature", "properties": { "max_height": 4.8755035400390625, "mean_height": 0.39603477716445923, "std_height": 0.95878893136978149, "count_pixels": 43, "percent_cover": 0.77561327561327564, "percent_above_0.1m": 23.255813953488371, "low_level_<0.5": 0.0, "mid_level_0.5-2": 13.953488372093023, "tall_2+": 6.9767441860465116 }, "geometry": { "type": "Point", "coordinates": [ -1.153404514852258, 51.905024856979693 ] } },
{ "type": "Feature", "properties": { "max_height": 4.65374755859375, "mean_height": 0.69356465339660645, "std_height": 1.1523916721343994, "count_pixels": 43, "percent_cover": 0.77561327561327564, "percent_above_0.1m": 44.186046511627907, "low_level_<0.5": 11.627906976744185, "mid_level_0.5-2": 16.279069767441861, "tall_2+": 13.953488372093023 }, "geometry": { "type": "Point", "coordinates": [ -1.153203125992747, 51.905023407555859 ] } },
{ "type": "Feature", "properties": { "max_height": 8.1309967041015625, "mean_height": 1.2504456043243408, "std_height": 1.4966742992401123, "count_pixels": 42, "percent_cover": 0.75757575757575757, "percent_above_0.1m": 78.571428571428569, "low_level_<0.5": 16.666666666666664, "mid_level_0.5-2": 35.714285714285715, "tall_2+": 26.190476190476193 }, "geometry": { "type": "Point", "coordinates": [ -1.153001737150087, 51.905021957787589 ] } },
{ "type": "Feature", "properties": { "max_height": 9.5750045776367188, "mean_height": 3.4071900844573975, "std_height": 2.6198182106018066, "count_pixels": 41, "percent_cover": 0.73953823953823949, "percent_above_0.1m": 95.121951219512198, "low_level_<0.5": 7.3170731707317067, "mid_level_0.5-2": 21.951219512195124, "tall_2+": 60.975609756097562 }, "geometry": { "type": "Point", "coordinates": [ -1.152800348324287, 51.905020507674877 ] } },
{ "type": "Feature", "properties": { "max_height": 6.0862579345703125, "mean_height": 4.0828981399536133, "std_height": 2.1255207061767578, "count_pixels": 43, "percent_cover": 0.77561327561327564, "percent_above_0.1m": 90.697674418604649, "low_level_<0.5": 2.3255813953488373, "mid_level_0.5-2": 11.627906976744185, "tall_2+": 76.744186046511629 }, "geometry": { "type": "Point", "coordinates": [ -1.15451012908029, 51.905140703154331 ] } },
{ "type": "Feature", "properties": { "max_height": 5.5700302124023438, "mean_height": 0.93828219175338745, "std_height": 1.5889770984649658, "count_pixels": 42, "percent_cover": 0.75757575757575757, "percent_above_0.1m": 40.476190476190474, "low_level_<0.5": 4.7619047619047619, "mid_level_0.5-2": 14.285714285714285, "tall_2+": 19.047619047619047 }, "geometry": { "type": "Point", "coordinates": [ -1.154308739650033, 51.905139255613648 ] } },
{ "type": "Feature", "properties": { "max_height": 5.7780075073242188, "mean_height": 1.3301169872283936, "std_height": 1.7902977466583252, "count_pixels": 41, "percent_cover": 0.73953823953823949, "percent_above_0.1m": 43.902439024390247, "low_level_<0.5": 0.0, "mid_level_0.5-2": 12.195121951219512, "tall_2+": 31.707317073170731 }, "geometry": { "type": "Point", "coordinates": [ -1.154107350236603, 51.905137807728515 ] } },
{ "type": "Feature", "properties": { "max_height": 10.99224853515625, "mean_height": 0.92431694269180298, "std_height": 2.2787809371948242, "count_pixels": 41, "percent_cover": 0.73953823953823949, "percent_above_0.1m": 24.390243902439025, "low_level_<0.5": 4.8780487804878048, "mid_level_0.5-2": 4.8780487804878048, "tall_2+": 14.634146341463413 }, "geometry": { "type": "Point", "coordinates": [ -1.153905960840015, 51.905136359498961 ] } },
{ "type": "Feature", "properties": { "max_height": 6.5432510375976562, "mean_height": 2.8719010353088379, "std_height": 2.5567758083343506, "count_pixels": 38, "percent_cover": 0.68542568542568538, "percent_above_0.1m": 65.789473684210535, "low_level_<0.5": 0.0, "mid_level_0.5-2": 13.157894736842104, "tall_2+": 52.631578947368418 }, "geometry": { "type": "Point", "coordinates": [ -1.153704571460266, 51.905134910924971 ] } },
{ "type": "Feature", "properties": { "max_height": 5.9589996337890625, "mean_height": 1.2368843555450439, "std_height": 1.5770620107650757, "count_pixels": 41, "percent_cover": 0.73953823953823949, "percent_above_0.1m": 58.536585365853654, "low_level_<0.5": 9.7560975609756095, "mid_level_0.5-2": 19.512195121951219, "tall_2+": 26.829268292682929 }, "geometry": { "type": "Point", "coordinates": [ -1.153503182097363, 51.905133462006539 ] } },
{ "type": "Feature", "properties": { "max_height": 4.1825027465820312, "mean_height": 1.0456217527389526, "std_height": 1.07381272315979, "count_pixels": 41, "percent_cover": 0.73953823953823949, "percent_above_0.1m": 70.731707317073173, "low_level_<0.5": 9.7560975609756095, "mid_level_0.5-2": 41.463414634146339, "tall_2+": 19.512195121951219 }, "geometry": { "type": "Point", "coordinates": [ -1.153301792751308, 51.905132012743664 ] } },
{ "type": "Feature", "properties": { "max_height": 4.7612457275390625, "mean_height": 0.67760616540908813, "std_height": 1.2798914909362793, "count_pixels": 41, "percent_cover": 0.73953823953823949, "percent_above_0.1m": 34.146341463414636, "low_level_<0.5": 4.8780487804878048, "mid_level_0.5-2": 9.7560975609756095, "tall_2+": 17.073170731707318 }, "geometry": { "type": "Point", "coordinates": [ -1.154407409310968, 51.905247859919562 ] } },
{ "type": "Feature", "properties": { "max_height": 9.4642486572265625, "mean_height": 1.2307873964309692, "std_height": 2.2760090827941895, "count_pixels": 42, "percent_cover": 0.75757575757575757, "percent_above_0.1m": 35.714285714285715, "low_level_<0.5": 2.3809523809523809, "mid_level_0.5-2": 7.1428571428571423, "tall_2+": 23.809523809523807 }, "geometry": { "type": "Point", "coordinates": [ -1.154206019411004, 51.90524641219541 ] } },
{ "type": "Feature", "properties": { "max_height": 11.523750305175781, "mean_height": 2.0057384967803955, "std_height": 3.6139829158782959, "count_pixels": 43, "percent_cover": 0.77561327561327564, "percent_above_0.1m": 37.209302325581397, "low_level_<0.5": 4.6511627906976747, "mid_level_0.5-2": 4.6511627906976747, "tall_2+": 25.581395348837212 }, "geometry": { "type": "Point", "coordinates": [ -1.15400462952788, 51.90524496412683 ] } },
{ "type": "Feature", "properties": { "max_height": 16.558753967285156, "mean_height": 6.4748449325561523, "std_height": 4.3490524291992188, "count_pixels": 42, "percent_cover": 0.75757575757575757, "percent_above_0.1m": 88.095238095238088, "low_level_<0.5": 2.3809523809523809, "mid_level_0.5-2": 4.7619047619047619, "tall_2+": 80.952380952380949 }, "geometry": { "type": "Point", "coordinates": [ -1.153803239661592, 51.905243515713806 ] } },
{ "type": "Feature", "properties": { "max_height": 6.4887542724609375, "mean_height": 2.5116076469421387, "std_height": 1.9313865900039673, "count_pixels": 42, "percent_cover": 0.75757575757575757, "percent_above_0.1m": 95.238095238095227, "low_level_<0.5": 11.904761904761903, "mid_level_0.5-2": 26.190476190476193, "tall_2+": 54.761904761904766 }, "geometry": { "type": "Point", "coordinates": [ -1.154304689055097, 51.905355016585276 ] } },
{ "type": "Feature", "properties": { "max_height": 10.025001525878906, "mean_height": 2.7848844528198242, "std_height": 2.8408582210540771, "count_pixels": 41, "percent_cover": 0.73953823953823949, "percent_above_0.1m": 82.926829268292678, "low_level_<0.5": 9.7560975609756095, "mid_level_0.5-2": 21.951219512195124, "tall_2+": 48.780487804878049 }, "geometry": { "type": "Point", "coordinates": [ -1.154103298685429, 51.905353568677675 ] } },
{ "type": "Feature", "properties": { "max_height": 16.340507507324219, "mean_height": 5.6693539619445801, "std_height": 4.8537068367004395, "count_pixels": 41, "percent_cover": 0.73953823953823949, "percent_above_0.1m": 95.121951219512198, "low_level_<0.5": 4.8780487804878048, "mid_level_0.5-2": 12.195121951219512, "tall_2+": 78.048780487804876 }, "geometry": { "type": "Point", "coordinates": [ -1.153901908332607, 51.905352120425633 ] } },
{ "type": "Feature", "properties": { "max_height": 14.455497741699219, "mean_height": 3.5463809967041016, "std_height": 4.3127660751342773, "count_pixels": 38, "percent_cover": 0.68542568542568538, "percent_above_0.1m": 71.05263157894737, "low_level_<0.5": 5.2631578947368416, "mid_level_0.5-2": 21.052631578947366, "tall_2+": 42.105263157894733 }, "geometry": { "type": "Point", "coordinates": [ -1.153700517996614, 51.905350671829154 ] } }
]
}
