{
"type": "FeatureCollection",
"name": "8b6ef89b6e2e_foliage",
"crs": { "type": "name", "properties": { "name": "urn:ogc:def:crs:OGC:1.3:CRS84" } },
"features": [
{ "type": "Feature", "properties": { "max_height": 0.05474853515625, "mean_height": 0.0013429508544504642, "std_height": 0.0083365291357040405, "count_pixels": 43, "percent_cover": 1.3821922211507554, "percent_above_0.1m": 0.0, "low_level_<0.5": 0.0, "mid_level_0.5-2": 0.0, "tall_2+": 0.0 }, "geometry": { "type": "Point", "coordinates": [ -1.151611576586926, 51.880998276323844 ] } },
{ "type": "Feature", "properties": { "max_height": 5.603759765625, "mean_height": 0.46719714999198914, "std_height": 1.1732854843139648, "count_pixels": 43, "percent_cover": 1.3821922211507554, "percent_above_0.1m": 16.279069767441861, "low_level_<0.5": 0.0, "mid_level_0.5-2": 4.6511627906976747, "tall_2+": 11.627906976744185 }, "geometry": { "type": "Point", "coordinates": [ -1.151410295274707, 51.880996824760985 ] } },
{ "type": "Feature", "properties": { "max_height": 0.06299591064453125, "mean_height": 0.003886813297867775, "std_height": 0.012154629454016685, "count_pixels": 42, "percent_cover": 1.3500482160077145, "percent_above_0.1m": 0.0, "low_level_<0.5": 0.0, "mid_level_0.5-2": 0.0, "tall_2+": 0.0 }, "geometry": { "type": "Point", "coordinates": [ -1.151209014230541, 51.880995372990832 ] } },
{ "type": "Feature", "properties": { "max_height": 1.8485031127929688, "mean_height": 0.1696079820394516, "std_height": 0.41120287775993347, "count_pixels": 42, "percent_cover": 1.3500482160077145, "percent_above_0.1m": 21.428571428571427, "low_level_<0.5": 7.1428571428571423, "mid_level_0.5-2": 11.904761904761903, "tall_2+": 0.0 }, "geometry": { "type": "Point", "coordinates": [ -1.151007733231405, 51.880993920883263 ] } },
{ "type": "Feature", "properties": { "max_height": 8.000244140625, "mean_height": 2.0309653282165527, "std_height": 2.5979514122009277, "count_pixels": 43, "percent_cover": 1.3821922211507554, "percent_above_0.1m": 65.116279069767444, "low_level_<0.5": 4.6511627906976747, "mid_level_0.5-2": 20.930232558139537, "tall_2+": 32.558139534883722 }, "geometry": { "type": "Point", "coordinates": [ -1.150806452249268, 51.880992468431494 ] } },
{ "type": "Feature", "properties": { "max_height": 0.01650238037109375, "mean_height": 0.0010000088950619102, "std_height": 0.0033379311207681894, "count_pixels": 41, "percent_cover": 1.3179042108646737, "percent_above_0.1m": 0.0, "low_level_<0.5": 0.0, "mid_level_0.5-2": 0.0, "tall_2+": 0.0 }, "geometry": { "type": "Point", "coordinates": [ -1.151710187989738, 51.881106882792238 ] } },
{ "type": "Feature", "properties": { "max_height": 7.7004928588867188, "mean_height": 1.0807315111160278, "std_height": 2.0526890754699707, "count_pixels": 41, "percent_cover": 1.3179042108646737, "percent_above_0.1m": 31.707317073170731, "low_level_<0.5": 0.0, "mid_level_0.5-2": 12.195121951219512, "tall_2+": 19.512195121951219 }, "geometry": { "type": "Point", "coordinates": [ -1.151508906060903, 51.881105431320627 ] } },
{ "type": "Feature", "properties": { "max_height": 5.0930023193359375, "mean_height": 1.3800915479660034, "std_height": 1.6071908473968506, "count_pixels": 41, "percent_cover": 1.3179042108646737, "percent_above_0.1m": 53.658536585365859, "low_level_<0.5": 0.0, "mid_level_0.5-2": 24.390243902439025, "tall_2+": 29.268292682926827 }, "geometry": { "type": "Point", "coordinates": [ -1.151307624413474, 51.881103979672531 ] } },
{ "type": "Feature", "properties": { "max_height": 0.1855010986328125, "mean_height": 0.0073362649418413639, "std_height": 0.031829200685024261, "count_pixels": 38, "percent_cover": 1.2214721954355512, "percent_above_0.1m": 2.6315789473684208, "low_level_<0.5": 2.6315789473684208, "mid_level_0.5-2": 0.0, "tall_2+": 0.0 }, "geometry": { "type": "Point", "coordinates": [ -1.151106342923935, 51.881102527728615 ] } },
{ "type": "Feature", "properties": { "max_height": 0.001251220703125, "mean_height": -1.9166527636116371e-05, "std_height": 0.00067945214686915278, "count_pixels": 41, "percent_cover": 1.3179042108646737, "percent_above_0.1m": 0.0, "low_level_<0.5": 0.0, "mid_level_0.5-2": 0.0, "tall_2+": 0.0 }, "geometry": { "type": "Point", "coordinates": [ -1.150905061451392, 51.881101075440476 ] } },
{ "type": "Feature", "properties": { "max_height": 3.4899978637695312, "mean_height": 0.14391513168811798, "std_height": 0.57669627666473389, "count_pixels": 41, "percent_cover": 1.3179042108646737, "percent_above_0.1m": 12.195121951219512, "low_level_<0.5": 7.3170731707317067, "mid_level_0.5-2": 2.4390243902439024, "tall_2+": 2.4390243902439024 }, "geometry": { "type": "Point", "coordinates": [ -1.150703779995845, 51.881099622808129 ] } },
{ "type": "Feature", "properties": { "max_height": 0.18724822998046875, "mean_height": 0.009831450879573822, "std_height": 0.036048047244548798, "count_pixels": 43, "percent_cover": 1.3821922211507554, "percent_above_0.1m": 4.6511627906976747, "low_level_<0.5": 4.6511627906976747, "mid_level_0.5-2": 0.0, "tall_2+": 0.0 }, "geometry": { "type": "Point", "coordinates": [ -1.151406235093452, 51.881212586280128 ] } },
{ "type": "Feature", "properties": { "max_height": 6.6362457275390625, "mean_height": 0.80309534072875977, "std_height": 1.6655360460281372, "count_pixels": 42, "percent_cover": 1.3500482160077145, "percent_above_0.1m": 30.952380952380953, "low_level_<0.5": 7.1428571428571423, "mid_level_0.5-2": 7.1428571428571423, "tall_2+": 16.666666666666664 }, "geometry": { "type": "Point", "coordinates": [ -1.151204953089865, 51.881211134494258 ] } },
{ "type": "Feature", "properties": { "max_height": 10.425003051757812, "mean_height": 3.0021016597747803, "std_height": 3.2551712989807129, "count_pixels": 42, "percent_cover": 1.3500482160077145, "percent_above_0.1m": 61.904761904761905, "low_level_<0.5": 2.3809523809523809, "mid_level_0.5-2": 11.904761904761903, "tall_2+": 47.619047619047613 }, "geometry": { "type": "Point", "coordinates": [ -1.151003671126913, 51.881209682369764 ] } },
{ "type": "Feature", "properties": { "max_height": 0.60900115966796875, "mean_height": 0.028332022950053215, "std_height": 0.10538469254970551, "count_pixels": 43, "percent_cover": 1.3821922211507554, "percent_above_0.1m": 9.3023255813953494, "low_level_<0.5": 2.3255813953488373, "mid_level_0.5-2": 2.3255813953488373, "tall_2+": 0.0 }, "geometry": { "type": "Point", "coordinates": [ -1.150802389180957, 51.881208229901063 ] } },
{ "type": "Feature", "properties": { "max_height": 6.7880020141601562, "mean_height": 0.72641664743423462, "std_height": 1.5182489156723022, "count_pixels": 42, "percent_cover": 1.3500482160077145, "percent_above_0.1m": 52.380952380952387, "low_level_<0.5": 23.809523809523807, "mid_level_0.5-2": 14.285714285714285, "tall_2+": 11.904761904761903 }, "geometry": { "type": "Point", "coordinates": [ -1.150601107252002, 51.881206777088138 ] } },
{ "type": "Feature", "properties": { "max_height": 6.6422500610351562, "mean_height": 0.57786864042282104, "std_height": 1.5828373432159424, "count_pixels": 38, "percent_cover": 1.2214721954355512, "percent_above_0.1m": 18.421052631578945, "low_level_<0.5": 5.2631578947368416, "mid_level_0.5-2": 2.6315789473684208, "tall_2+": 10.526315789473683 }, "geometry": { "type": "Point", "coordinates": [ -1.151102281275838, 51.881318289219379 ] } },
{ "type": "Feature", "properties": { "max_height": 9.2597427368164062, "mean_height": 1.6139578819274902, "std_height": 2.7755146026611328, "count_pixels": 41, "percent_cover": 1.3179042108646737, "percent_above_0.1m": 41.463414634146339, "low_level_<0.5": 7.3170731707317067, "mid_level_0.5-2": 7.3170731707317067, "tall_2+": 26.829268292682929 }, "geometry": { "type": "Point", "coordinates": [ -1.150900998839471, 51.881316836914294 ] } },
{ "type": "Feature", "properties": { "max_height": 0.08724212646484375, "mean_height": 0.0056703146547079086, "std_height": 0.016897846013307571, "count_pixels": 41, "percent_cover": 1.3179042108646737, "percent_above_0.1m": 0.0, "low_level_<0.5": 0.0, "mid_level_0.5-2": 0.0, "tall_2+": 0.0 }, "geometry": { "type": "Point", "coordinates": [ -1.150699716420098, 51.881315384265015 ] } },
{ "type": "Feature", "properties": { "max_height": 7.139251708984375, "mean_height": 2.1318745613098145, "std_height": 2.4688217639923096, "count_pixels": 42, "percent_cover": 1.3500482160077145, "percent_above_0.1m": 73.80952380952381, "low_level_<0.5": 14.285714285714285, "mid_level_0.5-2": 16.666666666666664, "tall_2+": 40.476190476190474 }, "geometry": { "type": "Point", "coordinates": [ -1.150498434017738, 51.881313931271521 ] } },
{ "type": "Feature", "properties": { "max_height": 0.02074432373046875, "mean_height": 0.00047710331273265183, "std_height": 0.0031884026248008013, "count_pixels": 43, "percent_cover": 1.3821922211507554, "percent_above_0.1m": 0.0, "low_level_<0.5": 0.0, "mid_level_0.5-2": 0.0, "tall_2+": 0.0 }, "geometry": { "type": "Point", "coordinates": [ -1.150798326061602, 51.881423991362226 ] } },
{ "type": "Feature", "properties": { "max_height": 0.37575531005859375, "mean_height": 0.01023773942142725, "std_height": 0.057445351034402847, "count_pixels": 42, "percent_cover": 1.3500482160077145, "percent_above_0.1m": 2.3809523809523809, "low_level_<0.5": 2.3809523809523809, "mid_level_0.5-2": 0.0, "tall_2+": 0.0 }, "geometry": { "type": "Point", "coordinates": [ -1.150597043168818, 51.881422538532362 ] } }
]
}
