{
"type": "FeatureCollection",
"name": "SEVEN_707_NACH_800m",
"crs": { "type": "name", "properties": { "name": "urn:ogc:def:crs:OGC:1.3:CRS84" } },
"features": [
{"type":"Feature","properties":{"id":34974,"nach":0.19678377860529681},"geometry":{"type":"LineString","coordinates":[[0.3378679,51.3437947],[0.3385404,51.3437287],[0.3387598,51.3437287],[0.3403384,51.3436579],[0.3414752,51.3435187],[0.343113,51.3439365],[0.3449039,51.3442637],[0.3461992,51.3441885],[0.3463691,51.3441222],[0.346546,51.3440293],[0.3473868,51.3440101]]}},
{"type":"Feature","properties":{"id":7344,"nach":0.19664611152896933},"geometry":{"type":"LineString","coordinates":[[0.339119,51.3485403],[0.3406353,51.3482774],[0.3412048,51.3482148],[0.3415091,51.3481073],[0.3417152,51.3479609],[0.3420928,51.347666],[0.3424588,51.347572500000012],[0.3427411,51.34758],[0.3430332,51.3476741],[0.3435335,51.34793530000001],[0.3441125,51.3480316],[0.3447478,51.3480809],[0.3476951,51.3480587],[0.3484203,51.348104300000017],[0.3487547,51.3480311]]}},
{"type":"Feature","properties":{"id":60023,"nach":0.38129988293685324},"geometry":{"type":"LineString","coordinates":[[0.339032,51.3485558],[0.339119,51.3485403]]}},
{"type":"Feature","properties":{"id":49439,"nach":0.37867758699668386},"geometry":{"type":"LineString","coordinates":[[0.3383926,51.346183],[0.3384021,51.3462453],[0.3385395,51.3468297],[0.3389085,51.3472693],[0.3389944,51.3479501],[0.339119,51.3485403]]}},
{"type":"Feature","properties":{"id":49610,"nach":0.25486504070181137},"geometry":{"type":"LineString","coordinates":[[0.3231407,51.343522900000011],[0.3228306,51.3434381],[0.322683,51.3433993],[0.3224668,51.3433616],[0.322279,51.3433323],[0.3221801,51.3433103],[0.3218678,51.3432259]]}},
{"type":"Feature","properties":{"id":62814,"nach":0.40746023120054831},"geometry":{"type":"LineString","coordinates":[[0.3325261,51.3424794],[0.3317174,51.3416671]]}},
{"type":"Feature","properties":{"id":49411,"nach":0.37613532409903894},"geometry":{"type":"LineString","coordinates":[[0.3305271,51.342283],[0.3306533,51.3422636],[0.3307833,51.3421662],[0.3310235,51.3419947],[0.3317174,51.3416671]]}},
{"type":"Feature","properties":{"id":62815,"nach":0.42142302647337743},"geometry":{"type":"LineString","coordinates":[[0.3325261,51.3424794],[0.3325616,51.3425151],[0.3326651,51.342679],[0.3326838,51.3427913]]}},
{"type":"Feature","properties":{"id":62819,"nach":0.3364591410567026},"geometry":{"type":"LineString","coordinates":[[0.3351883,51.3411195],[0.3346507,51.3416979],[0.3344987,51.3418203],[0.3332327,51.3423095],[0.3325261,51.3424794]]}},
{"type":"Feature","properties":{"id":49412,"nach":0.34094442965020655},"geometry":{"type":"LineString","coordinates":[[0.3305271,51.342283],[0.3304027,51.342219],[0.3298214,51.3418041]]}},
{"type":"Feature","properties":{"id":49413,"nach":0.30514729938409119},"geometry":{"type":"LineString","coordinates":[[0.3305271,51.342283],[0.3304864,51.3424038],[0.3302766,51.3424629]]}},
{"type":"Feature","properties":{"id":60025,"nach":0.34340505579574787},"geometry":{"type":"LineString","coordinates":[[0.339032,51.3485558],[0.3372777,51.3488668],[0.3367985,51.3489359]]}},
{"type":"Feature","properties":{"id":60024,"nach":0.37562986711149088},"geometry":{"type":"LineString","coordinates":[[0.339032,51.3485558],[0.3389805,51.348718]]}},
{"type":"Feature","properties":{"id":49438,"nach":0.39152655991909247},"geometry":{"type":"LineString","coordinates":[[0.3383926,51.346183],[0.338298,51.3455602]]}},
{"type":"Feature","properties":{"id":49441,"nach":0.28083642784842866},"geometry":{"type":"LineString","coordinates":[[0.3391841,51.3470639],[0.3388985,51.3468659],[0.338815,51.346813],[0.3386789,51.346678],[0.3386583,51.3466523],[0.3385976,51.346460100000016],[0.3386034,51.3463907],[0.3386365,51.346346400000016],[0.33868,51.3463057],[0.3386869,51.3462621],[0.3386571,51.3462214],[0.3386068,51.3461978],[0.3385427,51.3461857],[0.3383926,51.346183]]}},
{"type":"Feature","properties":{"id":49764,"nach":0.15287407663493816},"geometry":{"type":"LineString","coordinates":[[0.3261779,51.355064],[0.326404,51.3551743],[0.3266605,51.355385100000014],[0.3266863,51.3555131],[0.3266377,51.356415],[0.3269382,51.3565604],[0.3272012,51.3566447],[0.327596,51.3569931],[0.3281063,51.3573706],[0.3287977,51.3577488],[0.3295203,51.3578972],[0.3309694,51.35790830000002]]}},
{"type":"Feature","properties":{"id":7485,"nach":0.21818170221147384},"geometry":{"type":"LineString","coordinates":[[0.3301905,51.3605986],[0.3300921,51.3601048],[0.3303669,51.358890100000011],[0.330849,51.3584349],[0.3309694,51.35790830000002]]}},
{"type":"Feature","properties":{"id":25607,"nach":0.18825078381931987},"geometry":{"type":"LineString","coordinates":[[0.3364348,51.355026100000011],[0.3358959,51.3551171],[0.3351491,51.355470900000014],[0.3348402,51.3561355],[0.3343338,51.3566018],[0.3337329,51.356918],[0.3331665,51.3570842],[0.332497,51.35725570000001],[0.3316558,51.3574862],[0.3309694,51.35790830000002]]}},
{"type":"Feature","properties":{"id":60026,"nach":0.21796261705283287},"geometry":{"type":"LineString","coordinates":[[0.3327867,51.358193600000014],[0.3318728,51.3580296],[0.3317249,51.358043400000014],[0.3315771,51.3581275],[0.3315219,51.358144],[0.3309694,51.35790830000002]]}},
{"type":"Feature","properties":{"id":49765,"nach":0.23910719065315891},"geometry":{"type":"LineString","coordinates":[[0.3261779,51.355064],[0.3259495,51.3548117],[0.3255533,51.3543828],[0.32522,51.3541202],[0.3247832,51.3539164],[0.3238241,51.3530271],[0.3235645,51.3528854],[0.3230449,51.3528056],[0.3224583,51.352553500000013],[0.3218733,51.3523915],[0.321133,51.3519063]]}},
{"type":"Feature","properties":{"id":49767,"nach":0.2048338476512202},"geometry":{"type":"LineString","coordinates":[[0.3257864,51.3560717],[0.3259453,51.3555266],[0.3261031,51.3551559],[0.3261779,51.355064]]}},
{"type":"Feature","properties":{"id":49420,"nach":0.26737995107536705},"geometry":{"type":"LineString","coordinates":[[0.337145,51.3533452],[0.3370374,51.3547044],[0.33684,51.3549027],[0.336531,51.3550099],[0.3364348,51.355026100000011]]}},
{"type":"Feature","properties":{"id":25611,"nach":0.25802117958365789},"geometry":{"type":"LineString","coordinates":[[0.3367884,51.3556922],[0.3367444,51.3556808],[0.3364348,51.355026100000011]]}},
{"type":"Feature","properties":{"id":7454,"nach":0.24318214436459717},"geometry":{"type":"LineString","coordinates":[[0.3332351,51.3496495],[0.3313297,51.3503518],[0.3299335,51.3508554],[0.3290747,51.3510038],[0.3286003,51.351053]]}},
{"type":"Feature","properties":{"id":7354,"nach":0.23443505089495267},"geometry":{"type":"LineString","coordinates":[[0.321133,51.3519063],[0.3223432,51.3516329],[0.3241285,51.35135420000001],[0.324798,51.3511398],[0.325476,51.3511076],[0.3270968,51.3508721],[0.3274747,51.3509005],[0.3281441,51.3510535],[0.3286003,51.351053]]}},
{"type":"Feature","properties":{"id":48358,"nach":0.22922450502790742},"geometry":{"type":"LineString","coordinates":[[0.3288537,51.3501112],[0.3288072,51.3503061],[0.3287863,51.350368],[0.3287362,51.3504417],[0.3286361,51.350527],[0.3284554,51.3506662],[0.3285559,51.350915200000017],[0.3286003,51.351053]]}},
{"type":"Feature","properties":{"id":45993,"nach":0.32595897506932131},"geometry":{"type":"LineString","coordinates":[[0.3332684,51.3496387],[0.3332351,51.3496495]]}},
{"type":"Feature","properties":{"id":42183,"nach":0.30532561588571766},"geometry":{"type":"LineString","coordinates":[[0.3334892,51.3493537],[0.3334628,51.3493595],[0.3331532,51.3494866],[0.3332351,51.3496495]]}},
{"type":"Feature","properties":{"id":43836,"nach":0.30448895401317222},"geometry":{"type":"LineString","coordinates":[[0.320276,51.3515533],[0.321133,51.3519063]]}},
{"type":"Feature","properties":{"id":43850,"nach":0.32458776697659164},"geometry":{"type":"LineString","coordinates":[[0.3198905,51.3513473],[0.3199117,51.3513869],[0.3199904,51.3514546],[0.320276,51.3515533]]}},
{"type":"Feature","properties":{"id":43840,"nach":0.27117432104642331},"geometry":{"type":"LineString","coordinates":[[0.3197426,51.3518825],[0.319821,51.3518386],[0.3199885,51.3517711],[0.3200831,51.3517104],[0.3201831,51.3516327],[0.320276,51.3515533]]}},
{"type":"Feature","properties":{"id":30218,"nach":0.33435874036269675},"geometry":{"type":"LineString","coordinates":[[0.3161958,51.3502032],[0.3172134,51.350191700000011]]}},
{"type":"Feature","properties":{"id":30213,"nach":0.33160626896949025},"geometry":{"type":"LineString","coordinates":[[0.3198504,51.3512501],[0.3197782,51.3511409],[0.319558,51.35095],[0.3191816,51.3507854],[0.3184355,51.3505868],[0.3176759,51.350265899999989],[0.3172134,51.350191700000011]]}},
{"type":"Feature","properties":{"id":45925,"nach":0.26603064740385651},"geometry":{"type":"LineString","coordinates":[[0.317561,51.350065],[0.3172748,51.3501007],[0.317233,51.3501172],[0.3172134,51.350191700000011]]}},
{"type":"Feature","properties":{"id":30219,"nach":0.31438196109015298},"geometry":{"type":"LineString","coordinates":[[0.3161958,51.3502032],[0.3158647,51.3502202],[0.3151815,51.3502965],[0.3145357,51.3504672],[0.3139931,51.3506471],[0.3134575,51.3508939],[0.3131246,51.350974],[0.3121564,51.351116700000013],[0.3119516,51.3511031]]}},
{"type":"Feature","properties":{"id":30220,"nach":0.23582049673667371},"geometry":{"type":"LineString","coordinates":[[0.3161958,51.3502032],[0.3161992,51.3501535],[0.3167283,51.3497464],[0.3165851,51.3496186],[0.3160326,51.3491292],[0.3155063,51.3486362],[0.3148222,51.3480373],[0.3143223,51.34761],[0.3143068,51.3475309]]}},
{"type":"Feature","properties":{"id":30214,"nach":0.0},"geometry":{"type":"LineString","coordinates":[[0.3198504,51.3512501],[0.3199221,51.3512128],[0.3214196,51.3493316],[0.321402,51.348331],[0.3218225,51.3474455],[0.3217061,51.3470272],[0.3217938,51.3465196],[0.3221036,51.3464465],[0.3231327,51.3464794],[0.3242846,51.3456394],[0.3254656,51.3454276],[0.3255416,51.3446753],[0.3268359,51.3446837],[0.3273367,51.3446387],[0.3284768,51.3442772],[0.3309295,51.3438294],[0.3312551,51.3435785],[0.3313964,51.3435154],[0.3321205,51.3433487],[0.3322853,51.3432949]]}},
{"type":"Feature","properties":{"id":43849,"nach":0.3370716867909504},"geometry":{"type":"LineString","coordinates":[[0.3198905,51.3513473],[0.3198504,51.3512501]]}},
{"type":"Feature","properties":{"id":45994,"nach":0.34053137857527321},"geometry":{"type":"LineString","coordinates":[[0.3332684,51.3496387],[0.3343423,51.3492903],[0.3367985,51.3489359]]}},
{"type":"Feature","properties":{"id":45996,"nach":0.25429720905426706},"geometry":{"type":"LineString","coordinates":[[0.3335133,51.3498267],[0.3333985,51.349814],[0.3333435,51.349739899999989],[0.3332684,51.3496387]]}},
{"type":"Feature","properties":{"id":42186,"nach":0.28063028580291122},"geometry":{"type":"LineString","coordinates":[[0.3339011,51.3490654],[0.3334436,51.349137],[0.3334892,51.3493537]]}},
{"type":"Feature","properties":{"id":43476,"nach":0.39531091505355248},"geometry":{"type":"LineString","coordinates":[[0.3324938,51.3430287],[0.3326838,51.3427913]]}},
{"type":"Feature","properties":{"id":16543,"nach":0.34730934905614419},"geometry":{"type":"LineString","coordinates":[[0.3328897,51.3430193],[0.3328832,51.34298],[0.332759,51.34284370000001],[0.3326838,51.3427913]]}},
{"type":"Feature","properties":{"id":43475,"nach":0.398966224181875},"geometry":{"type":"LineString","coordinates":[[0.3324938,51.3430287],[0.3324331,51.3431045]]}},
{"type":"Feature","properties":{"id":43477,"nach":0.30408783432683917},"geometry":{"type":"LineString","coordinates":[[0.3324938,51.3430287],[0.3322407,51.3429796],[0.3322707,51.3429076],[0.3319376,51.3426106]]}},
{"type":"Feature","properties":{"id":16544,"nach":0.35135577349180885},"geometry":{"type":"LineString","coordinates":[[0.3328897,51.3430193],[0.3328453,51.3430505],[0.332593,51.343113199999983],[0.332502,51.3431156],[0.3324331,51.3431045]]}},
{"type":"Feature","properties":{"id":34977,"nach":0.38987902089076598},"geometry":{"type":"LineString","coordinates":[[0.3363815,51.3436491],[0.3358931,51.343596],[0.3354754,51.34373750000001],[0.3346119,51.3435297],[0.3340456,51.3433882],[0.333813,51.34332],[0.3335818,51.343224600000013],[0.3328897,51.3430193]]}},
{"type":"Feature","properties":{"id":16540,"nach":0.39892503791373568},"geometry":{"type":"LineString","coordinates":[[0.3324331,51.3431045],[0.3322853,51.3432949]]}},
{"type":"Feature","properties":{"id":49637,"nach":0.38911861131564235},"geometry":{"type":"LineString","coordinates":[[0.3332999,51.3445976],[0.3332668,51.344534],[0.3332049,51.3445412],[0.3331792,51.344507900000011],[0.3331096,51.3444796],[0.3329153,51.344513200000016],[0.3326509,51.344132600000016],[0.3325408,51.3439772],[0.3324421,51.3437788],[0.3323555,51.3435418],[0.3322853,51.3432949]]}},
{"type":"Feature","properties":{"id":49636,"nach":0.29080917384901978},"geometry":{"type":"LineString","coordinates":[[0.3332999,51.3445976],[0.3331253,51.3447167],[0.3331551,51.3448427],[0.3334171,51.3451167],[0.3339484,51.345296]]}},
{"type":"Feature","properties":{"id":49639,"nach":0.36059380414689274},"geometry":{"type":"LineString","coordinates":[[0.3337821,51.3445042],[0.3332999,51.3445976]]}},
{"type":"Feature","properties":{"id":49421,"nach":0.30314919011676206},"geometry":{"type":"LineString","coordinates":[[0.337145,51.3533452],[0.337149,51.3532946],[0.3370718,51.35249060000001],[0.3371833,51.3522547]]}},
{"type":"Feature","properties":{"id":19100,"nach":0.28717047903351983},"geometry":{"type":"LineString","coordinates":[[0.3391355,51.3518746],[0.3391586,51.35209780000001],[0.3390909,51.3521868],[0.3388588,51.3522349],[0.3379015,51.3521977],[0.3371833,51.3522547]]}},
{"type":"Feature","properties":{"id":25600,"nach":0.25414467861074019},"geometry":{"type":"LineString","coordinates":[[0.3367985,51.3489359],[0.3368191,51.3490171],[0.3370789,51.3502236],[0.3370428,51.3502525],[0.3370428,51.350398],[0.3369514,51.3508456],[0.3371343,51.3518081],[0.3371198,51.3518755],[0.3371833,51.3522547]]}},
{"type":"Feature","properties":{"id":49423,"nach":0.22866042752513854},"geometry":{"type":"LineString","coordinates":[[0.335109,51.3536237],[0.3353106,51.3535831],[0.3354965,51.353532800000018],[0.3356474,51.3534946],[0.3357163,51.3534759],[0.3358554,51.3534442],[0.3360271,51.353395500000012],[0.3362845,51.3533289],[0.336783,51.3532779],[0.3370001,51.3533375],[0.337145,51.3533452]]}},
{"type":"Feature","properties":{"id":46582,"nach":0.28466072708342494},"geometry":{"type":"LineString","coordinates":[[0.3404637,51.3519214],[0.3401139,51.3518832],[0.3391355,51.3518746]]}},
{"type":"Feature","properties":{"id":49429,"nach":0.3076365512363588},"geometry":{"type":"LineString","coordinates":[[0.3387484,51.349511],[0.3387283,51.349579800000015],[0.3387197,51.3502606],[0.3391355,51.3518746]]}},
{"type":"Feature","properties":{"id":34978,"nach":0.34306901093927011},"geometry":{"type":"LineString","coordinates":[[0.3363815,51.3436491],[0.3375423,51.343795],[0.3378679,51.3437947]]}},
{"type":"Feature","properties":{"id":59995,"nach":0.30887170321521756},"geometry":{"type":"LineString","coordinates":[[0.3363393,51.3437904],[0.3363815,51.3436491]]}},
{"type":"Feature","properties":{"id":59994,"nach":0.33679174359143887},"geometry":{"type":"LineString","coordinates":[[0.337749,51.3432998],[0.3375447,51.3433518],[0.336538,51.3433388],[0.336432,51.3433779],[0.3363815,51.3436491]]}},
{"type":"Feature","properties":{"id":25606,"nach":0.076092070309573365},"geometry":{"type":"LineString","coordinates":[[0.3496871,51.35374740000001],[0.339491614550228,51.349435314620536]]}},
{"type":"Feature","properties":{"id":46581,"nach":0.0},"geometry":{"type":"LineString","coordinates":[[0.3404637,51.3519214],[0.3415013,51.35206190000001],[0.341778,51.3521903],[0.3427545,51.3521344],[0.3428658,51.352195],[0.3436231,51.3537027],[0.3436359,51.3545241],[0.3431519,51.355218],[0.3426417,51.3557063],[0.3432139,51.3559341],[0.3444759,51.3567161],[0.3445163,51.3569814],[0.3455494,51.3578845],[0.3459487,51.3580851],[0.346818,51.3583824],[0.3471881,51.3584028],[0.3475688,51.3584817],[0.3482005,51.3587302],[0.3497972,51.35917340000001]]}},
{"type":"Feature","properties":{"id":46583,"nach":0.24188904022554095},"geometry":{"type":"LineString","coordinates":[[0.3404637,51.3519214],[0.3404987,51.3518599],[0.3405416,51.351823],[0.3405872,51.3518096],[0.3406516,51.3517929],[0.3407052,51.3517862]]}},
{"type":"Feature","properties":{"id":49428,"nach":0.32089800974861604},"geometry":{"type":"LineString","coordinates":[[0.3387484,51.349511],[0.3388982,51.3489992]]}},
{"type":"Feature","properties":{"id":49433,"nach":0.28253743922840441},"geometry":{"type":"LineString","coordinates":[[0.3387484,51.349511],[0.339491614550228,51.349435314620536]]}},
{"type":"Feature","properties":{"id":25612,"nach":0.0},"geometry":{"type":"LineString","coordinates":[[0.3367884,51.3556922],[0.3368381,51.355778600000015],[0.3367967,51.3559944],[0.3367073,51.3563105],[0.3367204,51.3566091],[0.3367902,51.3571147],[0.336642,51.3576814],[0.3366321,51.3578591],[0.3364896,51.3602128],[0.336713,51.3610097],[0.3369706,51.3620131],[0.3374175,51.3650887],[0.3375087,51.3655315],[0.3375806,51.3658727]]}},
{"type":"Feature","properties":{"id":25613,"nach":0.21774618811364654},"geometry":{"type":"LineString","coordinates":[[0.3368795,51.355715700000012],[0.3367884,51.3556922]]}},
{"type":"Feature","properties":{"id":49431,"nach":0.34388128353096903},"geometry":{"type":"LineString","coordinates":[[0.3389805,51.348718],[0.3388982,51.3489992]]}},
{"type":"Feature","properties":{"id":25606,"nach":0.076092070309573365},"geometry":{"type":"LineString","coordinates":[[0.339491614550228,51.349435314620536],[0.3388982,51.3489992]]}},
{"type":"Feature","properties":{"id":49433,"nach":0.28253743922840441},"geometry":{"type":"LineString","coordinates":[[0.339491614550228,51.349435314620536],[0.3389805,51.348718]]}},
{"type":"Feature","properties":{"id":43851,"nach":0.31143901124351964},"geometry":{"type":"LineString","coordinates":[[0.3198905,51.3513473],[0.3197437,51.351361],[0.3195437,51.3513779],[0.3193897,51.3514099],[0.3192642,51.3514403]]}},
{"type":"Feature","properties":{"id":59989,"nach":0.38980448938670609},"geometry":{"type":"LineString","coordinates":[[0.3382939,51.3455329],[0.3382905,51.345510900000015],[0.3383077,51.3448622],[0.3379301,51.3439239],[0.3378679,51.3437947]]}},
{"type":"Feature","properties":{"id":59992,"nach":0.35310933024802033},"geometry":{"type":"LineString","coordinates":[[0.337749,51.3432998],[0.3377663,51.3434683],[0.3378679,51.3437947]]}},
{"type":"Feature","properties":{"id":59988,"nach":0.39298842918217419},"geometry":{"type":"LineString","coordinates":[[0.3382939,51.3455329],[0.338298,51.3455602]]}},
{"type":"Feature","properties":{"id":59991,"nach":0.29203865151250386},"geometry":{"type":"LineString","coordinates":[[0.3390115,51.3449931],[0.3386728,51.3450285],[0.3385271,51.3450533],[0.338476,51.34516210000001],[0.3384627,51.3452957],[0.33851,51.3454091],[0.3384854,51.3454883],[0.3384192,51.3455238],[0.3382939,51.3455329]]}},
{"type":"Feature","properties":{"id":44180,"nach":0.24683788589323707},"geometry":{"type":"LineString","coordinates":[[0.3215086,51.3439475],[0.3214897,51.3439843],[0.3215103,51.3440264],[0.3212472,51.3445513]]}},
{"type":"Feature","properties":{"id":44179,"nach":0.29425688580894044},"geometry":{"type":"LineString","coordinates":[[0.3215086,51.3439475],[0.3220231,51.3440252],[0.3222422,51.3435505],[0.3217582,51.343461299999987]]}},
{"type":"Feature","properties":{"id":40885,"nach":0.34824659681986064},"geometry":{"type":"LineString","coordinates":[[0.3339484,51.345296],[0.3353072,51.345691900000013],[0.3356034,51.3457459],[0.3358934,51.3457651],[0.3362019,51.3457728],[0.3374482,51.3456264],[0.338298,51.3455602]]}},
{"type":"Feature","properties":{"id":40887,"nach":0.31978980892980235},"geometry":{"type":"LineString","coordinates":[[0.3339468,51.3449401],[0.3339901,51.345060599999989],[0.3339954,51.34516210000001],[0.3339484,51.345296]]}},
{"type":"Feature","properties":{"id":49643,"nach":0.33004392501909824},"geometry":{"type":"LineString","coordinates":[[0.3338928,51.3448434],[0.3339344,51.3448619],[0.333968,51.3448753],[0.3339787,51.3448996],[0.3339666,51.3449223],[0.3339468,51.3449401]]}},
{"type":"Feature","properties":{"id":49644,"nach":0.33711792065735602},"geometry":{"type":"LineString","coordinates":[[0.3338928,51.3448434],[0.3338619,51.3447],[0.3337821,51.3445042]]}},
{"type":"Feature","properties":{"id":42184,"nach":0.23812061095752665},"geometry":{"type":"LineString","coordinates":[[0.3339011,51.3490654],[0.3337886,51.348717300000011]]}},
{"type":"Feature","properties":{"id":43842,"nach":0.23902411851316313},"geometry":{"type":"LineString","coordinates":[[0.3196426,51.3521728],[0.3199426,51.3520733],[0.3197426,51.3518825]]}},
{"type":"Feature","properties":{"id":43844,"nach":0.19739197424638533},"geometry":{"type":"LineString","coordinates":[[0.3192642,51.3514403],[0.3194399,51.3516479],[0.319575,51.351761],[0.3196398,51.3517863],[0.3197426,51.3518825]]}},
{"type":"Feature","properties":{"id":43846,"nach":0.30439059010901892},"geometry":{"type":"LineString","coordinates":[[0.318802,51.351604],[0.3189642,51.3515331],[0.3192642,51.3514403]]}},
{"type":"Feature","properties":{"id":43852,"nach":0.24332559660597911},"geometry":{"type":"LineString","coordinates":[[0.3184627,51.351339],[0.3185086,51.3513964],[0.3185356,51.351463900000013],[0.3186735,51.35155],[0.318802,51.351604]]}},
{"type":"Feature","properties":{"id":48176,"nach":0.22400491539566963},"geometry":{"type":"LineString","coordinates":[[0.3198835,51.3534686],[0.3198329,51.3533844],[0.3197879,51.3533255],[0.3197168,51.3532475],[0.3195383,51.353039],[0.319465,51.3529706],[0.3194215,51.3529167],[0.3193095,51.352714],[0.3191676,51.3525217],[0.3190664,51.3523651],[0.3189333,51.3521343],[0.3186892,51.3517922],[0.3186925,51.35175370000001],[0.3187123,51.3517084],[0.3187475,51.3516605],[0.318802,51.351604]]}},
{"type":"Feature","properties":{"id":49640,"nach":0.29858211830110654},"geometry":{"type":"LineString","coordinates":[[0.3337821,51.3445042],[0.3340864,51.3444517],[0.3342667,51.3444585]]}}
]
}
