{
"type": "FeatureCollection",
"name": "f96d0fe8735c_visibility",
"crs": { "type": "name", "properties": { "name": "urn:ogc:def:crs:OGC:1.3:CRS84" } },
"features": [
{ "type": "Feature", "properties": { "visible_points": 0, "total_points": 72, "visibility_pct": 0.0 }, "geometry": { "type": "Point", "coordinates": [ 0.200109736021664, 51.439717626555989 ] } },
{ "type": "Feature", "properties": { "visible_points": 2, "total_points": 74, "visibility_pct": 2.7027027027027026 }, "geometry": { "type": "Point", "coordinates": [ 0.200308951216292, 51.439713886968747 ] } },
{ "type": "Feature", "properties": { "visible_points": 0, "total_points": 75, "visibility_pct": 0.0 }, "geometry": { "type": "Point", "coordinates": [ 0.200508166370148, 51.439710147043215 ] } },
{ "type": "Feature", "properties": { "visible_points": 0, "total_points": 73, "visibility_pct": 0.0 }, "geometry": { "type": "Point", "coordinates": [ 0.200707381483228, 51.439706406779401 ] } },
{ "type": "Feature", "properties": { "visible_points": 3, "total_points": 78, "visibility_pct": 3.8461538461538463 }, "geometry": { "type": "Point", "coordinates": [ 0.199816097269771, 51.439831052292156 ] } },
{ "type": "Feature", "properties": { "visible_points": 4, "total_points": 82, "visibility_pct": 4.8780487804878048 }, "geometry": { "type": "Point", "coordinates": [ 0.200015312962743, 51.439827313197661 ] } },
{ "type": "Feature", "properties": { "visible_points": 12, "total_points": 85, "visibility_pct": 14.117647058823529 }, "geometry": { "type": "Point", "coordinates": [ 0.200214528614949, 51.439823573764862 ] } },
{ "type": "Feature", "properties": { "visible_points": 14, "total_points": 86, "visibility_pct": 16.279069767441861 }, "geometry": { "type": "Point", "coordinates": [ 0.200413744226381, 51.439819833993802 ] } },
{ "type": "Feature", "properties": { "visible_points": 14, "total_points": 86, "visibility_pct": 16.279069767441861 }, "geometry": { "type": "Point", "coordinates": [ 0.200612959797041, 51.439816093884431 ] } },
{ "type": "Feature", "properties": { "visible_points": 17, "total_points": 84, "visibility_pct": 20.238095238095237 }, "geometry": { "type": "Point", "coordinates": [ 0.200812175326921, 51.439812353436771 ] } },
{ "type": "Feature", "properties": { "visible_points": 10, "total_points": 81, "visibility_pct": 12.345679012345679 }, "geometry": { "type": "Point", "coordinates": [ 0.201011390816023, 51.439808612650801 ] } },
{ "type": "Feature", "properties": { "visible_points": 11, "total_points": 77, "visibility_pct": 14.285714285714285 }, "geometry": { "type": "Point", "coordinates": [ 0.201210606264338, 51.439804871526562 ] } },
{ "type": "Feature", "properties": { "visible_points": 0, "total_points": 79, "visibility_pct": 0.0 }, "geometry": { "type": "Point", "coordinates": [ 0.199522457145156, 51.439944477308892 ] } },
{ "type": "Feature", "properties": { "visible_points": 4, "total_points": 86, "visibility_pct": 4.6511627906976747 }, "geometry": { "type": "Point", "coordinates": [ 0.199721673336468, 51.439940738707122 ] } },
{ "type": "Feature", "properties": { "visible_points": 4, "total_points": 91, "visibility_pct": 4.395604395604396 }, "geometry": { "type": "Point", "coordinates": [ 0.199920889487015, 51.439936999767092 ] } },
{ "type": "Feature", "properties": { "visible_points": 10, "total_points": 95, "visibility_pct": 10.526315789473683 }, "geometry": { "type": "Point", "coordinates": [ 0.200120105596801, 51.439933260488736 ] } },
{ "type": "Feature", "properties": { "visible_points": 20, "total_points": 97, "visibility_pct": 20.618556701030926 }, "geometry": { "type": "Point", "coordinates": [ 0.200319321665814, 51.439929520872099 ] } },
{ "type": "Feature", "properties": { "visible_points": 24, "total_points": 98, "visibility_pct": 24.489795918367346 }, "geometry": { "type": "Point", "coordinates": [ 0.200518537694054, 51.439925780917193 ] } },
{ "type": "Feature", "properties": { "visible_points": 32, "total_points": 96, "visibility_pct": 33.333333333333329 }, "geometry": { "type": "Point", "coordinates": [ 0.200717753681522, 51.439922040623983 ] } },
{ "type": "Feature", "properties": { "visible_points": 27, "total_points": 93, "visibility_pct": 29.032258064516132 }, "geometry": { "type": "Point", "coordinates": [ 0.200916969628203, 51.439918299992463 ] } },
{ "type": "Feature", "properties": { "visible_points": 31, "total_points": 89, "visibility_pct": 34.831460674157306 }, "geometry": { "type": "Point", "coordinates": [ 0.201116185534109, 51.439914559022661 ] } },
{ "type": "Feature", "properties": { "visible_points": 26, "total_points": 85, "visibility_pct": 30.588235294117649 }, "geometry": { "type": "Point", "coordinates": [ 0.201315401399219, 51.439910817714562 ] } },
{ "type": "Feature", "properties": { "visible_points": 1, "total_points": 85, "visibility_pct": 1.1764705882352942 }, "geometry": { "type": "Point", "coordinates": [ 0.199428032337461, 51.440054163497145 ] } },
{ "type": "Feature", "properties": { "visible_points": 0, "total_points": 92, "visibility_pct": 0.0 }, "geometry": { "type": "Point", "coordinates": [ 0.199627248986354, 51.440050425049847 ] } },
{ "type": "Feature", "properties": { "visible_points": 1, "total_points": 99, "visibility_pct": 1.0101010101010102 }, "geometry": { "type": "Point", "coordinates": [ 0.19982646559448, 51.440046686264267 ] } },
{ "type": "Feature", "properties": { "visible_points": 3, "total_points": 103, "visibility_pct": 2.912621359223301 }, "geometry": { "type": "Point", "coordinates": [ 0.200025682161845, 51.440042947140384 ] } },
{ "type": "Feature", "properties": { "visible_points": 0, "total_points": 107, "visibility_pct": 0.0 }, "geometry": { "type": "Point", "coordinates": [ 0.200224898688445, 51.44003920767819 ] } },
{ "type": "Feature", "properties": { "visible_points": 41, "total_points": 108, "visibility_pct": 37.962962962962962 }, "geometry": { "type": "Point", "coordinates": [ 0.200424115174263, 51.440035467877728 ] } },
{ "type": "Feature", "properties": { "visible_points": 38, "total_points": 108, "visibility_pct": 35.185185185185183 }, "geometry": { "type": "Point", "coordinates": [ 0.200623331619318, 51.440031727738948 ] } },
{ "type": "Feature", "properties": { "visible_points": 42, "total_points": 105, "visibility_pct": 40.0 }, "geometry": { "type": "Point", "coordinates": [ 0.20082254802359, 51.440027987261878 ] } },
{ "type": "Feature", "properties": { "visible_points": 46, "total_points": 101, "visibility_pct": 45.544554455445549 }, "geometry": { "type": "Point", "coordinates": [ 0.201021764387078, 51.440024246446519 ] } },
{ "type": "Feature", "properties": { "visible_points": 43, "total_points": 97, "visibility_pct": 44.329896907216494 }, "geometry": { "type": "Point", "coordinates": [ 0.201220980709782, 51.440020505292857 ] } },
{ "type": "Feature", "properties": { "visible_points": 41, "total_points": 92, "visibility_pct": 44.565217391304344 }, "geometry": { "type": "Point", "coordinates": [ 0.201420196991696, 51.440016763800912 ] } },
{ "type": "Feature", "properties": { "visible_points": 6, "total_points": 77, "visibility_pct": 7.7922077922077921 }, "geometry": { "type": "Point", "coordinates": [ 0.20201784559267, 51.44000553729532 ] } },
{ "type": "Feature", "properties": { "visible_points": 2, "total_points": 82, "visibility_pct": 2.4390243902439024 }, "geometry": { "type": "Point", "coordinates": [ 0.199134389965725, 51.440167587567707 ] } },
{ "type": "Feature", "properties": { "visible_points": 1, "total_points": 90, "visibility_pct": 1.1111111111111112 }, "geometry": { "type": "Point", "coordinates": [ 0.199333607112955, 51.440163849613157 ] } },
{ "type": "Feature", "properties": { "visible_points": 2, "total_points": 97, "visibility_pct": 2.0618556701030926 }, "geometry": { "type": "Point", "coordinates": [ 0.19953282421942, 51.44016011132031 ] } },
{ "type": "Feature", "properties": { "visible_points": 1, "total_points": 104, "visibility_pct": 0.96153846153846156 }, "geometry": { "type": "Point", "coordinates": [ 0.199732041285132, 51.440156372689167 ] } },
{ "type": "Feature", "properties": { "visible_points": 1, "total_points": 110, "visibility_pct": 0.90909090909090906 }, "geometry": { "type": "Point", "coordinates": [ 0.199931258310079, 51.440152633719748 ] } },
{ "type": "Feature", "properties": { "visible_points": 31, "total_points": 115, "visibility_pct": 26.956521739130434 }, "geometry": { "type": "Point", "coordinates": [ 0.200130475294261, 51.440148894411998 ] } },
{ "type": "Feature", "properties": { "visible_points": 45, "total_points": 117, "visibility_pct": 38.461538461538467 }, "geometry": { "type": "Point", "coordinates": [ 0.200329692237672, 51.440145154765986 ] } },
{ "type": "Feature", "properties": { "visible_points": 48, "total_points": 117, "visibility_pct": 41.025641025641022 }, "geometry": { "type": "Point", "coordinates": [ 0.200528909140307, 51.44014141478165 ] } },
{ "type": "Feature", "properties": { "visible_points": 54, "total_points": 115, "visibility_pct": 46.956521739130437 }, "geometry": { "type": "Point", "coordinates": [ 0.200728126002172, 51.440137674459031 ] } },
{ "type": "Feature", "properties": { "visible_points": 59, "total_points": 111, "visibility_pct": 53.153153153153156 }, "geometry": { "type": "Point", "coordinates": [ 0.200927342823248, 51.440133933798123 ] } },
{ "type": "Feature", "properties": { "visible_points": 64, "total_points": 107, "visibility_pct": 59.813084112149525 }, "geometry": { "type": "Point", "coordinates": [ 0.20112655960355, 51.440130192798911 ] } },
{ "type": "Feature", "properties": { "visible_points": 64, "total_points": 104, "visibility_pct": 61.53846153846154 }, "geometry": { "type": "Point", "coordinates": [ 0.201325776343054, 51.440126451461403 ] } },
{ "type": "Feature", "properties": { "visible_points": 61, "total_points": 100, "visibility_pct": 61.0 }, "geometry": { "type": "Point", "coordinates": [ 0.201524993041774, 51.440122709785605 ] } },
{ "type": "Feature", "properties": { "visible_points": 49, "total_points": 90, "visibility_pct": 54.444444444444443 }, "geometry": { "type": "Point", "coordinates": [ 0.201923426316819, 51.440115225419127 ] } },
{ "type": "Feature", "properties": { "visible_points": 38, "total_points": 83, "visibility_pct": 45.783132530120483 }, "geometry": { "type": "Point", "coordinates": [ 0.20212264289314, 51.44011148272844 ] } },
{ "type": "Feature", "properties": { "visible_points": 0, "total_points": 74, "visibility_pct": 0.0 }, "geometry": { "type": "Point", "coordinates": [ 0.202321859428659, 51.440107739699457 ] } },
{ "type": "Feature", "properties": { "visible_points": 6, "total_points": 64, "visibility_pct": 9.375 }, "geometry": { "type": "Point", "coordinates": [ 0.202521075923365, 51.440103996332198 ] } },
{ "type": "Feature", "properties": { "visible_points": 0, "total_points": 79, "visibility_pct": 0.0 }, "geometry": { "type": "Point", "coordinates": [ 0.198840746221258, 51.440281010918802 ] } },
{ "type": "Feature", "properties": { "visible_points": 0, "total_points": 87, "visibility_pct": 0.0 }, "geometry": { "type": "Point", "coordinates": [ 0.199039963866816, 51.440277273456992 ] } },
{ "type": "Feature", "properties": { "visible_points": 0, "total_points": 94, "visibility_pct": 0.0 }, "geometry": { "type": "Point", "coordinates": [ 0.199239181471621, 51.440273535656914 ] } },
{ "type": "Feature", "properties": { "visible_points": 0, "total_points": 102, "visibility_pct": 0.0 }, "geometry": { "type": "Point", "coordinates": [ 0.199438399035675, 51.440269797518511 ] } },
{ "type": "Feature", "properties": { "visible_points": 1, "total_points": 108, "visibility_pct": 0.92592592592592582 }, "geometry": { "type": "Point", "coordinates": [ 0.199637616558964, 51.440266059041832 ] } },
{ "type": "Feature", "properties": { "visible_points": 1, "total_points": 114, "visibility_pct": 0.8771929824561403 }, "geometry": { "type": "Point", "coordinates": [ 0.199836834041499, 51.440262320226836 ] } },
{ "type": "Feature", "properties": { "visible_points": 5, "total_points": 118, "visibility_pct": 4.2372881355932197 }, "geometry": { "type": "Point", "coordinates": [ 0.200036051483267, 51.440258581073564 ] } },
{ "type": "Feature", "properties": { "visible_points": 47, "total_points": 120, "visibility_pct": 39.166666666666664 }, "geometry": { "type": "Point", "coordinates": [ 0.200235268884267, 51.440254841581989 ] } },
{ "type": "Feature", "properties": { "visible_points": 29, "total_points": 120, "visibility_pct": 24.166666666666668 }, "geometry": { "type": "Point", "coordinates": [ 0.200434486244494, 51.440251101752125 ] } },
{ "type": "Feature", "properties": { "visible_points": 36, "total_points": 120, "visibility_pct": 30.0 }, "geometry": { "type": "Point", "coordinates": [ 0.200633703563948, 51.440247361583936 ] } },
{ "type": "Feature", "properties": { "visible_points": 43, "total_points": 119, "visibility_pct": 36.134453781512605 }, "geometry": { "type": "Point", "coordinates": [ 0.200832920842619, 51.440243621077485 ] } },
{ "type": "Feature", "properties": { "visible_points": 48, "total_points": 116, "visibility_pct": 41.379310344827587 }, "geometry": { "type": "Point", "coordinates": [ 0.20103213808051, 51.440239880232703 ] } },
{ "type": "Feature", "properties": { "visible_points": 64, "total_points": 113, "visibility_pct": 56.637168141592923 }, "geometry": { "type": "Point", "coordinates": [ 0.201231355277614, 51.440236139049652 ] } },
{ "type": "Feature", "properties": { "visible_points": 79, "total_points": 110, "visibility_pct": 71.818181818181813 }, "geometry": { "type": "Point", "coordinates": [ 0.201430572433929, 51.440232397528277 ] } },
{ "type": "Feature", "properties": { "visible_points": 74, "total_points": 106, "visibility_pct": 69.811320754716974 }, "geometry": { "type": "Point", "coordinates": [ 0.201629789549448, 51.440228655668626 ] } },
{ "type": "Feature", "properties": { "visible_points": 63, "total_points": 103, "visibility_pct": 61.165048543689316 }, "geometry": { "type": "Point", "coordinates": [ 0.201829006624173, 51.440224913470679 ] } },
{ "type": "Feature", "properties": { "visible_points": 51, "total_points": 96, "visibility_pct": 53.125 }, "geometry": { "type": "Point", "coordinates": [ 0.202028223658098, 51.440221170934429 ] } },
{ "type": "Feature", "properties": { "visible_points": 39, "total_points": 87, "visibility_pct": 44.827586206896555 }, "geometry": { "type": "Point", "coordinates": [ 0.202227440651215, 51.440217428059896 ] } },
{ "type": "Feature", "properties": { "visible_points": 26, "total_points": 76, "visibility_pct": 34.210526315789473 }, "geometry": { "type": "Point", "coordinates": [ 0.202426657603527, 51.440213684847066 ] } },
{ "type": "Feature", "properties": { "visible_points": 18, "total_points": 66, "visibility_pct": 27.27272727272727 }, "geometry": { "type": "Point", "coordinates": [ 0.202625874515029, 51.440209941295933 ] } },
{ "type": "Feature", "properties": { "visible_points": 0, "total_points": 83, "visibility_pct": 0.0 }, "geometry": { "type": "Point", "coordinates": [ 0.198746319247937, 51.44039069658136 ] } },
{ "type": "Feature", "properties": { "visible_points": 0, "total_points": 91, "visibility_pct": 0.0 }, "geometry": { "type": "Point", "coordinates": [ 0.198945537351078, 51.440386959274036 ] } },
{ "type": "Feature", "properties": { "visible_points": 0, "total_points": 99, "visibility_pct": 0.0 }, "geometry": { "type": "Point", "coordinates": [ 0.199144755413462, 51.44038322162838 ] } },
{ "type": "Feature", "properties": { "visible_points": 1, "total_points": 106, "visibility_pct": 0.94339622641509435 }, "geometry": { "type": "Point", "coordinates": [ 0.199343973435102, 51.440379483644463 ] } },
{ "type": "Feature", "properties": { "visible_points": 0, "total_points": 112, "visibility_pct": 0.0 }, "geometry": { "type": "Point", "coordinates": [ 0.19954319141598, 51.440375745322243 ] } },
{ "type": "Feature", "properties": { "visible_points": 0, "total_points": 117, "visibility_pct": 0.0 }, "geometry": { "type": "Point", "coordinates": [ 0.199742409356102, 51.440372006661697 ] } },
{ "type": "Feature", "properties": { "visible_points": 3, "total_points": 120, "visibility_pct": 2.5 }, "geometry": { "type": "Point", "coordinates": [ 0.199941627255458, 51.440368267662883 ] } },
{ "type": "Feature", "properties": { "visible_points": 29, "total_points": 120, "visibility_pct": 24.166666666666668 }, "geometry": { "type": "Point", "coordinates": [ 0.200140845114046, 51.440364528325738 ] } },
{ "type": "Feature", "properties": { "visible_points": 41, "total_points": 120, "visibility_pct": 34.166666666666664 }, "geometry": { "type": "Point", "coordinates": [ 0.200340062931868, 51.440360788650317 ] } },
{ "type": "Feature", "properties": { "visible_points": 38, "total_points": 120, "visibility_pct": 31.666666666666664 }, "geometry": { "type": "Point", "coordinates": [ 0.200539280708915, 51.440357048636585 ] } },
{ "type": "Feature", "properties": { "visible_points": 45, "total_points": 120, "visibility_pct": 37.5 }, "geometry": { "type": "Point", "coordinates": [ 0.200738498445179, 51.440353308284564 ] } },
{ "type": "Feature", "properties": { "visible_points": 53, "total_points": 120, "visibility_pct": 44.166666666666664 }, "geometry": { "type": "Point", "coordinates": [ 0.200937716140669, 51.440349567594247 ] } },
{ "type": "Feature", "properties": { "visible_points": 60, "total_points": 119, "visibility_pct": 50.420168067226889 }, "geometry": { "type": "Point", "coordinates": [ 0.201136933795372, 51.440345826565633 ] } },
{ "type": "Feature", "properties": { "visible_points": 64, "total_points": 117, "visibility_pct": 54.700854700854705 }, "geometry": { "type": "Point", "coordinates": [ 0.201336151409283, 51.440342085198708 ] } },
{ "type": "Feature", "properties": { "visible_points": 57, "total_points": 115, "visibility_pct": 49.565217391304351 }, "geometry": { "type": "Point", "coordinates": [ 0.201535368982404, 51.440338343493501 ] } },
{ "type": "Feature", "properties": { "visible_points": 51, "total_points": 112, "visibility_pct": 45.535714285714285 }, "geometry": { "type": "Point", "coordinates": [ 0.201734586514733, 51.440334601449976 ] } },
{ "type": "Feature", "properties": { "visible_points": 53, "total_points": 108, "visibility_pct": 49.074074074074076 }, "geometry": { "type": "Point", "coordinates": [ 0.201933804006259, 51.440330859068169 ] } },
{ "type": "Feature", "properties": { "visible_points": 53, "total_points": 99, "visibility_pct": 53.535353535353536 }, "geometry": { "type": "Point", "coordinates": [ 0.202133021456982, 51.440327116348087 ] } },
{ "type": "Feature", "properties": { "visible_points": 44, "total_points": 89, "visibility_pct": 49.438202247191008 }, "geometry": { "type": "Point", "coordinates": [ 0.2023322388669, 51.440323373289679 ] } },
{ "type": "Feature", "properties": { "visible_points": 34, "total_points": 78, "visibility_pct": 43.589743589743591 }, "geometry": { "type": "Point", "coordinates": [ 0.202531456236008, 51.440319629892976 ] } },
{ "type": "Feature", "properties": { "visible_points": 0, "total_points": 67, "visibility_pct": 0.0 }, "geometry": { "type": "Point", "coordinates": [ 0.202730673564305, 51.440315886157997 ] } },
{ "type": "Feature", "properties": { "visible_points": 0, "total_points": 79, "visibility_pct": 0.0 }, "geometry": { "type": "Point", "coordinates": [ 0.198452673106636, 51.440504118963695 ] } },
{ "type": "Feature", "properties": { "visible_points": 0, "total_points": 87, "visibility_pct": 0.0 }, "geometry": { "type": "Point", "coordinates": [ 0.198651891857781, 51.440500382171663 ] } },
{ "type": "Feature", "properties": { "visible_points": 0, "total_points": 95, "visibility_pct": 0.0 }, "geometry": { "type": "Point", "coordinates": [ 0.198851110418505, 51.440496645018797 ] } },
{ "type": "Feature", "properties": { "visible_points": 0, "total_points": 103, "visibility_pct": 0.0 }, "geometry": { "type": "Point", "coordinates": [ 0.199050328938482, 51.440492907527627 ] } },
{ "type": "Feature", "properties": { "visible_points": 0, "total_points": 109, "visibility_pct": 0.0 }, "geometry": { "type": "Point", "coordinates": [ 0.199249547417702, 51.440489169698154 ] } },
{ "type": "Feature", "properties": { "visible_points": 0, "total_points": 115, "visibility_pct": 0.0 }, "geometry": { "type": "Point", "coordinates": [ 0.19944876585617, 51.440485431530369 ] } },
{ "type": "Feature", "properties": { "visible_points": 0, "total_points": 119, "visibility_pct": 0.0 }, "geometry": { "type": "Point", "coordinates": [ 0.199647984253882, 51.440481693024296 ] } },
{ "type": "Feature", "properties": { "visible_points": 0, "total_points": 120, "visibility_pct": 0.0 }, "geometry": { "type": "Point", "coordinates": [ 0.199847202610826, 51.440477954179912 ] } },
{ "type": "Feature", "properties": { "visible_points": 11, "total_points": 120, "visibility_pct": 9.1666666666666661 }, "geometry": { "type": "Point", "coordinates": [ 0.200046420927012, 51.440474214997252 ] } },
{ "type": "Feature", "properties": { "visible_points": 44, "total_points": 120, "visibility_pct": 36.666666666666664 }, "geometry": { "type": "Point", "coordinates": [ 0.200245639202427, 51.440470475476275 ] } },
{ "type": "Feature", "properties": { "visible_points": 41, "total_points": 120, "visibility_pct": 34.166666666666664 }, "geometry": { "type": "Point", "coordinates": [ 0.200444857437067, 51.440466735617001 ] } },
{ "type": "Feature", "properties": { "visible_points": 50, "total_points": 120, "visibility_pct": 41.666666666666671 }, "geometry": { "type": "Point", "coordinates": [ 0.200644075630935, 51.440462995419423 ] } },
{ "type": "Feature", "properties": { "visible_points": 62, "total_points": 120, "visibility_pct": 51.666666666666671 }, "geometry": { "type": "Point", "coordinates": [ 0.200843293784017, 51.44045925488355 ] } },
{ "type": "Feature", "properties": { "visible_points": 70, "total_points": 120, "visibility_pct": 58.333333333333336 }, "geometry": { "type": "Point", "coordinates": [ 0.201042511896321, 51.440455514009365 ] } },
{ "type": "Feature", "properties": { "visible_points": 72, "total_points": 120, "visibility_pct": 60.0 }, "geometry": { "type": "Point", "coordinates": [ 0.201241729967836, 51.440451772796905 ] } },
{ "type": "Feature", "properties": { "visible_points": 67, "total_points": 119, "visibility_pct": 56.30252100840336 }, "geometry": { "type": "Point", "coordinates": [ 0.201440947998558, 51.440448031246127 ] } },
{ "type": "Feature", "properties": { "visible_points": 56, "total_points": 118, "visibility_pct": 47.457627118644069 }, "geometry": { "type": "Point", "coordinates": [ 0.20164016598849, 51.44044428935706 ] } },
{ "type": "Feature", "properties": { "visible_points": 54, "total_points": 116, "visibility_pct": 46.551724137931032 }, "geometry": { "type": "Point", "coordinates": [ 0.201839383937623, 51.440440547129704 ] } },
{ "type": "Feature", "properties": { "visible_points": 55, "total_points": 111, "visibility_pct": 49.549549549549546 }, "geometry": { "type": "Point", "coordinates": [ 0.202038601845954, 51.44043680456403 ] } },
{ "type": "Feature", "properties": { "visible_points": 50, "total_points": 101, "visibility_pct": 49.504950495049506 }, "geometry": { "type": "Point", "coordinates": [ 0.202237819713482, 51.440433061660073 ] } },
{ "type": "Feature", "properties": { "visible_points": 46, "total_points": 90, "visibility_pct": 51.111111111111107 }, "geometry": { "type": "Point", "coordinates": [ 0.202437037540201, 51.440429318417806 ] } },
{ "type": "Feature", "properties": { "visible_points": 0, "total_points": 79, "visibility_pct": 0.0 }, "geometry": { "type": "Point", "coordinates": [ 0.202636255326107, 51.440425574837242 ] } },
{ "type": "Feature", "properties": { "visible_points": 0, "total_points": 83, "visibility_pct": 0.0 }, "geometry": { "type": "Point", "coordinates": [ 0.198358244373483, 51.440613804224895 ] } },
{ "type": "Feature", "properties": { "visible_points": 0, "total_points": 91, "visibility_pct": 0.0 }, "geometry": { "type": "Point", "coordinates": [ 0.19855746405079, 51.440610067689697 ] } },
{ "type": "Feature", "properties": { "visible_points": 0, "total_points": 99, "visibility_pct": 0.0 }, "geometry": { "type": "Point", "coordinates": [ 0.198756683069101, 51.440606330691288 ] } },
{ "type": "Feature", "properties": { "visible_points": 0, "total_points": 106, "visibility_pct": 0.0 }, "geometry": { "type": "Point", "coordinates": [ 0.198955902046662, 51.440602593354583 ] } },
{ "type": "Feature", "properties": { "visible_points": 0, "total_points": 112, "visibility_pct": 0.0 }, "geometry": { "type": "Point", "coordinates": [ 0.199155120983475, 51.440598855679553 ] } },
{ "type": "Feature", "properties": { "visible_points": 17, "total_points": 117, "visibility_pct": 14.529914529914532 }, "geometry": { "type": "Point", "coordinates": [ 0.199354339879534, 51.440595117666248 ] } },
{ "type": "Feature", "properties": { "visible_points": 7, "total_points": 120, "visibility_pct": 5.833333333333333 }, "geometry": { "type": "Point", "coordinates": [ 0.199553558734834, 51.440591379314625 ] } },
{ "type": "Feature", "properties": { "visible_points": 7, "total_points": 120, "visibility_pct": 5.833333333333333 }, "geometry": { "type": "Point", "coordinates": [ 0.199752777549376, 51.440587640624699 ] } },
{ "type": "Feature", "properties": { "visible_points": 16, "total_points": 120, "visibility_pct": 13.333333333333334 }, "geometry": { "type": "Point", "coordinates": [ 0.199951996323156, 51.440583901596469 ] } },
{ "type": "Feature", "properties": { "visible_points": 32, "total_points": 120, "visibility_pct": 26.666666666666668 }, "geometry": { "type": "Point", "coordinates": [ 0.200151215056165, 51.440580162229963 ] } },
{ "type": "Feature", "properties": { "visible_points": 49, "total_points": 120, "visibility_pct": 40.833333333333336 }, "geometry": { "type": "Point", "coordinates": [ 0.200350433748406, 51.44057642252514 ] } },
{ "type": "Feature", "properties": { "visible_points": 51, "total_points": 120, "visibility_pct": 42.5 }, "geometry": { "type": "Point", "coordinates": [ 0.200549652399867, 51.440572682482014 ] } },
{ "type": "Feature", "properties": { "visible_points": 63, "total_points": 120, "visibility_pct": 52.5 }, "geometry": { "type": "Point", "coordinates": [ 0.200748871010554, 51.440568942100583 ] } },
{ "type": "Feature", "properties": { "visible_points": 73, "total_points": 120, "visibility_pct": 60.833333333333329 }, "geometry": { "type": "Point", "coordinates": [ 0.20094808958046, 51.440565201380863 ] } },
{ "type": "Feature", "properties": { "visible_points": 81, "total_points": 120, "visibility_pct": 67.5 }, "geometry": { "type": "Point", "coordinates": [ 0.201147308109577, 51.440561460322826 ] } },
{ "type": "Feature", "properties": { "visible_points": 84, "total_points": 120, "visibility_pct": 70.0 }, "geometry": { "type": "Point", "coordinates": [ 0.201346526597909, 51.440557718926513 ] } },
{ "type": "Feature", "properties": { "visible_points": 77, "total_points": 120, "visibility_pct": 64.166666666666671 }, "geometry": { "type": "Point", "coordinates": [ 0.201545745045446, 51.44055397719189 ] } },
{ "type": "Feature", "properties": { "visible_points": 75, "total_points": 120, "visibility_pct": 62.5 }, "geometry": { "type": "Point", "coordinates": [ 0.201744963452185, 51.440550235118948 ] } },
{ "type": "Feature", "properties": { "visible_points": 66, "total_points": 120, "visibility_pct": 55.000000000000007 }, "geometry": { "type": "Point", "coordinates": [ 0.201944181818129, 51.440546492707732 ] } },
{ "type": "Feature", "properties": { "visible_points": 64, "total_points": 113, "visibility_pct": 56.637168141592923 }, "geometry": { "type": "Point", "coordinates": [ 0.202143400143264, 51.440542749958205 ] } },
{ "type": "Feature", "properties": { "visible_points": 57, "total_points": 102, "visibility_pct": 55.882352941176471 }, "geometry": { "type": "Point", "coordinates": [ 0.202342618427595, 51.440539006870374 ] } },
{ "type": "Feature", "properties": { "visible_points": 46, "total_points": 90, "visibility_pct": 51.111111111111107 }, "geometry": { "type": "Point", "coordinates": [ 0.202541836671118, 51.440535263444261 ] } },
{ "type": "Feature", "properties": { "visible_points": 0, "total_points": 77, "visibility_pct": 0.0 }, "geometry": { "type": "Point", "coordinates": [ 0.202741054873823, 51.440531519679844 ] } },
{ "type": "Feature", "properties": { "visible_points": 0, "total_points": 75, "visibility_pct": 0.0 }, "geometry": { "type": "Point", "coordinates": [ 0.198064593348027, 51.440727224920096 ] } },
{ "type": "Feature", "properties": { "visible_points": 1, "total_points": 86, "visibility_pct": 1.1627906976744187 }, "geometry": { "type": "Point", "coordinates": [ 0.198263815013382, 51.440723489303601 ] } },
{ "type": "Feature", "properties": { "visible_points": 0, "total_points": 95, "visibility_pct": 0.0 }, "geometry": { "type": "Point", "coordinates": [ 0.198463035718325, 51.440719753120447 ] } },
{ "type": "Feature", "properties": { "visible_points": 0, "total_points": 103, "visibility_pct": 0.0 }, "geometry": { "type": "Point", "coordinates": [ 0.198662255302857, 51.440716016291539 ] } },
{ "type": "Feature", "properties": { "visible_points": 0, "total_points": 109, "visibility_pct": 0.0 }, "geometry": { "type": "Point", "coordinates": [ 0.198861474738008, 51.440712279109277 ] } },
{ "type": "Feature", "properties": { "visible_points": 3, "total_points": 115, "visibility_pct": 2.6086956521739131 }, "geometry": { "type": "Point", "coordinates": [ 0.199060694132412, 51.44070854158872 ] } },
{ "type": "Feature", "properties": { "visible_points": 27, "total_points": 119, "visibility_pct": 22.689075630252102 }, "geometry": { "type": "Point", "coordinates": [ 0.199259913486065, 51.440704803729858 ] } },
{ "type": "Feature", "properties": { "visible_points": 25, "total_points": 120, "visibility_pct": 20.833333333333336 }, "geometry": { "type": "Point", "coordinates": [ 0.199459132798962, 51.440701065532686 ] } },
{ "type": "Feature", "properties": { "visible_points": 20, "total_points": 120, "visibility_pct": 16.666666666666664 }, "geometry": { "type": "Point", "coordinates": [ 0.199658352071099, 51.440697326997224 ] } },
{ "type": "Feature", "properties": { "visible_points": 25, "total_points": 120, "visibility_pct": 20.833333333333336 }, "geometry": { "type": "Point", "coordinates": [ 0.199857571302474, 51.440693588123466 ] } },
{ "type": "Feature", "properties": { "visible_points": 28, "total_points": 120, "visibility_pct": 23.333333333333332 }, "geometry": { "type": "Point", "coordinates": [ 0.200056790493079, 51.440689848911397 ] } },
{ "type": "Feature", "properties": { "visible_points": 66, "total_points": 120, "visibility_pct": 55.000000000000007 }, "geometry": { "type": "Point", "coordinates": [ 0.200256009642923, 51.440686109361025 ] } },
{ "type": "Feature", "properties": { "visible_points": 51, "total_points": 120, "visibility_pct": 42.5 }, "geometry": { "type": "Point", "coordinates": [ 0.200455228751988, 51.440682369472363 ] } },
{ "type": "Feature", "properties": { "visible_points": 66, "total_points": 120, "visibility_pct": 55.000000000000007 }, "geometry": { "type": "Point", "coordinates": [ 0.200654447820275, 51.440678629245376 ] } },
{ "type": "Feature", "properties": { "visible_points": 78, "total_points": 120, "visibility_pct": 65.0 }, "geometry": { "type": "Point", "coordinates": [ 0.200853666847786, 51.440674888680093 ] } },
{ "type": "Feature", "properties": { "visible_points": 87, "total_points": 120, "visibility_pct": 72.5 }, "geometry": { "type": "Point", "coordinates": [ 0.201052885834509, 51.440671147776527 ] } },
{ "type": "Feature", "properties": { "visible_points": 91, "total_points": 120, "visibility_pct": 75.833333333333329 }, "geometry": { "type": "Point", "coordinates": [ 0.201252104780446, 51.440667406534651 ] } },
{ "type": "Feature", "properties": { "visible_points": 92, "total_points": 120, "visibility_pct": 76.666666666666671 }, "geometry": { "type": "Point", "coordinates": [ 0.201451323685591, 51.44066366495445 ] } },
{ "type": "Feature", "properties": { "visible_points": 88, "total_points": 120, "visibility_pct": 73.333333333333329 }, "geometry": { "type": "Point", "coordinates": [ 0.201650542549944, 51.440659923035973 ] } },
{ "type": "Feature", "properties": { "visible_points": 82, "total_points": 120, "visibility_pct": 68.333333333333329 }, "geometry": { "type": "Point", "coordinates": [ 0.201849761373495, 51.440656180779179 ] } },
{ "type": "Feature", "properties": { "visible_points": 72, "total_points": 118, "visibility_pct": 61.016949152542374 }, "geometry": { "type": "Point", "coordinates": [ 0.20204898015625, 51.440652438184102 ] } },
{ "type": "Feature", "properties": { "visible_points": 63, "total_points": 110, "visibility_pct": 57.272727272727273 }, "geometry": { "type": "Point", "coordinates": [ 0.202248198898191, 51.440648695250715 ] } },
{ "type": "Feature", "properties": { "visible_points": 54, "total_points": 99, "visibility_pct": 54.54545454545454 }, "geometry": { "type": "Point", "coordinates": [ 0.202447417599328, 51.440644951979053 ] } },
{ "type": "Feature", "properties": { "visible_points": 36, "total_points": 87, "visibility_pct": 41.379310344827587 }, "geometry": { "type": "Point", "coordinates": [ 0.202646636259652, 51.440641208369051 ] } },
{ "type": "Feature", "properties": { "visible_points": 0, "total_points": 74, "visibility_pct": 0.0 }, "geometry": { "type": "Point", "coordinates": [ 0.202845854879163, 51.440637464420753 ] } },
{ "type": "Feature", "properties": { "visible_points": 0, "total_points": 74, "visibility_pct": 0.0 }, "geometry": { "type": "Point", "coordinates": [ 0.197970162687006, 51.44083690977282 ] } },
{ "type": "Feature", "properties": { "visible_points": 0, "total_points": 86, "visibility_pct": 0.0 }, "geometry": { "type": "Point", "coordinates": [ 0.198169384861768, 51.440833174286716 ] } },
{ "type": "Feature", "properties": { "visible_points": 0, "total_points": 98, "visibility_pct": 0.0 }, "geometry": { "type": "Point", "coordinates": [ 0.198368606600569, 51.440829438416145 ] } },
{ "type": "Feature", "properties": { "visible_points": 0, "total_points": 106, "visibility_pct": 0.0 }, "geometry": { "type": "Point", "coordinates": [ 0.198567827119773, 51.440825701819492 ] } },
{ "type": "Feature", "properties": { "visible_points": 0, "total_points": 112, "visibility_pct": 0.0 }, "geometry": { "type": "Point", "coordinates": [ 0.198767047012517, 51.440821964791716 ] } },
{ "type": "Feature", "properties": { "visible_points": 17, "total_points": 117, "visibility_pct": 14.529914529914532 }, "geometry": { "type": "Point", "coordinates": [ 0.198966266864514, 51.440818227425616 ] } },
{ "type": "Feature", "properties": { "visible_points": 34, "total_points": 120, "visibility_pct": 28.333333333333332 }, "geometry": { "type": "Point", "coordinates": [ 0.199165486675762, 51.440814489721213 ] } },
{ "type": "Feature", "properties": { "visible_points": 36, "total_points": 120, "visibility_pct": 30.0 }, "geometry": { "type": "Point", "coordinates": [ 0.199364706446251, 51.440810751678498 ] } },
{ "type": "Feature", "properties": { "visible_points": 32, "total_points": 120, "visibility_pct": 26.666666666666668 }, "geometry": { "type": "Point", "coordinates": [ 0.19956392617599, 51.440807013297501 ] } },
{ "type": "Feature", "properties": { "visible_points": 29, "total_points": 120, "visibility_pct": 24.166666666666668 }, "geometry": { "type": "Point", "coordinates": [ 0.199763145864964, 51.440803274578201 ] } },
{ "type": "Feature", "properties": { "visible_points": 34, "total_points": 120, "visibility_pct": 28.333333333333332 }, "geometry": { "type": "Point", "coordinates": [ 0.199962365513171, 51.440799535520583 ] } },
{ "type": "Feature", "properties": { "visible_points": 69, "total_points": 120, "visibility_pct": 57.5 }, "geometry": { "type": "Point", "coordinates": [ 0.200161585120615, 51.440795796124668 ] } },
{ "type": "Feature", "properties": { "visible_points": 51, "total_points": 120, "visibility_pct": 42.5 }, "geometry": { "type": "Point", "coordinates": [ 0.200360804687284, 51.440792056390428 ] } },
{ "type": "Feature", "properties": { "visible_points": 62, "total_points": 120, "visibility_pct": 51.666666666666671 }, "geometry": { "type": "Point", "coordinates": [ 0.200560024213179, 51.440788316317906 ] } },
{ "type": "Feature", "properties": { "visible_points": 76, "total_points": 120, "visibility_pct": 63.333333333333329 }, "geometry": { "type": "Point", "coordinates": [ 0.200759243698292, 51.440784575907081 ] } },
{ "type": "Feature", "properties": { "visible_points": 84, "total_points": 120, "visibility_pct": 70.0 }, "geometry": { "type": "Point", "coordinates": [ 0.200958463142624, 51.440780835157959 ] } },
{ "type": "Feature", "properties": { "visible_points": 96, "total_points": 120, "visibility_pct": 80.0 }, "geometry": { "type": "Point", "coordinates": [ 0.201157682546173, 51.440777094070533 ] } },
{ "type": "Feature", "properties": { "visible_points": 99, "total_points": 120, "visibility_pct": 82.5 }, "geometry": { "type": "Point", "coordinates": [ 0.201356901908929, 51.440773352644776 ] } },
{ "type": "Feature", "properties": { "visible_points": 95, "total_points": 120, "visibility_pct": 79.166666666666657 }, "geometry": { "type": "Point", "coordinates": [ 0.201556121230894, 51.440769610880736 ] } },
{ "type": "Feature", "properties": { "visible_points": 88, "total_points": 120, "visibility_pct": 73.333333333333329 }, "geometry": { "type": "Point", "coordinates": [ 0.201755340512058, 51.440765868778392 ] } },
{ "type": "Feature", "properties": { "visible_points": 82, "total_points": 120, "visibility_pct": 68.333333333333329 }, "geometry": { "type": "Point", "coordinates": [ 0.201954559752426, 51.440762126337752 ] } },
{ "type": "Feature", "properties": { "visible_points": 71, "total_points": 115, "visibility_pct": 61.739130434782609 }, "geometry": { "type": "Point", "coordinates": [ 0.202153778951989, 51.440758383558816 ] } },
{ "type": "Feature", "properties": { "visible_points": 64, "total_points": 105, "visibility_pct": 60.952380952380956 }, "geometry": { "type": "Point", "coordinates": [ 0.202352998110744, 51.440754640441554 ] } },
{ "type": "Feature", "properties": { "visible_points": 53, "total_points": 94, "visibility_pct": 56.38297872340425 }, "geometry": { "type": "Point", "coordinates": [ 0.202552217228685, 51.440750896986032 ] } },
{ "type": "Feature", "properties": { "visible_points": 31, "total_points": 81, "visibility_pct": 38.271604938271601 }, "geometry": { "type": "Point", "coordinates": [ 0.202751436305817, 51.440747153192156 ] } },
{ "type": "Feature", "properties": { "visible_points": 0, "total_points": 70, "visibility_pct": 0.0 }, "geometry": { "type": "Point", "coordinates": [ 0.197875731560789, 51.440946594575706 ] } },
{ "type": "Feature", "properties": { "visible_points": 0, "total_points": 83, "visibility_pct": 0.0 }, "geometry": { "type": "Point", "coordinates": [ 0.19807495424496, 51.440942859220023 ] } },
{ "type": "Feature", "properties": { "visible_points": 0, "total_points": 96, "visibility_pct": 0.0 }, "geometry": { "type": "Point", "coordinates": [ 0.198274176884928, 51.440939123527627 ] } },
{ "type": "Feature", "properties": { "visible_points": 0, "total_points": 109, "visibility_pct": 0.0 }, "geometry": { "type": "Point", "coordinates": [ 0.198473398456933, 51.440935387266556 ] } },
{ "type": "Feature", "properties": { "visible_points": 0, "total_points": 115, "visibility_pct": 0.0 }, "geometry": { "type": "Point", "coordinates": [ 0.198672618870182, 51.440931650401858 ] } },
{ "type": "Feature", "properties": { "visible_points": 0, "total_points": 119, "visibility_pct": 0.0 }, "geometry": { "type": "Point", "coordinates": [ 0.198871839179775, 51.440927913190244 ] } },
{ "type": "Feature", "properties": { "visible_points": 37, "total_points": 120, "visibility_pct": 30.833333333333336 }, "geometry": { "type": "Point", "coordinates": [ 0.199071059448618, 51.440924175640305 ] } },
{ "type": "Feature", "properties": { "visible_points": 42, "total_points": 120, "visibility_pct": 35.0 }, "geometry": { "type": "Point", "coordinates": [ 0.19927027967671, 51.440920437752055 ] } },
{ "type": "Feature", "properties": { "visible_points": 42, "total_points": 120, "visibility_pct": 35.0 }, "geometry": { "type": "Point", "coordinates": [ 0.199469499864044, 51.440916699525509 ] } },
{ "type": "Feature", "properties": { "visible_points": 41, "total_points": 120, "visibility_pct": 34.166666666666664 }, "geometry": { "type": "Point", "coordinates": [ 0.199668720010621, 51.440912960960659 ] } },
{ "type": "Feature", "properties": { "visible_points": 38, "total_points": 120, "visibility_pct": 31.666666666666664 }, "geometry": { "type": "Point", "coordinates": [ 0.199867940116432, 51.440909222057492 ] } },
{ "type": "Feature", "properties": { "visible_points": 61, "total_points": 120, "visibility_pct": 50.833333333333329 }, "geometry": { "type": "Point", "coordinates": [ 0.200067160181478, 51.440905482816035 ] } },
{ "type": "Feature", "properties": { "visible_points": 84, "total_points": 120, "visibility_pct": 70.0 }, "geometry": { "type": "Point", "coordinates": [ 0.200266380205756, 51.44090174323626 ] } },
{ "type": "Feature", "properties": { "visible_points": 54, "total_points": 120, "visibility_pct": 45.0 }, "geometry": { "type": "Point", "coordinates": [ 0.200465600189256, 51.440898003318203 ] } },
{ "type": "Feature", "properties": { "visible_points": 67, "total_points": 120, "visibility_pct": 55.833333333333336 }, "geometry": { "type": "Point", "coordinates": [ 0.20066482013198, 51.440894263061821 ] } },
{ "type": "Feature", "properties": { "visible_points": 75, "total_points": 120, "visibility_pct": 62.5 }, "geometry": { "type": "Point", "coordinates": [ 0.200864040033922, 51.440890522467122 ] } },
{ "type": "Feature", "properties": { "visible_points": 87, "total_points": 120, "visibility_pct": 72.5 }, "geometry": { "type": "Point", "coordinates": [ 0.20106325989508, 51.44088678153414 ] } },
{ "type": "Feature", "properties": { "visible_points": 93, "total_points": 120, "visibility_pct": 77.5 }, "geometry": { "type": "Point", "coordinates": [ 0.201262479715452, 51.440883040262854 ] } },
{ "type": "Feature", "properties": { "visible_points": 96, "total_points": 120, "visibility_pct": 80.0 }, "geometry": { "type": "Point", "coordinates": [ 0.201461699495028, 51.440879298653265 ] } },
{ "type": "Feature", "properties": { "visible_points": 89, "total_points": 120, "visibility_pct": 74.166666666666671 }, "geometry": { "type": "Point", "coordinates": [ 0.201660919233814, 51.440875556705357 ] } },
{ "type": "Feature", "properties": { "visible_points": 82, "total_points": 120, "visibility_pct": 68.333333333333329 }, "geometry": { "type": "Point", "coordinates": [ 0.201860138931796, 51.440871814419161 ] } },
{ "type": "Feature", "properties": { "visible_points": 73, "total_points": 118, "visibility_pct": 61.864406779661017 }, "geometry": { "type": "Point", "coordinates": [ 0.202059358588975, 51.440868071794654 ] } },
{ "type": "Feature", "properties": { "visible_points": 60, "total_points": 111, "visibility_pct": 54.054054054054056 }, "geometry": { "type": "Point", "coordinates": [ 0.202258578205354, 51.440864328831857 ] } },
{ "type": "Feature", "properties": { "visible_points": 54, "total_points": 100, "visibility_pct": 54.0 }, "geometry": { "type": "Point", "coordinates": [ 0.202457797780919, 51.440860585530736 ] } },
{ "type": "Feature", "properties": { "visible_points": 36, "total_points": 88, "visibility_pct": 40.909090909090914 }, "geometry": { "type": "Point", "coordinates": [ 0.202657017315669, 51.440856841891325 ] } },
{ "type": "Feature", "properties": { "visible_points": 0, "total_points": 75, "visibility_pct": 0.0 }, "geometry": { "type": "Point", "coordinates": [ 0.202856236809607, 51.440853097913603 ] } },
{ "type": "Feature", "properties": { "visible_points": 0, "total_points": 53, "visibility_pct": 0.0 }, "geometry": { "type": "Point", "coordinates": [ 0.197582076731585, 51.441060014217399 ] } },
{ "type": "Feature", "properties": { "visible_points": 0, "total_points": 65, "visibility_pct": 0.0 }, "geometry": { "type": "Point", "coordinates": [ 0.197781299969377, 51.441056279328784 ] } },
{ "type": "Feature", "properties": { "visible_points": 0, "total_points": 78, "visibility_pct": 0.0 }, "geometry": { "type": "Point", "coordinates": [ 0.197980523162962, 51.441052544103492 ] } },
{ "type": "Feature", "properties": { "visible_points": 0, "total_points": 91, "visibility_pct": 0.0 }, "geometry": { "type": "Point", "coordinates": [ 0.198179746312338, 51.441048808541503 ] } },
{ "type": "Feature", "properties": { "visible_points": 0, "total_points": 104, "visibility_pct": 0.0 }, "geometry": { "type": "Point", "coordinates": [ 0.198378968955636, 51.441045072594157 ] } },
{ "type": "Feature", "properties": { "visible_points": 0, "total_points": 116, "visibility_pct": 0.0 }, "geometry": { "type": "Point", "coordinates": [ 0.198578190311, 51.441041335939765 ] } },
{ "type": "Feature", "properties": { "visible_points": 0, "total_points": 120, "visibility_pct": 0.0 }, "geometry": { "type": "Point", "coordinates": [ 0.198777411078189, 51.441037598882602 ] } },
{ "type": "Feature", "properties": { "visible_points": 37, "total_points": 120, "visibility_pct": 30.833333333333336 }, "geometry": { "type": "Point", "coordinates": [ 0.198976631804634, 51.441033861487135 ] } },
{ "type": "Feature", "properties": { "visible_points": 44, "total_points": 120, "visibility_pct": 36.666666666666664 }, "geometry": { "type": "Point", "coordinates": [ 0.199175852490326, 51.44103012375335 ] } },
{ "type": "Feature", "properties": { "visible_points": 49, "total_points": 120, "visibility_pct": 40.833333333333336 }, "geometry": { "type": "Point", "coordinates": [ 0.199375073135261, 51.441026385681269 ] } },
{ "type": "Feature", "properties": { "visible_points": 45, "total_points": 120, "visibility_pct": 37.5 }, "geometry": { "type": "Point", "coordinates": [ 0.199574293739444, 51.441022647270856 ] } },
{ "type": "Feature", "properties": { "visible_points": 44, "total_points": 120, "visibility_pct": 36.666666666666664 }, "geometry": { "type": "Point", "coordinates": [ 0.199773514302858, 51.441018908522175 ] } },
{ "type": "Feature", "properties": { "visible_points": 61, "total_points": 120, "visibility_pct": 50.833333333333329 }, "geometry": { "type": "Point", "coordinates": [ 0.199972734825514, 51.441015169435154 ] } },
{ "type": "Feature", "properties": { "visible_points": 77, "total_points": 120, "visibility_pct": 64.166666666666671 }, "geometry": { "type": "Point", "coordinates": [ 0.200171955307392, 51.44101143000983 ] } },
{ "type": "Feature", "properties": { "visible_points": 62, "total_points": 120, "visibility_pct": 51.666666666666671 }, "geometry": { "type": "Point", "coordinates": [ 0.200371175748508, 51.441007690246217 ] } },
{ "type": "Feature", "properties": { "visible_points": 58, "total_points": 120, "visibility_pct": 48.333333333333336 }, "geometry": { "type": "Point", "coordinates": [ 0.200570396148843, 51.441003950144299 ] } },
{ "type": "Feature", "properties": { "visible_points": 66, "total_points": 120, "visibility_pct": 55.000000000000007 }, "geometry": { "type": "Point", "coordinates": [ 0.200769616508399, 51.441000209704072 ] } },
{ "type": "Feature", "properties": { "visible_points": 69, "total_points": 120, "visibility_pct": 57.5 }, "geometry": { "type": "Point", "coordinates": [ 0.200968836827166, 51.440996468925526 ] } },
{ "type": "Feature", "properties": { "visible_points": 79, "total_points": 120, "visibility_pct": 65.833333333333329 }, "geometry": { "type": "Point", "coordinates": [ 0.201168057105156, 51.440992727808684 ] } },
{ "type": "Feature", "properties": { "visible_points": 80, "total_points": 120, "visibility_pct": 66.666666666666657 }, "geometry": { "type": "Point", "coordinates": [ 0.201367277342349, 51.440988986353538 ] } },
{ "type": "Feature", "properties": { "visible_points": 80, "total_points": 120, "visibility_pct": 66.666666666666657 }, "geometry": { "type": "Point", "coordinates": [ 0.201566497538751, 51.440985244560082 ] } },
{ "type": "Feature", "properties": { "visible_points": 75, "total_points": 120, "visibility_pct": 62.5 }, "geometry": { "type": "Point", "coordinates": [ 0.201765717694354, 51.440981502428329 ] } },
{ "type": "Feature", "properties": { "visible_points": 65, "total_points": 120, "visibility_pct": 54.166666666666664 }, "geometry": { "type": "Point", "coordinates": [ 0.20196493780916, 51.440977759958265 ] } },
{ "type": "Feature", "properties": { "visible_points": 62, "total_points": 115, "visibility_pct": 53.913043478260867 }, "geometry": { "type": "Point", "coordinates": [ 0.202164157883154, 51.440974017149884 ] } },
{ "type": "Feature", "properties": { "visible_points": 54, "total_points": 106, "visibility_pct": 50.943396226415096 }, "geometry": { "type": "Point", "coordinates": [ 0.202363377916344, 51.44097027400322 ] } },
{ "type": "Feature", "properties": { "visible_points": 44, "total_points": 95, "visibility_pct": 46.315789473684212 }, "geometry": { "type": "Point", "coordinates": [ 0.202562597908723, 51.440966530518246 ] } },
{ "type": "Feature", "properties": { "visible_points": 0, "total_points": 82, "visibility_pct": 0.0 }, "geometry": { "type": "Point", "coordinates": [ 0.202761817860284, 51.440962786694968 ] } },
{ "type": "Feature", "properties": { "visible_points": 1, "total_points": 59, "visibility_pct": 1.6949152542372881 }, "geometry": { "type": "Point", "coordinates": [ 0.197686867912762, 51.441165964032031 ] } },
{ "type": "Feature", "properties": { "visible_points": 0, "total_points": 72, "visibility_pct": 0.0 }, "geometry": { "type": "Point", "coordinates": [ 0.197886091615761, 51.441162228937145 ] } },
{ "type": "Feature", "properties": { "visible_points": 0, "total_points": 85, "visibility_pct": 0.0 }, "geometry": { "type": "Point", "coordinates": [ 0.198085315274551, 51.441158493505576 ] } },
{ "type": "Feature", "properties": { "visible_points": 0, "total_points": 98, "visibility_pct": 0.0 }, "geometry": { "type": "Point", "coordinates": [ 0.198284538889129, 51.441154757737301 ] } },
{ "type": "Feature", "properties": { "visible_points": 0, "total_points": 111, "visibility_pct": 0.0 }, "geometry": { "type": "Point", "coordinates": [ 0.198483761322472, 51.441151021402035 ] } },
{ "type": "Feature", "properties": { "visible_points": 1, "total_points": 118, "visibility_pct": 0.84745762711864403 }, "geometry": { "type": "Point", "coordinates": [ 0.198682982559756, 51.441147284502698 ] } },
{ "type": "Feature", "properties": { "visible_points": 0, "total_points": 120, "visibility_pct": 0.0 }, "geometry": { "type": "Point", "coordinates": [ 0.198882203743804, 51.441143547261682 ] } },
{ "type": "Feature", "properties": { "visible_points": 48, "total_points": 120, "visibility_pct": 40.0 }, "geometry": { "type": "Point", "coordinates": [ 0.199081424887098, 51.441139809682369 ] } },
{ "type": "Feature", "properties": { "visible_points": 49, "total_points": 120, "visibility_pct": 40.833333333333336 }, "geometry": { "type": "Point", "coordinates": [ 0.199280645989637, 51.441136071764745 ] } },
{ "type": "Feature", "properties": { "visible_points": 48, "total_points": 120, "visibility_pct": 40.0 }, "geometry": { "type": "Point", "coordinates": [ 0.199479867051424, 51.44113233350879 ] } },
{ "type": "Feature", "properties": { "visible_points": 50, "total_points": 120, "visibility_pct": 41.666666666666671 }, "geometry": { "type": "Point", "coordinates": [ 0.199679088072449, 51.441128594914559 ] } },
{ "type": "Feature", "properties": { "visible_points": 48, "total_points": 120, "visibility_pct": 40.0 }, "geometry": { "type": "Point", "coordinates": [ 0.199878309052712, 51.441124855982018 ] } },
{ "type": "Feature", "properties": { "visible_points": 72, "total_points": 120, "visibility_pct": 60.0 }, "geometry": { "type": "Point", "coordinates": [ 0.200077529992204, 51.441121116711152 ] } },
{ "type": "Feature", "properties": { "visible_points": 60, "total_points": 120, "visibility_pct": 50.0 }, "geometry": { "type": "Point", "coordinates": [ 0.200276750890926, 51.441117377101989 ] } },
{ "type": "Feature", "properties": { "visible_points": 57, "total_points": 120, "visibility_pct": 47.5 }, "geometry": { "type": "Point", "coordinates": [ 0.200475971748873, 51.441113637154515 ] } },
{ "type": "Feature", "properties": { "visible_points": 58, "total_points": 119, "visibility_pct": 48.739495798319325 }, "geometry": { "type": "Point", "coordinates": [ 0.200675192566047, 51.441109896868724 ] } },
{ "type": "Feature", "properties": { "visible_points": 64, "total_points": 118, "visibility_pct": 54.237288135593218 }, "geometry": { "type": "Point", "coordinates": [ 0.200874413342433, 51.441106156244658 ] } },
{ "type": "Feature", "properties": { "visible_points": 67, "total_points": 117, "visibility_pct": 57.26495726495726 }, "geometry": { "type": "Point", "coordinates": [ 0.201073634078034, 51.441102415282245 ] } },
{ "type": "Feature", "properties": { "visible_points": 66, "total_points": 116, "visibility_pct": 56.896551724137936 }, "geometry": { "type": "Point", "coordinates": [ 0.201272854772852, 51.441098673981557 ] } },
{ "type": "Feature", "properties": { "visible_points": 63, "total_points": 115, "visibility_pct": 54.782608695652172 }, "geometry": { "type": "Point", "coordinates": [ 0.201472075426872, 51.441094932342551 ] } },
{ "type": "Feature", "properties": { "visible_points": 57, "total_points": 115, "visibility_pct": 49.565217391304351 }, "geometry": { "type": "Point", "coordinates": [ 0.201671296040096, 51.441091190365235 ] } },
{ "type": "Feature", "properties": { "visible_points": 57, "total_points": 115, "visibility_pct": 49.565217391304351 }, "geometry": { "type": "Point", "coordinates": [ 0.201870516612523, 51.441087448049622 ] } },
{ "type": "Feature", "properties": { "visible_points": 51, "total_points": 113, "visibility_pct": 45.132743362831853 }, "geometry": { "type": "Point", "coordinates": [ 0.202069737144145, 51.441083705395698 ] } },
{ "type": "Feature", "properties": { "visible_points": 50, "total_points": 107, "visibility_pct": 46.728971962616825 }, "geometry": { "type": "Point", "coordinates": [ 0.202268957634963, 51.44107996240345 ] } },
{ "type": "Feature", "properties": { "visible_points": 44, "total_points": 97, "visibility_pct": 45.360824742268044 }, "geometry": { "type": "Point", "coordinates": [ 0.202468178084967, 51.441076219072926 ] } },
{ "type": "Feature", "properties": { "visible_points": 0, "total_points": 86, "visibility_pct": 0.0 }, "geometry": { "type": "Point", "coordinates": [ 0.20266739849416, 51.44107247540407 ] } },
{ "type": "Feature", "properties": { "visible_points": 1, "total_points": 74, "visibility_pct": 1.3513513513513513 }, "geometry": { "type": "Point", "coordinates": [ 0.202866618862534, 51.441068731396904 ] } },
{ "type": "Feature", "properties": { "visible_points": 0, "total_points": 77, "visibility_pct": 0.0 }, "geometry": { "type": "Point", "coordinates": [ 0.197990883771564, 51.441268178419818 ] } },
{ "type": "Feature", "properties": { "visible_points": 0, "total_points": 90, "visibility_pct": 0.0 }, "geometry": { "type": "Point", "coordinates": [ 0.19819010789556, 51.44126444278195 ] } },
{ "type": "Feature", "properties": { "visible_points": 0, "total_points": 103, "visibility_pct": 0.0 }, "geometry": { "type": "Point", "coordinates": [ 0.198389331434213, 51.441260706754832 ] } },
{ "type": "Feature", "properties": { "visible_points": 0, "total_points": 111, "visibility_pct": 0.0 }, "geometry": { "type": "Point", "coordinates": [ 0.198588553624472, 51.441256970050517 ] } },
{ "type": "Feature", "properties": { "visible_points": 0, "total_points": 117, "visibility_pct": 0.0 }, "geometry": { "type": "Point", "coordinates": [ 0.198787775266124, 51.441253232963987 ] } },
{ "type": "Feature", "properties": { "visible_points": 41, "total_points": 120, "visibility_pct": 34.166666666666664 }, "geometry": { "type": "Point", "coordinates": [ 0.198986996867018, 51.441249495539118 ] } },
{ "type": "Feature", "properties": { "visible_points": 47, "total_points": 120, "visibility_pct": 39.166666666666664 }, "geometry": { "type": "Point", "coordinates": [ 0.19918621842717, 51.441245757775967 ] } },
{ "type": "Feature", "properties": { "visible_points": 46, "total_points": 120, "visibility_pct": 38.333333333333336 }, "geometry": { "type": "Point", "coordinates": [ 0.199385439946564, 51.441242019674483 ] } },
{ "type": "Feature", "properties": { "visible_points": 52, "total_points": 120, "visibility_pct": 43.333333333333336 }, "geometry": { "type": "Point", "coordinates": [ 0.1995846614252, 51.441238281234703 ] } },
{ "type": "Feature", "properties": { "visible_points": 51, "total_points": 120, "visibility_pct": 42.5 }, "geometry": { "type": "Point", "coordinates": [ 0.199783882863068, 51.44123454245662 ] } },
{ "type": "Feature", "properties": { "visible_points": 50, "total_points": 120, "visibility_pct": 41.666666666666671 }, "geometry": { "type": "Point", "coordinates": [ 0.199983104260176, 51.441230803340211 ] } },
{ "type": "Feature", "properties": { "visible_points": 58, "total_points": 120, "visibility_pct": 48.333333333333336 }, "geometry": { "type": "Point", "coordinates": [ 0.200182325616514, 51.441227063885499 ] } },
{ "type": "Feature", "properties": { "visible_points": 60, "total_points": 119, "visibility_pct": 50.420168067226889 }, "geometry": { "type": "Point", "coordinates": [ 0.200381546932075, 51.441223324092476 ] } },
{ "type": "Feature", "properties": { "visible_points": 52, "total_points": 118, "visibility_pct": 44.067796610169488 }, "geometry": { "type": "Point", "coordinates": [ 0.200580768206864, 51.44121958396115 ] } },
{ "type": "Feature", "properties": { "visible_points": 52, "total_points": 116, "visibility_pct": 44.827586206896555 }, "geometry": { "type": "Point", "coordinates": [ 0.200779989440869, 51.44121584349152 ] } },
{ "type": "Feature", "properties": { "visible_points": 57, "total_points": 114, "visibility_pct": 50.0 }, "geometry": { "type": "Point", "coordinates": [ 0.200979210634092, 51.441212102683579 ] } },
{ "type": "Feature", "properties": { "visible_points": 58, "total_points": 112, "visibility_pct": 51.785714285714292 }, "geometry": { "type": "Point", "coordinates": [ 0.20117843178653, 51.441208361537321 ] } },
{ "type": "Feature", "properties": { "visible_points": 59, "total_points": 110, "visibility_pct": 53.63636363636364 }, "geometry": { "type": "Point", "coordinates": [ 0.201377652898168, 51.441204620052773 ] } },
{ "type": "Feature", "properties": { "visible_points": 56, "total_points": 108, "visibility_pct": 51.851851851851848 }, "geometry": { "type": "Point", "coordinates": [ 0.201576873969022, 51.4412008782299 ] } },
{ "type": "Feature", "properties": { "visible_points": 51, "total_points": 107, "visibility_pct": 47.663551401869157 }, "geometry": { "type": "Point", "coordinates": [ 0.201776094999074, 51.441197136068716 ] } },
{ "type": "Feature", "properties": { "visible_points": 51, "total_points": 108, "visibility_pct": 47.222222222222221 }, "geometry": { "type": "Point", "coordinates": [ 0.201975315988323, 51.441193393569236 ] } },
{ "type": "Feature", "properties": { "visible_points": 48, "total_points": 104, "visibility_pct": 46.153846153846153 }, "geometry": { "type": "Point", "coordinates": [ 0.202174536936768, 51.441189650731452 ] } },
{ "type": "Feature", "properties": { "visible_points": 45, "total_points": 95, "visibility_pct": 47.368421052631575 }, "geometry": { "type": "Point", "coordinates": [ 0.202373757844401, 51.441185907555344 ] } },
{ "type": "Feature", "properties": { "visible_points": 34, "total_points": 85, "visibility_pct": 40.0 }, "geometry": { "type": "Point", "coordinates": [ 0.202572978711226, 51.441182164040953 ] } },
{ "type": "Feature", "properties": { "visible_points": 0, "total_points": 74, "visibility_pct": 0.0 }, "geometry": { "type": "Point", "coordinates": [ 0.202772199537233, 51.441178420188237 ] } },
{ "type": "Feature", "properties": { "visible_points": 1, "total_points": 81, "visibility_pct": 1.2345679012345678 }, "geometry": { "type": "Point", "coordinates": [ 0.198095676436792, 51.441374127776776 ] } },
{ "type": "Feature", "properties": { "visible_points": 0, "total_points": 93, "visibility_pct": 0.0 }, "geometry": { "type": "Point", "coordinates": [ 0.198294900980886, 51.441370391926704 ] } },
{ "type": "Feature", "properties": { "visible_points": 5, "total_points": 102, "visibility_pct": 4.9019607843137258 }, "geometry": { "type": "Point", "coordinates": [ 0.198494124272334, 51.441366655526082 ] } },
{ "type": "Feature", "properties": { "visible_points": 1, "total_points": 110, "visibility_pct": 0.90909090909090906 }, "geometry": { "type": "Point", "coordinates": [ 0.198693346371585, 51.44136291859401 ] } },
{ "type": "Feature", "properties": { "visible_points": 23, "total_points": 116, "visibility_pct": 19.827586206896552 }, "geometry": { "type": "Point", "coordinates": [ 0.198892568430097, 51.441359181323612 ] } },
{ "type": "Feature", "properties": { "visible_points": 45, "total_points": 120, "visibility_pct": 37.5 }, "geometry": { "type": "Point", "coordinates": [ 0.199091790447853, 51.441355443714919 ] } },
{ "type": "Feature", "properties": { "visible_points": 46, "total_points": 120, "visibility_pct": 38.333333333333336 }, "geometry": { "type": "Point", "coordinates": [ 0.199291012424855, 51.441351705767907 ] } },
{ "type": "Feature", "properties": { "visible_points": 51, "total_points": 120, "visibility_pct": 42.5 }, "geometry": { "type": "Point", "coordinates": [ 0.1994902343611, 51.441347967482585 ] } },
{ "type": "Feature", "properties": { "visible_points": 50, "total_points": 120, "visibility_pct": 41.666666666666671 }, "geometry": { "type": "Point", "coordinates": [ 0.199689456256588, 51.441344228858945 ] } },
{ "type": "Feature", "properties": { "visible_points": 48, "total_points": 120, "visibility_pct": 40.0 }, "geometry": { "type": "Point", "coordinates": [ 0.199888678111304, 51.441340489897009 ] } },
{ "type": "Feature", "properties": { "visible_points": 45, "total_points": 120, "visibility_pct": 37.5 }, "geometry": { "type": "Point", "coordinates": [ 0.200087899925262, 51.441336750596747 ] } },
{ "type": "Feature", "properties": { "visible_points": 55, "total_points": 119, "visibility_pct": 46.218487394957982 }, "geometry": { "type": "Point", "coordinates": [ 0.200287121698442, 51.441333010958189 ] } },
{ "type": "Feature", "properties": { "visible_points": 52, "total_points": 117, "visibility_pct": 44.444444444444443 }, "geometry": { "type": "Point", "coordinates": [ 0.200486343430845, 51.441329270981321 ] } },
{ "type": "Feature", "properties": { "visible_points": 43, "total_points": 114, "visibility_pct": 37.719298245614034 }, "geometry": { "type": "Point", "coordinates": [ 0.200685565122473, 51.441325530666141 ] } },
{ "type": "Feature", "properties": { "visible_points": 45, "total_points": 111, "visibility_pct": 40.54054054054054 }, "geometry": { "type": "Point", "coordinates": [ 0.20088478677332, 51.441321790012637 ] } },
{ "type": "Feature", "properties": { "visible_points": 51, "total_points": 108, "visibility_pct": 47.222222222222221 }, "geometry": { "type": "Point", "coordinates": [ 0.201084008383377, 51.441318049020843 ] } },
{ "type": "Feature", "properties": { "visible_points": 51, "total_points": 105, "visibility_pct": 48.571428571428569 }, "geometry": { "type": "Point", "coordinates": [ 0.201283229952645, 51.441314307690732 ] } },
{ "type": "Feature", "properties": { "visible_points": 45, "total_points": 102, "visibility_pct": 44.117647058823529 }, "geometry": { "type": "Point", "coordinates": [ 0.201482451481125, 51.441310566022317 ] } },
{ "type": "Feature", "properties": { "visible_points": 26, "total_points": 100, "visibility_pct": 26.0 }, "geometry": { "type": "Point", "coordinates": [ 0.201681672968801, 51.441306824015562 ] } },
{ "type": "Feature", "properties": { "visible_points": 40, "total_points": 99, "visibility_pct": 40.404040404040401 }, "geometry": { "type": "Point", "coordinates": [ 0.201880894415679, 51.441303081670554 ] } },
{ "type": "Feature", "properties": { "visible_points": 39, "total_points": 98, "visibility_pct": 39.795918367346935 }, "geometry": { "type": "Point", "coordinates": [ 0.202080115821754, 51.441299338987179 ] } },
{ "type": "Feature", "properties": { "visible_points": 40, "total_points": 91, "visibility_pct": 43.956043956043956 }, "geometry": { "type": "Point", "coordinates": [ 0.202279337187029, 51.441295595965542 ] } },
{ "type": "Feature", "properties": { "visible_points": 32, "total_points": 82, "visibility_pct": 39.024390243902438 }, "geometry": { "type": "Point", "coordinates": [ 0.20247855851148, 51.441291852605573 ] } },
{ "type": "Feature", "properties": { "visible_points": 20, "total_points": 73, "visibility_pct": 27.397260273972602 }, "geometry": { "type": "Point", "coordinates": [ 0.20267777979512, 51.441288108907301 ] } },
{ "type": "Feature", "properties": { "visible_points": 0, "total_points": 63, "visibility_pct": 0.0 }, "geometry": { "type": "Point", "coordinates": [ 0.202877001037948, 51.441284364870732 ] } },
{ "type": "Feature", "properties": { "visible_points": 1, "total_points": 82, "visibility_pct": 1.2195121951219512 }, "geometry": { "type": "Point", "coordinates": [ 0.198200469611444, 51.441480077008002 ] } },
{ "type": "Feature", "properties": { "visible_points": 0, "total_points": 92, "visibility_pct": 0.0 }, "geometry": { "type": "Point", "coordinates": [ 0.198399694030707, 51.44147634089471 ] } },
{ "type": "Feature", "properties": { "visible_points": 7, "total_points": 101, "visibility_pct": 6.9306930693069315 }, "geometry": { "type": "Point", "coordinates": [ 0.198598917060193, 51.441472604151762 ] } },
{ "type": "Feature", "properties": { "visible_points": 14, "total_points": 109, "visibility_pct": 12.844036697247708 }, "geometry": { "type": "Point", "coordinates": [ 0.198798139576314, 51.441468867035844 ] } },
{ "type": "Feature", "properties": { "visible_points": 39, "total_points": 115, "visibility_pct": 33.913043478260867 }, "geometry": { "type": "Point", "coordinates": [ 0.198997362051681, 51.441465129581609 ] } },
{ "type": "Feature", "properties": { "visible_points": 48, "total_points": 120, "visibility_pct": 40.0 }, "geometry": { "type": "Point", "coordinates": [ 0.199196584486295, 51.441461391789062 ] } },
{ "type": "Feature", "properties": { "visible_points": 49, "total_points": 120, "visibility_pct": 40.833333333333336 }, "geometry": { "type": "Point", "coordinates": [ 0.199395806880157, 51.44145765365819 ] } },
{ "type": "Feature", "properties": { "visible_points": 52, "total_points": 120, "visibility_pct": 43.333333333333336 }, "geometry": { "type": "Point", "coordinates": [ 0.199595029233257, 51.441453915189022 ] } },
{ "type": "Feature", "properties": { "visible_points": 54, "total_points": 120, "visibility_pct": 45.0 }, "geometry": { "type": "Point", "coordinates": [ 0.199794251545596, 51.441450176381558 ] } },
{ "type": "Feature", "properties": { "visible_points": 47, "total_points": 120, "visibility_pct": 39.166666666666664 }, "geometry": { "type": "Point", "coordinates": [ 0.199993473817167, 51.441446437235754 ] } },
{ "type": "Feature", "properties": { "visible_points": 49, "total_points": 119, "visibility_pct": 41.17647058823529 }, "geometry": { "type": "Point", "coordinates": [ 0.200192696047967, 51.441442697751633 ] } },
{ "type": "Feature", "properties": { "visible_points": 57, "total_points": 116, "visibility_pct": 49.137931034482754 }, "geometry": { "type": "Point", "coordinates": [ 0.200391918237992, 51.441438957929236 ] } },
{ "type": "Feature", "properties": { "visible_points": 7, "total_points": 113, "visibility_pct": 6.1946902654867255 }, "geometry": { "type": "Point", "coordinates": [ 0.200591140387243, 51.4414352177685 ] } },
{ "type": "Feature", "properties": { "visible_points": 0, "total_points": 109, "visibility_pct": 0.0 }, "geometry": { "type": "Point", "coordinates": [ 0.200790362495712, 51.441431477269461 ] } },
{ "type": "Feature", "properties": { "visible_points": 22, "total_points": 105, "visibility_pct": 20.952380952380953 }, "geometry": { "type": "Point", "coordinates": [ 0.200989584563398, 51.441427736432104 ] } },
{ "type": "Feature", "properties": { "visible_points": 1, "total_points": 101, "visibility_pct": 0.99009900990099009 }, "geometry": { "type": "Point", "coordinates": [ 0.201188806590291, 51.44142399525645 ] } },
{ "type": "Feature", "properties": { "visible_points": 0, "total_points": 97, "visibility_pct": 0.0 }, "geometry": { "type": "Point", "coordinates": [ 0.201388028576399, 51.441420253742471 ] } },
{ "type": "Feature", "properties": { "visible_points": 2, "total_points": 93, "visibility_pct": 2.1505376344086025 }, "geometry": { "type": "Point", "coordinates": [ 0.201587250521706, 51.441416511890196 ] } },
{ "type": "Feature", "properties": { "visible_points": 0, "total_points": 91, "visibility_pct": 0.0 }, "geometry": { "type": "Point", "coordinates": [ 0.201786472426219, 51.441412769699596 ] } },
{ "type": "Feature", "properties": { "visible_points": 0, "total_points": 90, "visibility_pct": 0.0 }, "geometry": { "type": "Point", "coordinates": [ 0.201985694289924, 51.4414090271707 ] } },
{ "type": "Feature", "properties": { "visible_points": 13, "total_points": 85, "visibility_pct": 15.294117647058824 }, "geometry": { "type": "Point", "coordinates": [ 0.202184916112825, 51.441405284303478 ] } },
{ "type": "Feature", "properties": { "visible_points": 0, "total_points": 78, "visibility_pct": 0.0 }, "geometry": { "type": "Point", "coordinates": [ 0.20238413789492, 51.44140154109796 ] } },
{ "type": "Feature", "properties": { "visible_points": 17, "total_points": 70, "visibility_pct": 24.285714285714285 }, "geometry": { "type": "Point", "coordinates": [ 0.202583359636198, 51.441397797554124 ] } },
{ "type": "Feature", "properties": { "visible_points": 0, "total_points": 61, "visibility_pct": 0.0 }, "geometry": { "type": "Point", "coordinates": [ 0.202782581336661, 51.441394053671985 ] } },
{ "type": "Feature", "properties": { "visible_points": 7, "total_points": 90, "visibility_pct": 7.7777777777777777 }, "geometry": { "type": "Point", "coordinates": [ 0.198504487331941, 51.441582289637246 ] } },
{ "type": "Feature", "properties": { "visible_points": 12, "total_points": 99, "visibility_pct": 12.121212121212121 }, "geometry": { "type": "Point", "coordinates": [ 0.198703710305672, 51.4415785526758 ] } },
{ "type": "Feature", "properties": { "visible_points": 0, "total_points": 107, "visibility_pct": 0.0 }, "geometry": { "type": "Point", "coordinates": [ 0.198902933238654, 51.441574815376036 ] } },
{ "type": "Feature", "properties": { "visible_points": 36, "total_points": 114, "visibility_pct": 31.578947368421051 }, "geometry": { "type": "Point", "coordinates": [ 0.199102156130883, 51.44157107773794 ] } },
{ "type": "Feature", "properties": { "visible_points": 45, "total_points": 120, "visibility_pct": 37.5 }, "geometry": { "type": "Point", "coordinates": [ 0.199301378982361, 51.441567339761541 ] } },
{ "type": "Feature", "properties": { "visible_points": 50, "total_points": 120, "visibility_pct": 41.666666666666671 }, "geometry": { "type": "Point", "coordinates": [ 0.199500601793076, 51.441563601446845 ] } },
{ "type": "Feature", "properties": { "visible_points": 48, "total_points": 120, "visibility_pct": 40.0 }, "geometry": { "type": "Point", "coordinates": [ 0.199699824563035, 51.441559862793817 ] } },
{ "type": "Feature", "properties": { "visible_points": 42, "total_points": 120, "visibility_pct": 35.0 }, "geometry": { "type": "Point", "coordinates": [ 0.199899047292225, 51.441556123802485 ] } },
{ "type": "Feature", "properties": { "visible_points": 41, "total_points": 119, "visibility_pct": 34.45378151260504 }, "geometry": { "type": "Point", "coordinates": [ 0.200098269980647, 51.441552384472843 ] } },
{ "type": "Feature", "properties": { "visible_points": 59, "total_points": 116, "visibility_pct": 50.862068965517238 }, "geometry": { "type": "Point", "coordinates": [ 0.2002974926283, 51.441548644804875 ] } },
{ "type": "Feature", "properties": { "visible_points": 44, "total_points": 112, "visibility_pct": 39.285714285714285 }, "geometry": { "type": "Point", "coordinates": [ 0.200496715235174, 51.44154490479859 ] } },
{ "type": "Feature", "properties": { "visible_points": 0, "total_points": 107, "visibility_pct": 0.0 }, "geometry": { "type": "Point", "coordinates": [ 0.200695937801269, 51.441541164454016 ] } },
{ "type": "Feature", "properties": { "visible_points": 0, "total_points": 87, "visibility_pct": 0.0 }, "geometry": { "type": "Point", "coordinates": [ 0.201492827657781, 51.441526199692561 ] } },
{ "type": "Feature", "properties": { "visible_points": 0, "total_points": 84, "visibility_pct": 0.0 }, "geometry": { "type": "Point", "coordinates": [ 0.201692050019929, 51.441522457656404 ] } },
{ "type": "Feature", "properties": { "visible_points": 0, "total_points": 81, "visibility_pct": 0.0 }, "geometry": { "type": "Point", "coordinates": [ 0.201891272341268, 51.441518715281958 ] } },
{ "type": "Feature", "properties": { "visible_points": 0, "total_points": 77, "visibility_pct": 0.0 }, "geometry": { "type": "Point", "coordinates": [ 0.20209049462181, 51.441514972569173 ] } },
{ "type": "Feature", "properties": { "visible_points": 0, "total_points": 72, "visibility_pct": 0.0 }, "geometry": { "type": "Point", "coordinates": [ 0.202289716861539, 51.441511229518113 ] } },
{ "type": "Feature", "properties": { "visible_points": 1, "total_points": 65, "visibility_pct": 1.5384615384615385 }, "geometry": { "type": "Point", "coordinates": [ 0.202488939060458, 51.441507486128728 ] } },
{ "type": "Feature", "properties": { "visible_points": 1, "total_points": 58, "visibility_pct": 1.7241379310344827 }, "geometry": { "type": "Point", "coordinates": [ 0.202688161218561, 51.441503742401011 ] } },
{ "type": "Feature", "properties": { "visible_points": 0, "total_points": 50, "visibility_pct": 0.0 }, "geometry": { "type": "Point", "coordinates": [ 0.202887383335846, 51.441499998335004 ] } },
{ "type": "Feature", "properties": { "visible_points": 0, "total_points": 87, "visibility_pct": 0.0 }, "geometry": { "type": "Point", "coordinates": [ 0.198609280618166, 51.441688238243493 ] } },
{ "type": "Feature", "properties": { "visible_points": 5, "total_points": 95, "visibility_pct": 5.2631578947368416 }, "geometry": { "type": "Point", "coordinates": [ 0.198808504008767, 51.44168450109818 ] } },
{ "type": "Feature", "properties": { "visible_points": 17, "total_points": 103, "visibility_pct": 16.50485436893204 }, "geometry": { "type": "Point", "coordinates": [ 0.19900772735861, 51.441680763614563 ] } },
{ "type": "Feature", "properties": { "visible_points": 36, "total_points": 111, "visibility_pct": 32.432432432432435 }, "geometry": { "type": "Point", "coordinates": [ 0.19920695066771, 51.441677025792643 ] } },
{ "type": "Feature", "properties": { "visible_points": 42, "total_points": 117, "visibility_pct": 35.897435897435898 }, "geometry": { "type": "Point", "coordinates": [ 0.199406173936046, 51.441673287632398 ] } },
{ "type": "Feature", "properties": { "visible_points": 44, "total_points": 119, "visibility_pct": 36.97478991596639 }, "geometry": { "type": "Point", "coordinates": [ 0.199605397163621, 51.44166954913382 ] } },
{ "type": "Feature", "properties": { "visible_points": 43, "total_points": 120, "visibility_pct": 35.833333333333336 }, "geometry": { "type": "Point", "coordinates": [ 0.19980462035044, 51.441665810296954 ] } },
{ "type": "Feature", "properties": { "visible_points": 41, "total_points": 119, "visibility_pct": 34.45378151260504 }, "geometry": { "type": "Point", "coordinates": [ 0.200003843496484, 51.441662071121776 ] } },
{ "type": "Feature", "properties": { "visible_points": 39, "total_points": 116, "visibility_pct": 33.620689655172413 }, "geometry": { "type": "Point", "coordinates": [ 0.200203066601761, 51.441658331608267 ] } },
{ "type": "Feature", "properties": { "visible_points": 37, "total_points": 111, "visibility_pct": 33.333333333333329 }, "geometry": { "type": "Point", "coordinates": [ 0.200402289666259, 51.441654591756439 ] } },
{ "type": "Feature", "properties": { "visible_points": 0, "total_points": 106, "visibility_pct": 0.0 }, "geometry": { "type": "Point", "coordinates": [ 0.200601512689986, 51.441650851566308 ] } },
{ "type": "Feature", "properties": { "visible_points": 0, "total_points": 83, "visibility_pct": 0.0 }, "geometry": { "type": "Point", "coordinates": [ 0.198714074362012, 51.441794186748055 ] } },
{ "type": "Feature", "properties": { "visible_points": 15, "total_points": 91, "visibility_pct": 16.483516483516482 }, "geometry": { "type": "Point", "coordinates": [ 0.198913298169482, 51.441790449418924 ] } },
{ "type": "Feature", "properties": { "visible_points": 12, "total_points": 99, "visibility_pct": 12.121212121212121 }, "geometry": { "type": "Point", "coordinates": [ 0.199112521936197, 51.441786711751469 ] } },
{ "type": "Feature", "properties": { "visible_points": 38, "total_points": 106, "visibility_pct": 35.849056603773583 }, "geometry": { "type": "Point", "coordinates": [ 0.199311745662154, 51.441782973745688 ] } },
{ "type": "Feature", "properties": { "visible_points": 39, "total_points": 111, "visibility_pct": 35.135135135135137 }, "geometry": { "type": "Point", "coordinates": [ 0.199510969347359, 51.441779235401583 ] } },
{ "type": "Feature", "properties": { "visible_points": 38, "total_points": 113, "visibility_pct": 33.628318584070797 }, "geometry": { "type": "Point", "coordinates": [ 0.199710192991795, 51.441775496719174 ] } },
{ "type": "Feature", "properties": { "visible_points": 30, "total_points": 114, "visibility_pct": 26.315789473684209 }, "geometry": { "type": "Point", "coordinates": [ 0.199909416595468, 51.44177175769844 ] } },
{ "type": "Feature", "properties": { "visible_points": 17, "total_points": 112, "visibility_pct": 15.178571428571427 }, "geometry": { "type": "Point", "coordinates": [ 0.200108640158374, 51.441768018339395 ] } },
{ "type": "Feature", "properties": { "visible_points": 25, "total_points": 107, "visibility_pct": 23.364485981308412 }, "geometry": { "type": "Point", "coordinates": [ 0.200307863680503, 51.441764278642033 ] } },
{ "type": "Feature", "properties": { "visible_points": 26, "total_points": 101, "visibility_pct": 25.742574257425744 }, "geometry": { "type": "Point", "coordinates": [ 0.200507087161856, 51.441760538606367 ] } },
{ "type": "Feature", "properties": { "visible_points": 0, "total_points": 95, "visibility_pct": 0.0 }, "geometry": { "type": "Point", "coordinates": [ 0.200706310602432, 51.441756798232369 ] } },
{ "type": "Feature", "properties": { "visible_points": 0, "total_points": 78, "visibility_pct": 0.0 }, "geometry": { "type": "Point", "coordinates": [ 0.19881886856348, 51.441900135151009 ] } },
{ "type": "Feature", "properties": { "visible_points": 22, "total_points": 86, "visibility_pct": 25.581395348837212 }, "geometry": { "type": "Point", "coordinates": [ 0.199018092787823, 51.441896397638011 ] } },
{ "type": "Feature", "properties": { "visible_points": 15, "total_points": 93, "visibility_pct": 16.129032258064516 }, "geometry": { "type": "Point", "coordinates": [ 0.199217316971405, 51.441892659786696 ] } },
{ "type": "Feature", "properties": { "visible_points": 24, "total_points": 99, "visibility_pct": 24.242424242424242 }, "geometry": { "type": "Point", "coordinates": [ 0.19941654111423, 51.441888921597076 ] } },
{ "type": "Feature", "properties": { "visible_points": 0, "total_points": 103, "visibility_pct": 0.0 }, "geometry": { "type": "Point", "coordinates": [ 0.199615765216298, 51.441885183069111 ] } },
{ "type": "Feature", "properties": { "visible_points": 4, "total_points": 105, "visibility_pct": 3.8095238095238098 }, "geometry": { "type": "Point", "coordinates": [ 0.199814989277599, 51.441881444202856 ] } },
{ "type": "Feature", "properties": { "visible_points": 24, "total_points": 104, "visibility_pct": 23.076923076923077 }, "geometry": { "type": "Point", "coordinates": [ 0.200014213298134, 51.441877704998269 ] } },
{ "type": "Feature", "properties": { "visible_points": 4, "total_points": 100, "visibility_pct": 4.0 }, "geometry": { "type": "Point", "coordinates": [ 0.200213437277893, 51.441873965455365 ] } },
{ "type": "Feature", "properties": { "visible_points": 24, "total_points": 94, "visibility_pct": 25.531914893617021 }, "geometry": { "type": "Point", "coordinates": [ 0.200412661216883, 51.441870225574164 ] } },
{ "type": "Feature", "properties": { "visible_points": 13, "total_points": 88, "visibility_pct": 14.772727272727273 }, "geometry": { "type": "Point", "coordinates": [ 0.200611885115091, 51.441866485354623 ] } },
{ "type": "Feature", "properties": { "visible_points": 0, "total_points": 73, "visibility_pct": 0.0 }, "geometry": { "type": "Point", "coordinates": [ 0.198923663222579, 51.442006083452306 ] } },
{ "type": "Feature", "properties": { "visible_points": 0, "total_points": 80, "visibility_pct": 0.0 }, "geometry": { "type": "Point", "coordinates": [ 0.199122887863789, 51.442002345755455 ] } },
{ "type": "Feature", "properties": { "visible_points": 15, "total_points": 86, "visibility_pct": 17.441860465116278 }, "geometry": { "type": "Point", "coordinates": [ 0.199322112464242, 51.441998607720286 ] } },
{ "type": "Feature", "properties": { "visible_points": 17, "total_points": 91, "visibility_pct": 18.681318681318682 }, "geometry": { "type": "Point", "coordinates": [ 0.199521337023941, 51.441994869346807 ] } },
{ "type": "Feature", "properties": { "visible_points": 15, "total_points": 94, "visibility_pct": 15.957446808510639 }, "geometry": { "type": "Point", "coordinates": [ 0.199720561542872, 51.44199113063501 ] } },
{ "type": "Feature", "properties": { "visible_points": 7, "total_points": 96, "visibility_pct": 7.291666666666667 }, "geometry": { "type": "Point", "coordinates": [ 0.199919786021033, 51.441987391584874 ] } },
{ "type": "Feature", "properties": { "visible_points": 28, "total_points": 92, "visibility_pct": 30.434782608695656 }, "geometry": { "type": "Point", "coordinates": [ 0.200119010458434, 51.441983652196434 ] } },
{ "type": "Feature", "properties": { "visible_points": 16, "total_points": 87, "visibility_pct": 18.390804597701148 }, "geometry": { "type": "Point", "coordinates": [ 0.200318234855056, 51.441979912469684 ] } },
{ "type": "Feature", "properties": { "visible_points": 16, "total_points": 81, "visibility_pct": 19.753086419753085 }, "geometry": { "type": "Point", "coordinates": [ 0.2005174592109, 51.441976172404601 ] } },
{ "type": "Feature", "properties": { "visible_points": 0, "total_points": 75, "visibility_pct": 0.0 }, "geometry": { "type": "Point", "coordinates": [ 0.200716683525962, 51.441972432001215 ] } },
{ "type": "Feature", "properties": { "visible_points": 0, "total_points": 67, "visibility_pct": 0.0 }, "geometry": { "type": "Point", "coordinates": [ 0.199028458339305, 51.442112031651952 ] } },
{ "type": "Feature", "properties": { "visible_points": 0, "total_points": 73, "visibility_pct": 0.0 }, "geometry": { "type": "Point", "coordinates": [ 0.199227683397386, 51.442108293771241 ] } },
{ "type": "Feature", "properties": { "visible_points": 0, "total_points": 78, "visibility_pct": 0.0 }, "geometry": { "type": "Point", "coordinates": [ 0.199426908414716, 51.442104555552206 ] } },
{ "type": "Feature", "properties": { "visible_points": 0, "total_points": 82, "visibility_pct": 0.0 }, "geometry": { "type": "Point", "coordinates": [ 0.199626133391283, 51.442100816994881 ] } },
{ "type": "Feature", "properties": { "visible_points": 10, "total_points": 84, "visibility_pct": 11.904761904761903 }, "geometry": { "type": "Point", "coordinates": [ 0.199825358327081, 51.442097078099223 ] } },
{ "type": "Feature", "properties": { "visible_points": 22, "total_points": 84, "visibility_pct": 26.190476190476193 }, "geometry": { "type": "Point", "coordinates": [ 0.200024583222113, 51.442093338865249 ] } },
{ "type": "Feature", "properties": { "visible_points": 5, "total_points": 79, "visibility_pct": 6.3291139240506329 }, "geometry": { "type": "Point", "coordinates": [ 0.200223808076373, 51.442089599292963 ] } },
{ "type": "Feature", "properties": { "visible_points": 18, "total_points": 74, "visibility_pct": 24.324324324324326 }, "geometry": { "type": "Point", "coordinates": [ 0.200423032889856, 51.442085859382345 ] } },
{ "type": "Feature", "properties": { "visible_points": 15, "total_points": 68, "visibility_pct": 22.058823529411764 }, "geometry": { "type": "Point", "coordinates": [ 0.200622257662561, 51.442082119133396 ] } },
{ "type": "Feature", "properties": { "visible_points": 10, "total_points": 71, "visibility_pct": 14.084507042253522 }, "geometry": { "type": "Point", "coordinates": [ 0.200129379961479, 51.442199287363948 ] } },
{ "type": "Feature", "properties": { "visible_points": 9, "total_points": 66, "visibility_pct": 13.636363636363635 }, "geometry": { "type": "Point", "coordinates": [ 0.200328605298338, 51.442195547558562 ] } },
{ "type": "Feature", "properties": { "visible_points": 0, "total_points": 61, "visibility_pct": 0.0 }, "geometry": { "type": "Point", "coordinates": [ 0.200527830595035, 51.442191807411604 ] } },
{ "type": "Feature", "properties": { "visible_points": 0, "total_points": 55, "visibility_pct": 0.0 }, "geometry": { "type": "Point", "coordinates": [ 0.200727055851579, 51.442188066923073 ] } }
]
}
