{
"type": "FeatureCollection",
"name": "FOLHY_17_cycling",
"crs": { "type": "name", "properties": { "name": "urn:ogc:def:crs:OGC:1.3:CRS84" } },
"features": [
{"type":"Feature","properties":{"highway":"cycleway","name":null,"category":"Dedicated cycleway"},"geometry":{"type":"MultiLineString","coordinates":[[[1.1600733,51.1165978],[1.1601392,51.1165773],[1.1602344,51.1166573],[1.1602748,51.116665]]]}},
{"type":"Feature","properties":{"highway":"bridleway","name":null,"category":"Bridleway"},"geometry":{"type":"MultiLineString","coordinates":[[[1.1802117,51.1147871],[1.1801958,51.1147701],[1.1801511,51.1147503],[1.178423,51.1142189],[1.1780182,51.1140776],[1.1775939,51.1139528],[1.1773083,51.1139176],[1.1771707,51.1139131],[1.1770358,51.1139135],[1.1768726,51.113931],[1.1766499,51.1139649],[1.1762013,51.1139991],[1.1750803,51.1139302],[1.174395,51.1138076]]]}},
{"type":"Feature","properties":{"highway":"cycleway","name":null,"category":"Dedicated cycleway"},"geometry":{"type":"MultiLineString","coordinates":[[[1.1671134,51.1173299],[1.1671217,51.1173379],[1.1672478,51.1172931]]]}},
{"type":"Feature","properties":{"highway":"track","name":"Coombe Wood Lane","category":"Track"},"geometry":{"type":"MultiLineString","coordinates":[[[1.1735778,51.1136028],[1.1738961,51.1136996],[1.1743654,51.1138012],[1.174395,51.1138076]]]}},
{"type":"Feature","properties":{"highway":"path","name":null,"category":"Shared path"},"geometry":{"type":"MultiLineString","coordinates":[[[1.1669283,51.1099447],[1.1669516,51.1099031],[1.1670087,51.1098591],[1.1670476,51.1097781],[1.1670433,51.1097043],[1.167062,51.1096122],[1.1671133,51.109521],[1.1673346,51.1093071],[1.1674365,51.1092399],[1.1675493,51.1092036],[1.1677499,51.1091535],[1.1679555,51.1090876],[1.1681668,51.1090948],[1.1684678,51.1091166],[1.1685818,51.1091474],[1.1686839,51.1091874],[1.168913,51.1092849],[1.1690543,51.1093213],[1.1692523,51.1094512],[1.1694639,51.109604],[1.1696332,51.1097515],[1.1696922,51.1098563],[1.1697145,51.1099815],[1.1697083,51.1101161],[1.1696413,51.1102739],[1.1695796,51.1104369],[1.1695345,51.1105247],[1.1694491,51.1105446],[1.169388,51.1105649],[1.1693052,51.1105516],[1.1691333,51.1105155],[1.1689922,51.1104383],[1.1688656,51.1104089],[1.1685402,51.1103444],[1.1684392,51.1103086],[1.1683599,51.1102756],[1.1682693,51.1102517],[1.1680946,51.1102169],[1.1679515,51.1101771],[1.1677974,51.1101033],[1.1674646,51.1099224],[1.1672621,51.109847],[1.1671548,51.1098225],[1.1670087,51.1098591]]]}},
{"type":"Feature","properties":{"highway":"path","name":null,"category":"Shared path"},"geometry":{"type":"MultiLineString","coordinates":[[[1.1670433,51.1097043],[1.1669711,51.1096525],[1.1668746,51.1095765],[1.1668113,51.1094786],[1.1667136,51.1094164],[1.1666814,51.1093792],[1.1666773,51.1093299],[1.1665755,51.1092391],[1.1664935,51.1091874],[1.1665326,51.1091547],[1.1668535,51.1091587],[1.1673453,51.1091843],[1.1675493,51.1092036]]]}},
{"type":"Feature","properties":{"highway":"path","name":null,"category":"Shared path"},"geometry":{"type":"MultiLineString","coordinates":[[[1.1673666,51.118521],[1.1673753,51.1185544],[1.1673872,51.1186194],[1.1674138,51.1186769],[1.1674492,51.1187716],[1.1674818,51.1188347],[1.1674404,51.1188755],[1.1673872,51.1189998],[1.1672719,51.1191093],[1.1672689,51.1192448],[1.1672837,51.1193264],[1.1672689,51.1194062],[1.1672364,51.1195305],[1.1672098,51.119601],[1.1672157,51.1196994],[1.1672482,51.1197272],[1.1673192,51.1198015],[1.1674374,51.1199054],[1.167467,51.1199258],[1.1674699,51.119974],[1.1674551,51.1199944],[1.1674547,51.1200334]]]}},
{"type":"Feature","properties":{"highway":"cycleway","name":null,"category":"Dedicated cycleway"},"geometry":{"type":"MultiLineString","coordinates":[[[1.1613723,51.1150695],[1.161434,51.1150173]]]}},
{"type":"Feature","properties":{"highway":"cycleway","name":null,"category":"Dedicated cycleway"},"geometry":{"type":"MultiLineString","coordinates":[[[1.159474,51.1135141],[1.1590674,51.1132472],[1.1588553,51.1131318],[1.1585362,51.1129712],[1.1584971,51.1129564],[1.1584577,51.1129436],[1.1584092,51.1129341],[1.1580376,51.1128845],[1.1578998,51.1128805],[1.1577722,51.1128934],[1.1576564,51.1128982],[1.1574866,51.1129282],[1.1573709,51.1129399]]]}},
{"type":"Feature","properties":{"highway":"cycleway","name":null,"category":"Dedicated cycleway"},"geometry":{"type":"MultiLineString","coordinates":[[[1.1602748,51.116665],[1.1603588,51.1167616],[1.1604207,51.1169325],[1.1604413,51.1169895],[1.1604654,51.1171077],[1.1604564,51.1171485],[1.1604695,51.1172428],[1.1607139,51.1178102],[1.1607387,51.1178131],[1.1607297,51.1178419],[1.1607206,51.1178779],[1.1607441,51.1178965]]]}},
{"type":"Feature","properties":{"highway":"track","name":"St. Denys Road","category":"Track"},"geometry":{"type":"MultiLineString","coordinates":[[[1.1664377,51.1164965],[1.1660118,51.1167002],[1.1657451,51.1168541],[1.1656716,51.1168826],[1.1654891,51.1169462],[1.1654468,51.1169708],[1.1651946,51.1171185],[1.1650477,51.1171859],[1.1649123,51.1171571],[1.1648356,51.117139],[1.1647908,51.1171316],[1.1647486,51.1171281],[1.1647177,51.1171277],[1.1646869,51.1171302],[1.1646551,51.1171345],[1.1646171,51.1171394],[1.164575,51.1171467],[1.1638793,51.1172954]]]}},
{"type":"Feature","properties":{"highway":"cycleway","name":null,"category":"Dedicated cycleway"},"geometry":{"type":"MultiLineString","coordinates":[[[1.1629741,51.1201103],[1.1628183,51.1201012]]]}},
{"type":"Feature","properties":{"highway":"path","name":null,"category":"Shared path"},"geometry":{"type":"MultiLineString","coordinates":[[[1.1684486,51.1185621],[1.1684602,51.1185672],[1.168548,51.1184997],[1.1684808,51.1184592],[1.1685455,51.1183533],[1.1685645,51.1183222]]]}},
{"type":"Feature","properties":{"highway":"cycleway","name":null,"category":"Dedicated cycleway"},"geometry":{"type":"MultiLineString","coordinates":[[[1.1593942,51.1146119],[1.1593217,51.1145816]]]}},
{"type":"Feature","properties":{"highway":"cycleway","name":null,"category":"Dedicated cycleway"},"geometry":{"type":"MultiLineString","coordinates":[[[1.1613678,51.1191823],[1.1613563,51.1191246],[1.1613476,51.1190795],[1.1613356,51.1190166],[1.1613358,51.1189646],[1.1612893,51.1188419],[1.1612134,51.1187517],[1.1611531,51.1187249]]]}},
{"type":"Feature","properties":{"highway":"track","name":null,"category":"Track"},"geometry":{"type":"MultiLineString","coordinates":[[[1.1743654,51.1138012],[1.1746045,51.1134867]]]}},
{"type":"Feature","properties":{"highway":"track","name":null,"category":"Track"},"geometry":{"type":"MultiLineString","coordinates":[[[1.1746045,51.1134867],[1.1747527,51.1132858],[1.1747903,51.1132599],[1.1748457,51.1132431],[1.1749225,51.1132448],[1.1750119,51.1132641]]]}},
{"type":"Feature","properties":{"highway":"path","name":null,"category":"Shared path"},"geometry":{"type":"MultiLineString","coordinates":[[[1.1677308,51.1181415],[1.1675085,51.1180744],[1.1674935,51.1180229]]]}},
{"type":"Feature","properties":{"highway":"path","name":null,"category":"Shared path"},"geometry":{"type":"MultiLineString","coordinates":[[[1.1708215,51.1115793],[1.1710431,51.1114678],[1.1712213,51.1112506]]]}},
{"type":"Feature","properties":{"highway":"path","name":"Millfield Close","category":"Shared path"},"geometry":{"type":"MultiLineString","coordinates":[[[1.170055,51.1202771],[1.1700334,51.1202783],[1.17001,51.1202796],[1.1695585,51.120305],[1.1694741,51.1203098]]]}},
{"type":"Feature","properties":{"highway":"path","name":null,"category":"Shared path"},"geometry":{"type":"MultiLineString","coordinates":[[[1.1700334,51.1202783],[1.1697595,51.1204093],[1.1695585,51.120305],[1.1697991,51.1201598],[1.17001,51.1202796]]]}},
{"type":"Feature","properties":{"highway":"path","name":null,"category":"Shared path"},"geometry":{"type":"MultiLineString","coordinates":[[[1.1704405,51.1204987],[1.1707176,51.1202225],[1.170869,51.120283],[1.1710025,51.1203436]]]}},
{"type":"Feature","properties":{"highway":"path","name":null,"category":"Shared path"},"geometry":{"type":"MultiLineString","coordinates":[[[1.1710861,51.1203534],[1.1710737,51.1203443],[1.1710571,51.1203382],[1.1710383,51.120336],[1.1710193,51.1203379],[1.1710025,51.1203436],[1.1709902,51.1203519],[1.1709827,51.1203623],[1.1709808,51.1203736],[1.1709847,51.1203847],[1.1709924,51.1203944],[1.1710076,51.1204019],[1.1710243,51.1204062],[1.1710424,51.120407],[1.1710599,51.1204042],[1.1710759,51.1203977],[1.1710876,51.1203881],[1.1710935,51.1203767],[1.171093,51.1203646],[1.1710861,51.1203534]]]}},
{"type":"Feature","properties":{"highway":"path","name":null,"category":"Shared path"},"geometry":{"type":"MultiLineString","coordinates":[[[1.1707176,51.1202225],[1.1707174,51.120198],[1.1708254,51.1201046]]]}},
{"type":"Feature","properties":{"highway":"path","name":null,"category":"Shared path"},"geometry":{"type":"MultiLineString","coordinates":[[[1.1710737,51.1203443],[1.171082,51.1203283],[1.171054,51.1202695],[1.1710285,51.1202203],[1.1709905,51.1201742],[1.1708254,51.1201046]]]}},
{"type":"Feature","properties":{"highway":"path","name":null,"category":"Shared path"},"geometry":{"type":"MultiLineString","coordinates":[[[1.1709905,51.1201742],[1.1709912,51.120146],[1.171009,51.1201216],[1.1713363,51.1198608]]]}},
{"type":"Feature","properties":{"highway":"path","name":null,"category":"Shared path"},"geometry":{"type":"MultiLineString","coordinates":[[[1.1716679,51.1200184],[1.1715603,51.1200278],[1.17153,51.1200428],[1.1712759,51.120248],[1.1712256,51.1202667],[1.171121,51.1203528],[1.171093,51.1203646]]]}},
{"type":"Feature","properties":{"highway":"cycleway","name":null,"category":"Dedicated cycleway"},"geometry":{"type":"MultiLineString","coordinates":[[[1.1626229,51.1146693],[1.1625635,51.1146994],[1.1623956,51.1147744],[1.1619154,51.1151186],[1.1618431,51.115149],[1.1617458,51.1151668],[1.1616487,51.1151555],[1.1613723,51.1150695],[1.161267,51.1150387],[1.1611469,51.1150227],[1.1610368,51.1150304],[1.1607934,51.115108],[1.1607041,51.1151365],[1.1605988,51.115153],[1.1604936,51.1151484],[1.1603559,51.1151139],[1.1603127,51.1150496],[1.1602122,51.1149919],[1.1601524,51.1150666],[1.160096,51.1150292]]]}},
{"type":"Feature","properties":{"highway":"cycleway","name":null,"category":"Dedicated cycleway"},"geometry":{"type":"MultiLineString","coordinates":[[[1.1633823,51.114362],[1.1633093,51.1144038],[1.1631661,51.1144688],[1.162981,51.1145214],[1.1628516,51.1145959],[1.1626939,51.1146405],[1.1626229,51.1146693]]]}},
{"type":"Feature","properties":{"highway":"cycleway","name":null,"category":"Dedicated cycleway"},"geometry":{"type":"MultiLineString","coordinates":[[[1.1657776,51.1149583],[1.1656128,51.1148925],[1.1655813,51.1148589],[1.1655709,51.11481],[1.1652011,51.1146286],[1.1648215,51.1144597],[1.1647192,51.1144109],[1.1645771,51.1143431],[1.1645143,51.1143196],[1.1644773,51.1143057],[1.1643575,51.1142737],[1.1642281,51.1142523],[1.1641152,51.1142421],[1.163999,51.1142326],[1.1638989,51.1142348],[1.1637807,51.1142421],[1.1636901,51.1142555],[1.1636033,51.1142701],[1.1635039,51.1142918],[1.1634268,51.1143304],[1.1633823,51.114362]]]}},
{"type":"Feature","properties":{"highway":"path","name":null,"category":"Shared path"},"geometry":{"type":"MultiLineString","coordinates":[[[1.1702054,51.1203824],[1.1702396,51.1203489],[1.170055,51.1202771]]]}},
{"type":"Feature","properties":{"highway":"path","name":null,"category":"Shared path"},"geometry":{"type":"MultiLineString","coordinates":[[[1.1722772,51.1188359],[1.1722642,51.118838],[1.172239,51.1188425],[1.1722174,51.1188467],[1.1721943,51.1188496],[1.1721712,51.1188525],[1.1721522,51.1188512],[1.1720577,51.1188242]]]}},
{"type":"Feature","properties":{"highway":"path","name":null,"category":"Shared path"},"geometry":{"type":"MultiLineString","coordinates":[[[1.1722256,51.1187909],[1.172107,51.1188132],[1.172086,51.1188119],[1.172067,51.118808],[1.172028,51.1187947]]]}},
{"type":"Feature","properties":{"highway":"path","name":null,"category":"Shared path"},"geometry":{"type":"MultiLineString","coordinates":[[[1.1701285,51.1207204],[1.1702335,51.1207638],[1.170503,51.1205272]]]}},
{"type":"Feature","properties":{"highway":"path","name":"Gray Close","category":"Shared path"},"geometry":{"type":"MultiLineString","coordinates":[[[1.1716035,51.1194413],[1.1714049,51.1196042],[1.1716331,51.1197224]]]}},
{"type":"Feature","properties":{"highway":"path","name":"Gray Close","category":"Shared path"},"geometry":{"type":"MultiLineString","coordinates":[[[1.1714049,51.1196042],[1.171107,51.1194553]]]}},
{"type":"Feature","properties":{"highway":"path","name":null,"category":"Shared path"},"geometry":{"type":"MultiLineString","coordinates":[[[1.1685455,51.1183533],[1.168755,51.1184742],[1.1688043,51.1185027],[1.1688599,51.1185348],[1.1689275,51.1184898]]]}},
{"type":"Feature","properties":{"highway":"path","name":null,"category":"Shared path"},"geometry":{"type":"MultiLineString","coordinates":[[[1.1688043,51.1185027],[1.1688728,51.118459]]]}},
{"type":"Feature","properties":{"highway":"path","name":null,"category":"Shared path"},"geometry":{"type":"MultiLineString","coordinates":[[[1.1688239,51.1184316],[1.168755,51.1184742]]]}},
{"type":"Feature","properties":{"highway":"path","name":null,"category":"Shared path"},"geometry":{"type":"MultiLineString","coordinates":[[[1.1687956,51.1182103],[1.1686484,51.1182149]]]}},
{"type":"Feature","properties":{"highway":"path","name":null,"category":"Shared path"},"geometry":{"type":"MultiLineString","coordinates":[[[1.1687932,51.1181639],[1.1687431,51.1181664],[1.1686961,51.1181755],[1.1686561,51.1181896],[1.1686325,51.1182062]]]}},
{"type":"Feature","properties":{"highway":"path","name":null,"category":"Shared path"},"geometry":{"type":"MultiLineString","coordinates":[[[1.1687981,51.1182567],[1.1687645,51.1182442],[1.1687456,51.1182379],[1.1687258,51.1182311],[1.1686901,51.1182232],[1.1686613,51.1182221]]]}},
{"type":"Feature","properties":{"highway":"path","name":null,"category":"Shared path"},"geometry":{"type":"MultiLineString","coordinates":[[[1.169099,51.1182109],[1.1690967,51.118118]]]}},
{"type":"Feature","properties":{"highway":"path","name":null,"category":"Shared path"},"geometry":{"type":"MultiLineString","coordinates":[[[1.1691792,51.1182092],[1.169173,51.118116]]]}},
{"type":"Feature","properties":{"highway":"path","name":null,"category":"Shared path"},"geometry":{"type":"MultiLineString","coordinates":[[[1.1692558,51.1182073],[1.1692549,51.118114]]]}},
{"type":"Feature","properties":{"highway":"path","name":null,"category":"Shared path"},"geometry":{"type":"MultiLineString","coordinates":[[[1.1679011,51.1164013],[1.1678948,51.1163889],[1.1678903,51.1163772],[1.1678852,51.1163653],[1.1678792,51.1163552],[1.16787,51.1163476],[1.1678537,51.1163454],[1.1678436,51.1163462],[1.1678318,51.1163472],[1.1678099,51.1163531],[1.1677893,51.1163618],[1.1677653,51.1163805],[1.1677447,51.1163943],[1.1677055,51.1163718]]]}},
{"type":"Feature","properties":{"highway":"path","name":null,"category":"Shared path"},"geometry":{"type":"MultiLineString","coordinates":[[[1.1677893,51.1163618],[1.1677712,51.1163461]]]}},
{"type":"Feature","properties":{"highway":"path","name":null,"category":"Shared path"},"geometry":{"type":"MultiLineString","coordinates":[[[1.1678436,51.1163462],[1.1678338,51.1163197]]]}},
{"type":"Feature","properties":{"highway":"cycleway","name":"Campbell Walk","category":"Dedicated cycleway"},"geometry":{"type":"MultiLineString","coordinates":[[[1.1607441,51.1178965],[1.1610825,51.1187099],[1.1611531,51.1187249]]]}},
{"type":"Feature","properties":{"highway":"cycleway","name":"Waddington Drive","category":"Dedicated cycleway"},"geometry":{"type":"MultiLineString","coordinates":[[[1.1599852,51.1140359],[1.1600646,51.1140347]]]}},
{"type":"Feature","properties":{"highway":"cycleway","name":null,"category":"Dedicated cycleway"},"geometry":{"type":"MultiLineString","coordinates":[[[1.160096,51.1150292],[1.1599962,51.1150134],[1.1599725,51.1150554],[1.1598933,51.1150367],[1.1598676,51.1149825],[1.1598237,51.1149328],[1.1596438,51.1148922],[1.1594027,51.1148569],[1.1593942,51.1146119],[1.1594331,51.1145757],[1.1595909,51.1145033],[1.1597755,51.1144339]]]}},
{"type":"Feature","properties":{"highway":"cycleway","name":"Waddington Drive","category":"Dedicated cycleway"},"geometry":{"type":"MultiLineString","coordinates":[[[1.1597755,51.1144339],[1.1598971,51.1143577],[1.1599786,51.1142876],[1.1600286,51.1142154],[1.1600634,51.1141362],[1.1600637,51.1141077],[1.1600646,51.1140347],[1.1600604,51.1139267],[1.1599991,51.113823],[1.1599025,51.1137271],[1.1597932,51.1136484],[1.159474,51.1135141]]]}},
{"type":"Feature","properties":{"highway":"cycle_lane_on_street","name":null,"category":"Cycle lane on street"},"geometry":{"type":"MultiLineString","coordinates":[[[1.1595909,51.1145033],[1.1595473,51.1144504]]]}}
]
}
