{
"type": "FeatureCollection",
"name": "OXFOR_489_toilets",
"crs": { "type": "name", "properties": { "name": "urn:ogc:def:crs:OGC:1.3:CRS84" } },
"features": [
{ "type": "Feature", "properties": { "name": "Wolvercote", "payment_info": "Free", "accessible": "False", "radar": "Unknown", "women": "True", "men": "True", "baby_change": "False", "Mon": "10:00-17:00", "Tue": "10:00-17:00", "Wed": "10:00-17:00", "Thu": "10:00-17:00", "Fri": "10:00-17:00", "Sat": "10:00-17:00", "Sun": "10:00-17:00", "index_right": 132, "park_offical_id": "OXFOR_489" }, "geometry": { "type": "Point", "coordinates": [ -1.2950596, 51.78158892 ] } }
]
}
