{
"type": "FeatureCollection",
"name": "OXFOR_33_toilets",
"crs": { "type": "name", "properties": { "name": "urn:ogc:def:crs:OGC:1.3:CRS84" } },
"features": [
{ "type": "Feature", "properties": { "name": "Warneford Hospital main reception", "payment_info": "Cost unknown", "accessible": "True", "radar": "Unknown", "women": "True", "men": "True", "baby_change": "Unknown", "Mon": "Unknown", "Tue": "Unknown", "Wed": "Unknown", "Thu": "Unknown", "Fri": "Unknown", "Sat": "Unknown", "Sun": "Unknown", "index_right": 92, "park_offical_id": "OXFOR_33" }, "geometry": { "type": "Point", "coordinates": [ -1.221936643, 51.751075272 ] } }
]
}
