{
"type": "FeatureCollection",
"name": "PORTS_56_toilets",
"crs": { "type": "name", "properties": { "name": "urn:ogc:def:crs:OGC:1.3:CRS84" } },
"features": [
{ "type": "Feature", "properties": { "name": "Cosham  The Sunshine Inn", "payment_info": "Free", "accessible": "False", "radar": "Unknown", "women": "True", "men": "True", "baby_change": "Unknown", "Mon": "09:00-17:00", "Tue": "09:00-17:00", "Wed": "09:00-17:00", "Thu": "09:00-17:00", "Fri": "09:00-17:00", "Sat": "09:00-17:00", "Sun": "09:00-17:00", "index_right": 50, "park_offical_id": "PORTS_56" }, "geometry": { "type": "Point", "coordinates": [ -1.030912399, 50.847393441 ] } },
{ "type": "Feature", "properties": { "name": "Farlington Services  A27", "payment_info": "Cost unknown", "accessible": "False", "radar": "Unknown", "women": "Unknown", "men": "Unknown", "baby_change": "Unknown", "Mon": "Unknown", "Tue": "Unknown", "Wed": "Unknown", "Thu": "Unknown", "Fri": "Unknown", "Sat": "Unknown", "Sun": "Unknown", "index_right": 50, "park_offical_id": "PORTS_56" }, "geometry": { "type": "Point", "coordinates": [ -1.041297913, 50.836157311 ] } },
{ "type": "Feature", "properties": { "name": "Sainsburys Superstore  Farlington", "payment_info": "Cost unknown", "accessible": "True", "radar": "False", "women": "True", "men": "True", "baby_change": "True", "Mon": "09:00-17:00", "Tue": "09:00-17:00", "Wed": "09:00-17:00", "Thu": "09:00-17:00", "Fri": "09:00-17:00", "Sat": "09:00-17:00", "Sun": "09:00-17:00", "index_right": 50, "park_offical_id": "PORTS_56" }, "geometry": { "type": "Point", "coordinates": [ -1.039366722, 50.840547752 ] } }
]
}
