{
"type": "FeatureCollection",
"name": "3627ac74808c_visibility",
"crs": { "type": "name", "properties": { "name": "urn:ogc:def:crs:OGC:1.3:CRS84" } },
"features": [
{ "type": "Feature", "properties": { "visible_points": 9, "total_points": 59, "visibility_pct": 15.254237288135593 }, "geometry": { "type": "Point", "coordinates": [ -1.401227326895963, 51.748028890527507 ] } },
{ "type": "Feature", "properties": { "visible_points": 1, "total_points": 56, "visibility_pct": 1.7857142857142856 }, "geometry": { "type": "Point", "coordinates": [ -1.401026626900924, 51.748027868795354 ] } },
{ "type": "Feature", "properties": { "visible_points": 7, "total_points": 52, "visibility_pct": 13.461538461538462 }, "geometry": { "type": "Point", "coordinates": [ -1.400825926917859, 51.748026846720514 ] } },
{ "type": "Feature", "properties": { "visible_points": 0, "total_points": 48, "visibility_pct": 0.0 }, "geometry": { "type": "Point", "coordinates": [ -1.400625226946789, 51.748025824303035 ] } },
{ "type": "Feature", "properties": { "visible_points": 7, "total_points": 66, "visibility_pct": 10.606060606060606 }, "geometry": { "type": "Point", "coordinates": [ -1.401326250471154, 51.74813728980935 ] } },
{ "type": "Feature", "properties": { "visible_points": 11, "total_points": 63, "visibility_pct": 17.460317460317459 }, "geometry": { "type": "Point", "coordinates": [ -1.401125549988224, 51.748136268242732 ] } },
{ "type": "Feature", "properties": { "visible_points": 10, "total_points": 59, "visibility_pct": 16.949152542372879 }, "geometry": { "type": "Point", "coordinates": [ -1.400924849517268, 51.74813524633344 ] } },
{ "type": "Feature", "properties": { "visible_points": 6, "total_points": 54, "visibility_pct": 11.111111111111111 }, "geometry": { "type": "Point", "coordinates": [ -1.400724149058301, 51.748134224081468 ] } },
{ "type": "Feature", "properties": { "visible_points": 2, "total_points": 47, "visibility_pct": 4.2553191489361701 }, "geometry": { "type": "Point", "coordinates": [ -1.400523448611319, 51.748133201486823 ] } },
{ "type": "Feature", "properties": { "visible_points": 11, "total_points": 73, "visibility_pct": 15.068493150684931 }, "geometry": { "type": "Point", "coordinates": [ -1.401425174514292, 51.748245689006858 ] } },
{ "type": "Feature", "properties": { "visible_points": 10, "total_points": 72, "visibility_pct": 13.888888888888889 }, "geometry": { "type": "Point", "coordinates": [ -1.401224473551425, 51.748244667608219 ] } },
{ "type": "Feature", "properties": { "visible_points": 10, "total_points": 68, "visibility_pct": 14.705882352941178 }, "geometry": { "type": "Point", "coordinates": [ -1.401023772592581, 51.748243645864456 ] } },
{ "type": "Feature", "properties": { "visible_points": 10, "total_points": 63, "visibility_pct": 15.873015873015872 }, "geometry": { "type": "Point", "coordinates": [ -1.400823071645713, 51.748242623778019 ] } },
{ "type": "Feature", "properties": { "visible_points": 5, "total_points": 56, "visibility_pct": 8.9285714285714288 }, "geometry": { "type": "Point", "coordinates": [ -1.400622370710837, 51.748241601348909 ] } },
{ "type": "Feature", "properties": { "visible_points": 9, "total_points": 79, "visibility_pct": 11.39240506329114 }, "geometry": { "type": "Point", "coordinates": [ -1.401524099026541, 51.748354088114645 ] } },
{ "type": "Feature", "properties": { "visible_points": 12, "total_points": 80, "visibility_pct": 15.0 }, "geometry": { "type": "Point", "coordinates": [ -1.401323397590543, 51.748353066891795 ] } },
{ "type": "Feature", "properties": { "visible_points": 9, "total_points": 78, "visibility_pct": 11.538461538461538 }, "geometry": { "type": "Point", "coordinates": [ -1.401122696143797, 51.748352045313574 ] } },
{ "type": "Feature", "properties": { "visible_points": 10, "total_points": 73, "visibility_pct": 13.698630136986301 }, "geometry": { "type": "Point", "coordinates": [ -1.400921994709035, 51.748351023392665 ] } },
{ "type": "Feature", "properties": { "visible_points": 6, "total_points": 83, "visibility_pct": 7.2289156626506017 }, "geometry": { "type": "Point", "coordinates": [ -1.401623024002614, 51.748462487133324 ] } },
{ "type": "Feature", "properties": { "visible_points": 0, "total_points": 86, "visibility_pct": 0.0 }, "geometry": { "type": "Point", "coordinates": [ -1.40142232209656, 51.748461466090703 ] } },
{ "type": "Feature", "properties": { "visible_points": 7, "total_points": 84, "visibility_pct": 8.3333333333333321 }, "geometry": { "type": "Point", "coordinates": [ -1.401020918248261, 51.748459422925407 ] } },
{ "type": "Feature", "properties": { "visible_points": 2, "total_points": 86, "visibility_pct": 2.3255813953488373 }, "geometry": { "type": "Point", "coordinates": [ -1.401721949446617, 51.748570886066283 ] } },
{ "type": "Feature", "properties": { "visible_points": 3, "total_points": 90, "visibility_pct": 3.3333333333333335 }, "geometry": { "type": "Point", "coordinates": [ -1.401521247070561, 51.748569865198846 ] } },
{ "type": "Feature", "properties": { "visible_points": 0, "total_points": 86, "visibility_pct": 0.0 }, "geometry": { "type": "Point", "coordinates": [ -1.401820875362097, 51.748679284914594 ] } },
{ "type": "Feature", "properties": { "visible_points": 5, "total_points": 93, "visibility_pct": 5.376344086021505 }, "geometry": { "type": "Point", "coordinates": [ -1.401620172507212, 51.748678264216835 ] } },
{ "type": "Feature", "properties": { "visible_points": 0, "total_points": 71, "visibility_pct": 0.0 }, "geometry": { "type": "Point", "coordinates": [ -1.402120505099213, 51.748788703864911 ] } },
{ "type": "Feature", "properties": { "visible_points": 5, "total_points": 82, "visibility_pct": 6.0975609756097562 }, "geometry": { "type": "Point", "coordinates": [ -1.401919801749064, 51.748787683678245 ] } },
{ "type": "Feature", "properties": { "visible_points": 9, "total_points": 92, "visibility_pct": 9.7826086956521738 }, "geometry": { "type": "Point", "coordinates": [ -1.401719098410804, 51.748786663148827 ] } },
{ "type": "Feature", "properties": { "visible_points": 2, "total_points": 65, "visibility_pct": 3.0769230769230771 }, "geometry": { "type": "Point", "coordinates": [ -1.402219432441039, 51.748897102375537 ] } },
{ "type": "Feature", "properties": { "visible_points": 3, "total_points": 77, "visibility_pct": 3.8961038961038961 }, "geometry": { "type": "Point", "coordinates": [ -1.402018728607525, 51.748896082357213 ] } },
{ "type": "Feature", "properties": { "visible_points": 4, "total_points": 88, "visibility_pct": 4.5454545454545459 }, "geometry": { "type": "Point", "coordinates": [ -1.401818024785878, 51.748895061996166 ] } },
{ "type": "Feature", "properties": { "visible_points": 8, "total_points": 97, "visibility_pct": 8.2474226804123703 }, "geometry": { "type": "Point", "coordinates": [ -1.401617320976122, 51.748894041292367 ] } },
{ "type": "Feature", "properties": { "visible_points": 0, "total_points": 102, "visibility_pct": 0.0 }, "geometry": { "type": "Point", "coordinates": [ -1.401416617153578, 51.748893020234036 ] } },
{ "type": "Feature", "properties": { "visible_points": 3, "total_points": 59, "visibility_pct": 5.0847457627118651 }, "geometry": { "type": "Point", "coordinates": [ -1.402318360254367, 51.749005500801502 ] } },
{ "type": "Feature", "properties": { "visible_points": 8, "total_points": 70, "visibility_pct": 11.428571428571429 }, "geometry": { "type": "Point", "coordinates": [ -1.40211765593747, 51.749004480951534 ] } },
{ "type": "Feature", "properties": { "visible_points": 6, "total_points": 82, "visibility_pct": 7.3170731707317067 }, "geometry": { "type": "Point", "coordinates": [ -1.401916951632451, 51.749003460758829 ] } },
{ "type": "Feature", "properties": { "visible_points": 0, "total_points": 92, "visibility_pct": 0.0 }, "geometry": { "type": "Point", "coordinates": [ -1.40171624733931, 51.749002440223386 ] } },
{ "type": "Feature", "properties": { "visible_points": 6, "total_points": 100, "visibility_pct": 6.0 }, "geometry": { "type": "Point", "coordinates": [ -1.401515543051181, 51.749001419343124 ] } },
{ "type": "Feature", "properties": { "visible_points": 12, "total_points": 101, "visibility_pct": 11.881188118811881 }, "geometry": { "type": "Point", "coordinates": [ -1.401314838732953, 51.749000398090196 ] } },
{ "type": "Feature", "properties": { "visible_points": 6, "total_points": 95, "visibility_pct": 6.3157894736842106 }, "geometry": { "type": "Point", "coordinates": [ -1.401114134394703, 51.74899937647713 ] } },
{ "type": "Feature", "properties": { "visible_points": 5, "total_points": 74, "visibility_pct": 6.756756756756757 }, "geometry": { "type": "Point", "coordinates": [ -1.402015878950518, 51.749111859436844 ] } },
{ "type": "Feature", "properties": { "visible_points": 14, "total_points": 85, "visibility_pct": 16.470588235294116 }, "geometry": { "type": "Point", "coordinates": [ -1.401815174173987, 51.749110839069736 ] } },
{ "type": "Feature", "properties": { "visible_points": 15, "total_points": 93, "visibility_pct": 16.129032258064516 }, "geometry": { "type": "Point", "coordinates": [ -1.401614469409344, 51.749109818359884 ] } },
{ "type": "Feature", "properties": { "visible_points": 13, "total_points": 95, "visibility_pct": 13.684210526315791 }, "geometry": { "type": "Point", "coordinates": [ -1.401413764628331, 51.749108797293502 ] } },
{ "type": "Feature", "properties": { "visible_points": 11, "total_points": 92, "visibility_pct": 11.956521739130435 }, "geometry": { "type": "Point", "coordinates": [ -1.401213059813639, 51.749107775849517 ] } },
{ "type": "Feature", "properties": { "visible_points": 10, "total_points": 84, "visibility_pct": 11.904761904761903 }, "geometry": { "type": "Point", "coordinates": [ -1.401012354999448, 51.749106754059305 ] } },
{ "type": "Feature", "properties": { "visible_points": 6, "total_points": 75, "visibility_pct": 8.0 }, "geometry": { "type": "Point", "coordinates": [ -1.401914101480164, 51.749219237831426 ] } },
{ "type": "Feature", "properties": { "visible_points": 9, "total_points": 85, "visibility_pct": 10.588235294117647 }, "geometry": { "type": "Point", "coordinates": [ -1.401713396232134, 51.749218217289922 ] } },
{ "type": "Feature", "properties": { "visible_points": 16, "total_points": 87, "visibility_pct": 18.390804597701148 }, "geometry": { "type": "Point", "coordinates": [ -1.401512690987782, 51.749217196403215 ] } },
{ "type": "Feature", "properties": { "visible_points": 11, "total_points": 86, "visibility_pct": 12.790697674418606 }, "geometry": { "type": "Point", "coordinates": [ -1.401311985708507, 51.749216175140006 ] } },
{ "type": "Feature", "properties": { "visible_points": 11, "total_points": 80, "visibility_pct": 13.75 }, "geometry": { "type": "Point", "coordinates": [ -1.401111280406396, 51.749215153515337 ] } },
{ "type": "Feature", "properties": { "visible_points": 11, "total_points": 72, "visibility_pct": 15.277777777777779 }, "geometry": { "type": "Point", "coordinates": [ -1.400910575116264, 51.749214131547959 ] } },
{ "type": "Feature", "properties": { "visible_points": 0, "total_points": 62, "visibility_pct": 0.0 }, "geometry": { "type": "Point", "coordinates": [ -1.400709869838125, 51.7492131092379 ] } },
{ "type": "Feature", "properties": { "visible_points": 16, "total_points": 79, "visibility_pct": 20.253164556962027 }, "geometry": { "type": "Point", "coordinates": [ -1.401611617806884, 51.749325595419414 ] } },
{ "type": "Feature", "properties": { "visible_points": 17, "total_points": 80, "visibility_pct": 21.25 }, "geometry": { "type": "Point", "coordinates": [ -1.401410912067243, 51.749324574344861 ] } },
{ "type": "Feature", "properties": { "visible_points": 14, "total_points": 75, "visibility_pct": 18.666666666666668 }, "geometry": { "type": "Point", "coordinates": [ -1.401210206289278, 51.749323552889457 ] } },
{ "type": "Feature", "properties": { "visible_points": 14, "total_points": 68, "visibility_pct": 20.588235294117645 }, "geometry": { "type": "Point", "coordinates": [ -1.401009500511225, 51.749322531087621 ] } },
{ "type": "Feature", "properties": { "visible_points": 12, "total_points": 61, "visibility_pct": 19.672131147540984 }, "geometry": { "type": "Point", "coordinates": [ -1.400808794745154, 51.749321508943112 ] } },
{ "type": "Feature", "properties": { "visible_points": 0, "total_points": 53, "visibility_pct": 0.0 }, "geometry": { "type": "Point", "coordinates": [ -1.400608088991064, 51.749320486455893 ] } },
{ "type": "Feature", "properties": { "visible_points": 12, "total_points": 73, "visibility_pct": 16.43835616438356 }, "geometry": { "type": "Point", "coordinates": [ -1.401509838888573, 51.749432973455249 ] } },
{ "type": "Feature", "properties": { "visible_points": 12, "total_points": 71, "visibility_pct": 16.901408450704224 }, "geometry": { "type": "Point", "coordinates": [ -1.401309132648099, 51.749431952181666 ] } },
{ "type": "Feature", "properties": { "visible_points": 17, "total_points": 66, "visibility_pct": 25.757575757575758 }, "geometry": { "type": "Point", "coordinates": [ -1.401108426382119, 51.749430930545373 ] } },
{ "type": "Feature", "properties": { "visible_points": 15, "total_points": 60, "visibility_pct": 25.0 }, "geometry": { "type": "Point", "coordinates": [ -1.400907720128114, 51.749429908566384 ] } },
{ "type": "Feature", "properties": { "visible_points": 11, "total_points": 53, "visibility_pct": 20.754716981132077 }, "geometry": { "type": "Point", "coordinates": [ -1.400707013886104, 51.749428886244715 ] } },
{ "type": "Feature", "properties": { "visible_points": 6, "total_points": 45, "visibility_pct": 13.333333333333334 }, "geometry": { "type": "Point", "coordinates": [ -1.400506307656069, 51.749427863580358 ] } },
{ "type": "Feature", "properties": { "visible_points": 8, "total_points": 62, "visibility_pct": 12.903225806451612 }, "geometry": { "type": "Point", "coordinates": [ -1.401207352728953, 51.74953932992122 ] } },
{ "type": "Feature", "properties": { "visible_points": 10, "total_points": 57, "visibility_pct": 17.543859649122805 }, "geometry": { "type": "Point", "coordinates": [ -1.401006645987019, 51.749538308107766 ] } },
{ "type": "Feature", "properties": { "visible_points": 12, "total_points": 52, "visibility_pct": 23.076923076923077 }, "geometry": { "type": "Point", "coordinates": [ -1.400805939257072, 51.749537285951639 ] } }
]
}
