{
"type": "FeatureCollection",
"name": "SURHE_215_cycling",
"crs": { "type": "name", "properties": { "name": "urn:ogc:def:crs:OGC:1.3:CRS84" } },
"features": [
{"type":"Feature","properties":{"highway":"track","name":null,"category":"Track"},"geometry":{"type":"MultiLineString","coordinates":[[[-0.6398717,51.3272102],[-0.6400557,51.3271466],[-0.6414177,51.3268043],[-0.6422277,51.3266008],[-0.6422681,51.3265907],[-0.642376,51.3265813]]]}},
{"type":"Feature","properties":{"highway":"track","name":null,"category":"Track"},"geometry":{"type":"MultiLineString","coordinates":[[[-0.6547057,51.3372426],[-0.6545517,51.3372373],[-0.6544551,51.3372236],[-0.6543815,51.3372079],[-0.6542952,51.3371781]]]}},
{"type":"Feature","properties":{"highway":"bridleway","name":null,"category":"Bridleway"},"geometry":{"type":"MultiLineString","coordinates":[[[-0.6415021,51.3292349],[-0.6417288,51.329398],[-0.6418955,51.3295401],[-0.6420039,51.3296456],[-0.6420169,51.3296633],[-0.6420313,51.3296899],[-0.6420357,51.329714],[-0.6420337,51.3297463],[-0.6420262,51.3298267],[-0.6420187,51.3299058],[-0.6420112,51.3299568],[-0.6420283,51.3300151],[-0.6420551,51.33006],[-0.6420668,51.330079]]]}},
{"type":"Feature","properties":{"highway":"track","name":null,"category":"Track"},"geometry":{"type":"MultiLineString","coordinates":[[[-0.6396211,51.3271598],[-0.6397934,51.3271944],[-0.6398717,51.3272102]]]}},
{"type":"Feature","properties":{"highway":"cycleway","name":"School Close","category":"Dedicated cycleway"},"geometry":{"type":"MultiLineString","coordinates":[[[-0.6387375,51.3305752],[-0.6386888,51.3305394],[-0.6386107,51.3304713],[-0.6383809,51.330215],[-0.638315,51.3301415]]]}},
{"type":"Feature","properties":{"highway":"track","name":null,"category":"Track"},"geometry":{"type":"MultiLineString","coordinates":[[[-0.6405858,51.3284231],[-0.6407062,51.3285126],[-0.6407921,51.3285955],[-0.6408137,51.328625],[-0.6408378,51.328661],[-0.6408625,51.3287445],[-0.6408642,51.3287899],[-0.6409076,51.3288356],[-0.6410508,51.3289651]]]}},
{"type":"Feature","properties":{"highway":"track","name":null,"category":"Track"},"geometry":{"type":"MultiLineString","coordinates":[[[-0.6394516,51.3273458],[-0.639608,51.3275691],[-0.6396836,51.327668],[-0.6398415,51.3278406],[-0.640015,51.3279878],[-0.6402004,51.3281316],[-0.6403101,51.3282096],[-0.6405858,51.3284231]]]}},
{"type":"Feature","properties":{"highway":"track","name":null,"category":"Track"},"geometry":{"type":"MultiLineString","coordinates":[[[-0.6398717,51.3272102],[-0.6406092,51.3274206],[-0.6413841,51.3276226]]]}},
{"type":"Feature","properties":{"highway":"bridleway","name":null,"category":"Bridleway"},"geometry":{"type":"MultiLineString","coordinates":[[[-0.6430668,51.3261145],[-0.6426264,51.3265185],[-0.642376,51.3265813],[-0.6421444,51.326886],[-0.6413841,51.3276226],[-0.6410983,51.3280177],[-0.6410153,51.3281252],[-0.6408407,51.3283289],[-0.6407062,51.3285126]]]}},
{"type":"Feature","properties":{"highway":"track","name":null,"category":"Track"},"geometry":{"type":"MultiLineString","coordinates":[[[-0.6412789,51.3290948],[-0.6415021,51.3292349]]]}},
{"type":"Feature","properties":{"highway":"track","name":null,"category":"Track"},"geometry":{"type":"MultiLineString","coordinates":[[[-0.6410508,51.3289651],[-0.6412789,51.3290948]]]}},
{"type":"Feature","properties":{"highway":"cycleway","name":"Guildford Road","category":"Dedicated cycleway"},"geometry":{"type":"MultiLineString","coordinates":[[[-0.6388881,51.3308269],[-0.6388862,51.3307474],[-0.6389749,51.3293622]]]}},
{"type":"Feature","properties":{"highway":"cycleway","name":null,"category":"Dedicated cycleway"},"geometry":{"type":"MultiLineString","coordinates":[[[-0.638769,51.3273005],[-0.638764,51.3272588],[-0.6387628,51.3271985],[-0.6387609,51.3271664]]]}},
{"type":"Feature","properties":{"highway":"cycleway","name":"Guildford Road","category":"Dedicated cycleway"},"geometry":{"type":"MultiLineString","coordinates":[[[-0.6387375,51.3305752],[-0.6387414,51.3305172],[-0.6387777,51.3300847],[-0.6387861,51.3299846],[-0.6388141,51.3294088],[-0.6388154,51.3293602],[-0.6388166,51.3293371],[-0.6388994,51.327828],[-0.6389029,51.3277167],[-0.6388526,51.3276655],[-0.6388582,51.3275366],[-0.638911,51.3274569],[-0.6389138,51.3273692]]]}},
{"type":"Feature","properties":{"highway":"cycleway","name":null,"category":"Dedicated cycleway"},"geometry":{"type":"MultiLineString","coordinates":[[[-0.6387414,51.3305172],[-0.6388431,51.3305218]]]}},
{"type":"Feature","properties":{"highway":"cycleway","name":"Guildford Road","category":"Dedicated cycleway"},"geometry":{"type":"MultiLineString","coordinates":[[[-0.6389138,51.3273692],[-0.6389084,51.3273424],[-0.6388709,51.3273122],[-0.6388199,51.3272988],[-0.638769,51.3273005]]]}},
{"type":"Feature","properties":{"highway":"cycleway","name":null,"category":"Dedicated cycleway"},"geometry":{"type":"MultiLineString","coordinates":[[[-0.6389749,51.3293622],[-0.6389135,51.3293614],[-0.6388154,51.3293602]]]}},
{"type":"Feature","properties":{"highway":"cycleway","name":null,"category":"Dedicated cycleway"},"geometry":{"type":"MultiLineString","coordinates":[[[-0.6392757,51.3308766],[-0.6392544,51.3308401]]]}},
{"type":"Feature","properties":{"highway":"cycleway","name":"Ford Road","category":"Dedicated cycleway"},"geometry":{"type":"MultiLineString","coordinates":[[[-0.6392544,51.3308401],[-0.6390891,51.3308805],[-0.6390095,51.3308858],[-0.6389305,51.3308743],[-0.6389022,51.3308533],[-0.6388881,51.3308269]]]}},
{"type":"Feature","properties":{"highway":"cycleway","name":"Guildford Road","category":"Dedicated cycleway"},"geometry":{"type":"MultiLineString","coordinates":[[[-0.6390291,51.3267742],[-0.6390509,51.3268369],[-0.6390807,51.3268987],[-0.6391338,51.3269619],[-0.6391691,51.326996]]]}},
{"type":"Feature","properties":{"highway":"cycleway","name":"Shaftesbury Road","category":"Dedicated cycleway"},"geometry":{"type":"MultiLineString","coordinates":[[[-0.6393188,51.3271262],[-0.6394159,51.3271423],[-0.6394986,51.3271463],[-0.6395861,51.3271315],[-0.6396211,51.3271598]]]}},
{"type":"Feature","properties":{"highway":"cycleway","name":"Guildford Road","category":"Dedicated cycleway"},"geometry":{"type":"MultiLineString","coordinates":[[[-0.6386634,51.3264397],[-0.638726,51.3265799],[-0.6388441,51.3267993],[-0.6388587,51.3268665],[-0.6388594,51.326916],[-0.6388628,51.3269301],[-0.6388655,51.3269724],[-0.6388655,51.3270306],[-0.6388655,51.3270826],[-0.638828,51.3271379],[-0.6387609,51.3271664]]]}},
{"type":"Feature","properties":{"highway":"cycleway","name":"Church Lane cycle path","category":"Dedicated cycleway"},"geometry":{"type":"MultiLineString","coordinates":[[[-0.6387609,51.3271664],[-0.6386697,51.3271848]]]}},
{"type":"Feature","properties":{"highway":"cycleway","name":null,"category":"Dedicated cycleway"},"geometry":{"type":"MultiLineString","coordinates":[[[-0.6388154,51.3293602],[-0.6386108,51.3293672]]]}},
{"type":"Feature","properties":{"highway":"track","name":null,"category":"Track"},"geometry":{"type":"MultiLineString","coordinates":[[[-0.6413841,51.3276226],[-0.64143,51.3276368],[-0.6416338,51.3277222],[-0.641615,51.3278312],[-0.6414756,51.327972],[-0.6414032,51.3280231]]]}},
{"type":"Feature","properties":{"highway":"cycleway","name":"Guildford Road","category":"Dedicated cycleway"},"geometry":{"type":"MultiLineString","coordinates":[[[-0.6391691,51.326996],[-0.639233,51.3270776],[-0.6393188,51.3271262]]]}},
{"type":"Feature","properties":{"highway":"track","name":null,"category":"Track"},"geometry":{"type":"MultiLineString","coordinates":[[[-0.6386385,51.3316075],[-0.6386967,51.3317534],[-0.6388296,51.3318487],[-0.6392807,51.3318651],[-0.6397252,51.3317288]]]}},
{"type":"Feature","properties":{"highway":"track","name":null,"category":"Track"},"geometry":{"type":"MultiLineString","coordinates":[[[-0.6414032,51.3280231],[-0.6411204,51.3285031],[-0.6408625,51.3287445]]]}},
{"type":"Feature","properties":{"highway":"path","name":null,"category":"Shared path"},"geometry":{"type":"MultiLineString","coordinates":[[[-0.641019,51.3355529],[-0.6408506,51.335621],[-0.6407358,51.3356482]]]}},
{"type":"Feature","properties":{"highway":"path","name":null,"category":"Shared path"},"geometry":{"type":"MultiLineString","coordinates":[[[-0.6528948,51.3348569],[-0.6535005,51.3345486],[-0.6537987,51.3343968],[-0.6545335,51.3341328],[-0.6549653,51.333932],[-0.6562421,51.3334958],[-0.6569006,51.3334005]]]}},
{"type":"Feature","properties":{"highway":"path","name":null,"category":"Shared path"},"geometry":{"type":"MultiLineString","coordinates":[[[-0.6526839,51.3340293],[-0.6535005,51.3345486]]]}},
{"type":"Feature","properties":{"highway":"path","name":null,"category":"Shared path"},"geometry":{"type":"MultiLineString","coordinates":[[[-0.6586016,51.3271266],[-0.6572813,51.3278232],[-0.6571696,51.3278766],[-0.656994,51.3279605],[-0.6567777,51.3281295],[-0.6567056,51.3282635]]]}},
{"type":"Feature","properties":{"highway":"track","name":"Common Lane","category":"Track"},"geometry":{"type":"MultiLineString","coordinates":[[[-0.6573382,51.3284599],[-0.6568054,51.3282923],[-0.6567056,51.3282635],[-0.6564515,51.3281832],[-0.6562138,51.3281036],[-0.6560571,51.328042],[-0.6559378,51.3279645],[-0.6558716,51.3279154],[-0.6558038,51.3278819],[-0.6556008,51.3277957],[-0.6552947,51.3277218],[-0.6551753,51.3277189],[-0.6550855,51.3277278],[-0.6549162,51.3277321],[-0.6547563,51.3277144],[-0.6544289,51.3276698],[-0.6541734,51.327665]]]}},
{"type":"Feature","properties":{"highway":"path","name":null,"category":"Shared path"},"geometry":{"type":"MultiLineString","coordinates":[[[-0.6571696,51.3278766],[-0.6569524,51.3278762],[-0.6563737,51.327781],[-0.6558346,51.3275786],[-0.6551249,51.3274599],[-0.6537714,51.3275593],[-0.6533589,51.3276684],[-0.6532246,51.3276392],[-0.6528639,51.3277289],[-0.652127,51.3282536],[-0.6498926,51.3296105],[-0.6498344,51.3296533],[-0.6492267,51.3301002],[-0.6483661,51.3304738],[-0.6479947,51.3306294],[-0.6475009,51.330737],[-0.647259,51.3307573]]]}},
{"type":"Feature","properties":{"highway":"path","name":null,"category":"Shared path"},"geometry":{"type":"MultiLineString","coordinates":[[[-0.6467711,51.3304524],[-0.6471838,51.3303181],[-0.6479544,51.3300622],[-0.6483661,51.3299587],[-0.6487556,51.3297775],[-0.6498971,51.3289878],[-0.6521801,51.3273122]]]}},
{"type":"Feature","properties":{"highway":"path","name":null,"category":"Shared path"},"geometry":{"type":"MultiLineString","coordinates":[[[-0.6519455,51.3271905],[-0.6521122,51.3272754],[-0.6521801,51.3273122],[-0.6523205,51.3273292],[-0.6524927,51.3273009],[-0.6528283,51.3270419],[-0.6534167,51.3265621],[-0.65405,51.3262021],[-0.6542633,51.3261798],[-0.6544338,51.3261874]]]}},
{"type":"Feature","properties":{"highway":"path","name":null,"category":"Shared path"},"geometry":{"type":"MultiLineString","coordinates":[[[-0.6498344,51.3296533],[-0.6490908,51.329803],[-0.6488508,51.3298002],[-0.6487556,51.3297775]]]}},
{"type":"Feature","properties":{"highway":"path","name":null,"category":"Shared path"},"geometry":{"type":"MultiLineString","coordinates":[[[-0.6410212,51.3263142],[-0.6414229,51.3265596],[-0.6414177,51.3268043]]]}},
{"type":"Feature","properties":{"highway":"path","name":null,"category":"Shared path"},"geometry":{"type":"MultiLineString","coordinates":[[[-0.6416338,51.3277222],[-0.6421444,51.326886]]]}}
]
}
