{
"type": "FeatureCollection",
"name": "SURHE_66_walking",
"crs": { "type": "name", "properties": { "name": "urn:ogc:def:crs:OGC:1.3:CRS84" } },
"features": [
{"type":"Feature","properties":{"highway":"footway","name":null,"category":"Footpath (pedestrian only)"},"geometry":{"type":"MultiLineString","coordinates":[[[-0.7395832,51.3357476],[-0.7389471,51.3348669],[-0.7389216,51.3348292],[-0.7388395,51.3348172],[-0.7386718,51.3348196],[-0.738515,51.334816],[-0.7384595,51.3348244],[-0.7383755,51.3348152]]]}},
{"type":"Feature","properties":{"highway":"footway","name":null,"category":"Footpath (pedestrian only)"},"geometry":{"type":"MultiLineString","coordinates":[[[-0.7354154,51.3333694],[-0.7354716,51.3332457],[-0.7354941,51.3332036],[-0.7354927,51.3331586],[-0.7354942,51.3331004]]]}},
{"type":"Feature","properties":{"highway":"footway","name":null,"category":"Footpath (pedestrian only)"},"geometry":{"type":"MultiLineString","coordinates":[[[-0.7356236,51.3334867],[-0.7355863,51.3335141],[-0.7355543,51.3335274],[-0.7355041,51.333543],[-0.7352305,51.3336414],[-0.734916,51.3337478],[-0.7347195,51.3338062],[-0.7345464,51.3338701],[-0.7344054,51.3339212],[-0.7343363,51.3339421],[-0.7342578,51.3339539],[-0.7341881,51.3339592],[-0.7341434,51.3339761],[-0.7338951,51.3340779],[-0.733832,51.3341066],[-0.733801,51.3341521]]]}},
{"type":"Feature","properties":{"highway":"footway","name":null,"category":"Footpath (pedestrian only)"},"geometry":{"type":"MultiLineString","coordinates":[[[-0.7359905,51.3336576],[-0.7359169,51.3337748]]]}},
{"type":"Feature","properties":{"highway":"footway","name":null,"category":"Footpath (pedestrian only)"},"geometry":{"type":"MultiLineString","coordinates":[[[-0.7374251,51.3342785],[-0.737325,51.3342473],[-0.7372424,51.3342291],[-0.7371098,51.3342157],[-0.7369096,51.3342103],[-0.7367717,51.3341927],[-0.7367013,51.3341508],[-0.7366378,51.3340561],[-0.7365918,51.3340034],[-0.7365188,51.3339317],[-0.736382,51.3338315],[-0.7362078,51.3337389],[-0.7359905,51.3336576],[-0.7358729,51.33361],[-0.7357016,51.3335329],[-0.7356236,51.3334867],[-0.7354154,51.3333694],[-0.7353788,51.333347],[-0.7352262,51.3332804],[-0.7351111,51.333213],[-0.73506,51.3331421]]]}},
{"type":"Feature","properties":{"highway":"footway","name":null,"category":"Footpath (pedestrian only)"},"geometry":{"type":"MultiLineString","coordinates":[[[-0.7431709,51.3346195],[-0.7432002,51.3346563],[-0.743306,51.3347891],[-0.7434336,51.3348025]]]}},
{"type":"Feature","properties":{"highway":"footway","name":null,"category":"Footpath (pedestrian only)"},"geometry":{"type":"MultiLineString","coordinates":[[[-0.7424067,51.3351394],[-0.7425284,51.3350761],[-0.7428192,51.3348511],[-0.7431709,51.3346195],[-0.7435349,51.3343798]]]}}
]
}
