{
"type": "FeatureCollection",
"name": "OXFOR_21_walking",
"crs": { "type": "name", "properties": { "name": "urn:ogc:def:crs:OGC:1.3:CRS84" } },
"features": [
{"type":"Feature","properties":{"highway":"footway","name":null,"category":"Footpath (pedestrian only)"},"geometry":{"type":"MultiLineString","coordinates":[[[-1.2028849,51.7655089],[-1.2028097,51.76561]]]}},
{"type":"Feature","properties":{"highway":"footway","name":null,"category":"Footpath (pedestrian only)"},"geometry":{"type":"MultiLineString","coordinates":[[[-1.1879368,51.765532],[-1.1880094,51.7655608],[-1.1880805,51.7655707],[-1.1881422,51.765572],[-1.1882023,51.7655671],[-1.1882479,51.765572],[-1.1883799,51.7657161],[-1.1885941,51.7657073],[-1.188765,51.765691],[-1.1888591,51.7656801]]]}},
{"type":"Feature","properties":{"highway":"footway","name":null,"category":"Footpath (pedestrian only)"},"geometry":{"type":"MultiLineString","coordinates":[[[-1.1908403,51.7654004],[-1.1909441,51.7655397],[-1.1910044,51.7655907],[-1.1911142,51.7656836]]]}},
{"type":"Feature","properties":{"highway":"footway","name":null,"category":"Footpath (pedestrian only)"},"geometry":{"type":"MultiLineString","coordinates":[[[-1.1912076,51.7663955],[-1.191355,51.7663666],[-1.1916976,51.7662984],[-1.1916226,51.7660644],[-1.1918372,51.7658976],[-1.1918721,51.765871]]]}},
{"type":"Feature","properties":{"highway":"footway","name":null,"category":"Footpath (pedestrian only)"},"geometry":{"type":"MultiLineString","coordinates":[[[-1.1923612,51.766053],[-1.1923076,51.7660297],[-1.1922885,51.7660253],[-1.1920984,51.7659807],[-1.1918721,51.765871],[-1.1915582,51.7657227],[-1.1913785,51.7656064],[-1.1913277,51.7655681]]]}},
{"type":"Feature","properties":{"highway":"footway","name":null,"category":"Footpath (pedestrian only)"},"geometry":{"type":"MultiLineString","coordinates":[[[-1.190299,51.7652832],[-1.1897117,51.7647113]]]}},
{"type":"Feature","properties":{"highway":"footway","name":null,"category":"Footpath (pedestrian only)"},"geometry":{"type":"MultiLineString","coordinates":[[[-1.1909156,51.7625851],[-1.1909358,51.7625541],[-1.1909891,51.762468]]]}},
{"type":"Feature","properties":{"highway":"footway","name":null,"category":"Footpath (pedestrian only)"},"geometry":{"type":"MultiLineString","coordinates":[[[-1.1890167,51.7639724],[-1.1888013,51.7639347],[-1.1888007,51.7638354],[-1.188791,51.763385],[-1.1888449,51.7633849],[-1.1888731,51.7629757],[-1.1888691,51.7624264],[-1.1888702,51.7624102],[-1.1888678,51.762388]]]}},
{"type":"Feature","properties":{"highway":"footway","name":"Coopers Alley","category":"Footpath (pedestrian only)"},"geometry":{"type":"MultiLineString","coordinates":[[[-1.1968027,51.7603451],[-1.19677,51.7602884],[-1.1969478,51.7599726],[-1.1969597,51.7599306],[-1.196949,51.7598916],[-1.1969156,51.7598562],[-1.1968728,51.7598296],[-1.196843,51.7598149],[-1.196762,51.7596277],[-1.1967298,51.7595436],[-1.196687,51.7594419],[-1.1966465,51.7593542],[-1.1966168,51.7593085]]]}},
{"type":"Feature","properties":{"highway":"footway","name":null,"category":"Footpath (pedestrian only)"},"geometry":{"type":"MultiLineString","coordinates":[[[-1.196762,51.7596277],[-1.1964555,51.7596376]]]}},
{"type":"Feature","properties":{"highway":"footway","name":null,"category":"Footpath (pedestrian only)"},"geometry":{"type":"MultiLineString","coordinates":[[[-1.1962867,51.761011],[-1.1963708,51.7609351],[-1.1963071,51.7608164],[-1.1960626,51.7605426]]]}},
{"type":"Feature","properties":{"highway":"footway","name":"Colemans Hill","category":"Footpath (pedestrian only)"},"geometry":{"type":"MultiLineString","coordinates":[[[-1.1976965,51.7625071],[-1.197701,51.7625217],[-1.1977488,51.7626773]]]}},
{"type":"Feature","properties":{"highway":"footway","name":null,"category":"Footpath (pedestrian only)"},"geometry":{"type":"MultiLineString","coordinates":[[[-1.1972501,51.7621706],[-1.1972339,51.7621716],[-1.1970785,51.7621828]]]}},
{"type":"Feature","properties":{"highway":"footway","name":"Colemans Hill","category":"Footpath (pedestrian only)"},"geometry":{"type":"MultiLineString","coordinates":[[[-1.1977465,51.7623639],[-1.1985807,51.762235]]]}},
{"type":"Feature","properties":{"highway":"footway","name":null,"category":"Footpath (pedestrian only)"},"geometry":{"type":"MultiLineString","coordinates":[[[-1.2020924,51.7621338],[-1.202073,51.7620836],[-1.2020672,51.7620722],[-1.2020048,51.7620606],[-1.2018083,51.7620561],[-1.2017057,51.7620494],[-1.2016896,51.7620382],[-1.201631,51.7618739],[-1.2015528,51.7616336],[-1.2016239,51.7616244],[-1.2015656,51.7614768],[-1.2015522,51.7614165],[-1.2014692,51.7614265],[-1.2014351,51.7613116],[-1.2013997,51.7611921]]]}},
{"type":"Feature","properties":{"highway":"footway","name":null,"category":"Footpath (pedestrian only)"},"geometry":{"type":"MultiLineString","coordinates":[[[-1.2012012,51.7619229],[-1.2010636,51.761941],[-1.2007654,51.7619841]]]}},
{"type":"Feature","properties":{"highway":"footway","name":null,"category":"Footpath (pedestrian only)"},"geometry":{"type":"MultiLineString","coordinates":[[[-1.1969198,51.7635779],[-1.1967471,51.763601]]]}},
{"type":"Feature","properties":{"highway":"footway","name":null,"category":"Footpath (pedestrian only)"},"geometry":{"type":"MultiLineString","coordinates":[[[-1.1990247,51.7625082],[-1.1990185,51.7624879],[-1.1989709,51.7623594],[-1.1987461,51.7620081]]]}},
{"type":"Feature","properties":{"highway":"footway","name":null,"category":"Footpath (pedestrian only)"},"geometry":{"type":"MultiLineString","coordinates":[[[-1.1990185,51.7624879],[-1.1988015,51.762396],[-1.1987908,51.7623908]]]}},
{"type":"Feature","properties":{"highway":"footway","name":null,"category":"Footpath (pedestrian only)"},"geometry":{"type":"MultiLineString","coordinates":[[[-1.1987908,51.7623908],[-1.1986918,51.7623982],[-1.198676,51.7623994]]]}},
{"type":"Feature","properties":{"highway":"footway","name":null,"category":"Footpath (pedestrian only)"},"geometry":{"type":"MultiLineString","coordinates":[[[-1.1999102,51.7624212],[-1.1998805,51.7623633],[-1.199749,51.7621068],[-1.1996523,51.7619375],[-1.1995889,51.7617321],[-1.1993969,51.7615689],[-1.199348,51.761526],[-1.1996667,51.7613793],[-1.1995963,51.7613232],[-1.1996359,51.7613039]]]}},
{"type":"Feature","properties":{"highway":"footway","name":null,"category":"Footpath (pedestrian only)"},"geometry":{"type":"MultiLineString","coordinates":[[[-1.2005774,51.761355],[-1.2006497,51.7615956]]]}},
{"type":"Feature","properties":{"highway":"footway","name":null,"category":"Footpath (pedestrian only)"},"geometry":{"type":"MultiLineString","coordinates":[[[-1.2005367,51.7620102],[-1.2004887,51.7618489],[-1.2004558,51.7618527],[-1.2003882,51.7616254],[-1.2006497,51.7615956],[-1.2007654,51.7619841],[-1.2005367,51.7620102]]]}},
{"type":"Feature","properties":{"highway":"footway","name":null,"category":"Footpath (pedestrian only)"},"geometry":{"type":"MultiLineString","coordinates":[[[-1.2005367,51.7620102],[-1.2001934,51.762051],[-1.2001011,51.7620615]]]}},
{"type":"Feature","properties":{"highway":"footway","name":null,"category":"Footpath (pedestrian only)"},"geometry":{"type":"MultiLineString","coordinates":[[[-1.1961141,51.7627112],[-1.1960827,51.7630511],[-1.1960535,51.7631554]]]}},
{"type":"Feature","properties":{"highway":"footway","name":null,"category":"Footpath (pedestrian only)"},"geometry":{"type":"MultiLineString","coordinates":[[[-1.196037,51.7631705],[-1.1960833,51.7632006],[-1.1961489,51.7634285]]]}},
{"type":"Feature","properties":{"highway":"footway","name":null,"category":"Footpath (pedestrian only)"},"geometry":{"type":"MultiLineString","coordinates":[[[-1.1952598,51.7589604],[-1.1952027,51.7590176],[-1.195099,51.7590419]]]}},
{"type":"Feature","properties":{"highway":"footway","name":null,"category":"Footpath (pedestrian only)"},"geometry":{"type":"MultiLineString","coordinates":[[[-1.1959234,51.7645658],[-1.1958873,51.7646273],[-1.1956806,51.7649876],[-1.1955743,51.7651734],[-1.1955498,51.765213],[-1.1954903,51.765262]]]}},
{"type":"Feature","properties":{"highway":"footway","name":null,"category":"Footpath (pedestrian only)"},"geometry":{"type":"MultiLineString","coordinates":[[[-1.1946092,51.7668911],[-1.1946386,51.7668147],[-1.1947927,51.7665322],[-1.1949452,51.766266],[-1.1950111,51.7661698]]]}},
{"type":"Feature","properties":{"highway":"path","name":null,"category":"Shared path"},"geometry":{"type":"MultiLineString","coordinates":[[[-1.1982861,51.7716566],[-1.1988663,51.7707604],[-1.1991637,51.7702504],[-1.1994085,51.7698578],[-1.1997019,51.7696779],[-1.1998992,51.7695316]]]}},
{"type":"Feature","properties":{"highway":"footway","name":null,"category":"Footpath (pedestrian only)"},"geometry":{"type":"MultiLineString","coordinates":[[[-1.1976159,51.7635387],[-1.1975021,51.7634031],[-1.1974882,51.7633897],[-1.1974709,51.7633909]]]}},
{"type":"Feature","properties":{"highway":"footway","name":null,"category":"Footpath (pedestrian only)"},"geometry":{"type":"MultiLineString","coordinates":[[[-1.1972793,51.7658094],[-1.196647,51.7656129],[-1.1966268,51.7655203]]]}},
{"type":"Feature","properties":{"highway":"footway","name":null,"category":"Footpath (pedestrian only)"},"geometry":{"type":"MultiLineString","coordinates":[[[-1.1996771,51.765837],[-1.1999966,51.7659316],[-1.20021,51.7659986],[-1.2002402,51.7660076],[-1.200296,51.7660256]]]}},
{"type":"Feature","properties":{"highway":"footway","name":null,"category":"Footpath (pedestrian only)"},"geometry":{"type":"MultiLineString","coordinates":[[[-1.2001737,51.7656361],[-1.20009,51.7656992]]]}},
{"type":"Feature","properties":{"highway":"footway","name":null,"category":"Footpath (pedestrian only)"},"geometry":{"type":"MultiLineString","coordinates":[[[-1.20009,51.7656992],[-1.2000375,51.7657663],[-1.2001149,51.765789]]]}},
{"type":"Feature","properties":{"highway":"footway","name":null,"category":"Footpath (pedestrian only)"},"geometry":{"type":"MultiLineString","coordinates":[[[-1.1953044,51.7674626],[-1.1948845,51.767394],[-1.1946978,51.7673742],[-1.1942831,51.7672954],[-1.1943951,51.766868]]]}},
{"type":"Feature","properties":{"highway":"footway","name":null,"category":"Footpath (pedestrian only)"},"geometry":{"type":"MultiLineString","coordinates":[[[-1.1942831,51.7672954],[-1.1939388,51.7672556],[-1.1938079,51.7672339]]]}},
{"type":"Feature","properties":{"highway":"footway","name":null,"category":"Footpath (pedestrian only)"},"geometry":{"type":"MultiLineString","coordinates":[[[-1.1926051,51.7660946],[-1.192818,51.7661331]]]}},
{"type":"Feature","properties":{"highway":"footway","name":null,"category":"Footpath (pedestrian only)"},"geometry":{"type":"MultiLineString","coordinates":[[[-1.1936194,51.764509],[-1.1936899,51.7646793],[-1.1937139,51.7647585],[-1.1937782,51.7647789],[-1.1937757,51.7649371]]]}},
{"type":"Feature","properties":{"highway":"footway","name":null,"category":"Footpath (pedestrian only)"},"geometry":{"type":"MultiLineString","coordinates":[[[-1.1961844,51.7633659],[-1.1962863,51.7633905],[-1.196409,51.7634414]]]}},
{"type":"Feature","properties":{"highway":"footway","name":null,"category":"Footpath (pedestrian only)"},"geometry":{"type":"MultiLineString","coordinates":[[[-1.1956269,51.7630233],[-1.196037,51.7631705]]]}},
{"type":"Feature","properties":{"highway":"footway","name":null,"category":"Footpath (pedestrian only)"},"geometry":{"type":"MultiLineString","coordinates":[[[-1.2028829,51.7666211],[-1.2029793,51.7666463],[-1.203125,51.7666916],[-1.2033473,51.7667357],[-1.2033667,51.7667394],[-1.2034069,51.7666919],[-1.2035686,51.766747],[-1.2037907,51.7668273]]]}},
{"type":"Feature","properties":{"highway":"footway","name":null,"category":"Footpath (pedestrian only)"},"geometry":{"type":"MultiLineString","coordinates":[[[-1.2046391,51.7673742],[-1.2045749,51.7674605],[-1.2045104,51.767603],[-1.2044856,51.7677019],[-1.2044654,51.767834],[-1.204512,51.7679843],[-1.2045608,51.7680892],[-1.2045814,51.7681457]]]}},
{"type":"Feature","properties":{"highway":"footway","name":null,"category":"Footpath (pedestrian only)"},"geometry":{"type":"MultiLineString","coordinates":[[[-1.2025809,51.7674289],[-1.2026892,51.7674264],[-1.2029936,51.7674278],[-1.2030559,51.7674016]]]}},
{"type":"Feature","properties":{"highway":"footway","name":null,"category":"Footpath (pedestrian only)"},"geometry":{"type":"MultiLineString","coordinates":[[[-1.2043931,51.7673685],[-1.2043374,51.7673244],[-1.2042969,51.7673057],[-1.2042391,51.7672856],[-1.2041875,51.7672736],[-1.2041379,51.7672655],[-1.2040968,51.7672633],[-1.203829,51.7672625],[-1.2037501,51.7672776]]]}},
{"type":"Feature","properties":{"highway":"footway","name":null,"category":"Footpath (pedestrian only)"},"geometry":{"type":"MultiLineString","coordinates":[[[-1.2026444,51.7675482],[-1.2025626,51.76757],[-1.2023914,51.7676126],[-1.2021672,51.767672],[-1.2020347,51.7677681],[-1.2019058,51.7678562],[-1.2017792,51.7679535],[-1.2017035,51.7679977]]]}},
{"type":"Feature","properties":{"highway":"footway","name":null,"category":"Footpath (pedestrian only)"},"geometry":{"type":"MultiLineString","coordinates":[[[-1.2004508,51.7670103],[-1.2005018,51.7669701],[-1.2006178,51.7668637],[-1.2007009,51.7667626],[-1.2007782,51.7666435]]]}},
{"type":"Feature","properties":{"highway":"footway","name":null,"category":"Footpath (pedestrian only)"},"geometry":{"type":"MultiLineString","coordinates":[[[-1.1928731,51.7666869],[-1.192804,51.766973],[-1.1930632,51.7670814],[-1.1929943,51.7670883],[-1.1929326,51.7671062],[-1.1928863,51.7671219],[-1.1928461,51.7671373],[-1.1927658,51.7671676],[-1.1927594,51.7671999],[-1.1925999,51.7671874],[-1.1925867,51.7673762]]]}},
{"type":"Feature","properties":{"highway":"footway","name":null,"category":"Footpath (pedestrian only)"},"geometry":{"type":"MultiLineString","coordinates":[[[-1.1927658,51.7671676],[-1.192804,51.766973]]]}},
{"type":"Feature","properties":{"highway":"footway","name":null,"category":"Footpath (pedestrian only)"},"geometry":{"type":"MultiLineString","coordinates":[[[-1.1921968,51.7671235],[-1.1925999,51.7671874]]]}},
{"type":"Feature","properties":{"highway":"footway","name":null,"category":"Footpath (pedestrian only)"},"geometry":{"type":"MultiLineString","coordinates":[[[-1.1938079,51.7672339],[-1.193626,51.7672112],[-1.1934503,51.7671755],[-1.193292,51.7671327],[-1.1931664,51.7670985],[-1.1930632,51.7670814]]]}},
{"type":"Feature","properties":{"highway":"footway","name":null,"category":"Footpath (pedestrian only)"},"geometry":{"type":"MultiLineString","coordinates":[[[-1.1937936,51.7673401],[-1.1938079,51.7672339]]]}},
{"type":"Feature","properties":{"highway":"footway","name":null,"category":"Footpath (pedestrian only)"},"geometry":{"type":"MultiLineString","coordinates":[[[-1.1939388,51.7672556],[-1.1938656,51.7675517]]]}},
{"type":"Feature","properties":{"highway":"footway","name":null,"category":"Footpath (pedestrian only)"},"geometry":{"type":"MultiLineString","coordinates":[[[-1.1937993,51.7675443],[-1.1937244,51.7678245],[-1.1936891,51.7679461]]]}},
{"type":"Feature","properties":{"highway":"footway","name":null,"category":"Footpath (pedestrian only)"},"geometry":{"type":"MultiLineString","coordinates":[[[-1.1941271,51.7675751],[-1.1940895,51.767851],[-1.1940791,51.7679826]]]}},
{"type":"Feature","properties":{"highway":"footway","name":null,"category":"Footpath (pedestrian only)"},"geometry":{"type":"MultiLineString","coordinates":[[[-1.1940895,51.767851],[-1.1938745,51.7678356],[-1.1937244,51.7678245]]]}},
{"type":"Feature","properties":{"highway":"footway","name":null,"category":"Footpath (pedestrian only)"},"geometry":{"type":"MultiLineString","coordinates":[[[-1.1946978,51.7673742],[-1.1947144,51.7672933]]]}},
{"type":"Feature","properties":{"highway":"footway","name":null,"category":"Footpath (pedestrian only)"},"geometry":{"type":"MultiLineString","coordinates":[[[-1.196369,51.7675611],[-1.1960916,51.7674706]]]}},
{"type":"Feature","properties":{"highway":"footway","name":null,"category":"Footpath (pedestrian only)"},"geometry":{"type":"MultiLineString","coordinates":[[[-1.1961093,51.7671771],[-1.1960089,51.767302]]]}},
{"type":"Feature","properties":{"highway":"footway","name":null,"category":"Footpath (pedestrian only)"},"geometry":{"type":"MultiLineString","coordinates":[[[-1.1954274,51.7675027],[-1.1955866,51.7673139]]]}},
{"type":"Feature","properties":{"highway":"footway","name":null,"category":"Footpath (pedestrian only)"},"geometry":{"type":"MultiLineString","coordinates":[[[-1.1960499,51.7680547],[-1.1960594,51.7680764],[-1.1961962,51.768098],[-1.1963351,51.7681147],[-1.1963524,51.7680953],[-1.1966448,51.7681502]]]}},
{"type":"Feature","properties":{"highway":"footway","name":null,"category":"Footpath (pedestrian only)"},"geometry":{"type":"MultiLineString","coordinates":[[[-1.1971966,51.7677866],[-1.1972484,51.7676616],[-1.1972919,51.7675814],[-1.1973012,51.767459]]]}},
{"type":"Feature","properties":{"highway":"footway","name":null,"category":"Footpath (pedestrian only)"},"geometry":{"type":"MultiLineString","coordinates":[[[-1.1972716,51.7673711],[-1.1972032,51.7671374],[-1.1970702,51.7667931]]]}},
{"type":"Feature","properties":{"highway":"footway","name":null,"category":"Footpath (pedestrian only)"},"geometry":{"type":"MultiLineString","coordinates":[[[-1.1975416,51.767357],[-1.1975279,51.7673249],[-1.1975078,51.7672344],[-1.1974991,51.76708],[-1.1974874,51.7670165]]]}},
{"type":"Feature","properties":{"highway":"footway","name":null,"category":"Footpath (pedestrian only)"},"geometry":{"type":"MultiLineString","coordinates":[[[-1.197833,51.7673871],[-1.1978129,51.7673054],[-1.1977968,51.7672203],[-1.1977981,51.7671576],[-1.1978068,51.7671033],[-1.1978208,51.7670323]]]}},
{"type":"Feature","properties":{"highway":"footway","name":null,"category":"Footpath (pedestrian only)"},"geometry":{"type":"MultiLineString","coordinates":[[[-1.1981516,51.7670307],[-1.1981422,51.7670726]]]}},
{"type":"Feature","properties":{"highway":"footway","name":null,"category":"Footpath (pedestrian only)"},"geometry":{"type":"MultiLineString","coordinates":[[[-1.1984806,51.7669441],[-1.1983847,51.7673499],[-1.1983726,51.7673902]]]}},
{"type":"Feature","properties":{"highway":"footway","name":null,"category":"Footpath (pedestrian only)"},"geometry":{"type":"MultiLineString","coordinates":[[[-1.1994656,51.7673979],[-1.199759,51.7671268],[-1.1990514,51.767151],[-1.1989837,51.7671672],[-1.1988353,51.7671575],[-1.1988806,51.7669981]]]}},
{"type":"Feature","properties":{"highway":"footway","name":null,"category":"Footpath (pedestrian only)"},"geometry":{"type":"MultiLineString","coordinates":[[[-1.1988353,51.7671575],[-1.1988078,51.7672496],[-1.1987722,51.7672657],[-1.1987417,51.767384]]]}},
{"type":"Feature","properties":{"highway":"footway","name":null,"category":"Footpath (pedestrian only)"},"geometry":{"type":"MultiLineString","coordinates":[[[-1.1986304,51.7673737],[-1.1983847,51.7673499]]]}},
{"type":"Feature","properties":{"highway":"footway","name":null,"category":"Footpath (pedestrian only)"},"geometry":{"type":"MultiLineString","coordinates":[[[-1.1975938,51.7678557],[-1.1976448,51.7676853],[-1.1976958,51.7676493],[-1.1977505,51.7675087]]]}},
{"type":"Feature","properties":{"highway":"footway","name":null,"category":"Footpath (pedestrian only)"},"geometry":{"type":"MultiLineString","coordinates":[[[-1.1983404,51.7679425],[-1.1982786,51.7681443],[-1.1982104,51.7683635]]]}},
{"type":"Feature","properties":{"highway":"footway","name":null,"category":"Footpath (pedestrian only)"},"geometry":{"type":"MultiLineString","coordinates":[[[-1.1982786,51.7681443],[-1.1979527,51.76811],[-1.1979135,51.7681058],[-1.19777,51.768107]]]}},
{"type":"Feature","properties":{"highway":"footway","name":null,"category":"Footpath (pedestrian only)"},"geometry":{"type":"MultiLineString","coordinates":[[[-1.1988431,51.7681959],[-1.1986661,51.7681899]]]}},
{"type":"Feature","properties":{"highway":"footway","name":null,"category":"Footpath (pedestrian only)"},"geometry":{"type":"MultiLineString","coordinates":[[[-1.1987165,51.7679757],[-1.1986661,51.7681899],[-1.1986163,51.7684132]]]}},
{"type":"Feature","properties":{"highway":"footway","name":null,"category":"Footpath (pedestrian only)"},"geometry":{"type":"MultiLineString","coordinates":[[[-1.2005437,51.7683512],[-1.2004932,51.7683882],[-1.2002539,51.7685617],[-1.2001519,51.768631]]]}},
{"type":"Feature","properties":{"highway":"footway","name":null,"category":"Footpath (pedestrian only)"},"geometry":{"type":"MultiLineString","coordinates":[[[-1.2010635,51.7687214],[-1.2009176,51.7686357],[-1.2008925,51.7686227],[-1.2008622,51.7686178],[-1.200827,51.7686183]]]}},
{"type":"Feature","properties":{"highway":"path","name":null,"category":"Shared path"},"geometry":{"type":"MultiLineString","coordinates":[[[-1.2021113,51.7699531],[-1.2020394,51.7699657],[-1.201822,51.7700439],[-1.2016712,51.7700621],[-1.2013454,51.7700064],[-1.2013101,51.7699935],[-1.2011694,51.7699419],[-1.2009008,51.7698256],[-1.2004228,51.7695812],[-1.2001585,51.7694724],[-1.1999855,51.7694081]]]}},
{"type":"Feature","properties":{"highway":"footway","name":null,"category":"Footpath (pedestrian only)"},"geometry":{"type":"MultiLineString","coordinates":[[[-1.1971412,51.7683818],[-1.1972188,51.7683826],[-1.1972898,51.768388],[-1.1973422,51.768398],[-1.1974318,51.7684223],[-1.1976282,51.7684391],[-1.1977311,51.7684586],[-1.1978437,51.7684926],[-1.1981849,51.7686068],[-1.198232,51.7686295],[-1.1982561,51.7686482],[-1.1982886,51.7686927],[-1.1983264,51.7687649],[-1.1983634,51.7688548],[-1.1983755,51.7688947],[-1.1983788,51.7689246],[-1.1983748,51.7689611],[-1.1983637,51.7689958],[-1.1983614,51.769025],[-1.1983668,51.7690474],[-1.1983838,51.7690714],[-1.198411,51.7690976],[-1.1984566,51.7691229],[-1.1984975,51.7691366],[-1.1985488,51.7691531],[-1.1986001,51.7691657],[-1.1986933,51.7691839],[-1.1988382,51.7692101],[-1.1991929,51.7692769],[-1.1995928,51.7693498],[-1.1998815,51.7694084],[-1.1999855,51.7694081]]]}},
{"type":"Feature","properties":{"highway":"path","name":null,"category":"Shared path"},"geometry":{"type":"MultiLineString","coordinates":[[[-1.1999629,51.7694698],[-1.1999855,51.7694081]]]}},
{"type":"Feature","properties":{"highway":"path","name":null,"category":"Shared path"},"geometry":{"type":"MultiLineString","coordinates":[[[-1.1998992,51.7695316],[-1.1999412,51.7694914]]]}},
{"type":"Feature","properties":{"highway":"footway","name":"High Cross Way","category":"Footpath (pedestrian only)"},"geometry":{"type":"MultiLineString","coordinates":[[[-1.2008176,51.7681353],[-1.2007208,51.7681062],[-1.2002477,51.7678891],[-1.1998279,51.7677041],[-1.1997341,51.7676613]]]}},
{"type":"Feature","properties":{"highway":"footway","name":null,"category":"Footpath (pedestrian only)"},"geometry":{"type":"MultiLineString","coordinates":[[[-1.2004296,51.7677174],[-1.2002477,51.7678891]]]}},
{"type":"Feature","properties":{"highway":"footway","name":null,"category":"Footpath (pedestrian only)"},"geometry":{"type":"MultiLineString","coordinates":[[[-1.2004766,51.7683194],[-1.2007088,51.7681137]]]}},
{"type":"Feature","properties":{"highway":"footway","name":null,"category":"Footpath (pedestrian only)"},"geometry":{"type":"MultiLineString","coordinates":[[[-1.2014737,51.7687672],[-1.2015516,51.7685478]]]}},
{"type":"Feature","properties":{"highway":"footway","name":null,"category":"Footpath (pedestrian only)"},"geometry":{"type":"MultiLineString","coordinates":[[[-1.2026207,51.7685291],[-1.202671,51.7685905],[-1.2032681,51.7685846],[-1.2037494,51.7682677],[-1.2037681,51.7682523],[-1.2038168,51.7682155]]]}},
{"type":"Feature","properties":{"highway":"footway","name":null,"category":"Footpath (pedestrian only)"},"geometry":{"type":"MultiLineString","coordinates":[[[-1.2033689,51.7692239],[-1.2033447,51.7692808],[-1.2032351,51.7695503],[-1.2031999,51.7696145],[-1.2031444,51.7696196],[-1.2031068,51.7696377],[-1.2030781,51.7696694],[-1.2030351,51.7697532],[-1.2029971,51.7699501],[-1.2029645,51.7700393]]]}},
{"type":"Feature","properties":{"highway":"footway","name":null,"category":"Footpath (pedestrian only)"},"geometry":{"type":"MultiLineString","coordinates":[[[-1.1957249,51.7673588],[-1.1955866,51.7673139]]]}},
{"type":"Feature","properties":{"highway":"footway","name":null,"category":"Footpath (pedestrian only)"},"geometry":{"type":"MultiLineString","coordinates":[[[-1.2035647,51.7697453],[-1.2035847,51.7696743],[-1.2031999,51.7696145]]]}},
{"type":"Feature","properties":{"highway":"footway","name":null,"category":"Footpath (pedestrian only)"},"geometry":{"type":"MultiLineString","coordinates":[[[-1.1971412,51.7683818],[-1.197027,51.7683913],[-1.1969432,51.7683959],[-1.1968486,51.7683856],[-1.196516,51.7683424],[-1.1962545,51.7683117],[-1.1956028,51.7682392],[-1.1955223,51.7682353],[-1.195437,51.7682388]]]}},
{"type":"Feature","properties":{"highway":"footway","name":null,"category":"Footpath (pedestrian only)"},"geometry":{"type":"MultiLineString","coordinates":[[[-1.1958706,51.7678615],[-1.1959088,51.7680394],[-1.1959108,51.7680487]]]}},
{"type":"Feature","properties":{"highway":"footway","name":null,"category":"Footpath (pedestrian only)"},"geometry":{"type":"MultiLineString","coordinates":[[[-1.195437,51.7682388],[-1.1953846,51.7682473],[-1.1952541,51.7682685],[-1.1951211,51.7682859],[-1.1950409,51.7682952],[-1.1949791,51.7682976],[-1.1948946,51.7682951],[-1.1948021,51.7682897],[-1.1947277,51.7682863],[-1.1946392,51.7682847],[-1.1945506,51.7682843],[-1.1944729,51.7682826],[-1.1943903,51.7682795],[-1.1943066,51.7682718],[-1.1942147,51.7682598],[-1.194041,51.7682283],[-1.1939606,51.7682154],[-1.1938651,51.7682012],[-1.1937996,51.7681905],[-1.1936863,51.768166],[-1.1936374,51.7681548],[-1.193598,51.7681474],[-1.1935348,51.768137],[-1.1934865,51.7681328],[-1.1934516,51.7681307],[-1.1933919,51.7681299],[-1.1933118,51.7681262],[-1.1932042,51.7681278],[-1.193078,51.7681266],[-1.1929688,51.7681218],[-1.1928655,51.7681096],[-1.1927603,51.768093],[-1.1925959,51.7680587],[-1.1925189,51.7680423],[-1.1924658,51.7680299],[-1.1924102,51.768022],[-1.1923421,51.7680155],[-1.1922862,51.7680137],[-1.1922167,51.7680147],[-1.192144,51.7680133],[-1.192085,51.7680067],[-1.1920213,51.7679913],[-1.1918614,51.7679661]]]}},
{"type":"Feature","properties":{"highway":"track","name":null,"category":"Track"},"geometry":{"type":"MultiLineString","coordinates":[[[-1.1915146,51.7682274],[-1.1914734,51.7682834]]]}},
{"type":"Feature","properties":{"highway":"track","name":null,"category":"Track"},"geometry":{"type":"MultiLineString","coordinates":[[[-1.1914734,51.7682834],[-1.1914334,51.7683463]]]}},
{"type":"Feature","properties":{"highway":"footway","name":null,"category":"Footpath (pedestrian only)"},"geometry":{"type":"MultiLineString","coordinates":[[[-1.194242,51.759199],[-1.1942642,51.7596102],[-1.1942923,51.7596529]]]}},
{"type":"Feature","properties":{"highway":"footway","name":null,"category":"Footpath (pedestrian only)"},"geometry":{"type":"MultiLineString","coordinates":[[[-1.1944908,51.758961],[-1.1945029,51.7590025],[-1.194411,51.7590787],[-1.1942904,51.7591329],[-1.1942512,51.7591384],[-1.194242,51.759199]]]}},
{"type":"Feature","properties":{"highway":"footway","name":null,"category":"Footpath (pedestrian only)"},"geometry":{"type":"MultiLineString","coordinates":[[[-1.1914414,51.7622369],[-1.1913995,51.7623785],[-1.1913683,51.7625028],[-1.1913529,51.7625735],[-1.1913494,51.7626022]]]}},
{"type":"Feature","properties":{"highway":"footway","name":null,"category":"Footpath (pedestrian only)"},"geometry":{"type":"MultiLineString","coordinates":[[[-1.1937425,51.7598588],[-1.1938008,51.7599237],[-1.1940059,51.7601517]]]}},
{"type":"Feature","properties":{"highway":"path","name":null,"category":"Shared path"},"geometry":{"type":"MultiLineString","coordinates":[[[-1.2118912,51.7685595],[-1.2118727,51.7685941],[-1.2117044,51.7688373],[-1.2115471,51.7692707],[-1.2113886,51.7697302],[-1.2112332,51.7702744],[-1.2112144,51.770521],[-1.2111616,51.770669],[-1.2111375,51.7707345]]]}},
{"type":"Feature","properties":{"highway":"path","name":null,"category":"Shared path"},"geometry":{"type":"MultiLineString","coordinates":[[[-1.2108631,51.7720392],[-1.2108216,51.7720179],[-1.2107304,51.7720093],[-1.2104782,51.7719778],[-1.2103857,51.7719521],[-1.2101376,51.7718384],[-1.2100142,51.7718168],[-1.2097675,51.7717537],[-1.2096253,51.7716923],[-1.2094027,51.7715728],[-1.209231,51.7714832]]]}},
{"type":"Feature","properties":{"highway":"footway","name":null,"category":"Footpath (pedestrian only)"},"geometry":{"type":"MultiLineString","coordinates":[[[-1.1960535,51.7631554],[-1.196037,51.7631705]]]}},
{"type":"Feature","properties":{"highway":"footway","name":null,"category":"Footpath (pedestrian only)"},"geometry":{"type":"MultiLineString","coordinates":[[[-1.203042,51.762106],[-1.2030203,51.7620511],[-1.2030007,51.7619992]]]}},
{"type":"Feature","properties":{"highway":"footway","name":null,"category":"Footpath (pedestrian only)"},"geometry":{"type":"MultiLineString","coordinates":[[[-1.1995974,51.7625657],[-1.1995797,51.7625182],[-1.199561,51.7624679]]]}},
{"type":"Feature","properties":{"highway":"footway","name":null,"category":"Footpath (pedestrian only)"},"geometry":{"type":"MultiLineString","coordinates":[[[-1.2007782,51.7666435],[-1.2007774,51.7666294],[-1.2007673,51.7666132],[-1.2007278,51.7665692],[-1.2006433,51.7664841],[-1.2006166,51.7664765],[-1.2005997,51.7664538],[-1.2005823,51.766426],[-1.2005816,51.7663978],[-1.2006004,51.7663409],[-1.2006413,51.7662936],[-1.2006827,51.7662202],[-1.2007117,51.7661708],[-1.2007479,51.7661236],[-1.2008082,51.766065],[-1.2008894,51.7659977],[-1.2009931,51.7658549]]]}},
{"type":"Feature","properties":{"highway":"footway","name":null,"category":"Footpath (pedestrian only)"},"geometry":{"type":"MultiLineString","coordinates":[[[-1.2018832,51.7666029],[-1.2017035,51.7665803],[-1.2015894,51.7665526],[-1.2015304,51.7665488],[-1.2014741,51.766557],[-1.2014412,51.7665812],[-1.2014057,51.7666364],[-1.2013809,51.7666886],[-1.2012609,51.7667197],[-1.2011871,51.7667294],[-1.2010905,51.7667708],[-1.2009792,51.7667969],[-1.2009363,51.7668003],[-1.2008411,51.7668202],[-1.2006178,51.7668637]]]}},
{"type":"Feature","properties":{"highway":"footway","name":null,"category":"Footpath (pedestrian only)"},"geometry":{"type":"MultiLineString","coordinates":[[[-1.2014741,51.766557],[-1.2013795,51.7665418],[-1.2012555,51.7665061],[-1.2011462,51.7664688],[-1.2009725,51.7664347],[-1.2008062,51.7664002],[-1.2007499,51.7664185],[-1.2006889,51.7664517],[-1.2006166,51.7664765]]]}},
{"type":"Feature","properties":{"highway":"footway","name":null,"category":"Footpath (pedestrian only)"},"geometry":{"type":"MultiLineString","coordinates":[[[-1.1970624,51.763532],[-1.1969847,51.76356]]]}},
{"type":"Feature","properties":{"highway":"footway","name":null,"category":"Footpath (pedestrian only)"},"geometry":{"type":"MultiLineString","coordinates":[[[-1.1974709,51.7633909],[-1.1970624,51.763532]]]}},
{"type":"Feature","properties":{"highway":"footway","name":null,"category":"Footpath (pedestrian only)"},"geometry":{"type":"MultiLineString","coordinates":[[[-1.1969847,51.76356],[-1.1969198,51.7635779]]]}},
{"type":"Feature","properties":{"highway":"footway","name":null,"category":"Footpath (pedestrian only)"},"geometry":{"type":"MultiLineString","coordinates":[[[-1.1946872,51.7641498],[-1.194609,51.7641608],[-1.1944458,51.7641827]]]}},
{"type":"Feature","properties":{"highway":"footway","name":null,"category":"Footpath (pedestrian only)"},"geometry":{"type":"MultiLineString","coordinates":[[[-1.194666,51.758958],[-1.1945705,51.7589596],[-1.1944908,51.758961]]]}},
{"type":"Feature","properties":{"highway":"footway","name":null,"category":"Footpath (pedestrian only)"},"geometry":{"type":"MultiLineString","coordinates":[[[-1.195099,51.7590419],[-1.1949859,51.7590723],[-1.1949521,51.7590168]]]}},
{"type":"Feature","properties":{"highway":"footway","name":null,"category":"Footpath (pedestrian only)"},"geometry":{"type":"MultiLineString","coordinates":[[[-1.1947882,51.7590404],[-1.1947293,51.7590317],[-1.1946959,51.7590208],[-1.194666,51.758958]]]}},
{"type":"Feature","properties":{"highway":"footway","name":null,"category":"Footpath (pedestrian only)"},"geometry":{"type":"MultiLineString","coordinates":[[[-1.1949521,51.7590168],[-1.1948725,51.7590298],[-1.1947882,51.7590404]]]}},
{"type":"Feature","properties":{"highway":"bridleway","name":null,"category":"Bridleway"},"geometry":{"type":"MultiLineString","coordinates":[[[-1.1904893,51.781831],[-1.1907912,51.7815213],[-1.1918128,51.7804458],[-1.1921382,51.7801422],[-1.1937653,51.7789549],[-1.194937,51.7780993],[-1.1950783,51.7779711],[-1.1952353,51.7775317],[-1.1953828,51.7771812],[-1.1956786,51.776688],[-1.1962395,51.7760417],[-1.196229,51.7759684],[-1.196278,51.775271],[-1.1963523,51.7749381],[-1.1963807,51.774893],[-1.1974398,51.7732132],[-1.1981931,51.7717924],[-1.1982861,51.7716566]]]}},
{"type":"Feature","properties":{"highway":"bridleway","name":null,"category":"Bridleway"},"geometry":{"type":"MultiLineString","coordinates":[[[-1.1982861,51.7716566],[-1.1985253,51.7718593],[-1.1993359,51.7725546],[-1.2003027,51.7729242],[-1.2003772,51.7729467],[-1.2004227,51.7729498]]]}},
{"type":"Feature","properties":{"highway":"path","name":null,"category":"Shared path"},"geometry":{"type":"MultiLineString","coordinates":[[[-1.209231,51.7714832],[-1.2088957,51.7714035],[-1.2086087,51.7713355],[-1.2076848,51.7710829],[-1.2072162,51.7709657],[-1.2067444,51.7708552],[-1.2060848,51.7707031],[-1.2058025,51.770618],[-1.2053653,51.7704811]]]}},
{"type":"Feature","properties":{"highway":"footway","name":null,"category":"Footpath (pedestrian only)"},"geometry":{"type":"MultiLineString","coordinates":[[[-1.201872,51.7650417],[-1.201714,51.7650571],[-1.2016802,51.7650604],[-1.2014017,51.7650879],[-1.2013674,51.765091],[-1.2011247,51.7651147]]]}},
{"type":"Feature","properties":{"highway":"footway","name":null,"category":"Footpath (pedestrian only)"},"geometry":{"type":"MultiLineString","coordinates":[[[-1.2027095,51.7651828],[-1.202649,51.7651072],[-1.2025503,51.7649876],[-1.2023875,51.7650032],[-1.202353,51.7650065],[-1.2022415,51.7650172],[-1.2021792,51.7650259]]]}},
{"type":"Feature","properties":{"highway":"footway","name":null,"category":"Footpath (pedestrian only)"},"geometry":{"type":"MultiLineString","coordinates":[[[-1.1944458,51.7641827],[-1.1943752,51.7641532],[-1.1943073,51.7641191]]]}},
{"type":"Feature","properties":{"highway":"footway","name":null,"category":"Footpath (pedestrian only)"},"geometry":{"type":"MultiLineString","coordinates":[[[-1.1957575,51.7637608],[-1.195677,51.7637669],[-1.1954938,51.7637888],[-1.1954707,51.7637327]]]}},
{"type":"Feature","properties":{"highway":"footway","name":null,"category":"Footpath (pedestrian only)"},"geometry":{"type":"MultiLineString","coordinates":[[[-1.1969198,51.7635779],[-1.1969688,51.7637192],[-1.1970015,51.7638767],[-1.1970082,51.7639563]]]}},
{"type":"Feature","properties":{"highway":"footway","name":null,"category":"Footpath (pedestrian only)"},"geometry":{"type":"MultiLineString","coordinates":[[[-1.1976026,51.7633389],[-1.1975044,51.7633627],[-1.1976484,51.7635267],[-1.1976339,51.7635321],[-1.1976159,51.7635387]]]}},
{"type":"Feature","properties":{"highway":"footway","name":null,"category":"Footpath (pedestrian only)"},"geometry":{"type":"MultiLineString","coordinates":[[[-1.2031539,51.7634786],[-1.2031013,51.7634862],[-1.202947,51.7635085],[-1.2022155,51.7636043],[-1.2021568,51.7635925]]]}},
{"type":"Feature","properties":{"highway":"footway","name":null,"category":"Footpath (pedestrian only)"},"geometry":{"type":"MultiLineString","coordinates":[[[-1.1962055,51.7637213],[-1.1961727,51.7637705],[-1.1960173,51.7637668],[-1.1957575,51.7637608]]]}},
{"type":"Feature","properties":{"highway":"footway","name":null,"category":"Footpath (pedestrian only)"},"geometry":{"type":"MultiLineString","coordinates":[[[-1.2018527,51.7666807],[-1.2019043,51.7667738],[-1.2019415,51.7668507],[-1.201947,51.7669668],[-1.2019467,51.7670151],[-1.2018993,51.7670959]]]}},
{"type":"Feature","properties":{"highway":"footway","name":null,"category":"Footpath (pedestrian only)"},"geometry":{"type":"MultiLineString","coordinates":[[[-1.1957575,51.7637608],[-1.1955941,51.7639922],[-1.1954853,51.7641464],[-1.1953217,51.7643777]]]}},
{"type":"Feature","properties":{"highway":"footway","name":null,"category":"Footpath (pedestrian only)"},"geometry":{"type":"MultiLineString","coordinates":[[[-1.196409,51.7634414],[-1.1967471,51.763601]]]}},
{"type":"Feature","properties":{"highway":"footway","name":null,"category":"Footpath (pedestrian only)"},"geometry":{"type":"MultiLineString","coordinates":[[[-1.1963491,51.7636483],[-1.1962251,51.7636806],[-1.1962055,51.7637213]]]}},
{"type":"Feature","properties":{"highway":"track","name":null,"category":"Track"},"geometry":{"type":"MultiLineString","coordinates":[[[-1.1914334,51.7683463],[-1.19127,51.7685235],[-1.191184,51.7686745],[-1.1911396,51.769062]]]}},
{"type":"Feature","properties":{"highway":"footway","name":null,"category":"Footpath (pedestrian only)"},"geometry":{"type":"MultiLineString","coordinates":[[[-1.1957143,51.7594686],[-1.1956687,51.7595192],[-1.1954059,51.7599932],[-1.1954263,51.7600317],[-1.1955588,51.7602829],[-1.1956271,51.7603933]]]}},
{"type":"Feature","properties":{"highway":"footway","name":null,"category":"Footpath (pedestrian only)"},"geometry":{"type":"MultiLineString","coordinates":[[[-1.1956943,51.7605352],[-1.1956271,51.7603933]]]}},
{"type":"Feature","properties":{"highway":"footway","name":null,"category":"Footpath (pedestrian only)"},"geometry":{"type":"MultiLineString","coordinates":[[[-1.1969552,51.762251],[-1.1968734,51.7622617],[-1.1967604,51.7622332],[-1.1967235,51.7622066],[-1.1966974,51.7621605],[-1.1965701,51.7619028],[-1.1964992,51.7617623],[-1.1963741,51.7615546],[-1.1960838,51.7611305],[-1.1958015,51.7607153],[-1.1957524,51.7606329],[-1.1956943,51.7605352]]]}},
{"type":"Feature","properties":{"highway":"footway","name":null,"category":"Footpath (pedestrian only)"},"geometry":{"type":"MultiLineString","coordinates":[[[-1.1967471,51.763601],[-1.1963491,51.7636483]]]}},
{"type":"Feature","properties":{"highway":"path","name":null,"category":"Shared path"},"geometry":{"type":"MultiLineString","coordinates":[[[-1.1944306,51.7648287],[-1.1946519,51.7647951],[-1.1950221,51.7648822],[-1.1956806,51.7649876]]]}},
{"type":"Feature","properties":{"highway":"footway","name":null,"category":"Footpath (pedestrian only)"},"geometry":{"type":"MultiLineString","coordinates":[[[-1.1929478,51.7678618],[-1.1929923,51.7677389],[-1.1930954,51.7674537]]]}},
{"type":"Feature","properties":{"highway":"footway","name":null,"category":"Footpath (pedestrian only)"},"geometry":{"type":"MultiLineString","coordinates":[[[-1.1933081,51.7679075],[-1.193345,51.7677879],[-1.1934341,51.7674987]]]}},
{"type":"Feature","properties":{"highway":"footway","name":null,"category":"Footpath (pedestrian only)"},"geometry":{"type":"MultiLineString","coordinates":[[[-1.2029638,51.7631239],[-1.2029101,51.7629894],[-1.2029922,51.7629739],[-1.2030261,51.7629675]]]}},
{"type":"Feature","properties":{"highway":"path","name":null,"category":"Shared path"},"geometry":{"type":"MultiLineString","coordinates":[[[-1.2071255,51.7700001],[-1.2069278,51.7699736],[-1.2068242,51.7699596],[-1.2067342,51.7702501],[-1.2070124,51.7702829]]]}},
{"type":"Feature","properties":{"highway":"path","name":null,"category":"Shared path"},"geometry":{"type":"MultiLineString","coordinates":[[[-1.2067809,51.7707566],[-1.2068506,51.7705902],[-1.2068854,51.7705604],[-1.2069082,51.7705346],[-1.2069398,51.7704624],[-1.2069702,51.7703823]]]}},
{"type":"Feature","properties":{"highway":"path","name":null,"category":"Shared path"},"geometry":{"type":"MultiLineString","coordinates":[[[-1.2071978,51.7697794],[-1.2073963,51.7698129],[-1.2074061,51.7698143],[-1.2073805,51.7698759],[-1.2073689,51.7699023]]]}},
{"type":"Feature","properties":{"highway":"footway","name":null,"category":"Footpath (pedestrian only)"},"geometry":{"type":"MultiLineString","coordinates":[[[-1.1985484,51.7617082],[-1.1992743,51.761363]]]}},
{"type":"Feature","properties":{"highway":"footway","name":null,"category":"Footpath (pedestrian only)"},"geometry":{"type":"MultiLineString","coordinates":[[[-1.1983096,51.7612289],[-1.1971654,51.7615684]]]}},
{"type":"Feature","properties":{"highway":"footway","name":null,"category":"Footpath (pedestrian only)"},"geometry":{"type":"MultiLineString","coordinates":[[[-1.1994035,51.7624839],[-1.199347,51.7622956]]]}},
{"type":"Feature","properties":{"highway":"footway","name":null,"category":"Footpath (pedestrian only)"},"geometry":{"type":"MultiLineString","coordinates":[[[-1.1998805,51.7623633],[-1.202073,51.7620836]]]}},
{"type":"Feature","properties":{"highway":"footway","name":null,"category":"Footpath (pedestrian only)"},"geometry":{"type":"MultiLineString","coordinates":[[[-1.1977385,51.7600284],[-1.1974739,51.759748],[-1.1973834,51.7596883],[-1.1972995,51.7596978],[-1.1971835,51.7597385],[-1.1971339,51.7597348],[-1.1970883,51.7596945],[-1.1970555,51.7596335],[-1.1970233,51.7596181],[-1.196969,51.7596264],[-1.1969247,51.7596273],[-1.1968677,51.7596281],[-1.1968221,51.7596065],[-1.1967298,51.7595436]]]}},
{"type":"Feature","properties":{"highway":"footway","name":null,"category":"Footpath (pedestrian only)"},"geometry":{"type":"MultiLineString","coordinates":[[[-1.1954035,51.7641238],[-1.1954137,51.7641101]]]}},
{"type":"Feature","properties":{"highway":"footway","name":null,"category":"Footpath (pedestrian only)"},"geometry":{"type":"MultiLineString","coordinates":[[[-1.1952318,51.7640764],[-1.1954035,51.7641238],[-1.1954853,51.7641464]]]}},
{"type":"Feature","properties":{"highway":"footway","name":null,"category":"Footpath (pedestrian only)"},"geometry":{"type":"MultiLineString","coordinates":[[[-1.1952455,51.7640566],[-1.1952318,51.7640764],[-1.1951,51.7642617]]]}},
{"type":"Feature","properties":{"highway":"footway","name":null,"category":"Footpath (pedestrian only)"},"geometry":{"type":"MultiLineString","coordinates":[[[-1.1955941,51.7639922],[-1.195338,51.7639251]]]}},
{"type":"Feature","properties":{"highway":"footway","name":null,"category":"Footpath (pedestrian only)"},"geometry":{"type":"MultiLineString","coordinates":[[[-1.1954938,51.7637888],[-1.1954297,51.7637978],[-1.195338,51.7639251],[-1.195328,51.763939]]]}},
{"type":"Feature","properties":{"highway":"footway","name":null,"category":"Footpath (pedestrian only)"},"geometry":{"type":"MultiLineString","coordinates":[[[-1.1929923,51.7677389],[-1.1931491,51.7677607],[-1.193345,51.7677879]]]}},
{"type":"Feature","properties":{"highway":"footway","name":null,"category":"Footpath (pedestrian only)"},"geometry":{"type":"MultiLineString","coordinates":[[[-1.19777,51.768107],[-1.197662,51.7680685],[-1.1975453,51.7680577],[-1.1974823,51.7682635],[-1.1974474,51.7682602]]]}},
{"type":"Feature","properties":{"highway":"footway","name":null,"category":"Footpath (pedestrian only)"},"geometry":{"type":"MultiLineString","coordinates":[[[-1.1979527,51.76811],[-1.1979074,51.7682917],[-1.1978457,51.7682888]]]}},
{"type":"Feature","properties":{"highway":"footway","name":null,"category":"Footpath (pedestrian only)"},"geometry":{"type":"MultiLineString","coordinates":[[[-1.2031888,51.7660805],[-1.2033674,51.7660736],[-1.2044306,51.7662019],[-1.2047652,51.7662476],[-1.2050327,51.766292],[-1.2053854,51.7663546],[-1.2058582,51.7664559],[-1.2063457,51.7665621],[-1.2067762,51.7666725]]]}},
{"type":"Feature","properties":{"highway":"footway","name":null,"category":"Footpath (pedestrian only)"},"geometry":{"type":"MultiLineString","coordinates":[[[-1.2053814,51.7680882],[-1.2049999,51.7680527],[-1.2045821,51.7680065]]]}},
{"type":"Feature","properties":{"highway":"footway","name":null,"category":"Footpath (pedestrian only)"},"geometry":{"type":"MultiLineString","coordinates":[[[-1.202671,51.7685905],[-1.2019304,51.7685944]]]}},
{"type":"Feature","properties":{"highway":"footway","name":null,"category":"Footpath (pedestrian only)"},"geometry":{"type":"MultiLineString","coordinates":[[[-1.2045814,51.7681457],[-1.2046437,51.7682411],[-1.2046612,51.7682893],[-1.2046471,51.7683337],[-1.204589,51.7683825],[-1.2045497,51.768442]]]}},
{"type":"Feature","properties":{"highway":"footway","name":null,"category":"Footpath (pedestrian only)"},"geometry":{"type":"MultiLineString","coordinates":[[[-1.2047484,51.7671672],[-1.2047155,51.7672253],[-1.2046391,51.7673742]]]}},
{"type":"Feature","properties":{"highway":"footway","name":null,"category":"Footpath (pedestrian only)"},"geometry":{"type":"MultiLineString","coordinates":[[[-1.2047484,51.7671672],[-1.204792,51.7670867],[-1.2048336,51.766953],[-1.204865,51.7668509],[-1.2048658,51.7668336],[-1.2048705,51.7667228],[-1.2048637,51.7666414],[-1.204845,51.7666127],[-1.2047987,51.7665824],[-1.204792,51.7665609],[-1.204788,51.76647],[-1.2047705,51.7663559],[-1.2047688,51.7663211],[-1.2047652,51.7662476]]]}},
{"type":"Feature","properties":{"highway":"footway","name":null,"category":"Footpath (pedestrian only)"},"geometry":{"type":"MultiLineString","coordinates":[[[-1.2067762,51.7666725],[-1.2067654,51.7666854],[-1.2067487,51.7667063],[-1.2067448,51.7667112]]]}},
{"type":"Feature","properties":{"highway":"footway","name":null,"category":"Footpath (pedestrian only)"},"geometry":{"type":"MultiLineString","coordinates":[[[-1.2067448,51.7667112],[-1.2067392,51.7667201],[-1.2067285,51.7667584],[-1.2070008,51.7669472]]]}},
{"type":"Feature","properties":{"highway":"footway","name":null,"category":"Footpath (pedestrian only)"},"geometry":{"type":"MultiLineString","coordinates":[[[-1.1995544,51.7658007],[-1.1996771,51.765837]]]}},
{"type":"Feature","properties":{"highway":"footway","name":null,"category":"Footpath (pedestrian only)"},"geometry":{"type":"MultiLineString","coordinates":[[[-1.198132,51.7671177],[-1.19812,51.767171]]]}},
{"type":"Feature","properties":{"highway":"footway","name":null,"category":"Footpath (pedestrian only)"},"geometry":{"type":"MultiLineString","coordinates":[[[-1.1981116,51.7672085],[-1.1981065,51.767231]]]}},
{"type":"Feature","properties":{"highway":"footway","name":null,"category":"Footpath (pedestrian only)"},"geometry":{"type":"MultiLineString","coordinates":[[[-1.1980985,51.7672666],[-1.1980673,51.7674052]]]}},
{"type":"Feature","properties":{"highway":"footway","name":null,"category":"Footpath (pedestrian only)"},"geometry":{"type":"MultiLineString","coordinates":[[[-1.2000924,51.7658147],[-1.2000301,51.7658513]]]}},
{"type":"Feature","properties":{"highway":"footway","name":null,"category":"Footpath (pedestrian only)"},"geometry":{"type":"MultiLineString","coordinates":[[[-1.2000375,51.7657663],[-1.1999623,51.7657444]]]}},
{"type":"Feature","properties":{"highway":"footway","name":null,"category":"Footpath (pedestrian only)"},"geometry":{"type":"MultiLineString","coordinates":[[[-1.2002402,51.7660076],[-1.2001093,51.7661822]]]}},
{"type":"Feature","properties":{"highway":"footway","name":null,"category":"Footpath (pedestrian only)"},"geometry":{"type":"MultiLineString","coordinates":[[[-1.2000901,51.7662048],[-1.1999144,51.7662438],[-1.1998587,51.7662281]]]}},
{"type":"Feature","properties":{"highway":"footway","name":null,"category":"Footpath (pedestrian only)"},"geometry":{"type":"MultiLineString","coordinates":[[[-1.20021,51.7659986],[-1.2002718,51.7659114]]]}},
{"type":"Feature","properties":{"highway":"footway","name":null,"category":"Footpath (pedestrian only)"},"geometry":{"type":"MultiLineString","coordinates":[[[-1.1825642,51.7629723],[-1.1826403,51.7629471],[-1.1830205,51.7628653],[-1.183514,51.7627678],[-1.1839358,51.7626956],[-1.1842637,51.7626433],[-1.1846385,51.7625885],[-1.1849754,51.7625526],[-1.1850201,51.7625478],[-1.1853057,51.7625179],[-1.1854587,51.7625014],[-1.1855887,51.7624943],[-1.1860071,51.762469],[-1.1862577,51.762449],[-1.1864517,51.7624283],[-1.1866683,51.7624208],[-1.1872597,51.7624005],[-1.187434,51.7623987],[-1.1876916,51.7623968],[-1.1881073,51.7624001],[-1.188402,51.7624032],[-1.18868,51.7624061],[-1.1888702,51.7624102],[-1.189211,51.7624262],[-1.1894813,51.7624403],[-1.1897294,51.762454],[-1.1900036,51.7624752],[-1.1902122,51.762491],[-1.1903993,51.7625125],[-1.1906085,51.7625399],[-1.190819,51.7625707],[-1.1909156,51.7625851],[-1.1910772,51.7625947],[-1.1912616,51.7625997],[-1.1913494,51.7626022],[-1.1915841,51.7626234],[-1.1918537,51.7626549],[-1.192193,51.7626981],[-1.1924223,51.7627304],[-1.1928924,51.7628026],[-1.193001,51.7628176],[-1.1932203,51.7628483],[-1.1934972,51.7628852],[-1.1937634,51.7629135],[-1.194088,51.7629483],[-1.1943052,51.762967],[-1.1946955,51.7629956],[-1.1950878,51.7630193],[-1.1953674,51.7630255],[-1.1955947,51.7630359],[-1.1956269,51.7630233]]]}},
{"type":"Feature","properties":{"highway":"footway","name":null,"category":"Footpath (pedestrian only)"},"geometry":{"type":"MultiLineString","coordinates":[[[-1.2004301,51.769445],[-1.2004505,51.7694243]]]}},
{"type":"Feature","properties":{"highway":"footway","name":null,"category":"Footpath (pedestrian only)"},"geometry":{"type":"MultiLineString","coordinates":[[[-1.2008552,51.769681],[-1.200713,51.769625],[-1.2007217,51.7696155],[-1.2006949,51.7696043],[-1.2007338,51.7695632],[-1.2005149,51.769478]]]}},
{"type":"Feature","properties":{"highway":"footway","name":null,"category":"Footpath (pedestrian only)"},"geometry":{"type":"MultiLineString","coordinates":[[[-1.2012456,51.7698329],[-1.2011415,51.7698184],[-1.2010523,51.7697877],[-1.2010134,51.7697723]]]}},
{"type":"Feature","properties":{"highway":"footway","name":null,"category":"Footpath (pedestrian only)"},"geometry":{"type":"MultiLineString","coordinates":[[[-1.201629,51.7699636],[-1.2015546,51.7699391],[-1.2014117,51.7699026],[-1.2012709,51.7698636],[-1.2012394,51.7698466]]]}},
{"type":"Feature","properties":{"highway":"footway","name":"High Cross Way","category":"Footpath (pedestrian only)"},"geometry":{"type":"MultiLineString","coordinates":[[[-1.2000451,51.7678818],[-1.1998929,51.7678336],[-1.1997863,51.7678232]]]}},
{"type":"Feature","properties":{"highway":"footway","name":null,"category":"Footpath (pedestrian only)"},"geometry":{"type":"MultiLineString","coordinates":[[[-1.1991727,51.7673835],[-1.1991821,51.7673373]]]}},
{"type":"Feature","properties":{"highway":"footway","name":null,"category":"Footpath (pedestrian only)"},"geometry":{"type":"MultiLineString","coordinates":[[[-1.19912,51.7673782],[-1.1991003,51.7674648]]]}},
{"type":"Feature","properties":{"highway":"footway","name":null,"category":"Footpath (pedestrian only)"},"geometry":{"type":"MultiLineString","coordinates":[[[-1.1993113,51.7673975],[-1.1991727,51.7673835],[-1.19912,51.7673782],[-1.1989153,51.7673576],[-1.1988916,51.7674434]]]}},
{"type":"Feature","properties":{"highway":"footway","name":null,"category":"Footpath (pedestrian only)"},"geometry":{"type":"MultiLineString","coordinates":[[[-1.1993699,51.7673662],[-1.1993766,51.7673406]]]}},
{"type":"Feature","properties":{"highway":"footway","name":null,"category":"Footpath (pedestrian only)"},"geometry":{"type":"MultiLineString","coordinates":[[[-1.1994365,51.767386],[-1.1994075,51.7673709],[-1.1993699,51.7673662],[-1.1993216,51.7673601],[-1.1993113,51.7673975],[-1.1992874,51.767484]]]}},
{"type":"Feature","properties":{"highway":"footway","name":null,"category":"Footpath (pedestrian only)"},"geometry":{"type":"MultiLineString","coordinates":[[[-1.1930822,51.7672829],[-1.1930788,51.7672918],[-1.1930309,51.7672848],[-1.1929832,51.7672779],[-1.1929865,51.7672692]]]}},
{"type":"Feature","properties":{"highway":"footway","name":null,"category":"Footpath (pedestrian only)"},"geometry":{"type":"MultiLineString","coordinates":[[[-1.1933211,51.767323],[-1.1933175,51.767333],[-1.1932712,51.7673266],[-1.1932203,51.7673195],[-1.1932241,51.7673089]]]}},
{"type":"Feature","properties":{"highway":"footway","name":null,"category":"Footpath (pedestrian only)"},"geometry":{"type":"MultiLineString","coordinates":[[[-1.1934623,51.7673504],[-1.1934582,51.7673631]]]}},
{"type":"Feature","properties":{"highway":"footway","name":null,"category":"Footpath (pedestrian only)"},"geometry":{"type":"MultiLineString","coordinates":[[[-1.1935602,51.7673655],[-1.1935562,51.7673755]]]}},
{"type":"Feature","properties":{"highway":"footway","name":null,"category":"Footpath (pedestrian only)"},"geometry":{"type":"MultiLineString","coordinates":[[[-1.1943884,51.7674809],[-1.1943864,51.76749],[-1.1943413,51.7674863],[-1.1942952,51.7674809],[-1.1942972,51.7674709]]]}},
{"type":"Feature","properties":{"highway":"footway","name":null,"category":"Footpath (pedestrian only)"},"geometry":{"type":"MultiLineString","coordinates":[[[-1.1943428,51.7674801],[-1.1943413,51.7674863],[-1.1943367,51.767505],[-1.1943177,51.7675864]]]}},
{"type":"Feature","properties":{"highway":"footway","name":null,"category":"Footpath (pedestrian only)"},"geometry":{"type":"MultiLineString","coordinates":[[[-1.1944822,51.7675191],[-1.1945017,51.7674398]]]}},
{"type":"Feature","properties":{"highway":"footway","name":null,"category":"Footpath (pedestrian only)"},"geometry":{"type":"MultiLineString","coordinates":[[[-1.1940758,51.7675713],[-1.1940947,51.7674593],[-1.1941497,51.7674626],[-1.1941993,51.7674917],[-1.1943367,51.767505],[-1.1944822,51.7675191],[-1.1944668,51.7675935]]]}},
{"type":"Feature","properties":{"highway":"footway","name":null,"category":"Footpath (pedestrian only)"},"geometry":{"type":"MultiLineString","coordinates":[[[-1.193506,51.7673691],[-1.1934673,51.7675028]]]}},
{"type":"Feature","properties":{"highway":"footway","name":null,"category":"Footpath (pedestrian only)"},"geometry":{"type":"MultiLineString","coordinates":[[[-1.1930309,51.7672848],[-1.1930198,51.7673178],[-1.1929799,51.7674369]]]}},
{"type":"Feature","properties":{"highway":"footway","name":null,"category":"Footpath (pedestrian only)"},"geometry":{"type":"MultiLineString","coordinates":[[[-1.1932712,51.7673266],[-1.1932625,51.767352],[-1.1932217,51.7674705]]]}},
{"type":"Feature","properties":{"highway":"footway","name":null,"category":"Footpath (pedestrian only)"},"geometry":{"type":"MultiLineString","coordinates":[[[-1.1927527,51.7672802],[-1.1930198,51.7673178],[-1.1932625,51.767352],[-1.1933611,51.7673659],[-1.1934416,51.767361],[-1.1934582,51.7673631],[-1.193506,51.7673691],[-1.1935562,51.7673755],[-1.1937722,51.7674029]]]}},
{"type":"Feature","properties":{"highway":"footway","name":null,"category":"Footpath (pedestrian only)"},"geometry":{"type":"MultiLineString","coordinates":[[[-1.1942512,51.7591384],[-1.194094,51.7591342],[-1.1939317,51.759091],[-1.1938097,51.7590512],[-1.1935743,51.7589785],[-1.1935359,51.7590141]]]}},
{"type":"Feature","properties":{"highway":"footway","name":null,"category":"Footpath (pedestrian only)"},"geometry":{"type":"MultiLineString","coordinates":[[[-1.1950015,51.763833],[-1.1949573,51.7637716],[-1.1949282,51.7637284],[-1.1948946,51.7636746]]]}},
{"type":"Feature","properties":{"highway":"footway","name":null,"category":"Footpath (pedestrian only)"},"geometry":{"type":"MultiLineString","coordinates":[[[-1.2052077,51.7669219],[-1.2052272,51.7668219],[-1.205311,51.7667352],[-1.2053472,51.7666999],[-1.2053962,51.7666829]]]}},
{"type":"Feature","properties":{"highway":"footway","name":null,"category":"Footpath (pedestrian only)"},"geometry":{"type":"MultiLineString","coordinates":[[[-1.2048658,51.7668336],[-1.2050512,51.7668559],[-1.2052077,51.7669219],[-1.2052654,51.766958],[-1.2052929,51.7669626],[-1.2053418,51.7669194],[-1.2054136,51.7668418],[-1.205492,51.7667684],[-1.2055611,51.7667476],[-1.2056074,51.7667111],[-1.2055954,51.7666946],[-1.2055886,51.7666854],[-1.205541,51.7666742],[-1.2054733,51.7666796],[-1.2054337,51.7666845],[-1.2053962,51.7666829],[-1.2053693,51.7666588],[-1.2053298,51.7666422],[-1.2051923,51.7666298],[-1.2051092,51.7665684],[-1.2050139,51.7664816],[-1.2049254,51.7664244],[-1.2047688,51.7663211]]]}},
{"type":"Feature","properties":{"highway":"path","name":null,"category":"Shared path"},"geometry":{"type":"MultiLineString","coordinates":[[[-1.2067487,51.7667063],[-1.2069646,51.7667671],[-1.2072502,51.76684],[-1.2076338,51.7669618],[-1.2078883,51.767035],[-1.2083898,51.7672136],[-1.2086678,51.7672964]]]}},
{"type":"Feature","properties":{"highway":"footway","name":"Colemans Hill","category":"Footpath (pedestrian only)"},"geometry":{"type":"MultiLineString","coordinates":[[[-1.197553,51.7624239],[-1.1976444,51.7625125],[-1.1976965,51.7625071],[-1.197727,51.762504],[-1.1977846,51.762498]]]}},
{"type":"Feature","properties":{"highway":"footway","name":"Colemans Hill","category":"Footpath (pedestrian only)"},"geometry":{"type":"MultiLineString","coordinates":[[[-1.1977913,51.7625651],[-1.1977715,51.7625674],[-1.1977667,51.762549],[-1.1977533,51.7625502],[-1.1977667,51.7625971],[-1.1977504,51.7625983],[-1.1977334,51.7625299]]]}},
{"type":"Feature","properties":{"highway":"footway","name":"Colemans Hill","category":"Footpath (pedestrian only)"},"geometry":{"type":"MultiLineString","coordinates":[[[-1.197553,51.7624239],[-1.1973296,51.7624984],[-1.197248,51.7624995]]]}},
{"type":"Feature","properties":{"highway":"footway","name":"Colemans Hill","category":"Footpath (pedestrian only)"},"geometry":{"type":"MultiLineString","coordinates":[[[-1.1977334,51.7625299],[-1.197727,51.762504]]]}},
{"type":"Feature","properties":{"highway":"footway","name":null,"category":"Footpath (pedestrian only)"},"geometry":{"type":"MultiLineString","coordinates":[[[-1.2032262,51.7634682],[-1.2031798,51.7634749]]]}},
{"type":"Feature","properties":{"highway":"footway","name":null,"category":"Footpath (pedestrian only)"},"geometry":{"type":"MultiLineString","coordinates":[[[-1.2069278,51.7699736],[-1.2069322,51.7699617],[-1.2069396,51.769937],[-1.2069416,51.7698933],[-1.2069896,51.7698268],[-1.2070163,51.7697965],[-1.2070493,51.7697628],[-1.2070755,51.769735],[-1.2071047,51.7696973],[-1.207132,51.7696609]]]}},
{"type":"Feature","properties":{"highway":"footway","name":null,"category":"Footpath (pedestrian only)"},"geometry":{"type":"MultiLineString","coordinates":[[[-1.1902886,51.763547],[-1.1909156,51.7625851]]]}},
{"type":"Feature","properties":{"highway":"footway","name":null,"category":"Footpath (pedestrian only)"},"geometry":{"type":"MultiLineString","coordinates":[[[-1.2013101,51.7699935],[-1.2013239,51.7699661],[-1.2012374,51.7698989],[-1.2012286,51.7698695],[-1.2012394,51.7698466]]]}},
{"type":"Feature","properties":{"highway":"path","name":null,"category":"Shared path"},"geometry":{"type":"MultiLineString","coordinates":[[[-1.1999412,51.7694914],[-1.1999629,51.7694698]]]}},
{"type":"Feature","properties":{"highway":"footway","name":null,"category":"Footpath (pedestrian only)"},"geometry":{"type":"MultiLineString","coordinates":[[[-1.2012394,51.7698466],[-1.2012456,51.7698329],[-1.2012501,51.7698229],[-1.2014044,51.7696769],[-1.2015007,51.7695843]]]}},
{"type":"Feature","properties":{"highway":"footway","name":null,"category":"Footpath (pedestrian only)"},"geometry":{"type":"MultiLineString","coordinates":[[[-1.1966638,51.7681127],[-1.1966448,51.7681502],[-1.1967952,51.7681779],[-1.1968407,51.7681863],[-1.1968476,51.7682038],[-1.1968634,51.7682411],[-1.1968808,51.7682685],[-1.1969125,51.7682915],[-1.1969485,51.7683104],[-1.1969948,51.7683312],[-1.1970625,51.7683548],[-1.1971135,51.7683702],[-1.1971412,51.7683818]]]}},
{"type":"Feature","properties":{"highway":"footway","name":null,"category":"Footpath (pedestrian only)"},"geometry":{"type":"MultiLineString","coordinates":[[[-1.195437,51.7682388],[-1.1954646,51.7682241],[-1.1955142,51.7682071],[-1.1956108,51.7681747],[-1.1957241,51.7681357],[-1.1957677,51.7681183],[-1.1958361,51.7680814],[-1.1958823,51.768042],[-1.1959088,51.7680394]]]}},
{"type":"Feature","properties":{"highway":"footway","name":null,"category":"Footpath (pedestrian only)"},"geometry":{"type":"MultiLineString","coordinates":[[[-1.1950111,51.7661698],[-1.1950438,51.7661088],[-1.1952979,51.7656626],[-1.1953434,51.7655912]]]}},
{"type":"Feature","properties":{"highway":"footway","name":null,"category":"Footpath (pedestrian only)"},"geometry":{"type":"MultiLineString","coordinates":[[[-1.200634,51.7684521],[-1.2007545,51.7685299],[-1.2007685,51.7685495],[-1.2007676,51.768568],[-1.2007589,51.7685778]]]}},
{"type":"Feature","properties":{"highway":"footway","name":null,"category":"Footpath (pedestrian only)"},"geometry":{"type":"MultiLineString","coordinates":[[[-1.200827,51.7686183],[-1.200789,51.7685963],[-1.2007589,51.7685778]]]}},
{"type":"Feature","properties":{"highway":"footway","name":null,"category":"Footpath (pedestrian only)"},"geometry":{"type":"MultiLineString","coordinates":[[[-1.2009899,51.7685417],[-1.2010034,51.7685299],[-1.2012119,51.768376]]]}},
{"type":"Feature","properties":{"highway":"footway","name":null,"category":"Footpath (pedestrian only)"},"geometry":{"type":"MultiLineString","coordinates":[[[-1.2008907,51.7684986],[-1.2008103,51.7684553]]]}},
{"type":"Feature","properties":{"highway":"footway","name":null,"category":"Footpath (pedestrian only)"},"geometry":{"type":"MultiLineString","coordinates":[[[-1.2009899,51.7685417],[-1.2009453,51.7685182],[-1.2008907,51.7684986]]]}},
{"type":"Feature","properties":{"highway":"footway","name":null,"category":"Footpath (pedestrian only)"},"geometry":{"type":"MultiLineString","coordinates":[[[-1.200827,51.7686183],[-1.2008057,51.7686236],[-1.2006188,51.7687442]]]}},
{"type":"Feature","properties":{"highway":"footway","name":null,"category":"Footpath (pedestrian only)"},"geometry":{"type":"MultiLineString","coordinates":[[[-1.2006188,51.7687442],[-1.2005554,51.7687858],[-1.2004763,51.7688398],[-1.2000612,51.7693022],[-1.1999855,51.7694081]]]}},
{"type":"Feature","properties":{"highway":"footway","name":null,"category":"Footpath (pedestrian only)"},"geometry":{"type":"MultiLineString","coordinates":[[[-1.2010723,51.7686249],[-1.2009955,51.7685788],[-1.2009887,51.7685669],[-1.2009865,51.7685529],[-1.2009899,51.7685417]]]}},
{"type":"Feature","properties":{"highway":"footway","name":null,"category":"Footpath (pedestrian only)"},"geometry":{"type":"MultiLineString","coordinates":[[[-1.2047002,51.7671602],[-1.2047484,51.7671672]]]}},
{"type":"Feature","properties":{"highway":"footway","name":null,"category":"Footpath (pedestrian only)"},"geometry":{"type":"MultiLineString","coordinates":[[[-1.2046391,51.7673742],[-1.2045685,51.7673571]]]}},
{"type":"Feature","properties":{"highway":"footway","name":null,"category":"Footpath (pedestrian only)"},"geometry":{"type":"MultiLineString","coordinates":[[[-1.2045814,51.7681457],[-1.2044149,51.7681631]]]}},
{"type":"Feature","properties":{"highway":"footway","name":null,"category":"Footpath (pedestrian only)"},"geometry":{"type":"MultiLineString","coordinates":[[[-1.2017035,51.7679977],[-1.2016143,51.7680472],[-1.2013111,51.768282]]]}},
{"type":"Feature","properties":{"highway":"path","name":null,"category":"Shared path"},"geometry":{"type":"MultiLineString","coordinates":[[[-1.2092719,51.7713886],[-1.2092176,51.7713886],[-1.2089896,51.7713554],[-1.2089413,51.7713587],[-1.2089145,51.771377],[-1.2088957,51.7714035]]]}},
{"type":"Feature","properties":{"highway":"path","name":null,"category":"Shared path"},"geometry":{"type":"MultiLineString","coordinates":[[[-1.2067444,51.7708552],[-1.2067511,51.7708411]]]}},
{"type":"Feature","properties":{"highway":"path","name":null,"category":"Shared path"},"geometry":{"type":"MultiLineString","coordinates":[[[-1.2053653,51.7704811],[-1.204914,51.7703259],[-1.2047423,51.7702583],[-1.2046773,51.7702147],[-1.2046189,51.7701978],[-1.2045291,51.7701785]]]}},
{"type":"Feature","properties":{"highway":"footway","name":null,"category":"Footpath (pedestrian only)"},"geometry":{"type":"MultiLineString","coordinates":[[[-1.2003304,51.7694061],[-1.200253,51.769376]]]}},
{"type":"Feature","properties":{"highway":"footway","name":null,"category":"Footpath (pedestrian only)"},"geometry":{"type":"MultiLineString","coordinates":[[[-1.2005149,51.769478],[-1.2004301,51.769445],[-1.2003304,51.7694061]]]}},
{"type":"Feature","properties":{"highway":"footway","name":null,"category":"Footpath (pedestrian only)"},"geometry":{"type":"MultiLineString","coordinates":[[[-1.203357,51.7660994],[-1.2033278,51.7661713],[-1.2033028,51.766233]]]}},
{"type":"Feature","properties":{"highway":"path","name":null,"category":"Shared path"},"geometry":{"type":"MultiLineString","coordinates":[[[-1.203357,51.7660994],[-1.2033674,51.7660736]]]}},
{"type":"Feature","properties":{"highway":"path","name":null,"category":"Shared path"},"geometry":{"type":"MultiLineString","coordinates":[[[-1.2033278,51.7661713],[-1.2032355,51.7660857]]]}},
{"type":"Feature","properties":{"highway":"footway","name":null,"category":"Footpath (pedestrian only)"},"geometry":{"type":"MultiLineString","coordinates":[[[-1.2031315,51.7660737],[-1.2031888,51.7660805],[-1.2032355,51.7660857],[-1.203357,51.7660994]]]}},
{"type":"Feature","properties":{"highway":"track","name":null,"category":"Track"},"geometry":{"type":"MultiLineString","coordinates":[[[-1.2068626,51.7687686],[-1.2068877,51.7686823],[-1.2069986,51.7678343]]]}},
{"type":"Feature","properties":{"highway":"path","name":null,"category":"Shared path"},"geometry":{"type":"MultiLineString","coordinates":[[[-1.2057242,51.7686848],[-1.2057313,51.768645]]]}},
{"type":"Feature","properties":{"highway":"footway","name":null,"category":"Footpath (pedestrian only)"},"geometry":{"type":"MultiLineString","coordinates":[[[-1.1970856,51.7623215],[-1.1969895,51.7622699],[-1.1969552,51.762251]]]}},
{"type":"Feature","properties":{"highway":"footway","name":null,"category":"Footpath (pedestrian only)"},"geometry":{"type":"MultiLineString","coordinates":[[[-1.1972047,51.7625537],[-1.1972305,51.762539],[-1.1972486,51.7625125],[-1.197248,51.7624995],[-1.1972466,51.7624701],[-1.1972425,51.7624431],[-1.1972291,51.7624224],[-1.1971936,51.7623854],[-1.197156,51.7623559],[-1.1971191,51.7623386],[-1.1970856,51.7623215]]]}},
{"type":"Feature","properties":{"highway":"footway","name":null,"category":"Footpath (pedestrian only)"},"geometry":{"type":"MultiLineString","coordinates":[[[-1.1975037,51.7629621],[-1.1974676,51.7629554]]]}},
{"type":"Feature","properties":{"highway":"footway","name":null,"category":"Footpath (pedestrian only)"},"geometry":{"type":"MultiLineString","coordinates":[[[-1.1976026,51.7633389],[-1.1976184,51.7633223]]]}},
{"type":"Feature","properties":{"highway":"footway","name":null,"category":"Footpath (pedestrian only)"},"geometry":{"type":"MultiLineString","coordinates":[[[-1.2001841,51.7649857],[-1.200076,51.764944],[-1.1997564,51.7648102],[-1.1993562,51.7646282],[-1.1990907,51.764488],[-1.1988005,51.7643201],[-1.1986213,51.7642027],[-1.1983539,51.7640143],[-1.197902,51.763634],[-1.1976621,51.7633708],[-1.1976291,51.7633347],[-1.1976184,51.7633223],[-1.1975131,51.7632019],[-1.1974528,51.763111],[-1.1974461,51.7630745],[-1.1974521,51.7630372],[-1.1974655,51.7630106],[-1.1975037,51.7629621]]]}},
{"type":"Feature","properties":{"highway":"footway","name":null,"category":"Footpath (pedestrian only)"},"geometry":{"type":"MultiLineString","coordinates":[[[-1.1989367,51.762777],[-1.1988368,51.7627624],[-1.1978028,51.7628957],[-1.1976821,51.76291],[-1.1975959,51.7629247],[-1.1975037,51.7629621]]]}},
{"type":"Feature","properties":{"highway":"footway","name":null,"category":"Footpath (pedestrian only)"},"geometry":{"type":"MultiLineString","coordinates":[[[-1.1991028,51.7626412],[-1.1993501,51.762611]]]}},
{"type":"Feature","properties":{"highway":"footway","name":null,"category":"Footpath (pedestrian only)"},"geometry":{"type":"MultiLineString","coordinates":[[[-1.1993828,51.7626936],[-1.1993672,51.7626606]]]}},
{"type":"Feature","properties":{"highway":"footway","name":null,"category":"Footpath (pedestrian only)"},"geometry":{"type":"MultiLineString","coordinates":[[[-1.1991028,51.7626412],[-1.199091,51.7626632],[-1.199065,51.7626678],[-1.1990661,51.7626767]]]}},
{"type":"Feature","properties":{"highway":"footway","name":null,"category":"Footpath (pedestrian only)"},"geometry":{"type":"MultiLineString","coordinates":[[[-1.1993828,51.7626936],[-1.1990731,51.7627319],[-1.1990347,51.762745],[-1.1989367,51.762777]]]}},
{"type":"Feature","properties":{"highway":"footway","name":null,"category":"Footpath (pedestrian only)"},"geometry":{"type":"MultiLineString","coordinates":[[[-1.1990661,51.7626767],[-1.1990692,51.7627007],[-1.1990719,51.7627224]]]}},
{"type":"Feature","properties":{"highway":"footway","name":null,"category":"Footpath (pedestrian only)"},"geometry":{"type":"MultiLineString","coordinates":[[[-1.1990719,51.7627224],[-1.1990731,51.7627319]]]}},
{"type":"Feature","properties":{"highway":"footway","name":null,"category":"Footpath (pedestrian only)"},"geometry":{"type":"MultiLineString","coordinates":[[[-1.2055956,51.7658665],[-1.2055761,51.7658355]]]}},
{"type":"Feature","properties":{"highway":"footway","name":null,"category":"Footpath (pedestrian only)"},"geometry":{"type":"MultiLineString","coordinates":[[[-1.2062997,51.7655896],[-1.2057962,51.7657674],[-1.2056283,51.765819],[-1.2055761,51.7658355]]]}},
{"type":"Feature","properties":{"highway":"footway","name":null,"category":"Footpath (pedestrian only)"},"geometry":{"type":"MultiLineString","coordinates":[[[-1.202659,51.762182],[-1.202926,51.762797],[-1.2029922,51.7629739],[-1.2031004,51.7632629],[-1.2031788,51.7634723],[-1.2031798,51.7634749],[-1.2032837,51.7637524],[-1.2033863,51.7640009],[-1.2033965,51.7640394],[-1.2034131,51.7641024],[-1.2034918,51.7644005],[-1.2034396,51.7644346]]]}},
{"type":"Feature","properties":{"highway":"footway","name":null,"category":"Footpath (pedestrian only)"},"geometry":{"type":"MultiLineString","coordinates":[[[-1.2033244,51.7632716],[-1.2032594,51.7632825],[-1.2032305,51.7633094],[-1.2034221,51.7637951],[-1.2034889,51.7639724],[-1.2035626,51.7641985],[-1.2035701,51.7642214],[-1.2035809,51.7642576],[-1.203561,51.7642758],[-1.2036051,51.7644621],[-1.2036582,51.7646811],[-1.2037018,51.7649167],[-1.2037706,51.7649496],[-1.2038398,51.7649613]]]}},
{"type":"Feature","properties":{"highway":"footway","name":null,"category":"Footpath (pedestrian only)"},"geometry":{"type":"MultiLineString","coordinates":[[[-1.2028119,51.762158],[-1.2028057,51.7621905],[-1.2028171,51.7622738],[-1.2028979,51.7624758],[-1.2030731,51.7628971],[-1.2031864,51.7631859],[-1.2032163,51.7632026],[-1.2032689,51.7632059],[-1.2032964,51.7632012]]]}},
{"type":"Feature","properties":{"highway":"footway","name":null,"category":"Footpath (pedestrian only)"},"geometry":{"type":"MultiLineString","coordinates":[[[-1.2038455,51.7650226],[-1.2037905,51.7650414],[-1.2037564,51.7650649],[-1.2037364,51.7651576],[-1.2037516,51.7652769],[-1.2037374,51.7653888],[-1.2037342,51.7654043],[-1.2037146,51.765498],[-1.2037045,51.7655211],[-1.2036346,51.7656813],[-1.203656,51.7657181],[-1.2036953,51.7657352],[-1.2043784,51.7658167],[-1.204906,51.7658812],[-1.2050676,51.7658999],[-1.2052419,51.7658986],[-1.2054282,51.765876],[-1.2055761,51.7658355]]]}},
{"type":"Feature","properties":{"highway":"footway","name":null,"category":"Footpath (pedestrian only)"},"geometry":{"type":"MultiLineString","coordinates":[[[-1.2034444,51.76451],[-1.2034932,51.7645202],[-1.2035387,51.7645546],[-1.203571,51.7646877],[-1.2036037,51.7648659],[-1.2035766,51.7650246],[-1.2034425,51.7651735],[-1.2031627,51.7652996],[-1.2030897,51.7653002]]]}},
{"type":"Feature","properties":{"highway":"footway","name":null,"category":"Footpath (pedestrian only)"},"geometry":{"type":"MultiLineString","coordinates":[[[-1.201872,51.7650417],[-1.2018891,51.7651093],[-1.2019555,51.76514],[-1.2020179,51.7651454],[-1.2020652,51.765152],[-1.2020977,51.7651603],[-1.2021302,51.7651854],[-1.2021486,51.7652575],[-1.2021621,51.7652697],[-1.2021999,51.7652772],[-1.2023339,51.7652663],[-1.2026281,51.7652365],[-1.2027059,51.7652278],[-1.2027411,51.7652269],[-1.2027659,51.7652328],[-1.2028145,51.7652554],[-1.202959,51.7653247],[-1.2030053,51.7653572],[-1.203011,51.7653906],[-1.2028849,51.7655089]]]}},
{"type":"Feature","properties":{"highway":"footway","name":null,"category":"Footpath (pedestrian only)"},"geometry":{"type":"MultiLineString","coordinates":[[[-1.2001886,51.7650124],[-1.2001841,51.7649857]]]}},
{"type":"Feature","properties":{"highway":"footway","name":null,"category":"Footpath (pedestrian only)"},"geometry":{"type":"MultiLineString","coordinates":[[[-1.2024488,51.7652076],[-1.202649,51.7651072],[-1.2028064,51.7650926],[-1.2029372,51.7650805],[-1.2030588,51.7650692],[-1.2033359,51.7650418],[-1.2034001,51.7650334]]]}},
{"type":"Feature","properties":{"highway":"footway","name":null,"category":"Footpath (pedestrian only)"},"geometry":{"type":"MultiLineString","coordinates":[[[-1.2032733,51.7649498],[-1.2032721,51.7649451],[-1.203154,51.7649567],[-1.203083,51.7649637],[-1.2030842,51.7649684]]]}},
{"type":"Feature","properties":{"highway":"footway","name":null,"category":"Footpath (pedestrian only)"},"geometry":{"type":"MultiLineString","coordinates":[[[-1.2031518,51.7649483],[-1.203154,51.7649567],[-1.2031552,51.7649614]]]}},
{"type":"Feature","properties":{"highway":"footway","name":null,"category":"Footpath (pedestrian only)"},"geometry":{"type":"MultiLineString","coordinates":[[[-1.2030588,51.7650692],[-1.2030307,51.7649602],[-1.2031518,51.7649483],[-1.2033043,51.7649332],[-1.2033359,51.7650418]]]}},
{"type":"Feature","properties":{"highway":"footway","name":null,"category":"Footpath (pedestrian only)"},"geometry":{"type":"MultiLineString","coordinates":[[[-1.2030486,51.7650954],[-1.2030469,51.7650884],[-1.2029415,51.7650981],[-1.2029126,51.7651008],[-1.2029143,51.7651078]]]}},
{"type":"Feature","properties":{"highway":"footway","name":null,"category":"Footpath (pedestrian only)"},"geometry":{"type":"MultiLineString","coordinates":[[[-1.2029372,51.7650805],[-1.2029415,51.7650981],[-1.2029432,51.7651052]]]}},
{"type":"Feature","properties":{"highway":"footway","name":null,"category":"Footpath (pedestrian only)"},"geometry":{"type":"MultiLineString","coordinates":[[[-1.2027617,51.7649835],[-1.2027799,51.7650587],[-1.2027707,51.7650596]]]}},
{"type":"Feature","properties":{"highway":"footway","name":null,"category":"Footpath (pedestrian only)"},"geometry":{"type":"MultiLineString","coordinates":[[[-1.2028064,51.7650926],[-1.2027796,51.7649818],[-1.2027617,51.7649835],[-1.2027525,51.7649843]]]}},
{"type":"Feature","properties":{"highway":"footway","name":null,"category":"Footpath (pedestrian only)"},"geometry":{"type":"MultiLineString","coordinates":[[[-1.2023643,51.7650483],[-1.202353,51.7650065]]]}},
{"type":"Feature","properties":{"highway":"footway","name":null,"category":"Footpath (pedestrian only)"},"geometry":{"type":"MultiLineString","coordinates":[[[-1.202399,51.7650458],[-1.2023875,51.7650032]]]}},
{"type":"Feature","properties":{"highway":"footway","name":null,"category":"Footpath (pedestrian only)"},"geometry":{"type":"MultiLineString","coordinates":[[[-1.2022334,51.7649834],[-1.2022415,51.7650172],[-1.2022517,51.76506]]]}},
{"type":"Feature","properties":{"highway":"footway","name":null,"category":"Footpath (pedestrian only)"},"geometry":{"type":"MultiLineString","coordinates":[[[-1.2013674,51.765091],[-1.2013714,51.7651286]]]}},
{"type":"Feature","properties":{"highway":"footway","name":null,"category":"Footpath (pedestrian only)"},"geometry":{"type":"MultiLineString","coordinates":[[[-1.2014017,51.7650879],[-1.2014166,51.7651241]]]}},
{"type":"Feature","properties":{"highway":"footway","name":null,"category":"Footpath (pedestrian only)"},"geometry":{"type":"MultiLineString","coordinates":[[[-1.201714,51.7650571],[-1.2017252,51.7650935]]]}},
{"type":"Feature","properties":{"highway":"footway","name":null,"category":"Footpath (pedestrian only)"},"geometry":{"type":"MultiLineString","coordinates":[[[-1.2016802,51.7650604],[-1.2016886,51.7650971]]]}},
{"type":"Feature","properties":{"highway":"footway","name":null,"category":"Footpath (pedestrian only)"},"geometry":{"type":"MultiLineString","coordinates":[[[-1.202332,51.7653158],[-1.2023347,51.7653337]]]}},
{"type":"Feature","properties":{"highway":"footway","name":null,"category":"Footpath (pedestrian only)"},"geometry":{"type":"MultiLineString","coordinates":[[[-1.2020064,51.7650747],[-1.201872,51.7650417]]]}},
{"type":"Feature","properties":{"highway":"footway","name":null,"category":"Footpath (pedestrian only)"},"geometry":{"type":"MultiLineString","coordinates":[[[-1.2021792,51.7650259],[-1.2021083,51.7650652]]]}},
{"type":"Feature","properties":{"highway":"footway","name":null,"category":"Footpath (pedestrian only)"},"geometry":{"type":"MultiLineString","coordinates":[[[-1.2021212,51.7652597],[-1.2020759,51.7652637]]]}},
{"type":"Feature","properties":{"highway":"footway","name":null,"category":"Footpath (pedestrian only)"},"geometry":{"type":"MultiLineString","coordinates":[[[-1.2020786,51.7652724],[-1.2020297,51.76528]]]}},
{"type":"Feature","properties":{"highway":"footway","name":null,"category":"Footpath (pedestrian only)"},"geometry":{"type":"MultiLineString","coordinates":[[[-1.2020237,51.7652567],[-1.2020732,51.765255]]]}},
{"type":"Feature","properties":{"highway":"footway","name":null,"category":"Footpath (pedestrian only)"},"geometry":{"type":"MultiLineString","coordinates":[[[-1.2021138,51.7653662],[-1.2020863,51.7653043],[-1.2020786,51.7652724],[-1.2020759,51.7652637],[-1.2020732,51.765255],[-1.2020601,51.7651796],[-1.2020652,51.765152]]]}},
{"type":"Feature","properties":{"highway":"footway","name":null,"category":"Footpath (pedestrian only)"},"geometry":{"type":"MultiLineString","coordinates":[[[-1.2023706,51.7653301],[-1.2023619,51.7653129]]]}},
{"type":"Feature","properties":{"highway":"footway","name":null,"category":"Footpath (pedestrian only)"},"geometry":{"type":"MultiLineString","coordinates":[[[-1.2023339,51.7652663],[-1.202347,51.7653143]]]}},
{"type":"Feature","properties":{"highway":"footway","name":null,"category":"Footpath (pedestrian only)"},"geometry":{"type":"MultiLineString","coordinates":[[[-1.2026549,51.7652784],[-1.2026683,51.7653]]]}},
{"type":"Feature","properties":{"highway":"footway","name":null,"category":"Footpath (pedestrian only)"},"geometry":{"type":"MultiLineString","coordinates":[[[-1.2026325,51.7652813],[-1.2026326,51.7653036]]]}},
{"type":"Feature","properties":{"highway":"footway","name":null,"category":"Footpath (pedestrian only)"},"geometry":{"type":"MultiLineString","coordinates":[[[-1.2026368,51.7652627],[-1.2026437,51.76528]]]}},
{"type":"Feature","properties":{"highway":"footway","name":null,"category":"Footpath (pedestrian only)"},"geometry":{"type":"MultiLineString","coordinates":[[[-1.2028145,51.7652554],[-1.2026549,51.7652784],[-1.2026437,51.76528],[-1.2026325,51.7652813],[-1.2023619,51.7653129],[-1.202347,51.7653143],[-1.202332,51.7653158],[-1.2021611,51.7653303],[-1.2021138,51.7653662],[-1.202087,51.7654326]]]}},
{"type":"Feature","properties":{"highway":"footway","name":null,"category":"Footpath (pedestrian only)"},"geometry":{"type":"MultiLineString","coordinates":[[[-1.2046854,51.763839],[-1.2045717,51.7638498],[-1.2045039,51.7638501],[-1.2044754,51.7638559],[-1.2044634,51.7638668],[-1.2044624,51.7638812],[-1.2045307,51.7641218],[-1.2045435,51.7641667],[-1.2045562,51.7642116],[-1.2045948,51.7643482],[-1.2046592,51.7643652],[-1.2046827,51.764388],[-1.2047571,51.7646808]]]}},
{"type":"Feature","properties":{"highway":"footway","name":null,"category":"Footpath (pedestrian only)"},"geometry":{"type":"MultiLineString","coordinates":[[[-1.2035809,51.7642576],[-1.2039351,51.7642277],[-1.2041551,51.7642412],[-1.204381,51.7642187]]]}},
{"type":"Feature","properties":{"highway":"footway","name":null,"category":"Footpath (pedestrian only)"},"geometry":{"type":"MultiLineString","coordinates":[[[-1.2042941,51.7638716],[-1.2043381,51.7638744],[-1.2043628,51.7638852],[-1.2043704,51.7639025],[-1.2044301,51.7641182],[-1.2044244,51.7641388],[-1.2043931,51.7641546],[-1.2043638,51.7641576],[-1.2041442,51.7641798],[-1.2039574,51.764166],[-1.2035626,51.7641985]]]}},
{"type":"Feature","properties":{"highway":"footway","name":null,"category":"Footpath (pedestrian only)"},"geometry":{"type":"MultiLineString","coordinates":[[[-1.2038455,51.7650226],[-1.2038425,51.7649907],[-1.2038398,51.7649613]]]}},
{"type":"Feature","properties":{"highway":"footway","name":null,"category":"Footpath (pedestrian only)"},"geometry":{"type":"MultiLineString","coordinates":[[[-1.2030053,51.7653572],[-1.2030515,51.765326],[-1.2030897,51.7653002]]]}},
{"type":"Feature","properties":{"highway":"footway","name":null,"category":"Footpath (pedestrian only)"},"geometry":{"type":"MultiLineString","coordinates":[[[-1.2080763,51.7698854],[-1.2089071,51.769991],[-1.2091727,51.7700624],[-1.2093777,51.7700933],[-1.2094215,51.7701172],[-1.209424,51.7701893],[-1.2094119,51.7703872],[-1.2094507,51.7704467],[-1.2095269,51.7704869],[-1.2096756,51.770516],[-1.2097283,51.7705306],[-1.2097836,51.7705459]]]}},
{"type":"Feature","properties":{"highway":"footway","name":null,"category":"Footpath (pedestrian only)"},"geometry":{"type":"MultiLineString","coordinates":[[[-1.209783,51.7704261],[-1.2097155,51.7704087],[-1.2097312,51.7702957],[-1.2098007,51.7699843],[-1.2094726,51.7699429],[-1.2094215,51.7699365],[-1.2089437,51.7698764],[-1.2084042,51.7698085],[-1.2083506,51.769823]]]}},
{"type":"Feature","properties":{"highway":"footway","name":null,"category":"Footpath (pedestrian only)"},"geometry":{"type":"MultiLineString","coordinates":[[[-1.209424,51.7701893],[-1.2096197,51.7702585],[-1.2097312,51.7702957]]]}},
{"type":"Feature","properties":{"highway":"footway","name":null,"category":"Footpath (pedestrian only)"},"geometry":{"type":"MultiLineString","coordinates":[[[-1.2097155,51.7704087],[-1.2097101,51.7704612],[-1.2096756,51.770516]]]}},
{"type":"Feature","properties":{"highway":"footway","name":null,"category":"Footpath (pedestrian only)"},"geometry":{"type":"MultiLineString","coordinates":[[[-1.2127994,51.7709522],[-1.2122868,51.7709001],[-1.2119283,51.7708564],[-1.2115116,51.7707943],[-1.2111375,51.7707345]]]}},
{"type":"Feature","properties":{"highway":"footway","name":null,"category":"Footpath (pedestrian only)"},"geometry":{"type":"MultiLineString","coordinates":[[[-1.2110357,51.7708282],[-1.2110903,51.770836],[-1.2111451,51.7708438]]]}},
{"type":"Feature","properties":{"highway":"footway","name":null,"category":"Footpath (pedestrian only)"},"geometry":{"type":"MultiLineString","coordinates":[[[-1.2050468,51.7694794],[-1.204995,51.7694742],[-1.204924,51.769467]]]}},
{"type":"Feature","properties":{"highway":"footway","name":null,"category":"Footpath (pedestrian only)"},"geometry":{"type":"MultiLineString","coordinates":[[[-1.2058734,51.7694014],[-1.2058734,51.7694068],[-1.2058731,51.7694371],[-1.2058729,51.7694666],[-1.2058729,51.7694728]]]}},
{"type":"Feature","properties":{"highway":"footway","name":null,"category":"Footpath (pedestrian only)"},"geometry":{"type":"MultiLineString","coordinates":[[[-1.2072214,51.7696848],[-1.207132,51.7696609],[-1.2067855,51.769569],[-1.205924,51.7694754],[-1.2058729,51.7694728],[-1.2057924,51.7694731]]]}},
{"type":"Feature","properties":{"highway":"footway","name":null,"category":"Footpath (pedestrian only)"},"geometry":{"type":"MultiLineString","coordinates":[[[-1.2073173,51.7697089],[-1.2072626,51.7696952],[-1.2072214,51.7696848]]]}},
{"type":"Feature","properties":{"highway":"footway","name":null,"category":"Footpath (pedestrian only)"},"geometry":{"type":"MultiLineString","coordinates":[[[-1.2079747,51.7698717],[-1.2078155,51.7698483],[-1.2073173,51.7697089]]]}},
{"type":"Feature","properties":{"highway":"footway","name":null,"category":"Footpath (pedestrian only)"},"geometry":{"type":"MultiLineString","coordinates":[[[-1.2047108,51.7692761],[-1.2047786,51.7692819],[-1.2048456,51.7692877]]]}},
{"type":"Feature","properties":{"highway":"footway","name":null,"category":"Footpath (pedestrian only)"},"geometry":{"type":"MultiLineString","coordinates":[[[-1.2047819,51.769547],[-1.2048148,51.769506],[-1.2048638,51.7694744],[-1.204924,51.769467]]]}},
{"type":"Feature","properties":{"highway":"footway","name":null,"category":"Footpath (pedestrian only)"},"geometry":{"type":"MultiLineString","coordinates":[[[-1.2048456,51.7692877],[-1.2048604,51.769335],[-1.2048885,51.7693716],[-1.2049502,51.7693956],[-1.2051259,51.769408],[-1.2056795,51.7694002],[-1.2058734,51.7694014],[-1.2060003,51.7694093],[-1.2066155,51.7694729],[-1.2068164,51.7694985],[-1.2073132,51.7696334],[-1.2077739,51.7697545],[-1.208252,51.7698114]]]}},
{"type":"Feature","properties":{"highway":"footway","name":null,"category":"Footpath (pedestrian only)"},"geometry":{"type":"MultiLineString","coordinates":[[[-1.2046545,51.7695363],[-1.2047138,51.7695413],[-1.2047819,51.769547]]]}},
{"type":"Feature","properties":{"highway":"footway","name":null,"category":"Footpath (pedestrian only)"},"geometry":{"type":"MultiLineString","coordinates":[[[-1.204924,51.769467],[-1.2049378,51.7694329],[-1.2049502,51.7693956]]]}},
{"type":"Feature","properties":{"highway":"footway","name":null,"category":"Footpath (pedestrian only)"},"geometry":{"type":"MultiLineString","coordinates":[[[-1.2114999,51.7709008],[-1.2123042,51.7710151]]]}},
{"type":"Feature","properties":{"highway":"footway","name":null,"category":"Footpath (pedestrian only)"},"geometry":{"type":"MultiLineString","coordinates":[[[-1.2104349,51.7707092],[-1.2110357,51.7708282]]]}},
{"type":"Feature","properties":{"highway":"footway","name":null,"category":"Footpath (pedestrian only)"},"geometry":{"type":"MultiLineString","coordinates":[[[-1.2111451,51.7708438],[-1.2111642,51.7708293],[-1.2113765,51.7708636],[-1.2113892,51.7708838]]]}},
{"type":"Feature","properties":{"highway":"footway","name":null,"category":"Footpath (pedestrian only)"},"geometry":{"type":"MultiLineString","coordinates":[[[-1.2103374,51.7706855],[-1.2103847,51.7706972],[-1.2104349,51.7707092]]]}},
{"type":"Feature","properties":{"highway":"footway","name":null,"category":"Footpath (pedestrian only)"},"geometry":{"type":"MultiLineString","coordinates":[[[-1.2097836,51.7705459],[-1.2103374,51.7706855]]]}},
{"type":"Feature","properties":{"highway":"footway","name":null,"category":"Footpath (pedestrian only)"},"geometry":{"type":"MultiLineString","coordinates":[[[-1.2089071,51.769991],[-1.2089208,51.7699482],[-1.2089437,51.7698764]]]}},
{"type":"Feature","properties":{"highway":"footway","name":null,"category":"Footpath (pedestrian only)"},"geometry":{"type":"MultiLineString","coordinates":[[[-1.2093777,51.7700933],[-1.209402,51.7700066]]]}},
{"type":"Feature","properties":{"highway":"footway","name":null,"category":"Footpath (pedestrian only)"},"geometry":{"type":"MultiLineString","coordinates":[[[-1.2079747,51.7698717],[-1.2080277,51.7698789],[-1.2080763,51.7698854]]]}},
{"type":"Feature","properties":{"highway":"footway","name":null,"category":"Footpath (pedestrian only)"},"geometry":{"type":"MultiLineString","coordinates":[[[-1.2083506,51.769823],[-1.2083013,51.7698172],[-1.208252,51.7698114]]]}},
{"type":"Feature","properties":{"highway":"footway","name":null,"category":"Footpath (pedestrian only)"},"geometry":{"type":"MultiLineString","coordinates":[[[-1.2113892,51.7708838],[-1.2114486,51.7708929],[-1.2114999,51.7709008]]]}},
{"type":"Feature","properties":{"highway":"footway","name":null,"category":"Footpath (pedestrian only)"},"geometry":{"type":"MultiLineString","coordinates":[[[-1.2056697,51.7694736],[-1.2052258,51.7694815],[-1.2050468,51.7694794]]]}},
{"type":"Feature","properties":{"highway":"footway","name":null,"category":"Footpath (pedestrian only)"},"geometry":{"type":"MultiLineString","coordinates":[[[-1.2057924,51.7694731],[-1.2057358,51.7694733],[-1.2056697,51.7694736]]]}},
{"type":"Feature","properties":{"highway":"footway","name":null,"category":"Footpath (pedestrian only)"},"geometry":{"type":"MultiLineString","coordinates":[[[-1.1963523,51.7677985],[-1.1963644,51.7678009],[-1.1963659,51.7677981],[-1.1963843,51.7678018]]]}},
{"type":"Feature","properties":{"highway":"footway","name":null,"category":"Footpath (pedestrian only)"},"geometry":{"type":"MultiLineString","coordinates":[[[-1.1962794,51.7677837],[-1.1961991,51.7677555]]]}},
{"type":"Feature","properties":{"highway":"footway","name":null,"category":"Footpath (pedestrian only)"},"geometry":{"type":"MultiLineString","coordinates":[[[-1.1964573,51.7676256],[-1.1964353,51.7676671]]]}},
{"type":"Feature","properties":{"highway":"footway","name":null,"category":"Footpath (pedestrian only)"},"geometry":{"type":"MultiLineString","coordinates":[[[-1.1912329,51.7634981],[-1.1912819,51.7634168],[-1.1913003,51.763421],[-1.1912361,51.7635276]]]}},
{"type":"Feature","properties":{"highway":"footway","name":null,"category":"Footpath (pedestrian only)"},"geometry":{"type":"MultiLineString","coordinates":[[[-1.1911978,51.7635187],[-1.1911678,51.7635118],[-1.1911291,51.7635029]]]}},
{"type":"Feature","properties":{"highway":"footway","name":null,"category":"Footpath (pedestrian only)"},"geometry":{"type":"MultiLineString","coordinates":[[[-1.2063926,51.765545],[-1.2063377,51.7655713],[-1.2062997,51.7655896]]]}},
{"type":"Feature","properties":{"highway":"footway","name":null,"category":"Footpath (pedestrian only)"},"geometry":{"type":"MultiLineString","coordinates":[[[-1.2075299,51.765327],[-1.2074655,51.7653573],[-1.2073857,51.7653832],[-1.2071382,51.7654342],[-1.2067776,51.7654757],[-1.2066591,51.7654869],[-1.2063926,51.765545]]]}},
{"type":"Feature","properties":{"highway":"footway","name":null,"category":"Footpath (pedestrian only)"},"geometry":{"type":"MultiLineString","coordinates":[[[-1.1911678,51.7635118],[-1.1910647,51.7636829],[-1.1910386,51.7637263]]]}},
{"type":"Feature","properties":{"highway":"footway","name":null,"category":"Footpath (pedestrian only)"},"geometry":{"type":"MultiLineString","coordinates":[[[-1.191328,51.7635488],[-1.1912361,51.7635276]]]}},
{"type":"Feature","properties":{"highway":"footway","name":null,"category":"Footpath (pedestrian only)"},"geometry":{"type":"MultiLineString","coordinates":[[[-1.1912329,51.7634981],[-1.1911978,51.7635187]]]}},
{"type":"Feature","properties":{"highway":"path","name":null,"category":"Shared path"},"geometry":{"type":"MultiLineString","coordinates":[[[-1.2111375,51.7707345],[-1.2111211,51.770779]]]}},
{"type":"Feature","properties":{"highway":"footway","name":null,"category":"Footpath (pedestrian only)"},"geometry":{"type":"MultiLineString","coordinates":[[[-1.1960387,51.7680027],[-1.1960826,51.7679995]]]}},
{"type":"Feature","properties":{"highway":"footway","name":null,"category":"Footpath (pedestrian only)"},"geometry":{"type":"MultiLineString","coordinates":[[[-1.1964353,51.7676671],[-1.1963659,51.7677981]]]}},
{"type":"Feature","properties":{"highway":"footway","name":null,"category":"Footpath (pedestrian only)"},"geometry":{"type":"MultiLineString","coordinates":[[[-1.1961137,51.7678661],[-1.1961041,51.7678068]]]}},
{"type":"Feature","properties":{"highway":"footway","name":null,"category":"Footpath (pedestrian only)"},"geometry":{"type":"MultiLineString","coordinates":[[[-1.1962391,51.7678974],[-1.1961878,51.7678891],[-1.1961174,51.7678889],[-1.1961137,51.7678661]]]}},
{"type":"Feature","properties":{"highway":"footway","name":null,"category":"Footpath (pedestrian only)"},"geometry":{"type":"MultiLineString","coordinates":[[[-1.1961632,51.7679936],[-1.1962048,51.7679151],[-1.1962282,51.7679188]]]}},
{"type":"Feature","properties":{"highway":"footway","name":null,"category":"Footpath (pedestrian only)"},"geometry":{"type":"MultiLineString","coordinates":[[[-1.1960826,51.7679995],[-1.1961632,51.7679936],[-1.1961865,51.7679946]]]}},
{"type":"Feature","properties":{"highway":"footway","name":"Taggs Gate","category":"Footpath (pedestrian only)"},"geometry":{"type":"MultiLineString","coordinates":[[[-1.1967952,51.7681779],[-1.1970186,51.7677516]]]}},
{"type":"Feature","properties":{"highway":"footway","name":null,"category":"Footpath (pedestrian only)"},"geometry":{"type":"MultiLineString","coordinates":[[[-1.2036953,51.7657352],[-1.2036275,51.7657494]]]}},
{"type":"Feature","properties":{"highway":"footway","name":null,"category":"Footpath (pedestrian only)"},"geometry":{"type":"MultiLineString","coordinates":[[[-1.2029331,51.7655128],[-1.2029077,51.7655107],[-1.2028849,51.7655089]]]}},
{"type":"Feature","properties":{"highway":"footway","name":null,"category":"Footpath (pedestrian only)"},"geometry":{"type":"MultiLineString","coordinates":[[[-1.2043456,51.7638282],[-1.2043628,51.7638852]]]}},
{"type":"Feature","properties":{"highway":"footway","name":null,"category":"Footpath (pedestrian only)"},"geometry":{"type":"MultiLineString","coordinates":[[[-1.204449,51.7638175],[-1.2044634,51.7638668]]]}},
{"type":"Feature","properties":{"highway":"footway","name":null,"category":"Footpath (pedestrian only)"},"geometry":{"type":"MultiLineString","coordinates":[[[-1.204381,51.7642187],[-1.2043714,51.7641847],[-1.2043638,51.7641576]]]}},
{"type":"Feature","properties":{"highway":"footway","name":null,"category":"Footpath (pedestrian only)"},"geometry":{"type":"MultiLineString","coordinates":[[[-1.2044244,51.7641388],[-1.2044778,51.7641303],[-1.2045307,51.7641218]]]}},
{"type":"Feature","properties":{"highway":"footway","name":null,"category":"Footpath (pedestrian only)"},"geometry":{"type":"MultiLineString","coordinates":[[[-1.204381,51.7642187],[-1.2045006,51.7642139],[-1.2045562,51.7642116]]]}},
{"type":"Feature","properties":{"highway":"footway","name":null,"category":"Footpath (pedestrian only)"},"geometry":{"type":"MultiLineString","coordinates":[[[-1.2045164,51.7645661],[-1.2044771,51.76457]]]}},
{"type":"Feature","properties":{"highway":"footway","name":null,"category":"Footpath (pedestrian only)"},"geometry":{"type":"MultiLineString","coordinates":[[[-1.204381,51.7642187],[-1.2044771,51.76457],[-1.2045002,51.7646654]]]}},
{"type":"Feature","properties":{"highway":"footway","name":null,"category":"Footpath (pedestrian only)"},"geometry":{"type":"MultiLineString","coordinates":[[[-1.2111375,51.7707345],[-1.2105778,51.7706308],[-1.209783,51.7704261]]]}}
]
}
