{
"type": "FeatureCollection",
"name": "6b5c1338afc3_foliage",
"crs": { "type": "name", "properties": { "name": "urn:ogc:def:crs:OGC:1.3:CRS84" } },
"features": [
{ "type": "Feature", "properties": { "max_height": 4.5492496490478516, "mean_height": 0.21422019600868225, "std_height": 0.90669208765029907, "count_pixels": 40, "percent_cover": 0.23004370830457788, "percent_above_0.1m": 5.0, "low_level_<0.5": 0.0, "mid_level_0.5-2": 0.0, "tall_2+": 5.0 }, "geometry": { "type": "Point", "coordinates": [ -0.402656018457601, 51.314822413900693 ] } },
{ "type": "Feature", "properties": { "max_height": 11.516750335693359, "mean_height": 1.4047025442123413, "std_height": 2.8766205310821533, "count_pixels": 41, "percent_cover": 0.23579480101219233, "percent_above_0.1m": 31.707317073170731, "low_level_<0.5": 2.4390243902439024, "mid_level_0.5-2": 9.7560975609756095, "tall_2+": 19.512195121951219 }, "geometry": { "type": "Point", "coordinates": [ -0.402457283213758, 51.314819703077376 ] } },
{ "type": "Feature", "properties": { "max_height": 15.067251205444336, "mean_height": 5.2788949012756348, "std_height": 5.8837966918945312, "count_pixels": 42, "percent_cover": 0.24154589371980675, "percent_above_0.1m": 61.904761904761905, "low_level_<0.5": 2.3809523809523809, "mid_level_0.5-2": 9.5238095238095237, "tall_2+": 47.619047619047613 }, "geometry": { "type": "Point", "coordinates": [ -0.402258548000837, 51.314816991916906 ] } },
{ "type": "Feature", "properties": { "max_height": 0.031499862670898438, "mean_height": 0.008144197054207325, "std_height": 0.0070254839956760406, "count_pixels": 42, "percent_cover": 0.24154589371980675, "percent_above_0.1m": 0.0, "low_level_<0.5": 0.0, "mid_level_0.5-2": 0.0, "tall_2+": 0.0 }, "geometry": { "type": "Point", "coordinates": [ -0.40205981281884, 51.314814280419327 ] } },
{ "type": "Feature", "properties": { "max_height": 0.45549964904785156, "mean_height": 0.019160227850079536, "std_height": 0.074882462620735168, "count_pixels": 44, "percent_cover": 0.25304807913503569, "percent_above_0.1m": 4.5454545454545459, "low_level_<0.5": 4.5454545454545459, "mid_level_0.5-2": 0.0, "tall_2+": 0.0 }, "geometry": { "type": "Point", "coordinates": [ -0.402751640176071, 51.314931629736492 ] } },
{ "type": "Feature", "properties": { "max_height": 13.840499877929688, "mean_height": 7.1637344360351562, "std_height": 4.7042365074157715, "count_pixels": 43, "percent_cover": 0.24729698642742123, "percent_above_0.1m": 88.372093023255815, "low_level_<0.5": 2.3255813953488373, "mid_level_0.5-2": 6.9767441860465116, "tall_2+": 76.744186046511629 }, "geometry": { "type": "Point", "coordinates": [ -0.402552904452241, 51.314928919070809 ] } },
{ "type": "Feature", "properties": { "max_height": 14.039251327514648, "mean_height": 6.2219476699829102, "std_height": 5.2597155570983887, "count_pixels": 42, "percent_cover": 0.24154589371980675, "percent_above_0.1m": 80.952380952380949, "low_level_<0.5": 2.3809523809523809, "mid_level_0.5-2": 7.1428571428571423, "tall_2+": 69.047619047619051 }, "geometry": { "type": "Point", "coordinates": [ -0.402354168759329, 51.314926208068016 ] } },
{ "type": "Feature", "properties": { "max_height": 11.509498596191406, "mean_height": 1.6857692003250122, "std_height": 3.2816438674926758, "count_pixels": 42, "percent_cover": 0.24154589371980675, "percent_above_0.1m": 28.571428571428569, "low_level_<0.5": 0.0, "mid_level_0.5-2": 4.7619047619047619, "tall_2+": 23.809523809523807 }, "geometry": { "type": "Point", "coordinates": [ -0.402155433097343, 51.314923496728085 ] } },
{ "type": "Feature", "properties": { "max_height": 0.62725257873535156, "mean_height": 0.052538011223077774, "std_height": 0.13024522364139557, "count_pixels": 41, "percent_cover": 0.23579480101219233, "percent_above_0.1m": 12.195121951219512, "low_level_<0.5": 9.7560975609756095, "mid_level_0.5-2": 2.4390243902439024, "tall_2+": 0.0 }, "geometry": { "type": "Point", "coordinates": [ -0.401956697466282, 51.314920785051029 ] } },
{ "type": "Feature", "properties": { "max_height": 0.61700057983398438, "mean_height": 0.082397416234016418, "std_height": 0.15815004706382751, "count_pixels": 41, "percent_cover": 0.23579480101219233, "percent_above_0.1m": 21.951219512195124, "low_level_<0.5": 17.073170731707318, "mid_level_0.5-2": 4.8780487804878048, "tall_2+": 0.0 }, "geometry": { "type": "Point", "coordinates": [ -0.401757961866156, 51.314918073036871 ] } },
{ "type": "Feature", "properties": { "max_height": 1.819000244140625, "mean_height": 0.27574390172958374, "std_height": 0.46519622206687927, "count_pixels": 36, "percent_cover": 0.20703933747412009, "percent_above_0.1m": 38.888888888888893, "low_level_<0.5": 16.666666666666664, "mid_level_0.5-2": 19.444444444444446, "tall_2+": 0.0 }, "geometry": { "type": "Point", "coordinates": [ -0.401559226155043, 51.314915360743456 ] } },
{ "type": "Feature", "properties": { "max_height": 0.022500991821289062, "mean_height": 0.0055987038649618626, "std_height": 0.0071604088880121708, "count_pixels": 36, "percent_cover": 0.20703933747412009, "percent_above_0.1m": 0.0, "low_level_<0.5": 0.0, "mid_level_0.5-2": 0.0, "tall_2+": 0.0 }, "geometry": { "type": "Point", "coordinates": [ -0.402847262343602, 51.315040845496689 ] } },
{ "type": "Feature", "properties": { "max_height": 11.455753326416016, "mean_height": 1.0584698915481567, "std_height": 2.6212928295135498, "count_pixels": 40, "percent_cover": 0.23004370830457788, "percent_above_0.1m": 25.0, "low_level_<0.5": 5.0, "mid_level_0.5-2": 2.5, "tall_2+": 17.5 }, "geometry": { "type": "Point", "coordinates": [ -0.402648526139777, 51.315038134988669 ] } },
{ "type": "Feature", "properties": { "max_height": 15.267999649047852, "mean_height": 6.7099037170410156, "std_height": 4.8855085372924805, "count_pixels": 41, "percent_cover": 0.23579480101219233, "percent_above_0.1m": 82.926829268292678, "low_level_<0.5": 0.0, "mid_level_0.5-2": 7.3170731707317067, "tall_2+": 75.609756097560975 }, "geometry": { "type": "Point", "coordinates": [ -0.40244978996688, 51.315035424143538 ] } },
{ "type": "Feature", "properties": { "max_height": 13.482749938964844, "mean_height": 6.2697639465332031, "std_height": 5.2421932220458984, "count_pixels": 42, "percent_cover": 0.24154589371980675, "percent_above_0.1m": 78.571428571428569, "low_level_<0.5": 9.5238095238095237, "mid_level_0.5-2": 9.5238095238095237, "tall_2+": 59.523809523809526 }, "geometry": { "type": "Point", "coordinates": [ -0.402251053824902, 51.315032712961269 ] } },
{ "type": "Feature", "properties": { "max_height": 10.696002960205078, "mean_height": 1.3715372085571289, "std_height": 3.0668618679046631, "count_pixels": 42, "percent_cover": 0.24154589371980675, "percent_above_0.1m": 19.047619047619047, "low_level_<0.5": 0.0, "mid_level_0.5-2": 0.0, "tall_2+": 19.047619047619047 }, "geometry": { "type": "Point", "coordinates": [ -0.402052317713847, 51.315030001441876 ] } },
{ "type": "Feature", "properties": { "max_height": 0.0435028076171875, "mean_height": 0.010443266481161118, "std_height": 0.010660097934305668, "count_pixels": 43, "percent_cover": 0.24729698642742123, "percent_above_0.1m": 0.0, "low_level_<0.5": 0.0, "mid_level_0.5-2": 0.0, "tall_2+": 0.0 }, "geometry": { "type": "Point", "coordinates": [ -0.401853581633723, 51.315027289585352 ] } },
{ "type": "Feature", "properties": { "max_height": 0.84624862670898438, "mean_height": 0.059808820486068726, "std_height": 0.17035678029060364, "count_pixels": 43, "percent_cover": 0.24729698642742123, "percent_above_0.1m": 11.627906976744185, "low_level_<0.5": 4.6511627906976747, "mid_level_0.5-2": 4.6511627906976747, "tall_2+": 0.0 }, "geometry": { "type": "Point", "coordinates": [ -0.401654845584536, 51.315024577391696 ] } },
{ "type": "Feature", "properties": { "max_height": 2.0422515869140625, "mean_height": 0.39545011520385742, "std_height": 0.56917464733123779, "count_pixels": 44, "percent_cover": 0.25304807913503569, "percent_above_0.1m": 43.18181818181818, "low_level_<0.5": 13.636363636363635, "mid_level_0.5-2": 25.0, "tall_2+": 2.2727272727272729 }, "geometry": { "type": "Point", "coordinates": [ -0.401456109208761, 51.315021865145503 ] } },
{ "type": "Feature", "properties": { "max_height": 1.3632526397705078, "mean_height": 0.22409416735172272, "std_height": 0.39979717135429382, "count_pixels": 43, "percent_cover": 0.24729698642742123, "percent_above_0.1m": 30.232558139534881, "low_level_<0.5": 9.3023255813953494, "mid_level_0.5-2": 18.604651162790699, "tall_2+": 0.0 }, "geometry": { "type": "Point", "coordinates": [ -0.401257372483609, 51.315019152889356 ] } },
{ "type": "Feature", "properties": { "max_height": 11.825752258300781, "mean_height": 1.2440190315246582, "std_height": 2.9803941249847412, "count_pixels": 44, "percent_cover": 0.25304807913503569, "percent_above_0.1m": 22.727272727272727, "low_level_<0.5": 0.0, "mid_level_0.5-2": 2.2727272727272729, "tall_2+": 18.181818181818183 }, "geometry": { "type": "Point", "coordinates": [ -0.402744148276384, 51.315147350830941 ] } },
{ "type": "Feature", "properties": { "max_height": 12.37175178527832, "mean_height": 3.9697344303131104, "std_height": 4.4238605499267578, "count_pixels": 43, "percent_cover": 0.24729698642742123, "percent_above_0.1m": 55.813953488372093, "low_level_<0.5": 2.3255813953488373, "mid_level_0.5-2": 2.3255813953488373, "tall_2+": 51.162790697674424 }, "geometry": { "type": "Point", "coordinates": [ -0.402545411623489, 51.315144640143465 ] } },
{ "type": "Feature", "properties": { "max_height": 12.821254730224609, "mean_height": 2.4949421882629395, "std_height": 4.3670086860656738, "count_pixels": 42, "percent_cover": 0.24154589371980675, "percent_above_0.1m": 33.333333333333329, "low_level_<0.5": 0.0, "mid_level_0.5-2": 9.5238095238095237, "tall_2+": 23.809523809523807 }, "geometry": { "type": "Point", "coordinates": [ -0.402346675001516, 51.315141929118859 ] } },
{ "type": "Feature", "properties": { "max_height": 0.98749923706054688, "mean_height": 0.040834836661815643, "std_height": 0.14884358644485474, "count_pixels": 42, "percent_cover": 0.24154589371980675, "percent_above_0.1m": 2.3809523809523809, "low_level_<0.5": 0.0, "mid_level_0.5-2": 2.3809523809523809, "tall_2+": 0.0 }, "geometry": { "type": "Point", "coordinates": [ -0.40214793841047, 51.315139217757121 ] } },
{ "type": "Feature", "properties": { "max_height": 0.03900146484375, "mean_height": 0.0097148241475224495, "std_height": 0.011224939487874508, "count_pixels": 41, "percent_cover": 0.23579480101219233, "percent_above_0.1m": 0.0, "low_level_<0.5": 0.0, "mid_level_0.5-2": 0.0, "tall_2+": 0.0 }, "geometry": { "type": "Point", "coordinates": [ -0.401949201850348, 51.315136506058259 ] } },
{ "type": "Feature", "properties": { "max_height": 0.033750534057617188, "mean_height": 0.0081170247867703438, "std_height": 0.010108225047588348, "count_pixels": 41, "percent_cover": 0.23579480101219233, "percent_above_0.1m": 0.0, "low_level_<0.5": 0.0, "mid_level_0.5-2": 0.0, "tall_2+": 0.0 }, "geometry": { "type": "Point", "coordinates": [ -0.401750465321162, 51.315133794022259 ] } },
{ "type": "Feature", "properties": { "max_height": 0.036251068115234375, "mean_height": 0.0074661043472588062, "std_height": 0.0097677251324057579, "count_pixels": 36, "percent_cover": 0.20703933747412009, "percent_above_0.1m": 0.0, "low_level_<0.5": 0.0, "mid_level_0.5-2": 0.0, "tall_2+": 0.0 }, "geometry": { "type": "Point", "coordinates": [ -0.401551728665719, 51.31513108171351 ] } },
{ "type": "Feature", "properties": { "max_height": 1.1245002746582031, "mean_height": 0.14180712401866913, "std_height": 0.2610090970993042, "count_pixels": 40, "percent_cover": 0.23004370830457788, "percent_above_0.1m": 27.5, "low_level_<0.5": 10.0, "mid_level_0.5-2": 12.5, "tall_2+": 0.0 }, "geometry": { "type": "Point", "coordinates": [ -0.401352991617694, 51.315128369543828 ] } },
{ "type": "Feature", "properties": { "max_height": 14.470500946044922, "mean_height": 3.0666682720184326, "std_height": 4.6535801887512207, "count_pixels": 36, "percent_cover": 0.20703933747412009, "percent_above_0.1m": 36.111111111111107, "low_level_<0.5": 0.0, "mid_level_0.5-2": 2.7777777777777777, "tall_2+": 33.333333333333329 }, "geometry": { "type": "Point", "coordinates": [ -0.402839770862052, 51.315256566597633 ] } },
{ "type": "Feature", "properties": { "max_height": 15.455249786376953, "mean_height": 9.723358154296875, "std_height": 3.6175746917724609, "count_pixels": 40, "percent_cover": 0.23004370830457788, "percent_above_0.1m": 100.0, "low_level_<0.5": 0.0, "mid_level_0.5-2": 5.0, "tall_2+": 95.0 }, "geometry": { "type": "Point", "coordinates": [ -0.402641033729162, 51.31525385606782 ] } },
{ "type": "Feature", "properties": { "max_height": 13.375001907348633, "mean_height": 7.5406723022460938, "std_height": 5.0979390144348145, "count_pixels": 41, "percent_cover": 0.23579480101219233, "percent_above_0.1m": 75.609756097560975, "low_level_<0.5": 0.0, "mid_level_0.5-2": 2.4390243902439024, "tall_2+": 73.170731707317074 }, "geometry": { "type": "Point", "coordinates": [ -0.402442296627196, 51.315251145200868 ] } },
{ "type": "Feature", "properties": { "max_height": 17.275253295898438, "mean_height": 4.4434242248535156, "std_height": 5.7138910293579102, "count_pixels": 42, "percent_cover": 0.24154589371980675, "percent_above_0.1m": 50.0, "low_level_<0.5": 2.3809523809523809, "mid_level_0.5-2": 4.7619047619047619, "tall_2+": 42.857142857142854 }, "geometry": { "type": "Point", "coordinates": [ -0.402243559556149, 51.315248433996793 ] } },
{ "type": "Feature", "properties": { "max_height": 0.039751052856445312, "mean_height": 0.016358647495508194, "std_height": 0.010915184393525124, "count_pixels": 42, "percent_cover": 0.24154589371980675, "percent_above_0.1m": 0.0, "low_level_<0.5": 0.0, "mid_level_0.5-2": 0.0, "tall_2+": 0.0 }, "geometry": { "type": "Point", "coordinates": [ -0.402044822516029, 51.315245722455579 ] } },
{ "type": "Feature", "properties": { "max_height": 0.04325103759765625, "mean_height": 0.010082599706947803, "std_height": 0.01215989887714386, "count_pixels": 43, "percent_cover": 0.24729698642742123, "percent_above_0.1m": 0.0, "low_level_<0.5": 0.0, "mid_level_0.5-2": 0.0, "tall_2+": 0.0 }, "geometry": { "type": "Point", "coordinates": [ -0.401846085506845, 51.315243010577241 ] } },
{ "type": "Feature", "properties": { "max_height": 0.045499801635742188, "mean_height": 0.015553363598883152, "std_height": 0.013205998577177525, "count_pixels": 43, "percent_cover": 0.24729698642742123, "percent_above_0.1m": 0.0, "low_level_<0.5": 0.0, "mid_level_0.5-2": 0.0, "tall_2+": 0.0 }, "geometry": { "type": "Point", "coordinates": [ -0.401647348528582, 51.315240298361765 ] } },
{ "type": "Feature", "properties": { "max_height": 4.1310005187988281, "mean_height": 0.19622837007045746, "std_height": 0.70593321323394775, "count_pixels": 44, "percent_cover": 0.25304807913503569, "percent_above_0.1m": 11.363636363636363, "low_level_<0.5": 4.5454545454545459, "mid_level_0.5-2": 4.5454545454545459, "tall_2+": 2.2727272727272729 }, "geometry": { "type": "Point", "coordinates": [ -0.401448611200844, 51.315237586118805 ] } },
{ "type": "Feature", "properties": { "max_height": 4.1147518157958984, "mean_height": 0.28487303853034973, "std_height": 0.70434820652008057, "count_pixels": 43, "percent_cover": 0.24729698642742123, "percent_above_0.1m": 25.581395348837212, "low_level_<0.5": 4.6511627906976747, "mid_level_0.5-2": 18.604651162790699, "tall_2+": 2.3255813953488373 }, "geometry": { "type": "Point", "coordinates": [ -0.401249873520453, 51.315234873859659 ] } },
{ "type": "Feature", "properties": { "max_height": 14.31500244140625, "mean_height": 6.116450309753418, "std_height": 4.8953523635864258, "count_pixels": 44, "percent_cover": 0.25304807913503569, "percent_above_0.1m": 75.0, "low_level_<0.5": 2.2727272727272729, "mid_level_0.5-2": 4.5454545454545459, "tall_2+": 65.909090909090907 }, "geometry": { "type": "Point", "coordinates": [ -0.40293539389679, 51.315365782288737 ] } },
{ "type": "Feature", "properties": { "max_height": 16.649002075195312, "mean_height": 13.128490447998047, "std_height": 3.1612527370452881, "count_pixels": 44, "percent_cover": 0.25304807913503569, "percent_above_0.1m": 100.0, "low_level_<0.5": 0.0, "mid_level_0.5-2": 0.0, "tall_2+": 100.0 }, "geometry": { "type": "Point", "coordinates": [ -0.402736656283909, 51.315363071916593 ] } },
{ "type": "Feature", "properties": { "max_height": 15.141000747680664, "mean_height": 7.5272336006164551, "std_height": 5.1650228500366211, "count_pixels": 43, "percent_cover": 0.24729698642742123, "percent_above_0.1m": 86.04651162790698, "low_level_<0.5": 2.3255813953488373, "mid_level_0.5-2": 4.6511627906976747, "tall_2+": 79.069767441860463 }, "geometry": { "type": "Point", "coordinates": [ -0.402537918701936, 51.315360361207297 ] } },
{ "type": "Feature", "properties": { "max_height": 17.272502899169922, "mean_height": 13.589025497436523, "std_height": 2.2045371532440186, "count_pixels": 42, "percent_cover": 0.24154589371980675, "percent_above_0.1m": 100.0, "low_level_<0.5": 0.0, "mid_level_0.5-2": 0.0, "tall_2+": 100.0 }, "geometry": { "type": "Point", "coordinates": [ -0.402339181150897, 51.315357650160877 ] } },
{ "type": "Feature", "properties": { "max_height": 16.296249389648438, "mean_height": 4.2485313415527344, "std_height": 5.9107298851013184, "count_pixels": 42, "percent_cover": 0.24154589371980675, "percent_above_0.1m": 38.095238095238095, "low_level_<0.5": 0.0, "mid_level_0.5-2": 0.0, "tall_2+": 38.095238095238095 }, "geometry": { "type": "Point", "coordinates": [ -0.40214044363077, 51.315354938777318 ] } },
{ "type": "Feature", "properties": { "max_height": 0.04425048828125, "mean_height": 0.011367146857082844, "std_height": 0.010993389412760735, "count_pixels": 41, "percent_cover": 0.23579480101219233, "percent_above_0.1m": 0.0, "low_level_<0.5": 0.0, "mid_level_0.5-2": 0.0, "tall_2+": 0.0 }, "geometry": { "type": "Point", "coordinates": [ -0.401941706141582, 51.31535222705665 ] } },
{ "type": "Feature", "properties": { "max_height": 0.028501510620117188, "mean_height": 0.011147056706249714, "std_height": 0.008093307726085186, "count_pixels": 41, "percent_cover": 0.23579480101219233, "percent_above_0.1m": 0.0, "low_level_<0.5": 0.0, "mid_level_0.5-2": 0.0, "tall_2+": 0.0 }, "geometry": { "type": "Point", "coordinates": [ -0.401742968683324, 51.315349514998822 ] } },
{ "type": "Feature", "properties": { "max_height": 14.223251342773438, "mean_height": 1.687410831451416, "std_height": 3.7060308456420898, "count_pixels": 36, "percent_cover": 0.20703933747412009, "percent_above_0.1m": 30.555555555555557, "low_level_<0.5": 2.7777777777777777, "mid_level_0.5-2": 5.5555555555555554, "tall_2+": 19.444444444444446 }, "geometry": { "type": "Point", "coordinates": [ -0.401544231082342, 51.315346802677745 ] } },
{ "type": "Feature", "properties": { "max_height": 16.093502044677734, "mean_height": 8.7435512542724609, "std_height": 5.3385224342346191, "count_pixels": 40, "percent_cover": 0.23004370830457788, "percent_above_0.1m": 87.5, "low_level_<0.5": 2.5, "mid_level_0.5-2": 2.5, "tall_2+": 82.5 }, "geometry": { "type": "Point", "coordinates": [ -0.401345493079017, 51.315344090514273 ] } },
{ "type": "Feature", "properties": { "max_height": 11.986003875732422, "mean_height": 4.4313955307006836, "std_height": 4.2202820777893066, "count_pixels": 40, "percent_cover": 0.23004370830457788, "percent_above_0.1m": 70.0, "low_level_<0.5": 2.5, "mid_level_0.5-2": 10.0, "tall_2+": 57.5 }, "geometry": { "type": "Point", "coordinates": [ -0.403031017380605, 51.315474997904246 ] } },
{ "type": "Feature", "properties": { "max_height": 11.040752410888672, "mean_height": 2.280869722366333, "std_height": 3.1013369560241699, "count_pixels": 36, "percent_cover": 0.20703933747412009, "percent_above_0.1m": 66.666666666666657, "low_level_<0.5": 8.3333333333333321, "mid_level_0.5-2": 22.222222222222221, "tall_2+": 33.333333333333329 }, "geometry": { "type": "Point", "coordinates": [ -0.40283227928772, 51.315472287689758 ] } },
{ "type": "Feature", "properties": { "max_height": 15.421751022338867, "mean_height": 11.216070175170898, "std_height": 3.2744333744049072, "count_pixels": 40, "percent_cover": 0.23004370830457788, "percent_above_0.1m": 100.0, "low_level_<0.5": 0.0, "mid_level_0.5-2": 0.0, "tall_2+": 100.0 }, "geometry": { "type": "Point", "coordinates": [ -0.402633541225751, 51.315469577138138 ] } },
{ "type": "Feature", "properties": { "max_height": 16.728000640869141, "mean_height": 12.037477493286133, "std_height": 4.2040815353393555, "count_pixels": 41, "percent_cover": 0.23579480101219233, "percent_above_0.1m": 100.0, "low_level_<0.5": 2.4390243902439024, "mid_level_0.5-2": 2.4390243902439024, "tall_2+": 95.121951219512198 }, "geometry": { "type": "Point", "coordinates": [ -0.402434803194705, 51.31546686624938 ] } },
{ "type": "Feature", "properties": { "max_height": 16.152755737304688, "mean_height": 5.4822516441345215, "std_height": 6.1621575355529785, "count_pixels": 42, "percent_cover": 0.24154589371980675, "percent_above_0.1m": 52.380952380952387, "low_level_<0.5": 0.0, "mid_level_0.5-2": 0.0, "tall_2+": 50.0 }, "geometry": { "type": "Point", "coordinates": [ -0.402236065194579, 51.315464155023491 ] } },
{ "type": "Feature", "properties": { "max_height": 0.049001693725585938, "mean_height": 0.018126487731933594, "std_height": 0.010657571256160736, "count_pixels": 42, "percent_cover": 0.24154589371980675, "percent_above_0.1m": 0.0, "low_level_<0.5": 0.0, "mid_level_0.5-2": 0.0, "tall_2+": 0.0 }, "geometry": { "type": "Point", "coordinates": [ -0.402037327225383, 51.315461443460471 ] } },
{ "type": "Feature", "properties": { "max_height": 0.0487518310546875, "mean_height": 0.014617210254073143, "std_height": 0.013399325311183929, "count_pixels": 43, "percent_cover": 0.24729698642742123, "percent_above_0.1m": 0.0, "low_level_<0.5": 0.0, "mid_level_0.5-2": 0.0, "tall_2+": 0.0 }, "geometry": { "type": "Point", "coordinates": [ -0.401838589287117, 51.315458731560312 ] } },
{ "type": "Feature", "properties": { "max_height": 21.708751678466797, "mean_height": 3.248140811920166, "std_height": 6.5307259559631348, "count_pixels": 43, "percent_cover": 0.24729698642742123, "percent_above_0.1m": 32.558139534883722, "low_level_<0.5": 4.6511627906976747, "mid_level_0.5-2": 6.9767441860465116, "tall_2+": 20.930232558139537 }, "geometry": { "type": "Point", "coordinates": [ -0.401639851371055, 51.315456019326639 ] } },
{ "type": "Feature", "properties": { "max_height": 16.609750747680664, "mean_height": 6.810551643371582, "std_height": 6.0844807624816895, "count_pixels": 44, "percent_cover": 0.25304807913503569, "percent_above_0.1m": 79.545454545454547, "low_level_<0.5": 2.2727272727272729, "mid_level_0.5-2": 13.636363636363635, "tall_2+": 63.636363636363633 }, "geometry": { "type": "Point", "coordinates": [ -0.401441113093362, 51.315453307086564 ] } },
{ "type": "Feature", "properties": { "max_height": 11.661750793457031, "mean_height": 4.2995772361755371, "std_height": 4.7692666053771973, "count_pixels": 43, "percent_cover": 0.24729698642742123, "percent_above_0.1m": 55.813953488372093, "low_level_<0.5": 0.0, "mid_level_0.5-2": 6.9767441860465116, "tall_2+": 48.837209302325576 }, "geometry": { "type": "Point", "coordinates": [ -0.403126641313496, 51.315584213444197 ] } },
{ "type": "Feature", "properties": { "max_height": 18.167755126953125, "mean_height": 13.32857608795166, "std_height": 4.2186369895935059, "count_pixels": 44, "percent_cover": 0.25304807913503569, "percent_above_0.1m": 100.0, "low_level_<0.5": 0.0, "mid_level_0.5-2": 2.2727272727272729, "tall_2+": 97.727272727272734 }, "geometry": { "type": "Point", "coordinates": [ -0.402927902740611, 51.315581503387364 ] } },
{ "type": "Feature", "properties": { "max_height": 15.789253234863281, "mean_height": 7.4682631492614746, "std_height": 5.409480094909668, "count_pixels": 44, "percent_cover": 0.25304807913503569, "percent_above_0.1m": 86.36363636363636, "low_level_<0.5": 6.8181818181818175, "mid_level_0.5-2": 2.2727272727272729, "tall_2+": 77.272727272727266 }, "geometry": { "type": "Point", "coordinates": [ -0.40272916419864, 51.315578792993406 ] } },
{ "type": "Feature", "properties": { "max_height": 16.442005157470703, "mean_height": 7.6060771942138672, "std_height": 4.7592744827270508, "count_pixels": 43, "percent_cover": 0.24729698642742123, "percent_above_0.1m": 100.0, "low_level_<0.5": 0.0, "mid_level_0.5-2": 13.953488372093023, "tall_2+": 86.04651162790698 }, "geometry": { "type": "Point", "coordinates": [ -0.402530425687587, 51.315576082262304 ] } },
{ "type": "Feature", "properties": { "max_height": 16.211753845214844, "mean_height": 11.400698661804199, "std_height": 3.7060770988464355, "count_pixels": 42, "percent_cover": 0.24154589371980675, "percent_above_0.1m": 97.61904761904762, "low_level_<0.5": 0.0, "mid_level_0.5-2": 2.3809523809523809, "tall_2+": 95.238095238095227 }, "geometry": { "type": "Point", "coordinates": [ -0.402331687207459, 51.31557337119407 ] } },
{ "type": "Feature", "properties": { "max_height": 2.4877510070800781, "mean_height": 0.082882016897201538, "std_height": 0.37621751427650452, "count_pixels": 42, "percent_cover": 0.24154589371980675, "percent_above_0.1m": 4.7619047619047619, "low_level_<0.5": 0.0, "mid_level_0.5-2": 0.0, "tall_2+": 2.3809523809523809 }, "geometry": { "type": "Point", "coordinates": [ -0.402132948758251, 51.315570659788698 ] } },
{ "type": "Feature", "properties": { "max_height": 0.032751083374023438, "mean_height": 0.013159868307411671, "std_height": 0.010102075524628162, "count_pixels": 41, "percent_cover": 0.23579480101219233, "percent_above_0.1m": 0.0, "low_level_<0.5": 0.0, "mid_level_0.5-2": 0.0, "tall_2+": 0.0 }, "geometry": { "type": "Point", "coordinates": [ -0.401934210339977, 51.315567948046208 ] } },
{ "type": "Feature", "properties": { "max_height": 11.722251892089844, "mean_height": 2.3238911628723145, "std_height": 3.5922462940216064, "count_pixels": 41, "percent_cover": 0.23579480101219233, "percent_above_0.1m": 46.341463414634148, "low_level_<0.5": 0.0, "mid_level_0.5-2": 19.512195121951219, "tall_2+": 26.829268292682929 }, "geometry": { "type": "Point", "coordinates": [ -0.401735471952635, 51.315565235966574 ] } },
{ "type": "Feature", "properties": { "max_height": 18.057750701904297, "mean_height": 6.4364948272705078, "std_height": 4.9435563087463379, "count_pixels": 36, "percent_cover": 0.20703933747412009, "percent_above_0.1m": 91.666666666666657, "low_level_<0.5": 8.3333333333333321, "mid_level_0.5-2": 11.111111111111111, "tall_2+": 72.222222222222214 }, "geometry": { "type": "Point", "coordinates": [ -0.401536733403152, 51.315562523642775 ] } },
{ "type": "Feature", "properties": { "max_height": 9.6970005035400391, "mean_height": 0.87185096740722656, "std_height": 2.1307263374328613, "count_pixels": 40, "percent_cover": 0.23004370830457788, "percent_above_0.1m": 25.0, "low_level_<0.5": 2.5, "mid_level_0.5-2": 5.0, "tall_2+": 15.0 }, "geometry": { "type": "Point", "coordinates": [ -0.401337994446426, 51.315559811476909 ] } },
{ "type": "Feature", "properties": { "max_height": 1.0740013122558594, "mean_height": 0.027270432561635971, "std_height": 0.16552016139030457, "count_pixels": 41, "percent_cover": 0.23579480101219233, "percent_above_0.1m": 2.4390243902439024, "low_level_<0.5": 0.0, "mid_level_0.5-2": 2.4390243902439024, "tall_2+": 0.0 }, "geometry": { "type": "Point", "coordinates": [ -0.403222265695469, 51.315693428908524 ] } },
{ "type": "Feature", "properties": { "max_height": 15.066249847412109, "mean_height": 5.8111467361450195, "std_height": 5.1905183792114258, "count_pixels": 40, "percent_cover": 0.23004370830457788, "percent_above_0.1m": 77.5, "low_level_<0.5": 2.5, "mid_level_0.5-2": 7.5, "tall_2+": 67.5 }, "geometry": { "type": "Point", "coordinates": [ -0.403023526642579, 51.315690719009368 ] } },
{ "type": "Feature", "properties": { "max_height": 13.660003662109375, "mean_height": 1.2675013542175293, "std_height": 3.1742839813232422, "count_pixels": 36, "percent_cover": 0.20703933747412009, "percent_above_0.1m": 16.666666666666664, "low_level_<0.5": 0.0, "mid_level_0.5-2": 2.7777777777777777, "tall_2+": 13.888888888888889 }, "geometry": { "type": "Point", "coordinates": [ -0.402824787620605, 51.31568800877308 ] } },
{ "type": "Feature", "properties": { "max_height": 18.294750213623047, "mean_height": 9.4796266555786133, "std_height": 5.8106842041015625, "count_pixels": 40, "percent_cover": 0.23004370830457788, "percent_above_0.1m": 87.5, "low_level_<0.5": 0.0, "mid_level_0.5-2": 7.5, "tall_2+": 80.0 }, "geometry": { "type": "Point", "coordinates": [ -0.402626048629547, 51.315685298199639 ] } },
{ "type": "Feature", "properties": { "max_height": 16.811250686645508, "mean_height": 6.730288028717041, "std_height": 5.4068722724914551, "count_pixels": 41, "percent_cover": 0.23579480101219233, "percent_above_0.1m": 87.804878048780495, "low_level_<0.5": 2.4390243902439024, "mid_level_0.5-2": 9.7560975609756095, "tall_2+": 75.609756097560975 }, "geometry": { "type": "Point", "coordinates": [ -0.402427309669404, 51.315682587289068 ] } },
{ "type": "Feature", "properties": { "max_height": 13.574752807617188, "mean_height": 1.7545609474182129, "std_height": 3.5118105411529541, "count_pixels": 42, "percent_cover": 0.24154589371980675, "percent_above_0.1m": 30.952380952380953, "low_level_<0.5": 4.7619047619047619, "mid_level_0.5-2": 4.7619047619047619, "tall_2+": 21.428571428571427 }, "geometry": { "type": "Point", "coordinates": [ -0.402228570740193, 51.315679876041365 ] } },
{ "type": "Feature", "properties": { "max_height": 0.033002853393554688, "mean_height": 0.0099596297368407249, "std_height": 0.010596885345876217, "count_pixels": 42, "percent_cover": 0.24154589371980675, "percent_above_0.1m": 0.0, "low_level_<0.5": 0.0, "mid_level_0.5-2": 0.0, "tall_2+": 0.0 }, "geometry": { "type": "Point", "coordinates": [ -0.402029831841905, 51.315677164456517 ] } },
{ "type": "Feature", "properties": { "max_height": 14.342500686645508, "mean_height": 4.9833269119262695, "std_height": 4.9108991622924805, "count_pixels": 43, "percent_cover": 0.24729698642742123, "percent_above_0.1m": 67.441860465116278, "low_level_<0.5": 4.6511627906976747, "mid_level_0.5-2": 2.3255813953488373, "tall_2+": 60.465116279069761 }, "geometry": { "type": "Point", "coordinates": [ -0.40183109297455, 51.315674452534545 ] } },
{ "type": "Feature", "properties": { "max_height": 25.322502136230469, "mean_height": 8.7880544662475586, "std_height": 7.3645119667053223, "count_pixels": 43, "percent_cover": 0.24729698642742123, "percent_above_0.1m": 88.372093023255815, "low_level_<0.5": 0.0, "mid_level_0.5-2": 13.953488372093023, "tall_2+": 74.418604651162795 }, "geometry": { "type": "Point", "coordinates": [ -0.401632354116008, 51.3156717402846 ] } },
{ "type": "Feature", "properties": { "max_height": 15.027999877929688, "mean_height": 0.91619974374771118, "std_height": 2.4786868095397949, "count_pixels": 44, "percent_cover": 0.25304807913503569, "percent_above_0.1m": 45.454545454545453, "low_level_<0.5": 9.0909090909090917, "mid_level_0.5-2": 22.727272727272727, "tall_2+": 11.363636363636363 }, "geometry": { "type": "Point", "coordinates": [ -0.401433614885253, 51.315669028049349 ] } },
{ "type": "Feature", "properties": { "max_height": 16.988502502441406, "mean_height": 11.150275230407715, "std_height": 5.1581673622131348, "count_pixels": 43, "percent_cover": 0.24729698642742123, "percent_above_0.1m": 93.023255813953483, "low_level_<0.5": 0.0, "mid_level_0.5-2": 4.6511627906976747, "tall_2+": 88.372093023255815 }, "geometry": { "type": "Point", "coordinates": [ -0.403119150993633, 51.315799934555777 ] } },
{ "type": "Feature", "properties": { "max_height": 15.874004364013672, "mean_height": 5.2186617851257324, "std_height": 5.9801855087280273, "count_pixels": 44, "percent_cover": 0.25304807913503569, "percent_above_0.1m": 54.54545454545454, "low_level_<0.5": 0.0, "mid_level_0.5-2": 6.8181818181818175, "tall_2+": 47.727272727272727 }, "geometry": { "type": "Point", "coordinates": [ -0.402920411491651, 51.315797224477159 ] } },
{ "type": "Feature", "properties": { "max_height": 10.812252044677734, "mean_height": 0.7295074462890625, "std_height": 2.3035883903503418, "count_pixels": 44, "percent_cover": 0.25304807913503569, "percent_above_0.1m": 13.636363636363635, "low_level_<0.5": 2.2727272727272729, "mid_level_0.5-2": 0.0, "tall_2+": 11.363636363636363 }, "geometry": { "type": "Point", "coordinates": [ -0.402721672020585, 51.315794514061395 ] } },
{ "type": "Feature", "properties": { "max_height": 18.081750869750977, "mean_height": 13.939249992370605, "std_height": 4.6265902519226074, "count_pixels": 43, "percent_cover": 0.24729698642742123, "percent_above_0.1m": 97.674418604651152, "low_level_<0.5": 0.0, "mid_level_0.5-2": 4.6511627906976747, "tall_2+": 93.023255813953483 }, "geometry": { "type": "Point", "coordinates": [ -0.402522932580432, 51.315791803308485 ] } },
{ "type": "Feature", "properties": { "max_height": 16.623500823974609, "mean_height": 8.051508903503418, "std_height": 5.6732869148254395, "count_pixels": 42, "percent_cover": 0.24154589371980675, "percent_above_0.1m": 83.333333333333343, "low_level_<0.5": 2.3809523809523809, "mid_level_0.5-2": 7.1428571428571423, "tall_2+": 73.80952380952381 }, "geometry": { "type": "Point", "coordinates": [ -0.402324193171208, 51.315789092218438 ] } },
{ "type": "Feature", "properties": { "max_height": 16.288749694824219, "mean_height": 5.1343526840209961, "std_height": 5.9387602806091309, "count_pixels": 42, "percent_cover": 0.24154589371980675, "percent_above_0.1m": 57.142857142857139, "low_level_<0.5": 4.7619047619047619, "mid_level_0.5-2": 2.3809523809523809, "tall_2+": 50.0 }, "geometry": { "type": "Point", "coordinates": [ -0.402125453792907, 51.315786380791259 ] } },
{ "type": "Feature", "properties": { "max_height": 0.47575187683105469, "mean_height": 0.011921952478587627, "std_height": 0.073357008397579193, "count_pixels": 41, "percent_cover": 0.23579480101219233, "percent_above_0.1m": 2.4390243902439024, "low_level_<0.5": 2.4390243902439024, "mid_level_0.5-2": 0.0, "tall_2+": 0.0 }, "geometry": { "type": "Point", "coordinates": [ -0.401926714445534, 51.315783669026935 ] } },
{ "type": "Feature", "properties": { "max_height": 3.8532524108886719, "mean_height": 0.097055897116661072, "std_height": 0.59411066770553589, "count_pixels": 41, "percent_cover": 0.23579480101219233, "percent_above_0.1m": 2.4390243902439024, "low_level_<0.5": 0.0, "mid_level_0.5-2": 0.0, "tall_2+": 2.4390243902439024 }, "geometry": { "type": "Point", "coordinates": [ -0.401727975129099, 51.315780956925479 ] } },
{ "type": "Feature", "properties": { "max_height": 26.599254608154297, "mean_height": 4.0338621139526367, "std_height": 7.4070076942443848, "count_pixels": 36, "percent_cover": 0.20703933747412009, "percent_above_0.1m": 52.777777777777779, "low_level_<0.5": 2.7777777777777777, "mid_level_0.5-2": 13.888888888888889, "tall_2+": 27.777777777777779 }, "geometry": { "type": "Point", "coordinates": [ -0.40152923563004, 51.315778244601553 ] } },
{ "type": "Feature", "properties": { "max_height": 11.120502471923828, "mean_height": 1.1701059341430664, "std_height": 2.7326681613922119, "count_pixels": 41, "percent_cover": 0.23579480101219233, "percent_above_0.1m": 21.951219512195124, "low_level_<0.5": 0.0, "mid_level_0.5-2": 2.4390243902439024, "tall_2+": 19.512195121951219 }, "geometry": { "type": "Point", "coordinates": [ -0.403214775793773, 51.315909150026606 ] } },
{ "type": "Feature", "properties": { "max_height": 12.321250915527344, "mean_height": 2.7090144157409668, "std_height": 4.0437607765197754, "count_pixels": 40, "percent_cover": 0.23004370830457788, "percent_above_0.1m": 42.5, "low_level_<0.5": 0.0, "mid_level_0.5-2": 7.5, "tall_2+": 35.0 }, "geometry": { "type": "Point", "coordinates": [ -0.403016035811783, 51.315906440105643 ] } },
{ "type": "Feature", "properties": { "max_height": 0.009250640869140625, "mean_height": 0.00050205655861645937, "std_height": 0.0032721161842346191, "count_pixels": 36, "percent_cover": 0.20703933747412009, "percent_above_0.1m": 0.0, "low_level_<0.5": 0.0, "mid_level_0.5-2": 0.0, "tall_2+": 0.0 }, "geometry": { "type": "Point", "coordinates": [ -0.402817295860701, 51.315903729847555 ] } },
{ "type": "Feature", "properties": { "max_height": 17.739751815795898, "mean_height": 3.999596118927002, "std_height": 5.9701652526855469, "count_pixels": 40, "percent_cover": 0.23004370830457788, "percent_above_0.1m": 37.5, "low_level_<0.5": 0.0, "mid_level_0.5-2": 0.0, "tall_2+": 37.5 }, "geometry": { "type": "Point", "coordinates": [ -0.402618555940543, 51.315901019252308 ] } },
{ "type": "Feature", "properties": { "max_height": 18.148502349853516, "mean_height": 12.519733428955078, "std_height": 5.2025313377380371, "count_pixels": 41, "percent_cover": 0.23579480101219233, "percent_above_0.1m": 95.121951219512198, "low_level_<0.5": 0.0, "mid_level_0.5-2": 2.4390243902439024, "tall_2+": 92.682926829268297 }, "geometry": { "type": "Point", "coordinates": [ -0.402419816051301, 51.315898308319937 ] } },
{ "type": "Feature", "properties": { "max_height": 18.911750793457031, "mean_height": 15.33967399597168, "std_height": 3.5810754299163818, "count_pixels": 42, "percent_cover": 0.24154589371980675, "percent_above_0.1m": 100.0, "low_level_<0.5": 0.0, "mid_level_0.5-2": 0.0, "tall_2+": 100.0 }, "geometry": { "type": "Point", "coordinates": [ -0.402221076192983, 51.315895597050414 ] } },
{ "type": "Feature", "properties": { "max_height": 17.351499557495117, "mean_height": 13.192699432373047, "std_height": 3.7299163341522217, "count_pixels": 42, "percent_cover": 0.24154589371980675, "percent_above_0.1m": 100.0, "low_level_<0.5": 0.0, "mid_level_0.5-2": 2.3809523809523809, "tall_2+": 97.61904761904762 }, "geometry": { "type": "Point", "coordinates": [ -0.402022336365597, 51.315892885443752 ] } },
{ "type": "Feature", "properties": { "max_height": 8.8627510070800781, "mean_height": 1.0492042303085327, "std_height": 2.3858411312103271, "count_pixels": 43, "percent_cover": 0.24729698642742123, "percent_above_0.1m": 23.255813953488371, "low_level_<0.5": 0.0, "mid_level_0.5-2": 6.9767441860465116, "tall_2+": 16.279069767441861 }, "geometry": { "type": "Point", "coordinates": [ -0.401823596569135, 51.315890173499959 ] } },
{ "type": "Feature", "properties": { "max_height": 24.336999893188477, "mean_height": 4.8427395820617676, "std_height": 6.366549015045166, "count_pixels": 43, "percent_cover": 0.24729698642742123, "percent_above_0.1m": 67.441860465116278, "low_level_<0.5": 9.3023255813953494, "mid_level_0.5-2": 13.953488372093023, "tall_2+": 44.186046511627907 }, "geometry": { "type": "Point", "coordinates": [ -0.401624856767647, 51.31588746123397 ] } },
{ "type": "Feature", "properties": { "max_height": 16.041751861572266, "mean_height": 6.2217764854431152, "std_height": 5.973691463470459, "count_pixels": 42, "percent_cover": 0.24154589371980675, "percent_above_0.1m": 64.285714285714292, "low_level_<0.5": 0.0, "mid_level_0.5-2": 4.7619047619047619, "tall_2+": 59.523809523809526 }, "geometry": { "type": "Point", "coordinates": [ -0.403310401043004, 51.316018365421854 ] } },
{ "type": "Feature", "properties": { "max_height": 16.970504760742188, "mean_height": 9.1031589508056641, "std_height": 6.5513348579406738, "count_pixels": 43, "percent_cover": 0.24729698642742123, "percent_above_0.1m": 76.744186046511629, "low_level_<0.5": 0.0, "mid_level_0.5-2": 6.9767441860465116, "tall_2+": 69.767441860465112 }, "geometry": { "type": "Point", "coordinates": [ -0.403111660581003, 51.31601565565856 ] } },
{ "type": "Feature", "properties": { "max_height": 5.7595024108886719, "mean_height": 0.15009818971157074, "std_height": 0.86077547073364258, "count_pixels": 44, "percent_cover": 0.25304807913503569, "percent_above_0.1m": 6.8181818181818175, "low_level_<0.5": 2.2727272727272729, "mid_level_0.5-2": 2.2727272727272729, "tall_2+": 2.2727272727272729 }, "geometry": { "type": "Point", "coordinates": [ -0.40291292014991, 51.316012945558121 ] } },
{ "type": "Feature", "properties": { "max_height": 9.8082504272460938, "mean_height": 1.3280810117721558, "std_height": 2.8414645195007324, "count_pixels": 44, "percent_cover": 0.25304807913503569, "percent_above_0.1m": 31.818181818181817, "low_level_<0.5": 4.5454545454545459, "mid_level_0.5-2": 4.5454545454545459, "tall_2+": 20.454545454545457 }, "geometry": { "type": "Point", "coordinates": [ -0.402714179749735, 51.316010235120558 ] } },
{ "type": "Feature", "properties": { "max_height": 15.662752151489258, "mean_height": 1.022419810295105, "std_height": 2.8863053321838379, "count_pixels": 43, "percent_cover": 0.24729698642742123, "percent_above_0.1m": 18.604651162790699, "low_level_<0.5": 0.0, "mid_level_0.5-2": 0.0, "tall_2+": 16.279069767441861 }, "geometry": { "type": "Point", "coordinates": [ -0.402515439380475, 51.316007524345835 ] } },
{ "type": "Feature", "properties": { "max_height": 21.1405029296875, "mean_height": 9.8504419326782227, "std_height": 7.3358850479125977, "count_pixels": 42, "percent_cover": 0.24154589371980675, "percent_above_0.1m": 78.571428571428569, "low_level_<0.5": 0.0, "mid_level_0.5-2": 4.7619047619047619, "tall_2+": 73.80952380952381 }, "geometry": { "type": "Point", "coordinates": [ -0.402316699042141, 51.316004813234002 ] } },
{ "type": "Feature", "properties": { "max_height": 20.379753112792969, "mean_height": 12.027745246887207, "std_height": 5.273435115814209, "count_pixels": 42, "percent_cover": 0.24154589371980675, "percent_above_0.1m": 97.61904761904762, "low_level_<0.5": 2.3809523809523809, "mid_level_0.5-2": 4.7619047619047619, "tall_2+": 90.476190476190482 }, "geometry": { "type": "Point", "coordinates": [ -0.402117958734732, 51.316002101784989 ] } },
{ "type": "Feature", "properties": { "max_height": 11.422252655029297, "mean_height": 0.93031841516494751, "std_height": 2.6385231018066406, "count_pixels": 41, "percent_cover": 0.23579480101219233, "percent_above_0.1m": 17.073170731707318, "low_level_<0.5": 2.4390243902439024, "mid_level_0.5-2": 2.4390243902439024, "tall_2+": 12.195121951219512 }, "geometry": { "type": "Point", "coordinates": [ -0.401919218458255, 51.315999389998851 ] } },
{ "type": "Feature", "properties": { "max_height": 22.681499481201172, "mean_height": 8.958317756652832, "std_height": 5.1611652374267578, "count_pixels": 41, "percent_cover": 0.23579480101219233, "percent_above_0.1m": 92.682926829268297, "low_level_<0.5": 0.0, "mid_level_0.5-2": 4.8780487804878048, "tall_2+": 87.804878048780495 }, "geometry": { "type": "Point", "coordinates": [ -0.401720478212714, 51.315996677875582 ] } },
{ "type": "Feature", "properties": { "max_height": 15.371753692626953, "mean_height": 5.7061476707458496, "std_height": 5.513740062713623, "count_pixels": 36, "percent_cover": 0.20703933747412009, "percent_above_0.1m": 63.888888888888886, "low_level_<0.5": 0.0, "mid_level_0.5-2": 5.5555555555555554, "tall_2+": 58.333333333333336 }, "geometry": { "type": "Point", "coordinates": [ -0.401521737763477, 51.315993965552323 ] } },
{ "type": "Feature", "properties": { "max_height": 1.5370025634765625, "mean_height": 0.038043521344661713, "std_height": 0.23413510620594025, "count_pixels": 42, "percent_cover": 0.24154589371980675, "percent_above_0.1m": 2.3809523809523809, "low_level_<0.5": 0.0, "mid_level_0.5-2": 2.3809523809523809, "tall_2+": 0.0 }, "geometry": { "type": "Point", "coordinates": [ -0.40340602674133, 51.316127580741515 ] } },
{ "type": "Feature", "properties": { "max_height": 16.329002380371094, "mean_height": 3.9122216701507568, "std_height": 5.0283236503601074, "count_pixels": 41, "percent_cover": 0.23579480101219233, "percent_above_0.1m": 51.219512195121951, "low_level_<0.5": 2.4390243902439024, "mid_level_0.5-2": 7.3170731707317067, "tall_2+": 41.463414634146339 }, "geometry": { "type": "Point", "coordinates": [ -0.403207285799315, 51.316124871135877 ] } },
{ "type": "Feature", "properties": { "max_height": 0.00875091552734375, "mean_height": -1.0585785275907256e-05, "std_height": 0.0029038337524980307, "count_pixels": 40, "percent_cover": 0.23004370830457788, "percent_above_0.1m": 0.0, "low_level_<0.5": 0.0, "mid_level_0.5-2": 0.0, "tall_2+": 0.0 }, "geometry": { "type": "Point", "coordinates": [ -0.403008544888208, 51.316122161193121 ] } },
{ "type": "Feature", "properties": { "max_height": 12.437004089355469, "mean_height": 4.3047528266906738, "std_height": 4.821082592010498, "count_pixels": 36, "percent_cover": 0.20703933747412009, "percent_above_0.1m": 55.555555555555557, "low_level_<0.5": 0.0, "mid_level_0.5-2": 5.5555555555555554, "tall_2+": 50.0 }, "geometry": { "type": "Point", "coordinates": [ -0.402809804008013, 51.316119450913206 ] } },
{ "type": "Feature", "properties": { "max_height": 12.332500457763672, "mean_height": 2.200770378112793, "std_height": 3.9864675998687744, "count_pixels": 40, "percent_cover": 0.23004370830457788, "percent_above_0.1m": 32.5, "low_level_<0.5": 2.5, "mid_level_0.5-2": 5.0, "tall_2+": 25.0 }, "geometry": { "type": "Point", "coordinates": [ -0.402611063158738, 51.316116740296145 ] } },
{ "type": "Feature", "properties": { "max_height": 6.3667507171630859, "mean_height": 0.44054394960403442, "std_height": 1.2289208173751831, "count_pixels": 41, "percent_cover": 0.23579480101219233, "percent_above_0.1m": 17.073170731707318, "low_level_<0.5": 2.4390243902439024, "mid_level_0.5-2": 2.4390243902439024, "tall_2+": 12.195121951219512 }, "geometry": { "type": "Point", "coordinates": [ -0.402412322340383, 51.316114029341968 ] } },
{ "type": "Feature", "properties": { "max_height": 22.004751205444336, "mean_height": 12.067686080932617, "std_height": 5.4933657646179199, "count_pixels": 42, "percent_cover": 0.24154589371980675, "percent_above_0.1m": 97.61904761904762, "low_level_<0.5": 0.0, "mid_level_0.5-2": 2.3809523809523809, "tall_2+": 95.238095238095227 }, "geometry": { "type": "Point", "coordinates": [ -0.402213581552952, 51.316111318050631 ] } },
{ "type": "Feature", "properties": { "max_height": 20.40350341796875, "mean_height": 1.4203758239746094, "std_height": 3.9491398334503174, "count_pixels": 42, "percent_cover": 0.24154589371980675, "percent_above_0.1m": 21.428571428571427, "low_level_<0.5": 0.0, "mid_level_0.5-2": 9.5238095238095237, "tall_2+": 11.904761904761903 }, "geometry": { "type": "Point", "coordinates": [ -0.402014840796449, 51.316108606422169 ] } },
{ "type": "Feature", "properties": { "max_height": 19.076253890991211, "mean_height": 4.0586175918579102, "std_height": 6.1442632675170898, "count_pixels": 43, "percent_cover": 0.24729698642742123, "percent_above_0.1m": 39.534883720930232, "low_level_<0.5": 4.6511627906976747, "mid_level_0.5-2": 2.3255813953488373, "tall_2+": 32.558139534883722 }, "geometry": { "type": "Point", "coordinates": [ -0.401816100070885, 51.316105894456555 ] } },
{ "type": "Feature", "properties": { "max_height": 23.249002456665039, "mean_height": 4.1480660438537598, "std_height": 5.4541516304016113, "count_pixels": 43, "percent_cover": 0.24729698642742123, "percent_above_0.1m": 86.04651162790698, "low_level_<0.5": 11.627906976744185, "mid_level_0.5-2": 30.232558139534881, "tall_2+": 41.860465116279073 }, "geometry": { "type": "Point", "coordinates": [ -0.401617359325972, 51.316103182174743 ] } },
{ "type": "Feature", "properties": { "max_height": 7.4120025634765625, "mean_height": 0.39556702971458435, "std_height": 1.268785834312439, "count_pixels": 42, "percent_cover": 0.24154589371980675, "percent_above_0.1m": 16.666666666666664, "low_level_<0.5": 4.7619047619047619, "mid_level_0.5-2": 4.7619047619047619, "tall_2+": 7.1428571428571423 }, "geometry": { "type": "Point", "coordinates": [ -0.403501652888754, 51.316236795985553 ] } },
{ "type": "Feature", "properties": { "max_height": 15.062000274658203, "mean_height": 4.6410799026489258, "std_height": 5.3387260437011719, "count_pixels": 42, "percent_cover": 0.24154589371980675, "percent_above_0.1m": 64.285714285714292, "low_level_<0.5": 0.0, "mid_level_0.5-2": 14.285714285714285, "tall_2+": 47.619047619047613 }, "geometry": { "type": "Point", "coordinates": [ -0.403302911466724, 51.316234086537605 ] } },
{ "type": "Feature", "properties": { "max_height": 1.0922508239746094, "mean_height": 0.026118522509932518, "std_height": 0.16454701125621796, "count_pixels": 43, "percent_cover": 0.24729698642742123, "percent_above_0.1m": 2.3255813953488373, "low_level_<0.5": 0.0, "mid_level_0.5-2": 2.3255813953488373, "tall_2+": 0.0 }, "geometry": { "type": "Point", "coordinates": [ -0.4031041700756, 51.316231376752512 ] } },
{ "type": "Feature", "properties": { "max_height": 2.9722518920898438, "mean_height": 0.073768965899944305, "std_height": 0.44308537244796753, "count_pixels": 44, "percent_cover": 0.25304807913503569, "percent_above_0.1m": 4.5454545454545459, "low_level_<0.5": 2.2727272727272729, "mid_level_0.5-2": 0.0, "tall_2+": 2.2727272727272729 }, "geometry": { "type": "Point", "coordinates": [ -0.402905428715387, 51.316228666630273 ] } },
{ "type": "Feature", "properties": { "max_height": 8.70574951171875, "mean_height": 0.73692202568054199, "std_height": 1.7987011671066284, "count_pixels": 44, "percent_cover": 0.25304807913503569, "percent_above_0.1m": 22.727272727272727, "low_level_<0.5": 2.2727272727272729, "mid_level_0.5-2": 4.5454545454545459, "tall_2+": 15.909090909090908 }, "geometry": { "type": "Point", "coordinates": [ -0.402706687386092, 51.316225956170896 ] } },
{ "type": "Feature", "properties": { "max_height": 2.97650146484375, "mean_height": 0.15143141150474548, "std_height": 0.5732308030128479, "count_pixels": 43, "percent_cover": 0.24729698642742123, "percent_above_0.1m": 6.9767441860465116, "low_level_<0.5": 0.0, "mid_level_0.5-2": 2.3255813953488373, "tall_2+": 4.6511627906976747 }, "geometry": { "type": "Point", "coordinates": [ -0.402507946087712, 51.316223245374367 ] } },
{ "type": "Feature", "properties": { "max_height": 7.0772514343261719, "mean_height": 0.43456083536148071, "std_height": 1.331942081451416, "count_pixels": 42, "percent_cover": 0.24154589371980675, "percent_above_0.1m": 11.904761904761903, "low_level_<0.5": 0.0, "mid_level_0.5-2": 0.0, "tall_2+": 11.904761904761903 }, "geometry": { "type": "Point", "coordinates": [ -0.402309204820258, 51.316220534240699 ] } },
{ "type": "Feature", "properties": { "max_height": 2.2882499694824219, "mean_height": 0.066090263426303864, "std_height": 0.35189080238342285, "count_pixels": 42, "percent_cover": 0.24154589371980675, "percent_above_0.1m": 4.7619047619047619, "low_level_<0.5": 2.3809523809523809, "mid_level_0.5-2": 0.0, "tall_2+": 2.3809523809523809 }, "geometry": { "type": "Point", "coordinates": [ -0.40211046358373, 51.316217822769886 ] } },
{ "type": "Feature", "properties": { "max_height": 0.022001266479492188, "mean_height": 0.0029399686027318239, "std_height": 0.0064299642108380795, "count_pixels": 41, "percent_cover": 0.23579480101219233, "percent_above_0.1m": 0.0, "low_level_<0.5": 0.0, "mid_level_0.5-2": 0.0, "tall_2+": 0.0 }, "geometry": { "type": "Point", "coordinates": [ -0.401911722378137, 51.316215110961934 ] } },
{ "type": "Feature", "properties": { "max_height": 5.7985000610351562, "mean_height": 0.29933017492294312, "std_height": 0.91237610578536987, "count_pixels": 41, "percent_cover": 0.23579480101219233, "percent_above_0.1m": 36.585365853658537, "low_level_<0.5": 17.073170731707318, "mid_level_0.5-2": 12.195121951219512, "tall_2+": 2.4390243902439024 }, "geometry": { "type": "Point", "coordinates": [ -0.401712981203475, 51.316212398816837 ] } },
{ "type": "Feature", "properties": { "max_height": 0.89525032043457031, "mean_height": 0.053390130400657654, "std_height": 0.18600910902023315, "count_pixels": 36, "percent_cover": 0.20703933747412009, "percent_above_0.1m": 8.3333333333333321, "low_level_<0.5": 2.7777777777777777, "mid_level_0.5-2": 5.5555555555555554, "tall_2+": 0.0 }, "geometry": { "type": "Point", "coordinates": [ -0.401514239803468, 51.316209686495071 ] } },
{ "type": "Feature", "properties": { "max_height": 0.0019989013671875, "mean_height": -0.0011945451842620969, "std_height": 0.0037735674995929003, "count_pixels": 42, "percent_cover": 0.24154589371980675, "percent_above_0.1m": 0.0, "low_level_<0.5": 0.0, "mid_level_0.5-2": 0.0, "tall_2+": 0.0 }, "geometry": { "type": "Point", "coordinates": [ -0.403597279485284, 51.316346011154025 ] } },
{ "type": "Feature", "properties": { "max_height": 14.396003723144531, "mean_height": 5.64837646484375, "std_height": 4.374056339263916, "count_pixels": 42, "percent_cover": 0.24154589371980675, "percent_above_0.1m": 73.80952380952381, "low_level_<0.5": 0.0, "mid_level_0.5-2": 2.3809523809523809, "tall_2+": 71.428571428571431 }, "geometry": { "type": "Point", "coordinates": [ -0.403398537583232, 51.316343301863746 ] } },
{ "type": "Feature", "properties": { "max_height": 12.898002624511719, "mean_height": 2.7848007678985596, "std_height": 3.8409662246704102, "count_pixels": 41, "percent_cover": 0.23579480101219233, "percent_above_0.1m": 58.536585365853654, "low_level_<0.5": 4.8780487804878048, "mid_level_0.5-2": 12.195121951219512, "tall_2+": 41.463414634146339 }, "geometry": { "type": "Point", "coordinates": [ -0.40319979571209, 51.316340592236322 ] } },
{ "type": "Feature", "properties": { "max_height": 5.3697509765625, "mean_height": 0.46098232269287109, "std_height": 1.215869665145874, "count_pixels": 40, "percent_cover": 0.23004370830457788, "percent_above_0.1m": 20.0, "low_level_<0.5": 5.0, "mid_level_0.5-2": 5.0, "tall_2+": 10.0 }, "geometry": { "type": "Point", "coordinates": [ -0.403001053871857, 51.316337882271739 ] } },
{ "type": "Feature", "properties": { "max_height": 17.200752258300781, "mean_height": 11.429696083068848, "std_height": 3.3946197032928467, "count_pixels": 36, "percent_cover": 0.20703933747412009, "percent_above_0.1m": 100.0, "low_level_<0.5": 0.0, "mid_level_0.5-2": 0.0, "tall_2+": 100.0 }, "geometry": { "type": "Point", "coordinates": [ -0.402802312062534, 51.316335171970032 ] } },
{ "type": "Feature", "properties": { "max_height": 16.981502532958984, "mean_height": 12.31940746307373, "std_height": 2.4283924102783203, "count_pixels": 40, "percent_cover": 0.23004370830457788, "percent_above_0.1m": 100.0, "low_level_<0.5": 0.0, "mid_level_0.5-2": 0.0, "tall_2+": 100.0 }, "geometry": { "type": "Point", "coordinates": [ -0.402603570284134, 51.316332461331179 ] } },
{ "type": "Feature", "properties": { "max_height": 13.019752502441406, "mean_height": 1.4169098138809204, "std_height": 3.3684136867523193, "count_pixels": 41, "percent_cover": 0.23579480101219233, "percent_above_0.1m": 21.951219512195124, "low_level_<0.5": 2.4390243902439024, "mid_level_0.5-2": 2.4390243902439024, "tall_2+": 17.073170731707318 }, "geometry": { "type": "Point", "coordinates": [ -0.402404828536654, 51.316329750355166 ] } },
{ "type": "Feature", "properties": { "max_height": 0.0067501068115234375, "mean_height": 0.00037011646782048047, "std_height": 0.0023887164425104856, "count_pixels": 42, "percent_cover": 0.24154589371980675, "percent_above_0.1m": 0.0, "low_level_<0.5": 0.0, "mid_level_0.5-2": 0.0, "tall_2+": 0.0 }, "geometry": { "type": "Point", "coordinates": [ -0.402206086820097, 51.316327039042015 ] } },
{ "type": "Feature", "properties": { "max_height": 0.025501251220703125, "mean_height": 0.0019116174662485719, "std_height": 0.0054751425050199032, "count_pixels": 42, "percent_cover": 0.24154589371980675, "percent_above_0.1m": 0.0, "low_level_<0.5": 0.0, "mid_level_0.5-2": 0.0, "tall_2+": 0.0 }, "geometry": { "type": "Point", "coordinates": [ -0.402007345134473, 51.316324327391747 ] } },
{ "type": "Feature", "properties": { "max_height": 14.820749282836914, "mean_height": 2.3869433403015137, "std_height": 4.4734592437744141, "count_pixels": 43, "percent_cover": 0.24729698642742123, "percent_above_0.1m": 32.558139534883722, "low_level_<0.5": 0.0, "mid_level_0.5-2": 9.3023255813953494, "tall_2+": 23.255813953488371 }, "geometry": { "type": "Point", "coordinates": [ -0.401808603479781, 51.316321615404313 ] } },
{ "type": "Feature", "properties": { "max_height": 15.051002502441406, "mean_height": 7.9124259948730469, "std_height": 5.6917009353637695, "count_pixels": 43, "percent_cover": 0.24729698642742123, "percent_above_0.1m": 83.720930232558146, "low_level_<0.5": 9.3023255813953494, "mid_level_0.5-2": 4.6511627906976747, "tall_2+": 69.767441860465112 }, "geometry": { "type": "Point", "coordinates": [ -0.401609861790988, 51.316318903106918 ] } },
{ "type": "Feature", "properties": { "max_height": 2.96600341796875, "mean_height": 0.082502275705337524, "std_height": 0.45742306113243103, "count_pixels": 42, "percent_cover": 0.24154589371980675, "percent_above_0.1m": 4.7619047619047619, "low_level_<0.5": 0.0, "mid_level_0.5-2": 2.3809523809523809, "tall_2+": 2.3809523809523809 }, "geometry": { "type": "Point", "coordinates": [ -0.403494164148847, 51.316452517114286 ] } },
{ "type": "Feature", "properties": { "max_height": 19.192001342773438, "mean_height": 9.5645856857299805, "std_height": 6.4882831573486328, "count_pixels": 42, "percent_cover": 0.24154589371980675, "percent_above_0.1m": 85.714285714285708, "low_level_<0.5": 2.3809523809523809, "mid_level_0.5-2": 4.7619047619047619, "tall_2+": 78.571428571428569 }, "geometry": { "type": "Point", "coordinates": [ -0.403295421797681, 51.316449807644531 ] } },
{ "type": "Feature", "properties": { "max_height": 18.830005645751953, "mean_height": 13.482518196105957, "std_height": 2.3839571475982666, "count_pixels": 43, "percent_cover": 0.24729698642742123, "percent_above_0.1m": 100.0, "low_level_<0.5": 0.0, "mid_level_0.5-2": 0.0, "tall_2+": 100.0 }, "geometry": { "type": "Point", "coordinates": [ -0.403096679477423, 51.316447097837631 ] } },
{ "type": "Feature", "properties": { "max_height": 20.164752960205078, "mean_height": 12.130071640014648, "std_height": 5.3380088806152344, "count_pixels": 44, "percent_cover": 0.25304807913503569, "percent_above_0.1m": 97.727272727272734, "low_level_<0.5": 2.2727272727272729, "mid_level_0.5-2": 2.2727272727272729, "tall_2+": 93.181818181818173 }, "geometry": { "type": "Point", "coordinates": [ -0.402897937188082, 51.316444387693593 ] } },
{ "type": "Feature", "properties": { "max_height": 19.316249847412109, "mean_height": 14.441861152648926, "std_height": 2.6503143310546875, "count_pixels": 44, "percent_cover": 0.25304807913503569, "percent_above_0.1m": 100.0, "low_level_<0.5": 0.0, "mid_level_0.5-2": 0.0, "tall_2+": 100.0 }, "geometry": { "type": "Point", "coordinates": [ -0.402699194929651, 51.316441677212396 ] } },
{ "type": "Feature", "properties": { "max_height": 20.961000442504883, "mean_height": 14.113693237304688, "std_height": 5.7351675033569336, "count_pixels": 43, "percent_cover": 0.24729698642742123, "percent_above_0.1m": 95.348837209302332, "low_level_<0.5": 0.0, "mid_level_0.5-2": 2.3255813953488373, "tall_2+": 93.023255813953483 }, "geometry": { "type": "Point", "coordinates": [ -0.402500452702141, 51.316438966394067 ] } },
{ "type": "Feature", "properties": { "max_height": 0.0057506561279296875, "mean_height": 0.00017406826373189688, "std_height": 0.0018752340693026781, "count_pixels": 42, "percent_cover": 0.24154589371980675, "percent_above_0.1m": 0.0, "low_level_<0.5": 0.0, "mid_level_0.5-2": 0.0, "tall_2+": 0.0 }, "geometry": { "type": "Point", "coordinates": [ -0.402301710505559, 51.316436255238571 ] } },
{ "type": "Feature", "properties": { "max_height": 20.962251663208008, "mean_height": 5.0129480361938477, "std_height": 7.2099828720092773, "count_pixels": 42, "percent_cover": 0.24154589371980675, "percent_above_0.1m": 47.619047619047613, "low_level_<0.5": 4.7619047619047619, "mid_level_0.5-2": 2.3809523809523809, "tall_2+": 40.476190476190474 }, "geometry": { "type": "Point", "coordinates": [ -0.402102968339901, 51.316433543745966 ] } },
{ "type": "Feature", "properties": { "max_height": 15.935501098632812, "mean_height": 1.7110379934310913, "std_height": 3.881464958190918, "count_pixels": 41, "percent_cover": 0.23579480101219233, "percent_above_0.1m": 21.951219512195124, "low_level_<0.5": 0.0, "mid_level_0.5-2": 4.8780487804878048, "tall_2+": 17.073170731707318 }, "geometry": { "type": "Point", "coordinates": [ -0.401904226205174, 51.3164308319162 ] } },
{ "type": "Feature", "properties": { "max_height": 14.315753936767578, "mean_height": 3.6660804748535156, "std_height": 4.9872651100158691, "count_pixels": 41, "percent_cover": 0.23579480101219233, "percent_above_0.1m": 56.09756097560976, "low_level_<0.5": 4.8780487804878048, "mid_level_0.5-2": 12.195121951219512, "tall_2+": 39.024390243902438 }, "geometry": { "type": "Point", "coordinates": [ -0.401705484101384, 51.316428119749261 ] } },
{ "type": "Feature", "properties": { "max_height": 17.453001022338867, "mean_height": 2.9712514877319336, "std_height": 5.1337437629699707, "count_pixels": 36, "percent_cover": 0.20703933747412009, "percent_above_0.1m": 38.888888888888893, "low_level_<0.5": 2.7777777777777777, "mid_level_0.5-2": 2.7777777777777777, "tall_2+": 33.333333333333329 }, "geometry": { "type": "Point", "coordinates": [ -0.401506741750001, 51.316425407429819 ] } },
{ "type": "Feature", "properties": { "max_height": 15.224002838134766, "mean_height": 2.4795322418212891, "std_height": 4.6621179580688477, "count_pixels": 42, "percent_cover": 0.24154589371980675, "percent_above_0.1m": 28.571428571428569, "low_level_<0.5": 0.0, "mid_level_0.5-2": 2.3809523809523809, "tall_2+": 26.190476190476193 }, "geometry": { "type": "Point", "coordinates": [ -0.403589791163568, 51.316561732289216 ] } },
{ "type": "Feature", "properties": { "max_height": 19.950752258300781, "mean_height": 14.548627853393555, "std_height": 4.1367573738098145, "count_pixels": 42, "percent_cover": 0.24154589371980675, "percent_above_0.1m": 100.0, "low_level_<0.5": 0.0, "mid_level_0.5-2": 0.0, "tall_2+": 100.0 }, "geometry": { "type": "Point", "coordinates": [ -0.40339104833238, 51.316559022977152 ] } },
{ "type": "Feature", "properties": { "max_height": 21.222503662109375, "mean_height": 15.663434028625488, "std_height": 2.7648656368255615, "count_pixels": 41, "percent_cover": 0.23579480101219233, "percent_above_0.1m": 100.0, "low_level_<0.5": 0.0, "mid_level_0.5-2": 0.0, "tall_2+": 100.0 }, "geometry": { "type": "Point", "coordinates": [ -0.403192305532096, 51.316556313327915 ] } },
{ "type": "Feature", "properties": { "max_height": 19.503501892089844, "mean_height": 15.580883979797363, "std_height": 2.3786520957946777, "count_pixels": 40, "percent_cover": 0.23004370830457788, "percent_above_0.1m": 100.0, "low_level_<0.5": 0.0, "mid_level_0.5-2": 0.0, "tall_2+": 100.0 }, "geometry": { "type": "Point", "coordinates": [ -0.402993562762724, 51.316553603341561 ] } },
{ "type": "Feature", "properties": { "max_height": 22.828502655029297, "mean_height": 16.566719055175781, "std_height": 3.3845925331115723, "count_pixels": 36, "percent_cover": 0.20703933747412009, "percent_above_0.1m": 100.0, "low_level_<0.5": 0.0, "mid_level_0.5-2": 0.0, "tall_2+": 100.0 }, "geometry": { "type": "Point", "coordinates": [ -0.402794820024265, 51.316550893018025 ] } },
{ "type": "Feature", "properties": { "max_height": 22.033252716064453, "mean_height": 16.127628326416016, "std_height": 4.7018799781799316, "count_pixels": 40, "percent_cover": 0.23004370830457788, "percent_above_0.1m": 100.0, "low_level_<0.5": 0.0, "mid_level_0.5-2": 0.0, "tall_2+": 100.0 }, "geometry": { "type": "Point", "coordinates": [ -0.402596077316727, 51.31654818235738 ] } },
{ "type": "Feature", "properties": { "max_height": 17.727252960205078, "mean_height": 2.5233795642852783, "std_height": 4.7939519882202148, "count_pixels": 41, "percent_cover": 0.23579480101219233, "percent_above_0.1m": 31.707317073170731, "low_level_<0.5": 2.4390243902439024, "mid_level_0.5-2": 2.4390243902439024, "tall_2+": 26.829268292682929 }, "geometry": { "type": "Point", "coordinates": [ -0.402397334640109, 51.316545471359554 ] } },
{ "type": "Feature", "properties": { "max_height": 20.707504272460938, "mean_height": 4.6827926635742188, "std_height": 7.0479855537414551, "count_pixels": 42, "percent_cover": 0.24154589371980675, "percent_above_0.1m": 38.095238095238095, "low_level_<0.5": 0.0, "mid_level_0.5-2": 2.3809523809523809, "tall_2+": 35.714285714285715 }, "geometry": { "type": "Point", "coordinates": [ -0.40219859199442, 51.31654276002461 ] } },
{ "type": "Feature", "properties": { "max_height": 21.795251846313477, "mean_height": 15.446864128112793, "std_height": 4.4259247779846191, "count_pixels": 42, "percent_cover": 0.24154589371980675, "percent_above_0.1m": 100.0, "low_level_<0.5": 0.0, "mid_level_0.5-2": 0.0, "tall_2+": 100.0 }, "geometry": { "type": "Point", "coordinates": [ -0.40199984937966, 51.316540048352493 ] } },
{ "type": "Feature", "properties": { "max_height": 15.105253219604492, "mean_height": 1.0686814785003662, "std_height": 3.1372091770172119, "count_pixels": 43, "percent_cover": 0.24729698642742123, "percent_above_0.1m": 18.604651162790699, "low_level_<0.5": 2.3255813953488373, "mid_level_0.5-2": 4.6511627906976747, "tall_2+": 11.627906976744185 }, "geometry": { "type": "Point", "coordinates": [ -0.40180110679583, 51.316537336343238 ] } },
{ "type": "Feature", "properties": { "max_height": 17.934001922607422, "mean_height": 9.9773960113525391, "std_height": 4.8628325462341309, "count_pixels": 43, "percent_cover": 0.24729698642742123, "percent_above_0.1m": 95.348837209302332, "low_level_<0.5": 2.3255813953488373, "mid_level_0.5-2": 2.3255813953488373, "tall_2+": 90.697674418604649 }, "geometry": { "type": "Point", "coordinates": [ -0.401602364162684, 51.316534624030496 ] } },
{ "type": "Feature", "properties": { "max_height": 0.00250244140625, "mean_height": 0.00020915706409141421, "std_height": 0.00074713450158014894, "count_pixels": 41, "percent_cover": 0.23579480101219233, "percent_above_0.1m": 0.0, "low_level_<0.5": 0.0, "mid_level_0.5-2": 0.0, "tall_2+": 0.0 }, "geometry": { "type": "Point", "coordinates": [ -0.403685418627404, 51.31667094738858 ] } },
{ "type": "Feature", "properties": { "max_height": 18.864253997802734, "mean_height": 10.42094898223877, "std_height": 6.6343173980712891, "count_pixels": 42, "percent_cover": 0.24154589371980675, "percent_above_0.1m": 85.714285714285708, "low_level_<0.5": 0.0, "mid_level_0.5-2": 9.5238095238095237, "tall_2+": 76.19047619047619 }, "geometry": { "type": "Point", "coordinates": [ -0.403486675316187, 51.316668238234186 ] } },
{ "type": "Feature", "properties": { "max_height": 23.572002410888672, "mean_height": 17.938180923461914, "std_height": 3.8474867343902588, "count_pixels": 42, "percent_cover": 0.24154589371980675, "percent_above_0.1m": 100.0, "low_level_<0.5": 0.0, "mid_level_0.5-2": 0.0, "tall_2+": 100.0 }, "geometry": { "type": "Point", "coordinates": [ -0.403287932035876, 51.316665528742618 ] } },
{ "type": "Feature", "properties": { "max_height": 17.024250030517578, "mean_height": 10.369943618774414, "std_height": 3.478137731552124, "count_pixels": 43, "percent_cover": 0.24729698642742123, "percent_above_0.1m": 100.0, "low_level_<0.5": 0.0, "mid_level_0.5-2": 2.3255813953488373, "tall_2+": 97.674418604651152 }, "geometry": { "type": "Point", "coordinates": [ -0.403089188786475, 51.316662818913933 ] } },
{ "type": "Feature", "properties": { "max_height": 17.063503265380859, "mean_height": 6.5825591087341309, "std_height": 5.5318236351013184, "count_pixels": 44, "percent_cover": 0.25304807913503569, "percent_above_0.1m": 77.272727272727266, "low_level_<0.5": 4.5454545454545459, "mid_level_0.5-2": 0.0, "tall_2+": 72.727272727272734 }, "geometry": { "type": "Point", "coordinates": [ -0.402890445567984, 51.316660108748081 ] } },
{ "type": "Feature", "properties": { "max_height": 24.442251205444336, "mean_height": 18.734949111938477, "std_height": 3.4271657466888428, "count_pixels": 44, "percent_cover": 0.25304807913503569, "percent_above_0.1m": 100.0, "low_level_<0.5": 0.0, "mid_level_0.5-2": 0.0, "tall_2+": 100.0 }, "geometry": { "type": "Point", "coordinates": [ -0.402691702380416, 51.316657398245084 ] } },
{ "type": "Feature", "properties": { "max_height": 16.505001068115234, "mean_height": 2.6763968467712402, "std_height": 5.0079460144042969, "count_pixels": 43, "percent_cover": 0.24729698642742123, "percent_above_0.1m": 25.581395348837212, "low_level_<0.5": 0.0, "mid_level_0.5-2": 0.0, "tall_2+": 25.581395348837212 }, "geometry": { "type": "Point", "coordinates": [ -0.402492959223762, 51.316654687404935 ] } },
{ "type": "Feature", "properties": { "max_height": 0.021251678466796875, "mean_height": 0.0012153898132964969, "std_height": 0.0047988016158342361, "count_pixels": 42, "percent_cover": 0.24154589371980675, "percent_above_0.1m": 0.0, "low_level_<0.5": 0.0, "mid_level_0.5-2": 0.0, "tall_2+": 0.0 }, "geometry": { "type": "Point", "coordinates": [ -0.402294216098034, 51.316651976227647 ] } },
{ "type": "Feature", "properties": { "max_height": 10.345500946044922, "mean_height": 1.2754654884338379, "std_height": 2.7707223892211914, "count_pixels": 42, "percent_cover": 0.24154589371980675, "percent_above_0.1m": 26.190476190476193, "low_level_<0.5": 0.0, "mid_level_0.5-2": 7.1428571428571423, "tall_2+": 19.047619047619047 }, "geometry": { "type": "Point", "coordinates": [ -0.40209547300324, 51.316649264713213 ] } },
{ "type": "Feature", "properties": { "max_height": 11.707250595092773, "mean_height": 0.90778779983520508, "std_height": 2.3198528289794922, "count_pixels": 41, "percent_cover": 0.23579480101219233, "percent_above_0.1m": 19.512195121951219, "low_level_<0.5": 2.4390243902439024, "mid_level_0.5-2": 0.0, "tall_2+": 17.073170731707318 }, "geometry": { "type": "Point", "coordinates": [ -0.401896729939369, 51.31664655286162 ] } },
{ "type": "Feature", "properties": { "max_height": 15.85150146484375, "mean_height": 10.156458854675293, "std_height": 2.9220685958862305, "count_pixels": 41, "percent_cover": 0.23579480101219233, "percent_above_0.1m": 100.0, "low_level_<0.5": 0.0, "mid_level_0.5-2": 2.4390243902439024, "tall_2+": 97.560975609756099 }, "geometry": { "type": "Point", "coordinates": [ -0.401697986906437, 51.316643840672889 ] } },
{ "type": "Feature", "properties": { "max_height": 10.679252624511719, "mean_height": 2.4132580757141113, "std_height": 3.3914332389831543, "count_pixels": 36, "percent_cover": 0.20703933747412009, "percent_above_0.1m": 52.777777777777779, "low_level_<0.5": 5.5555555555555554, "mid_level_0.5-2": 11.111111111111111, "tall_2+": 36.111111111111107 }, "geometry": { "type": "Point", "coordinates": [ -0.401499243603084, 51.316641128356558 ] } },
{ "type": "Feature", "properties": { "max_height": 0.050754547119140625, "mean_height": 0.0059601920656859875, "std_height": 0.011344135738909245, "count_pixels": 42, "percent_cover": 0.24154589371980675, "percent_above_0.1m": 0.0, "low_level_<0.5": 0.0, "mid_level_0.5-2": 0.0, "tall_2+": 0.0 }, "geometry": { "type": "Point", "coordinates": [ -0.403582302749106, 51.316777453415611 ] } },
{ "type": "Feature", "properties": { "max_height": 12.616252899169922, "mean_height": 3.3174128532409668, "std_height": 4.1314716339111328, "count_pixels": 42, "percent_cover": 0.24154589371980675, "percent_above_0.1m": 52.380952380952387, "low_level_<0.5": 2.3809523809523809, "mid_level_0.5-2": 4.7619047619047619, "tall_2+": 45.238095238095241 }, "geometry": { "type": "Point", "coordinates": [ -0.40338355898877, 51.316774744081734 ] } },
{ "type": "Feature", "properties": { "max_height": 14.511249542236328, "mean_height": 7.2235569953918457, "std_height": 4.724884033203125, "count_pixels": 41, "percent_cover": 0.23579480101219233, "percent_above_0.1m": 90.243902439024396, "low_level_<0.5": 2.4390243902439024, "mid_level_0.5-2": 7.3170731707317067, "tall_2+": 80.487804878048792 }, "geometry": { "type": "Point", "coordinates": [ -0.403184815259332, 51.316772034410718 ] } },
{ "type": "Feature", "properties": { "max_height": 11.811252593994141, "mean_height": 6.7305703163146973, "std_height": 4.2948465347290039, "count_pixels": 40, "percent_cover": 0.23004370830457788, "percent_above_0.1m": 85.0, "low_level_<0.5": 2.5, "mid_level_0.5-2": 2.5, "tall_2+": 80.0 }, "geometry": { "type": "Point", "coordinates": [ -0.402986071560812, 51.316769324402529 ] } },
{ "type": "Feature", "properties": { "max_height": 19.630001068115234, "mean_height": 3.9337797164916992, "std_height": 5.7689042091369629, "count_pixels": 36, "percent_cover": 0.20703933747412009, "percent_above_0.1m": 38.888888888888893, "low_level_<0.5": 0.0, "mid_level_0.5-2": 0.0, "tall_2+": 38.888888888888893 }, "geometry": { "type": "Point", "coordinates": [ -0.402787327893206, 51.316766614057222 ] } },
{ "type": "Feature", "properties": { "max_height": 23.157249450683594, "mean_height": 6.4629392623901367, "std_height": 8.2224054336547852, "count_pixels": 40, "percent_cover": 0.23004370830457788, "percent_above_0.1m": 52.5, "low_level_<0.5": 0.0, "mid_level_0.5-2": 5.0, "tall_2+": 47.5 }, "geometry": { "type": "Point", "coordinates": [ -0.402588584256516, 51.316763903374742 ] } },
{ "type": "Feature", "properties": { "max_height": 0.018751144409179688, "mean_height": 0.0025318425614386797, "std_height": 0.0046555027365684509, "count_pixels": 41, "percent_cover": 0.23579480101219233, "percent_above_0.1m": 0.0, "low_level_<0.5": 0.0, "mid_level_0.5-2": 0.0, "tall_2+": 0.0 }, "geometry": { "type": "Point", "coordinates": [ -0.402389840650754, 51.316761192355102 ] } },
{ "type": "Feature", "properties": { "max_height": 0.031251907348632812, "mean_height": 0.0025607063435018063, "std_height": 0.0078448010608553886, "count_pixels": 42, "percent_cover": 0.24154589371980675, "percent_above_0.1m": 0.0, "low_level_<0.5": 0.0, "mid_level_0.5-2": 0.0, "tall_2+": 0.0 }, "geometry": { "type": "Point", "coordinates": [ -0.402191097075913, 51.316758480998345 ] } },
{ "type": "Feature", "properties": { "max_height": 0.0025005340576171875, "mean_height": 6.0762678913306445e-05, "std_height": 0.0014705454232171178, "count_pixels": 42, "percent_cover": 0.24154589371980675, "percent_above_0.1m": 0.0, "low_level_<0.5": 0.0, "mid_level_0.5-2": 0.0, "tall_2+": 0.0 }, "geometry": { "type": "Point", "coordinates": [ -0.401992353532004, 51.316755769304422 ] } },
{ "type": "Feature", "properties": { "max_height": 15.677753448486328, "mean_height": 4.9608206748962402, "std_height": 4.844390869140625, "count_pixels": 43, "percent_cover": 0.24729698642742123, "percent_above_0.1m": 60.465116279069761, "low_level_<0.5": 0.0, "mid_level_0.5-2": 2.3255813953488373, "tall_2+": 58.139534883720934 }, "geometry": { "type": "Point", "coordinates": [ -0.40179361001903, 51.316753057273345 ] } },
{ "type": "Feature", "properties": { "max_height": 14.347501754760742, "mean_height": 2.4411985874176025, "std_height": 4.1509981155395508, "count_pixels": 43, "percent_cover": 0.24729698642742123, "percent_above_0.1m": 32.558139534883722, "low_level_<0.5": 0.0, "mid_level_0.5-2": 2.3255813953488373, "tall_2+": 30.232558139534881 }, "geometry": { "type": "Point", "coordinates": [ -0.401594866441065, 51.316750344945461 ] } },
{ "type": "Feature", "properties": { "max_height": 0.04325103759765625, "mean_height": 0.0051545863971114159, "std_height": 0.010554805397987366, "count_pixels": 41, "percent_cover": 0.23579480101219233, "percent_above_0.1m": 0.0, "low_level_<0.5": 0.0, "mid_level_0.5-2": 0.0, "tall_2+": 0.0 }, "geometry": { "type": "Point", "coordinates": [ -0.403677930631145, 51.316886668521448 ] } },
{ "type": "Feature", "properties": { "max_height": 12.525501251220703, "mean_height": 2.8443775177001953, "std_height": 4.2629489898681641, "count_pixels": 42, "percent_cover": 0.24154589371980675, "percent_above_0.1m": 40.476190476190474, "low_level_<0.5": 0.0, "mid_level_0.5-2": 9.5238095238095237, "tall_2+": 30.952380952380953 }, "geometry": { "type": "Point", "coordinates": [ -0.403479186390776, 51.316883959345255 ] } },
{ "type": "Feature", "properties": { "max_height": 16.574501037597656, "mean_height": 13.514229774475098, "std_height": 2.5200774669647217, "count_pixels": 42, "percent_cover": 0.24154589371980675, "percent_above_0.1m": 100.0, "low_level_<0.5": 0.0, "mid_level_0.5-2": 0.0, "tall_2+": 100.0 }, "geometry": { "type": "Point", "coordinates": [ -0.403280442181308, 51.316881249831916 ] } },
{ "type": "Feature", "properties": { "max_height": 17.624752044677734, "mean_height": 9.3178443908691406, "std_height": 4.9419364929199219, "count_pixels": 43, "percent_cover": 0.24729698642742123, "percent_above_0.1m": 95.348837209302332, "low_level_<0.5": 0.0, "mid_level_0.5-2": 6.9767441860465116, "tall_2+": 88.372093023255815 }, "geometry": { "type": "Point", "coordinates": [ -0.403081698002748, 51.316878539981403 ] } },
{ "type": "Feature", "properties": { "max_height": 13.778251647949219, "mean_height": 2.3585357666015625, "std_height": 4.1712188720703125, "count_pixels": 44, "percent_cover": 0.25304807913503569, "percent_above_0.1m": 36.363636363636367, "low_level_<0.5": 4.5454545454545459, "mid_level_0.5-2": 6.8181818181818175, "tall_2+": 25.0 }, "geometry": { "type": "Point", "coordinates": [ -0.402882953855106, 51.316875829793752 ] } },
{ "type": "Feature", "properties": { "max_height": 0.0047512054443359375, "mean_height": 0.00025172668392769992, "std_height": 0.0023024824913591146, "count_pixels": 44, "percent_cover": 0.25304807913503569, "percent_above_0.1m": 0.0, "low_level_<0.5": 0.0, "mid_level_0.5-2": 0.0, "tall_2+": 0.0 }, "geometry": { "type": "Point", "coordinates": [ -0.402684209738378, 51.316873119268948 ] } },
{ "type": "Feature", "properties": { "max_height": 0.049001693725585938, "mean_height": 0.0022862455807626247, "std_height": 0.010573801584541798, "count_pixels": 43, "percent_cover": 0.24729698642742123, "percent_above_0.1m": 0.0, "low_level_<0.5": 0.0, "mid_level_0.5-2": 0.0, "tall_2+": 0.0 }, "geometry": { "type": "Point", "coordinates": [ -0.402485465652573, 51.316870408406999 ] } },
{ "type": "Feature", "properties": { "max_height": 0.071500778198242188, "mean_height": 0.0029773712158203125, "std_height": 0.013322361744940281, "count_pixels": 42, "percent_cover": 0.24154589371980675, "percent_above_0.1m": 0.0, "low_level_<0.5": 0.0, "mid_level_0.5-2": 0.0, "tall_2+": 0.0 }, "geometry": { "type": "Point", "coordinates": [ -0.402286721597694, 51.316867697207897 ] } },
{ "type": "Feature", "properties": { "max_height": 0.014001846313476562, "mean_height": 0.00054268608801066875, "std_height": 0.0030765789560973644, "count_pixels": 42, "percent_cover": 0.24154589371980675, "percent_above_0.1m": 0.0, "low_level_<0.5": 0.0, "mid_level_0.5-2": 0.0, "tall_2+": 0.0 }, "geometry": { "type": "Point", "coordinates": [ -0.40208797757374, 51.316864985671621 ] } },
{ "type": "Feature", "properties": { "max_height": 6.8132514953613281, "mean_height": 0.39660486578941345, "std_height": 1.4010491371154785, "count_pixels": 41, "percent_cover": 0.23579480101219233, "percent_above_0.1m": 17.073170731707318, "low_level_<0.5": 7.3170731707317067, "mid_level_0.5-2": 0.0, "tall_2+": 7.3170731707317067 }, "geometry": { "type": "Point", "coordinates": [ -0.401889233580722, 51.316862273798222 ] } },
{ "type": "Feature", "properties": { "max_height": 11.399753570556641, "mean_height": 3.0819642543792725, "std_height": 3.8105118274688721, "count_pixels": 41, "percent_cover": 0.23579480101219233, "percent_above_0.1m": 60.975609756097562, "low_level_<0.5": 2.4390243902439024, "mid_level_0.5-2": 21.951219512195124, "tall_2+": 36.585365853658537 }, "geometry": { "type": "Point", "coordinates": [ -0.401690489618636, 51.31685956158767 ] } },
{ "type": "Feature", "properties": { "max_height": 0.001750946044921875, "mean_height": 7.0254005549941212e-05, "std_height": 0.00076936563709750772, "count_pixels": 36, "percent_cover": 0.20703933747412009, "percent_above_0.1m": 0.0, "low_level_<0.5": 0.0, "mid_level_0.5-2": 0.0, "tall_2+": 0.0 }, "geometry": { "type": "Point", "coordinates": [ -0.401491745362706, 51.316856849275275 ] } },
{ "type": "Feature", "properties": { "max_height": 4.5777511596679688, "mean_height": 0.13072337210178375, "std_height": 0.7039760947227478, "count_pixels": 43, "percent_cover": 0.24729698642742123, "percent_above_0.1m": 4.6511627906976747, "low_level_<0.5": 0.0, "mid_level_0.5-2": 2.3255813953488373, "tall_2+": 2.3255813953488373 }, "geometry": { "type": "Point", "coordinates": [ -0.403773558962304, 51.316995883551705 ] } },
{ "type": "Feature", "properties": { "max_height": 12.51025390625, "mean_height": 3.1667048931121826, "std_height": 4.3757085800170898, "count_pixels": 42, "percent_cover": 0.24154589371980675, "percent_above_0.1m": 45.238095238095241, "low_level_<0.5": 0.0, "mid_level_0.5-2": 2.3809523809523809, "tall_2+": 40.476190476190474 }, "geometry": { "type": "Point", "coordinates": [ -0.403574814241901, 51.316993174533188 ] } },
{ "type": "Feature", "properties": { "max_height": 15.697502136230469, "mean_height": 5.440436840057373, "std_height": 5.5712189674377441, "count_pixels": 42, "percent_cover": 0.24154589371980675, "percent_above_0.1m": 71.428571428571431, "low_level_<0.5": 4.7619047619047619, "mid_level_0.5-2": 11.904761904761903, "tall_2+": 54.761904761904766 }, "geometry": { "type": "Point", "coordinates": [ -0.403376069552398, 51.316990465177497 ] } },
{ "type": "Feature", "properties": { "max_height": 7.3152503967285156, "mean_height": 0.75678253173828125, "std_height": 1.887433648109436, "count_pixels": 41, "percent_cover": 0.23579480101219233, "percent_above_0.1m": 21.951219512195124, "low_level_<0.5": 2.4390243902439024, "mid_level_0.5-2": 7.3170731707317067, "tall_2+": 12.195121951219512 }, "geometry": { "type": "Point", "coordinates": [ -0.403177324893801, 51.316987755484675 ] } },
{ "type": "Feature", "properties": { "max_height": 13.906501770019531, "mean_height": 3.155426025390625, "std_height": 4.5685610771179199, "count_pixels": 40, "percent_cover": 0.23004370830457788, "percent_above_0.1m": 42.5, "low_level_<0.5": 0.0, "mid_level_0.5-2": 7.5, "tall_2+": 35.0 }, "geometry": { "type": "Point", "coordinates": [ -0.402978580266117, 51.316985045454686 ] } },
{ "type": "Feature", "properties": { "max_height": 0.02175140380859375, "mean_height": 0.00094567402265965939, "std_height": 0.0041540628299117088, "count_pixels": 36, "percent_cover": 0.20703933747412009, "percent_above_0.1m": 0.0, "low_level_<0.5": 0.0, "mid_level_0.5-2": 0.0, "tall_2+": 0.0 }, "geometry": { "type": "Point", "coordinates": [ -0.40277983566935, 51.316982335087559 ] } },
{ "type": "Feature", "properties": { "max_height": 0.00775146484375, "mean_height": -0.00024251938157249242, "std_height": 0.0025591177400201559, "count_pixels": 40, "percent_cover": 0.23004370830457788, "percent_above_0.1m": 0.0, "low_level_<0.5": 0.0, "mid_level_0.5-2": 0.0, "tall_2+": 0.0 }, "geometry": { "type": "Point", "coordinates": [ -0.402581091103502, 51.316979624383293 ] } },
{ "type": "Feature", "properties": { "max_height": 7.0902519226074219, "mean_height": 0.24963541328907013, "std_height": 1.1715251207351685, "count_pixels": 41, "percent_cover": 0.23579480101219233, "percent_above_0.1m": 7.3170731707317067, "low_level_<0.5": 2.4390243902439024, "mid_level_0.5-2": 0.0, "tall_2+": 4.8780487804878048 }, "geometry": { "type": "Point", "coordinates": [ -0.402382346568579, 51.31697691334184 ] } },
{ "type": "Feature", "properties": { "max_height": 17.928504943847656, "mean_height": 3.5071799755096436, "std_height": 5.7505683898925781, "count_pixels": 42, "percent_cover": 0.24154589371980675, "percent_above_0.1m": 42.857142857142854, "low_level_<0.5": 2.3809523809523809, "mid_level_0.5-2": 9.5238095238095237, "tall_2+": 28.571428571428569 }, "geometry": { "type": "Point", "coordinates": [ -0.402183602064579, 51.316974201963255 ] } },
{ "type": "Feature", "properties": { "max_height": 16.100252151489258, "mean_height": 0.77591204643249512, "std_height": 2.9580450057983398, "count_pixels": 42, "percent_cover": 0.24154589371980675, "percent_above_0.1m": 9.5238095238095237, "low_level_<0.5": 0.0, "mid_level_0.5-2": 2.3809523809523809, "tall_2+": 7.1428571428571423 }, "geometry": { "type": "Point", "coordinates": [ -0.401984857591513, 51.316971490247518 ] } },
{ "type": "Feature", "properties": { "max_height": 20.34625244140625, "mean_height": 13.62992000579834, "std_height": 4.316892147064209, "count_pixels": 43, "percent_cover": 0.24729698642742123, "percent_above_0.1m": 100.0, "low_level_<0.5": 0.0, "mid_level_0.5-2": 0.0, "tall_2+": 100.0 }, "geometry": { "type": "Point", "coordinates": [ -0.401786113149379, 51.316968778194628 ] } },
{ "type": "Feature", "properties": { "max_height": 10.021751403808594, "mean_height": 2.1033966541290283, "std_height": 3.3974192142486572, "count_pixels": 43, "percent_cover": 0.24729698642742123, "percent_above_0.1m": 34.883720930232556, "low_level_<0.5": 0.0, "mid_level_0.5-2": 4.6511627906976747, "tall_2+": 30.232558139534881 }, "geometry": { "type": "Point", "coordinates": [ -0.401587368626132, 51.316966065851851 ] } },
{ "type": "Feature", "properties": { "max_height": 16.368751525878906, "mean_height": 10.257960319519043, "std_height": 4.202728271484375, "count_pixels": 41, "percent_cover": 0.23579480101219233, "percent_above_0.1m": 95.121951219512198, "low_level_<0.5": 0.0, "mid_level_0.5-2": 2.4390243902439024, "tall_2+": 92.682926829268297 }, "geometry": { "type": "Point", "coordinates": [ -0.403670442542149, 51.317102389645505 ] } },
{ "type": "Feature", "properties": { "max_height": 24.847003936767578, "mean_height": 17.648269653320312, "std_height": 4.131260871887207, "count_pixels": 42, "percent_cover": 0.24154589371980675, "percent_above_0.1m": 100.0, "low_level_<0.5": 0.0, "mid_level_0.5-2": 0.0, "tall_2+": 100.0 }, "geometry": { "type": "Point", "coordinates": [ -0.403272952233971, 51.317096970912345 ] } },
{ "type": "Feature", "properties": { "max_height": 15.092502593994141, "mean_height": 6.4545011520385742, "std_height": 5.6763463020324707, "count_pixels": 43, "percent_cover": 0.24729698642742123, "percent_above_0.1m": 72.093023255813947, "low_level_<0.5": 0.0, "mid_level_0.5-2": 11.627906976744185, "tall_2+": 60.465116279069761 }, "geometry": { "type": "Point", "coordinates": [ -0.403074207126249, 51.317094261040054 ] } },
{ "type": "Feature", "properties": { "max_height": 14.117504119873047, "mean_height": 2.040325403213501, "std_height": 3.9088339805603027, "count_pixels": 44, "percent_cover": 0.25304807913503569, "percent_above_0.1m": 36.363636363636367, "low_level_<0.5": 0.0, "mid_level_0.5-2": 13.636363636363635, "tall_2+": 22.727272727272727 }, "geometry": { "type": "Point", "coordinates": [ -0.402875462049438, 51.317091550830582 ] } },
{ "type": "Feature", "properties": { "max_height": 10.758001327514648, "mean_height": 1.343864917755127, "std_height": 2.847465991973877, "count_pixels": 44, "percent_cover": 0.25304807913503569, "percent_above_0.1m": 25.0, "low_level_<0.5": 0.0, "mid_level_0.5-2": 6.8181818181818175, "tall_2+": 18.181818181818183 }, "geometry": { "type": "Point", "coordinates": [ -0.402676717003544, 51.317088840283986 ] } },
{ "type": "Feature", "properties": { "max_height": 0.0032501220703125, "mean_height": -0.00056293397210538387, "std_height": 0.0027946913614869118, "count_pixels": 43, "percent_cover": 0.24729698642742123, "percent_above_0.1m": 0.0, "low_level_<0.5": 0.0, "mid_level_0.5-2": 0.0, "tall_2+": 0.0 }, "geometry": { "type": "Point", "coordinates": [ -0.402477971988572, 51.317086129400209 ] } },
{ "type": "Feature", "properties": { "max_height": 17.378252029418945, "mean_height": 11.238943099975586, "std_height": 4.1504693031311035, "count_pixels": 42, "percent_cover": 0.24154589371980675, "percent_above_0.1m": 100.0, "low_level_<0.5": 0.0, "mid_level_0.5-2": 4.7619047619047619, "tall_2+": 95.238095238095227 }, "geometry": { "type": "Point", "coordinates": [ -0.402279227004525, 51.317083418179301 ] } },
{ "type": "Feature", "properties": { "max_height": 16.833003997802734, "mean_height": 3.9351141452789307, "std_height": 5.513308048248291, "count_pixels": 42, "percent_cover": 0.24154589371980675, "percent_above_0.1m": 42.857142857142854, "low_level_<0.5": 0.0, "mid_level_0.5-2": 4.7619047619047619, "tall_2+": 38.095238095238095 }, "geometry": { "type": "Point", "coordinates": [ -0.40208048205141, 51.317080706621226 ] } },
{ "type": "Feature", "properties": { "max_height": 22.700254440307617, "mean_height": 12.573294639587402, "std_height": 7.9274840354919434, "count_pixels": 41, "percent_cover": 0.23579480101219233, "percent_above_0.1m": 82.926829268292678, "low_level_<0.5": 0.0, "mid_level_0.5-2": 0.0, "tall_2+": 82.926829268292678 }, "geometry": { "type": "Point", "coordinates": [ -0.401881737129227, 51.317077994725999 ] } },
{ "type": "Feature", "properties": { "max_height": 21.410503387451172, "mean_height": 13.250082015991211, "std_height": 6.7966985702514648, "count_pixels": 41, "percent_cover": 0.23579480101219233, "percent_above_0.1m": 90.243902439024396, "low_level_<0.5": 0.0, "mid_level_0.5-2": 2.4390243902439024, "tall_2+": 87.804878048780495 }, "geometry": { "type": "Point", "coordinates": [ -0.401682992237979, 51.317075282493633 ] } },
{ "type": "Feature", "properties": { "max_height": 30.866001129150391, "mean_height": 16.791934967041016, "std_height": 9.0062971115112305, "count_pixels": 40, "percent_cover": 0.23004370830457788, "percent_above_0.1m": 100.0, "low_level_<0.5": 5.0, "mid_level_0.5-2": 7.5, "tall_2+": 87.5 }, "geometry": { "type": "Point", "coordinates": [ -0.402573597789744, 51.317195345457364 ] } },
{ "type": "Feature", "properties": { "max_height": 19.439252853393555, "mean_height": 2.3445746898651123, "std_height": 4.8548846244812012, "count_pixels": 41, "percent_cover": 0.23579480101219233, "percent_above_0.1m": 29.268292682926827, "low_level_<0.5": 2.4390243902439024, "mid_level_0.5-2": 2.4390243902439024, "tall_2+": 24.390243902439025 }, "geometry": { "type": "Point", "coordinates": [ -0.402374852326338, 51.317192634392683 ] } },
{ "type": "Feature", "properties": { "max_height": 12.015253067016602, "mean_height": 1.6294714212417603, "std_height": 2.8407015800476074, "count_pixels": 42, "percent_cover": 0.24154589371980675, "percent_above_0.1m": 42.857142857142854, "low_level_<0.5": 7.1428571428571423, "mid_level_0.5-2": 11.904761904761903, "tall_2+": 23.809523809523807 }, "geometry": { "type": "Point", "coordinates": [ -0.402176106894376, 51.317189922990657 ] } },
{ "type": "Feature", "properties": { "max_height": 1.8557510375976562, "mean_height": 0.0454595647752285, "std_height": 0.2827533483505249, "count_pixels": 42, "percent_cover": 0.24154589371980675, "percent_above_0.1m": 2.3809523809523809, "low_level_<0.5": 0.0, "mid_level_0.5-2": 2.3809523809523809, "tall_2+": 0.0 }, "geometry": { "type": "Point", "coordinates": [ -0.401977361493852, 51.31718721125128 ] } },
{ "type": "Feature", "properties": { "max_height": 19.111503601074219, "mean_height": 4.2221007347106934, "std_height": 5.798802375793457, "count_pixels": 43, "percent_cover": 0.24729698642742123, "percent_above_0.1m": 69.767441860465112, "low_level_<0.5": 9.3023255813953494, "mid_level_0.5-2": 13.953488372093023, "tall_2+": 39.534883720930232 }, "geometry": { "type": "Point", "coordinates": [ -0.40177861612478, 51.31718449917453 ] } },
{ "type": "Feature", "properties": { "max_height": 25.456750869750977, "mean_height": 7.3188338279724121, "std_height": 7.1842789649963379, "count_pixels": 42, "percent_cover": 0.24154589371980675, "percent_above_0.1m": 78.571428571428569, "low_level_<0.5": 2.3809523809523809, "mid_level_0.5-2": 14.285714285714285, "tall_2+": 61.904761904761905 }, "geometry": { "type": "Point", "coordinates": [ -0.402072986054108, 51.31729642784542 ] } },
{ "type": "Feature", "properties": { "max_height": 13.615753173828125, "mean_height": 4.5663175582885742, "std_height": 4.2171416282653809, "count_pixels": 41, "percent_cover": 0.23579480101219233, "percent_above_0.1m": 85.365853658536579, "low_level_<0.5": 4.8780487804878048, "mid_level_0.5-2": 24.390243902439025, "tall_2+": 56.09756097560976 }, "geometry": { "type": "Point", "coordinates": [ -0.401874240193825, 51.317293715928464 ] } },
{ "type": "Feature", "properties": { "max_height": 13.716001510620117, "mean_height": 1.418927788734436, "std_height": 3.4605164527893066, "count_pixels": 41, "percent_cover": 0.23579480101219233, "percent_above_0.1m": 21.951219512195124, "low_level_<0.5": 2.4390243902439024, "mid_level_0.5-2": 2.4390243902439024, "tall_2+": 17.073170731707318 }, "geometry": { "type": "Point", "coordinates": [ -0.401675494365498, 51.317291003673958 ] } }
]
}
