{
"type": "FeatureCollection",
"name": "83156f263610_foliage",
"crs": { "type": "name", "properties": { "name": "urn:ogc:def:crs:OGC:1.3:CRS84" } },
"features": [
{ "type": "Feature", "properties": { "max_height": 6.3910026550292969, "mean_height": 1.3153331279754639, "std_height": 2.07706618309021, "count_pixels": 43, "percent_cover": 0.4829290206648697, "percent_above_0.1m": 46.511627906976742, "low_level_<0.5": 6.9767441860465116, "mid_level_0.5-2": 16.279069767441861, "tall_2+": 23.255813953488371 }, "geometry": { "type": "Point", "coordinates": [ -0.368425794663296, 51.329823384863417 ] } },
{ "type": "Feature", "properties": { "max_height": 6.2150001525878906, "mean_height": 1.6411386728286743, "std_height": 1.8568038940429688, "count_pixels": 42, "percent_cover": 0.47169811320754718, "percent_above_0.1m": 69.047619047619051, "low_level_<0.5": 7.1428571428571423, "mid_level_0.5-2": 21.428571428571427, "tall_2+": 33.333333333333329 }, "geometry": { "type": "Point", "coordinates": [ -0.368226996787801, 51.329820616676429 ] } },
{ "type": "Feature", "properties": { "max_height": 18.546005249023438, "mean_height": 14.93260669708252, "std_height": 3.8547062873840332, "count_pixels": 41, "percent_cover": 0.4604672057502246, "percent_above_0.1m": 100.0, "low_level_<0.5": 0.0, "mid_level_0.5-2": 0.0, "tall_2+": 100.0 }, "geometry": { "type": "Point", "coordinates": [ -0.368521365928262, 51.329932627516335 ] } },
{ "type": "Feature", "properties": { "max_height": 15.323501586914062, "mean_height": 2.6523442268371582, "std_height": 4.4305839538574219, "count_pixels": 41, "percent_cover": 0.4604672057502246, "percent_above_0.1m": 53.658536585365859, "low_level_<0.5": 17.073170731707318, "mid_level_0.5-2": 7.3170731707317067, "tall_2+": 26.829268292682929 }, "geometry": { "type": "Point", "coordinates": [ -0.368322567579279, 51.329929859530189 ] } },
{ "type": "Feature", "properties": { "max_height": 8.032501220703125, "mean_height": 2.3530552387237549, "std_height": 2.9417614936828613, "count_pixels": 42, "percent_cover": 0.47169811320754718, "percent_above_0.1m": 52.380952380952387, "low_level_<0.5": 7.1428571428571423, "mid_level_0.5-2": 7.1428571428571423, "tall_2+": 38.095238095238095 }, "geometry": { "type": "Point", "coordinates": [ -0.368123769253378, 51.329927090982935 ] } },
{ "type": "Feature", "properties": { "max_height": 8.5542526245117188, "mean_height": 4.8117823600769043, "std_height": 2.7456347942352295, "count_pixels": 42, "percent_cover": 0.47169811320754718, "percent_above_0.1m": 90.476190476190482, "low_level_<0.5": 7.1428571428571423, "mid_level_0.5-2": 7.1428571428571423, "tall_2+": 76.19047619047619 }, "geometry": { "type": "Point", "coordinates": [ -0.367924970946609, 51.329924321849731 ] } },
{ "type": "Feature", "properties": { "max_height": 10.633251190185547, "mean_height": 4.0164775848388672, "std_height": 3.6266899108886719, "count_pixels": 41, "percent_cover": 0.4604672057502246, "percent_above_0.1m": 75.609756097560975, "low_level_<0.5": 4.8780487804878048, "mid_level_0.5-2": 14.634146341463413, "tall_2+": 53.658536585365859 }, "geometry": { "type": "Point", "coordinates": [ -0.367726172672096, 51.329921552375673 ] } },
{ "type": "Feature", "properties": { "max_height": 18.628002166748047, "mean_height": 7.7391018867492676, "std_height": 7.1102504730224609, "count_pixels": 43, "percent_cover": 0.4829290206648697, "percent_above_0.1m": 65.116279069767444, "low_level_<0.5": 0.0, "mid_level_0.5-2": 6.9767441860465116, "tall_2+": 58.139534883720934 }, "geometry": { "type": "Point", "coordinates": [ -0.368418138812853, 51.330039102265083 ] } },
{ "type": "Feature", "properties": { "max_height": 0.319000244140625, "mean_height": 0.016341254115104675, "std_height": 0.06590406596660614, "count_pixels": 42, "percent_cover": 0.47169811320754718, "percent_above_0.1m": 4.7619047619047619, "low_level_<0.5": 4.7619047619047619, "mid_level_0.5-2": 0.0, "tall_2+": 0.0 }, "geometry": { "type": "Point", "coordinates": [ -0.368219340012246, 51.330036334044969 ] } },
{ "type": "Feature", "properties": { "max_height": 2.6257514953613281, "mean_height": 0.18098239600658417, "std_height": 0.61433207988739014, "count_pixels": 38, "percent_cover": 0.42677448337825696, "percent_above_0.1m": 7.8947368421052628, "low_level_<0.5": 0.0, "mid_level_0.5-2": 2.6315789473684208, "tall_2+": 5.2631578947368416 }, "geometry": { "type": "Point", "coordinates": [ -0.368020541228913, 51.330033565116473 ] } },
{ "type": "Feature", "properties": { "max_height": 10.773754119873047, "mean_height": 1.6702344417572021, "std_height": 2.8420581817626953, "count_pixels": 42, "percent_cover": 0.47169811320754718, "percent_above_0.1m": 45.238095238095241, "low_level_<0.5": 4.7619047619047619, "mid_level_0.5-2": 11.904761904761903, "tall_2+": 28.571428571428569 }, "geometry": { "type": "Point", "coordinates": [ -0.367821742469386, 51.330030795790037 ] } },
{ "type": "Feature", "properties": { "max_height": 12.477252960205078, "mean_height": 6.2481632232666016, "std_height": 4.0759701728820801, "count_pixels": 42, "percent_cover": 0.47169811320754718, "percent_above_0.1m": 97.61904761904762, "low_level_<0.5": 2.3809523809523809, "mid_level_0.5-2": 19.047619047619047, "tall_2+": 73.80952380952381 }, "geometry": { "type": "Point", "coordinates": [ -0.367622943741692, 51.330028026126818 ] } },
{ "type": "Feature", "properties": { "max_height": 13.116504669189453, "mean_height": 5.639859676361084, "std_height": 3.7358899116516113, "count_pixels": 42, "percent_cover": 0.47169811320754718, "percent_above_0.1m": 92.857142857142861, "low_level_<0.5": 0.0, "mid_level_0.5-2": 11.904761904761903, "tall_2+": 80.952380952380949 }, "geometry": { "type": "Point", "coordinates": [ -0.367424145045833, 51.330025256126795 ] } },
{ "type": "Feature", "properties": { "max_height": 16.133750915527344, "mean_height": 2.966538667678833, "std_height": 4.6446270942687988, "count_pixels": 41, "percent_cover": 0.4604672057502246, "percent_above_0.1m": 80.487804878048792, "low_level_<0.5": 19.512195121951219, "mid_level_0.5-2": 31.707317073170731, "tall_2+": 29.268292682926827 }, "geometry": { "type": "Point", "coordinates": [ -0.36851371049129, 51.33014834492716 ] } },
{ "type": "Feature", "properties": { "max_height": 2.139251708984375, "mean_height": 0.42093461751937866, "std_height": 0.66399902105331421, "count_pixels": 41, "percent_cover": 0.4604672057502246, "percent_above_0.1m": 31.707317073170731, "low_level_<0.5": 2.4390243902439024, "mid_level_0.5-2": 26.829268292682929, "tall_2+": 2.4390243902439024 }, "geometry": { "type": "Point", "coordinates": [ -0.368314911221614, 51.330145576913097 ] } },
{ "type": "Feature", "properties": { "max_height": 2.6827507019042969, "mean_height": 0.18833459913730621, "std_height": 0.61442488431930542, "count_pixels": 42, "percent_cover": 0.47169811320754718, "percent_above_0.1m": 9.5238095238095237, "low_level_<0.5": 0.0, "mid_level_0.5-2": 4.7619047619047619, "tall_2+": 4.7619047619047619 }, "geometry": { "type": "Point", "coordinates": [ -0.368116111964798, 51.330142808316914 ] } },
{ "type": "Feature", "properties": { "max_height": 0.00075531005859375, "mean_height": 0.00010354178084526211, "std_height": 0.00042663546628318727, "count_pixels": 42, "percent_cover": 0.47169811320754718, "percent_above_0.1m": 0.0, "low_level_<0.5": 0.0, "mid_level_0.5-2": 0.0, "tall_2+": 0.0 }, "geometry": { "type": "Point", "coordinates": [ -0.367917312719851, 51.330140039138406 ] } },
{ "type": "Feature", "properties": { "max_height": 0.0007476806640625, "mean_height": 3.8798261812189594e-05, "std_height": 0.0003145746304653585, "count_pixels": 41, "percent_cover": 0.4604672057502246, "percent_above_0.1m": 0.0, "low_level_<0.5": 0.0, "mid_level_0.5-2": 0.0, "tall_2+": 0.0 }, "geometry": { "type": "Point", "coordinates": [ -0.367718513507136, 51.330137269622782 ] } },
{ "type": "Feature", "properties": { "max_height": 10.108253479003906, "mean_height": 1.5758594274520874, "std_height": 2.6848359107971191, "count_pixels": 42, "percent_cover": 0.47169811320754718, "percent_above_0.1m": 33.333333333333329, "low_level_<0.5": 2.3809523809523809, "mid_level_0.5-2": 4.7619047619047619, "tall_2+": 26.190476190476193 }, "geometry": { "type": "Point", "coordinates": [ -0.367519714326257, 51.330134499770381 ] } },
{ "type": "Feature", "properties": { "max_height": 7.2347526550292969, "mean_height": 2.649907112121582, "std_height": 2.2594661712646484, "count_pixels": 42, "percent_cover": 0.47169811320754718, "percent_above_0.1m": 73.80952380952381, "low_level_<0.5": 2.3809523809523809, "mid_level_0.5-2": 16.666666666666664, "tall_2+": 54.761904761904766 }, "geometry": { "type": "Point", "coordinates": [ -0.367320915177214, 51.330131729581176 ] } },
{ "type": "Feature", "properties": { "max_height": 7.0275001525878906, "mean_height": 1.2669835090637207, "std_height": 1.830741286277771, "count_pixels": 42, "percent_cover": 0.47169811320754718, "percent_above_0.1m": 61.904761904761905, "low_level_<0.5": 16.666666666666664, "mid_level_0.5-2": 16.666666666666664, "tall_2+": 28.571428571428569 }, "geometry": { "type": "Point", "coordinates": [ -0.367122116060017, 51.330128959055173 ] } },
{ "type": "Feature", "properties": { "max_height": 7.1114997863769531, "mean_height": 2.4705197811126709, "std_height": 2.4379198551177979, "count_pixels": 42, "percent_cover": 0.47169811320754718, "percent_above_0.1m": 83.333333333333343, "low_level_<0.5": 16.666666666666664, "mid_level_0.5-2": 28.571428571428569, "tall_2+": 38.095238095238095 }, "geometry": { "type": "Point", "coordinates": [ -0.368211683141943, 51.330252051398567 ] } },
{ "type": "Feature", "properties": { "max_height": 2.3052520751953125, "mean_height": 0.47187665104866028, "std_height": 0.68570238351821899, "count_pixels": 38, "percent_cover": 0.42677448337825696, "percent_above_0.1m": 42.105263157894733, "low_level_<0.5": 2.6315789473684208, "mid_level_0.5-2": 28.947368421052634, "tall_2+": 5.2631578947368416 }, "geometry": { "type": "Point", "coordinates": [ -0.368012883423496, 51.330249282420759 ] } },
{ "type": "Feature", "properties": { "max_height": 1.2182540893554688, "mean_height": 0.11046645790338516, "std_height": 0.26982298493385315, "count_pixels": 42, "percent_cover": 0.47169811320754718, "percent_above_0.1m": 19.047619047619047, "low_level_<0.5": 2.3809523809523809, "mid_level_0.5-2": 11.904761904761903, "tall_2+": 0.0 }, "geometry": { "type": "Point", "coordinates": [ -0.367814083725756, 51.330246513052764 ] } },
{ "type": "Feature", "properties": { "max_height": 0.00350189208984375, "mean_height": 0.00014450435992330313, "std_height": 0.00072607636684551835, "count_pixels": 42, "percent_cover": 0.47169811320754718, "percent_above_0.1m": 0.0, "low_level_<0.5": 0.0, "mid_level_0.5-2": 0.0, "tall_2+": 0.0 }, "geometry": { "type": "Point", "coordinates": [ -0.367615284059857, 51.330243743347971 ] } },
{ "type": "Feature", "properties": { "max_height": 0.001251220703125, "mean_height": 6.7665459937416017e-05, "std_height": 0.00034958714968524873, "count_pixels": 42, "percent_cover": 0.47169811320754718, "percent_above_0.1m": 0.0, "low_level_<0.5": 0.0, "mid_level_0.5-2": 0.0, "tall_2+": 0.0 }, "geometry": { "type": "Point", "coordinates": [ -0.36741648442579, 51.330240973306374 ] } },
{ "type": "Feature", "properties": { "max_height": 3.2075042724609375, "mean_height": 0.40615662932395935, "std_height": 0.88211947679519653, "count_pixels": 42, "percent_cover": 0.47169811320754718, "percent_above_0.1m": 23.809523809523807, "low_level_<0.5": 2.3809523809523809, "mid_level_0.5-2": 9.5238095238095237, "tall_2+": 9.5238095238095237 }, "geometry": { "type": "Point", "coordinates": [ -0.367217684823561, 51.330238202927994 ] } },
{ "type": "Feature", "properties": { "max_height": 7.3837509155273438, "mean_height": 1.0254470109939575, "std_height": 1.6605327129364014, "count_pixels": 41, "percent_cover": 0.4604672057502246, "percent_above_0.1m": 58.536585365853654, "low_level_<0.5": 14.634146341463413, "mid_level_0.5-2": 29.268292682926827, "tall_2+": 14.634146341463413 }, "geometry": { "type": "Point", "coordinates": [ -0.367018885253182, 51.330235432212788 ] } },
{ "type": "Feature", "properties": { "max_height": 3.352752685546875, "mean_height": 0.82314455509185791, "std_height": 0.85429823398590088, "count_pixels": 42, "percent_cover": 0.47169811320754718, "percent_above_0.1m": 76.19047619047619, "low_level_<0.5": 21.428571428571427, "mid_level_0.5-2": 40.476190476190474, "tall_2+": 11.904761904761903 }, "geometry": { "type": "Point", "coordinates": [ -0.366820085714644, 51.330232661160807 ] } },
{ "type": "Feature", "properties": { "max_height": 7.0205001831054688, "mean_height": 2.7809662818908691, "std_height": 2.4071199893951416, "count_pixels": 42, "percent_cover": 0.47169811320754718, "percent_above_0.1m": 88.095238095238088, "low_level_<0.5": 16.666666666666664, "mid_level_0.5-2": 21.428571428571427, "tall_2+": 50.0 }, "geometry": { "type": "Point", "coordinates": [ -0.367909654397561, 51.330355756416722 ] } },
{ "type": "Feature", "properties": { "max_height": 7.6205024719238281, "mean_height": 0.72717249393463135, "std_height": 1.604546070098877, "count_pixels": 41, "percent_cover": 0.4604672057502246, "percent_above_0.1m": 31.707317073170731, "low_level_<0.5": 4.8780487804878048, "mid_level_0.5-2": 9.7560975609756095, "tall_2+": 14.634146341463413 }, "geometry": { "type": "Point", "coordinates": [ -0.367710854246633, 51.330352986859545 ] } },
{ "type": "Feature", "properties": { "max_height": 8.4740028381347656, "mean_height": 0.74949592351913452, "std_height": 1.9725641012191772, "count_pixels": 42, "percent_cover": 0.47169811320754718, "percent_above_0.1m": 19.047619047619047, "low_level_<0.5": 4.7619047619047619, "mid_level_0.5-2": 2.3809523809523809, "tall_2+": 11.904761904761903 }, "geometry": { "type": "Point", "coordinates": [ -0.367512054127542, 51.33035021696557 ] } },
{ "type": "Feature", "properties": { "max_height": 2.8002548217773438, "mean_height": 0.17520405352115631, "std_height": 0.50722581148147583, "count_pixels": 42, "percent_cover": 0.47169811320754718, "percent_above_0.1m": 16.666666666666664, "low_level_<0.5": 2.3809523809523809, "mid_level_0.5-2": 11.904761904761903, "tall_2+": 2.3809523809523809 }, "geometry": { "type": "Point", "coordinates": [ -0.367313254040284, 51.330347446734791 ] } },
{ "type": "Feature", "properties": { "max_height": 3.3400001525878906, "mean_height": 0.13673391938209534, "std_height": 0.54955965280532837, "count_pixels": 42, "percent_cover": 0.47169811320754718, "percent_above_0.1m": 9.5238095238095237, "low_level_<0.5": 2.3809523809523809, "mid_level_0.5-2": 4.7619047619047619, "tall_2+": 2.3809523809523809 }, "geometry": { "type": "Point", "coordinates": [ -0.367114453984872, 51.330344676167215 ] } },
{ "type": "Feature", "properties": { "max_height": 7.7465019226074219, "mean_height": 0.74287706613540649, "std_height": 1.8049179315567017, "count_pixels": 42, "percent_cover": 0.47169811320754718, "percent_above_0.1m": 21.428571428571427, "low_level_<0.5": 0.0, "mid_level_0.5-2": 9.5238095238095237, "tall_2+": 11.904761904761903 }, "geometry": { "type": "Point", "coordinates": [ -0.366915653961307, 51.330341905262841 ] } },
{ "type": "Feature", "properties": { "max_height": 5.1414985656738281, "mean_height": 1.1497979164123535, "std_height": 1.5177592039108276, "count_pixels": 38, "percent_cover": 0.42677448337825696, "percent_above_0.1m": 57.894736842105267, "low_level_<0.5": 7.8947368421052628, "mid_level_0.5-2": 21.052631578947366, "tall_2+": 26.315789473684209 }, "geometry": { "type": "Point", "coordinates": [ -0.36671685396959, 51.330339134021678 ] } },
{ "type": "Feature", "properties": { "max_height": 17.872753143310547, "mean_height": 13.015156745910645, "std_height": 4.6060590744018555, "count_pixels": 42, "percent_cover": 0.47169811320754718, "percent_above_0.1m": 100.0, "low_level_<0.5": 0.0, "mid_level_0.5-2": 0.0, "tall_2+": 100.0 }, "geometry": { "type": "Point", "coordinates": [ -0.366518054009727, 51.330336362443688 ] } },
{ "type": "Feature", "properties": { "max_height": 11.089500427246094, "mean_height": 5.1088829040527344, "std_height": 3.5985419750213623, "count_pixels": 42, "percent_cover": 0.47169811320754718, "percent_above_0.1m": 95.238095238095227, "low_level_<0.5": 7.1428571428571423, "mid_level_0.5-2": 16.666666666666664, "tall_2+": 71.428571428571431 }, "geometry": { "type": "Point", "coordinates": [ -0.36760762428247, 51.330459460558771 ] } },
{ "type": "Feature", "properties": { "max_height": 9.0555038452148438, "mean_height": 3.1178596019744873, "std_height": 2.6059293746948242, "count_pixels": 42, "percent_cover": 0.47169811320754718, "percent_above_0.1m": 83.333333333333343, "low_level_<0.5": 7.1428571428571423, "mid_level_0.5-2": 19.047619047619047, "tall_2+": 57.142857142857139 }, "geometry": { "type": "Point", "coordinates": [ -0.367408823710187, 51.330456690475607 ] } },
{ "type": "Feature", "properties": { "max_height": 7.0147514343261719, "mean_height": 0.61707907915115356, "std_height": 1.5368742942810059, "count_pixels": 42, "percent_cover": 0.47169811320754718, "percent_above_0.1m": 21.428571428571427, "low_level_<0.5": 2.3809523809523809, "mid_level_0.5-2": 9.5238095238095237, "tall_2+": 9.5238095238095237 }, "geometry": { "type": "Point", "coordinates": [ -0.367210023169736, 51.330453920055646 ] } },
{ "type": "Feature", "properties": { "max_height": 0.000751495361328125, "mean_height": 3.8240013964241371e-05, "std_height": 0.00042178109288215637, "count_pixels": 41, "percent_cover": 0.4604672057502246, "percent_above_0.1m": 0.0, "low_level_<0.5": 0.0, "mid_level_0.5-2": 0.0, "tall_2+": 0.0 }, "geometry": { "type": "Point", "coordinates": [ -0.367011222661142, 51.330451149298881 ] } },
{ "type": "Feature", "properties": { "max_height": 0.0240020751953125, "mean_height": 0.0007222493295557797, "std_height": 0.0038037495687603951, "count_pixels": 42, "percent_cover": 0.47169811320754718, "percent_above_0.1m": 0.0, "low_level_<0.5": 0.0, "mid_level_0.5-2": 0.0, "tall_2+": 0.0 }, "geometry": { "type": "Point", "coordinates": [ -0.366812422184385, 51.330448378205325 ] } },
{ "type": "Feature", "properties": { "max_height": 5.7509994506835938, "mean_height": 0.22956784069538116, "std_height": 0.96837460994720459, "count_pixels": 42, "percent_cover": 0.47169811320754718, "percent_above_0.1m": 7.1428571428571423, "low_level_<0.5": 0.0, "mid_level_0.5-2": 2.3809523809523809, "tall_2+": 4.7619047619047619 }, "geometry": { "type": "Point", "coordinates": [ -0.366613621739488, 51.330445606774951 ] } },
{ "type": "Feature", "properties": { "max_height": 14.612499237060547, "mean_height": 1.8381665945053101, "std_height": 3.4631543159484863, "count_pixels": 41, "percent_cover": 0.4604672057502246, "percent_above_0.1m": 53.658536585365859, "low_level_<0.5": 2.4390243902439024, "mid_level_0.5-2": 26.829268292682929, "tall_2+": 24.390243902439025 }, "geometry": { "type": "Point", "coordinates": [ -0.366414821326443, 51.33044283500778 ] } },
{ "type": "Feature", "properties": { "max_height": 21.352252960205078, "mean_height": 13.936948776245117, "std_height": 6.1627626419067383, "count_pixels": 41, "percent_cover": 0.4604672057502246, "percent_above_0.1m": 100.0, "low_level_<0.5": 0.0, "mid_level_0.5-2": 9.7560975609756095, "tall_2+": 90.243902439024396 }, "geometry": { "type": "Point", "coordinates": [ -0.366216020945258, 51.330440062903818 ] } },
{ "type": "Feature", "properties": { "max_height": 5.7632522583007812, "mean_height": 1.684900164604187, "std_height": 1.6573277711868286, "count_pixels": 42, "percent_cover": 0.47169811320754718, "percent_above_0.1m": 88.095238095238088, "low_level_<0.5": 16.666666666666664, "mid_level_0.5-2": 40.476190476190474, "tall_2+": 30.952380952380953 }, "geometry": { "type": "Point", "coordinates": [ -0.367305592807788, 51.330563163878068 ] } },
{ "type": "Feature", "properties": { "max_height": 1.3860015869140625, "mean_height": 0.1515553742647171, "std_height": 0.34350433945655823, "count_pixels": 42, "percent_cover": 0.47169811320754718, "percent_above_0.1m": 19.047619047619047, "low_level_<0.5": 4.7619047619047619, "mid_level_0.5-2": 14.285714285714285, "tall_2+": 0.0 }, "geometry": { "type": "Point", "coordinates": [ -0.36710679181415, 51.330560393268918 ] } },
{ "type": "Feature", "properties": { "max_height": 0.018253326416015625, "mean_height": 0.00088328408310189843, "std_height": 0.0037925848737359047, "count_pixels": 42, "percent_cover": 0.47169811320754718, "percent_above_0.1m": 0.0, "low_level_<0.5": 0.0, "mid_level_0.5-2": 0.0, "tall_2+": 0.0 }, "geometry": { "type": "Point", "coordinates": [ -0.366907990852358, 51.330557622322956 ] } },
{ "type": "Feature", "properties": { "max_height": 0.00150299072265625, "mean_height": 9.3861628556624055e-05, "std_height": 0.00044212266220711172, "count_pixels": 38, "percent_cover": 0.42677448337825696, "percent_above_0.1m": 0.0, "low_level_<0.5": 0.0, "mid_level_0.5-2": 0.0, "tall_2+": 0.0 }, "geometry": { "type": "Point", "coordinates": [ -0.366709189922422, 51.330554851040219 ] } },
{ "type": "Feature", "properties": { "max_height": 1.0302505493164062, "mean_height": 0.036739714443683624, "std_height": 0.17346861958503723, "count_pixels": 42, "percent_cover": 0.47169811320754718, "percent_above_0.1m": 4.7619047619047619, "low_level_<0.5": 0.0, "mid_level_0.5-2": 4.7619047619047619, "tall_2+": 0.0 }, "geometry": { "type": "Point", "coordinates": [ -0.366510389024334, 51.330552079420642 ] } },
{ "type": "Feature", "properties": { "max_height": 19.981250762939453, "mean_height": 4.8313336372375488, "std_height": 4.9727463722229004, "count_pixels": 43, "percent_cover": 0.4829290206648697, "percent_above_0.1m": 86.04651162790698, "low_level_<0.5": 2.3255813953488373, "mid_level_0.5-2": 18.604651162790699, "tall_2+": 62.790697674418603 }, "geometry": { "type": "Point", "coordinates": [ -0.366311588158111, 51.330549307464281 ] } },
{ "type": "Feature", "properties": { "max_height": 20.113750457763672, "mean_height": 13.324263572692871, "std_height": 6.0398688316345215, "count_pixels": 42, "percent_cover": 0.47169811320754718, "percent_above_0.1m": 97.61904761904762, "low_level_<0.5": 2.3809523809523809, "mid_level_0.5-2": 2.3809523809523809, "tall_2+": 92.857142857142861 }, "geometry": { "type": "Point", "coordinates": [ -0.366112787323741, 51.330546535171145 ] } },
{ "type": "Feature", "properties": { "max_height": 5.420501708984375, "mean_height": 1.0992155075073242, "std_height": 1.1073832511901855, "count_pixels": 41, "percent_cover": 0.4604672057502246, "percent_above_0.1m": 82.926829268292678, "low_level_<0.5": 7.3170731707317067, "mid_level_0.5-2": 56.09756097560976, "tall_2+": 14.634146341463413 }, "geometry": { "type": "Point", "coordinates": [ -0.36700355997351, 51.330666866374607 ] } },
{ "type": "Feature", "properties": { "max_height": 3.0262527465820312, "mean_height": 0.2417399138212204, "std_height": 0.57176333665847778, "count_pixels": 42, "percent_cover": 0.47169811320754718, "percent_above_0.1m": 26.190476190476193, "low_level_<0.5": 9.5238095238095237, "mid_level_0.5-2": 14.285714285714285, "tall_2+": 2.3809523809523809 }, "geometry": { "type": "Point", "coordinates": [ -0.366804758558528, 51.33066409523947 ] } },
{ "type": "Feature", "properties": { "max_height": 6.4112510681152344, "mean_height": 1.0490373373031616, "std_height": 1.6933102607727051, "count_pixels": 42, "percent_cover": 0.47169811320754718, "percent_above_0.1m": 42.857142857142854, "low_level_<0.5": 7.1428571428571423, "mid_level_0.5-2": 11.904761904761903, "tall_2+": 21.428571428571427 }, "geometry": { "type": "Point", "coordinates": [ -0.366605957175402, 51.330661323767529 ] } },
{ "type": "Feature", "properties": { "max_height": 14.286502838134766, "mean_height": 9.8233013153076172, "std_height": 3.950200080871582, "count_pixels": 41, "percent_cover": 0.4604672057502246, "percent_above_0.1m": 97.560975609756099, "low_level_<0.5": 0.0, "mid_level_0.5-2": 2.4390243902439024, "tall_2+": 95.121951219512198 }, "geometry": { "type": "Point", "coordinates": [ -0.366407155824126, 51.33065855195877 ] } },
{ "type": "Feature", "properties": { "max_height": 10.122505187988281, "mean_height": 4.426764965057373, "std_height": 3.4580907821655273, "count_pixels": 41, "percent_cover": 0.4604672057502246, "percent_above_0.1m": 73.170731707317074, "low_level_<0.5": 2.4390243902439024, "mid_level_0.5-2": 7.3170731707317067, "tall_2+": 63.414634146341463 }, "geometry": { "type": "Point", "coordinates": [ -0.366208354504721, 51.33065577981322 ] } },
{ "type": "Feature", "properties": { "max_height": 5.9985008239746094, "mean_height": 1.05137038230896, "std_height": 1.1658473014831543, "count_pixels": 38, "percent_cover": 0.42677448337825696, "percent_above_0.1m": 78.94736842105263, "low_level_<0.5": 21.052631578947366, "mid_level_0.5-2": 42.105263157894733, "tall_2+": 15.789473684210526 }, "geometry": { "type": "Point", "coordinates": [ -0.366701525779646, 51.330770568048401 ] } },
{ "type": "Feature", "properties": { "max_height": 14.181251525878906, "mean_height": 5.1581335067749023, "std_height": 4.0869846343994141, "count_pixels": 42, "percent_cover": 0.47169811320754718, "percent_above_0.1m": 95.238095238095227, "low_level_<0.5": 2.3809523809523809, "mid_level_0.5-2": 11.904761904761903, "tall_2+": 80.952380952380949 }, "geometry": { "type": "Point", "coordinates": [ -0.366502723943325, 51.330767796387249 ] } },
{ "type": "Feature", "properties": { "max_height": 13.709251403808594, "mean_height": 3.6914148330688477, "std_height": 4.4394598007202148, "count_pixels": 43, "percent_cover": 0.4829290206648697, "percent_above_0.1m": 74.418604651162795, "low_level_<0.5": 6.9767441860465116, "mid_level_0.5-2": 25.581395348837212, "tall_2+": 41.860465116279073 }, "geometry": { "type": "Point", "coordinates": [ -0.366303922138867, 51.330765024389322 ] } },
{ "type": "Feature", "properties": { "max_height": 2.7400016784667969, "mean_height": 0.1380375474691391, "std_height": 0.48031646013259888, "count_pixels": 42, "percent_cover": 0.47169811320754718, "percent_above_0.1m": 9.5238095238095237, "low_level_<0.5": 0.0, "mid_level_0.5-2": 7.1428571428571423, "tall_2+": 2.3809523809523809 }, "geometry": { "type": "Point", "coordinates": [ -0.366105120366268, 51.330762252054555 ] } },
{ "type": "Feature", "properties": { "max_height": 6.3382492065429688, "mean_height": 2.2675633430480957, "std_height": 1.7793610095977783, "count_pixels": 41, "percent_cover": 0.4604672057502246, "percent_above_0.1m": 95.121951219512198, "low_level_<0.5": 12.195121951219512, "mid_level_0.5-2": 39.024390243902438, "tall_2+": 41.463414634146339 }, "geometry": { "type": "Point", "coordinates": [ -0.36639949022619, 51.330874268899386 ] } },
{ "type": "Feature", "properties": { "max_height": 6.2907524108886719, "mean_height": 1.1323562860488892, "std_height": 1.9967591762542725, "count_pixels": 41, "percent_cover": 0.4604672057502246, "percent_above_0.1m": 31.707317073170731, "low_level_<0.5": 2.4390243902439024, "mid_level_0.5-2": 4.8780487804878048, "tall_2+": 24.390243902439025 }, "geometry": { "type": "Point", "coordinates": [ -0.36620068796854, 51.330871496712255 ] } }
]
}
