{
"type": "FeatureCollection",
"name": "d3f81f63a7e7_visibility",
"crs": { "type": "name", "properties": { "name": "urn:ogc:def:crs:OGC:1.3:CRS84" } },
"features": [
{ "type": "Feature", "properties": { "visible_points": 0, "total_points": 49, "visibility_pct": 0.0 }, "geometry": { "type": "Point", "coordinates": [ -0.455929261172466, 51.373420750773079 ] } },
{ "type": "Feature", "properties": { "visible_points": 0, "total_points": 52, "visibility_pct": 0.0 }, "geometry": { "type": "Point", "coordinates": [ -0.455730259848314, 51.373418127853824 ] } },
{ "type": "Feature", "properties": { "visible_points": 0, "total_points": 52, "visibility_pct": 0.0 }, "geometry": { "type": "Point", "coordinates": [ -0.456025133788506, 51.373529923174836 ] } },
{ "type": "Feature", "properties": { "visible_points": 0, "total_points": 56, "visibility_pct": 0.0 }, "geometry": { "type": "Point", "coordinates": [ -0.455826131982722, 51.373527300416754 ] } },
{ "type": "Feature", "properties": { "visible_points": 0, "total_points": 59, "visibility_pct": 0.0 }, "geometry": { "type": "Point", "coordinates": [ -0.455627130206947, 51.373524677320674 ] } },
{ "type": "Feature", "properties": { "visible_points": 6, "total_points": 54, "visibility_pct": 11.111111111111111 }, "geometry": { "type": "Point", "coordinates": [ -0.456121006856161, 51.373639095497843 ] } },
{ "type": "Feature", "properties": { "visible_points": 5, "total_points": 59, "visibility_pct": 8.4745762711864394 }, "geometry": { "type": "Point", "coordinates": [ -0.455922004568745, 51.37363647290092 ] } },
{ "type": "Feature", "properties": { "visible_points": 6, "total_points": 63, "visibility_pct": 9.5238095238095237 }, "geometry": { "type": "Point", "coordinates": [ -0.455723002311332, 51.373633849965991 ] } },
{ "type": "Feature", "properties": { "visible_points": 12, "total_points": 66, "visibility_pct": 18.181818181818183 }, "geometry": { "type": "Point", "coordinates": [ -0.455524000083932, 51.373631226693092 ] } },
{ "type": "Feature", "properties": { "visible_points": 11, "total_points": 65, "visibility_pct": 16.923076923076923 }, "geometry": { "type": "Point", "coordinates": [ -0.455818874867338, 51.373743022532572 ] } },
{ "type": "Feature", "properties": { "visible_points": 12, "total_points": 69, "visibility_pct": 17.391304347826086 }, "geometry": { "type": "Point", "coordinates": [ -0.455619872158293, 51.373740399420818 ] } },
{ "type": "Feature", "properties": { "visible_points": 14, "total_points": 72, "visibility_pct": 19.444444444444446 }, "geometry": { "type": "Point", "coordinates": [ -0.455420869479264, 51.37373777597108 ] } },
{ "type": "Feature", "properties": { "visible_points": 13, "total_points": 72, "visibility_pct": 18.055555555555554 }, "geometry": { "type": "Point", "coordinates": [ -0.455221866830253, 51.373735152183365 ] } },
{ "type": "Feature", "properties": { "visible_points": 0, "total_points": 66, "visibility_pct": 0.0 }, "geometry": { "type": "Point", "coordinates": [ -0.45591474787496, 51.373852195020383 ] } },
{ "type": "Feature", "properties": { "visible_points": 2, "total_points": 70, "visibility_pct": 2.8571428571428572 }, "geometry": { "type": "Point", "coordinates": [ -0.455715744684278, 51.373849572069801 ] } },
{ "type": "Feature", "properties": { "visible_points": 10, "total_points": 74, "visibility_pct": 13.513513513513514 }, "geometry": { "type": "Point", "coordinates": [ -0.455516741523605, 51.373846948781214 ] } },
{ "type": "Feature", "properties": { "visible_points": 14, "total_points": 74, "visibility_pct": 18.918918918918919 }, "geometry": { "type": "Point", "coordinates": [ -0.455317738392944, 51.373844325154643 ] } },
{ "type": "Feature", "properties": { "visible_points": 3, "total_points": 68, "visibility_pct": 4.4117647058823533 }, "geometry": { "type": "Point", "coordinates": [ -0.455811617661884, 51.373958744640007 ] } },
{ "type": "Feature", "properties": { "visible_points": 6, "total_points": 71, "visibility_pct": 8.4507042253521121 }, "geometry": { "type": "Point", "coordinates": [ -0.455612614019563, 51.373956121512599 ] } },
{ "type": "Feature", "properties": { "visible_points": 5, "total_points": 73, "visibility_pct": 6.8493150684931505 }, "geometry": { "type": "Point", "coordinates": [ -0.455413610407261, 51.373953498047179 ] } },
{ "type": "Feature", "properties": { "visible_points": 12, "total_points": 71, "visibility_pct": 16.901408450704224 }, "geometry": { "type": "Point", "coordinates": [ -0.455214606824966, 51.373950874243768 ] } },
{ "type": "Feature", "properties": { "visible_points": 10, "total_points": 65, "visibility_pct": 15.384615384615385 }, "geometry": { "type": "Point", "coordinates": [ -0.455015603272696, 51.373948250102387 ] } },
{ "type": "Feature", "properties": { "visible_points": 0, "total_points": 70, "visibility_pct": 0.0 }, "geometry": { "type": "Point", "coordinates": [ -0.45550948287319, 51.374062670860965 ] } },
{ "type": "Feature", "properties": { "visible_points": 5, "total_points": 69, "visibility_pct": 7.2463768115942031 }, "geometry": { "type": "Point", "coordinates": [ -0.455310478809253, 51.37406004721872 ] } },
{ "type": "Feature", "properties": { "visible_points": 8, "total_points": 64, "visibility_pct": 12.5 }, "geometry": { "type": "Point", "coordinates": [ -0.455111474775326, 51.374057423238476 ] } },
{ "type": "Feature", "properties": { "visible_points": 9, "total_points": 58, "visibility_pct": 15.517241379310345 }, "geometry": { "type": "Point", "coordinates": [ -0.454912470771426, 51.37405479892027 ] } },
{ "type": "Feature", "properties": { "visible_points": 0, "total_points": 65, "visibility_pct": 0.0 }, "geometry": { "type": "Point", "coordinates": [ -0.455406351245159, 51.374169220114915 ] } },
{ "type": "Feature", "properties": { "visible_points": 0, "total_points": 61, "visibility_pct": 0.0 }, "geometry": { "type": "Point", "coordinates": [ -0.455207346729582, 51.374166596295836 ] } },
{ "type": "Feature", "properties": { "visible_points": 8, "total_points": 56, "visibility_pct": 14.285714285714285 }, "geometry": { "type": "Point", "coordinates": [ -0.455008342244021, 51.37416397213876 ] } },
{ "type": "Feature", "properties": { "visible_points": 6, "total_points": 51, "visibility_pct": 11.76470588235294 }, "geometry": { "type": "Point", "coordinates": [ -0.45480933778849, 51.3741613476437 ] } },
{ "type": "Feature", "properties": { "visible_points": 3, "total_points": 53, "visibility_pct": 5.6603773584905666 }, "geometry": { "type": "Point", "coordinates": [ -0.455104214168241, 51.374273145278508 ] } },
{ "type": "Feature", "properties": { "visible_points": 0, "total_points": 49, "visibility_pct": 0.0 }, "geometry": { "type": "Point", "coordinates": [ -0.454905209231046, 51.374270520944599 ] } },
{ "type": "Feature", "properties": { "visible_points": 7, "total_points": 44, "visibility_pct": 15.909090909090908 }, "geometry": { "type": "Point", "coordinates": [ -0.454706204323881, 51.374267896272691 ] } },
{ "type": "Feature", "properties": { "visible_points": 0, "total_points": 46, "visibility_pct": 0.0 }, "geometry": { "type": "Point", "coordinates": [ -0.455001081125232, 51.374379694166748 ] } },
{ "type": "Feature", "properties": { "visible_points": 0, "total_points": 42, "visibility_pct": 0.0 }, "geometry": { "type": "Point", "coordinates": [ -0.4548020757364, 51.374377069656028 ] } }
]
}
