{
"type": "FeatureCollection",
"name": "HART__42_cycling",
"crs": { "type": "name", "properties": { "name": "urn:ogc:def:crs:OGC:1.3:CRS84" } },
"features": [
{"type":"Feature","properties":{"highway":"cycleway","name":null,"category":"Dedicated cycleway"},"geometry":{"type":"MultiLineString","coordinates":[[[-0.9505298,51.2833538],[-0.9505701,51.283316],[-0.950621,51.2832683]]]}},
{"type":"Feature","properties":{"highway":"cycleway","name":null,"category":"Dedicated cycleway"},"geometry":{"type":"MultiLineString","coordinates":[[[-0.950621,51.2832683],[-0.9510911,51.2828183],[-0.9511742,51.2827703]]]}},
{"type":"Feature","properties":{"highway":"cycleway","name":null,"category":"Dedicated cycleway"},"geometry":{"type":"MultiLineString","coordinates":[[[-0.9591314,51.282641],[-0.9590146,51.2826519],[-0.9586923,51.2826574],[-0.9585077,51.2826287]]]}},
{"type":"Feature","properties":{"highway":"path","name":null,"category":"Shared path"},"geometry":{"type":"MultiLineString","coordinates":[[[-0.9636855,51.2912974],[-0.9621102,51.2907456],[-0.9617696,51.2908124]]]}},
{"type":"Feature","properties":{"highway":"cycleway","name":null,"category":"Dedicated cycleway"},"geometry":{"type":"MultiLineString","coordinates":[[[-0.9482348,51.2803773],[-0.9483214,51.2803136],[-0.948507,51.2802166],[-0.9486812,51.2802115],[-0.9490023,51.2802091],[-0.9495689,51.2801527],[-0.9497266,51.2801069],[-0.9499367,51.2800425]]]}},
{"type":"Feature","properties":{"highway":"path","name":null,"category":"Shared path"},"geometry":{"type":"MultiLineString","coordinates":[[[-0.9497244,51.284257],[-0.9495898,51.2844188],[-0.9494509,51.2845915]]]}},
{"type":"Feature","properties":{"highway":"path","name":null,"category":"Shared path"},"geometry":{"type":"MultiLineString","coordinates":[[[-0.9499953,51.284564],[-0.9498423,51.2847221]]]}},
{"type":"Feature","properties":{"highway":"path","name":null,"category":"Shared path"},"geometry":{"type":"MultiLineString","coordinates":[[[-0.9502894,51.2845729],[-0.9502124,51.2846695],[-0.9501294,51.2847803],[-0.9500033,51.2847708],[-0.9499551,51.2847774]]]}},
{"type":"Feature","properties":{"highway":"path","name":null,"category":"Shared path"},"geometry":{"type":"MultiLineString","coordinates":[[[-0.9501294,51.2847803],[-0.9502879,51.2848309]]]}},
{"type":"Feature","properties":{"highway":"path","name":null,"category":"Shared path"},"geometry":{"type":"MultiLineString","coordinates":[[[-0.9502124,51.2846695],[-0.9499953,51.284564],[-0.9498895,51.2845106],[-0.9498234,51.2844888],[-0.9497786,51.284474],[-0.9495898,51.2844188]]]}},
{"type":"Feature","properties":{"highway":"path","name":null,"category":"Shared path"},"geometry":{"type":"MultiLineString","coordinates":[[[-0.9503607,51.2855214],[-0.9505472,51.2852744],[-0.9505777,51.2852344],[-0.9506025,51.2852019],[-0.9506493,51.2851404]]]}},
{"type":"Feature","properties":{"highway":"path","name":null,"category":"Shared path"},"geometry":{"type":"MultiLineString","coordinates":[[[-0.9521401,51.2848222],[-0.9517885,51.2846816],[-0.9517573,51.2846203]]]}},
{"type":"Feature","properties":{"highway":"path","name":null,"category":"Shared path"},"geometry":{"type":"MultiLineString","coordinates":[[[-0.9503552,51.2835285],[-0.9505357,51.2836751],[-0.9506161,51.2837606],[-0.9505554,51.2838634],[-0.9504571,51.2839747],[-0.9503143,51.2840188],[-0.9499643,51.2842387]]]}},
{"type":"Feature","properties":{"highway":"cycleway","name":null,"category":"Dedicated cycleway"},"geometry":{"type":"MultiLineString","coordinates":[[[-0.9544364,51.2865816],[-0.9545459,51.2864643]]]}},
{"type":"Feature","properties":{"highway":"cycleway","name":null,"category":"Dedicated cycleway"},"geometry":{"type":"MultiLineString","coordinates":[[[-0.9545873,51.2864518],[-0.9547368,51.2865128]]]}},
{"type":"Feature","properties":{"highway":"cycleway","name":null,"category":"Dedicated cycleway"},"geometry":{"type":"MultiLineString","coordinates":[[[-0.9551457,51.2867074],[-0.9551215,51.2867504],[-0.9550868,51.2867673]]]}},
{"type":"Feature","properties":{"highway":"cycleway","name":null,"category":"Dedicated cycleway"},"geometry":{"type":"MultiLineString","coordinates":[[[-0.9547872,51.2870093],[-0.9545068,51.2869484],[-0.9544085,51.2869049]]]}},
{"type":"Feature","properties":{"highway":"cycleway","name":null,"category":"Dedicated cycleway"},"geometry":{"type":"MultiLineString","coordinates":[[[-0.9549455,51.2869638],[-0.9549216,51.2869733],[-0.9548274,51.2869976],[-0.9547872,51.2870093]]]}},
{"type":"Feature","properties":{"highway":"cycleway","name":null,"category":"Dedicated cycleway"},"geometry":{"type":"MultiLineString","coordinates":[[[-0.9550868,51.2867673],[-0.9550653,51.2867322],[-0.955019,51.2866605],[-0.9549801,51.2865765]]]}},
{"type":"Feature","properties":{"highway":"cycleway","name":null,"category":"Dedicated cycleway"},"geometry":{"type":"MultiLineString","coordinates":[[[-0.9543137,51.2867032],[-0.9544364,51.2865816]]]}},
{"type":"Feature","properties":{"highway":"cycleway","name":null,"category":"Dedicated cycleway"},"geometry":{"type":"MultiLineString","coordinates":[[[-0.9544085,51.2869049],[-0.9543237,51.2868869]]]}},
{"type":"Feature","properties":{"highway":"cycleway","name":"London Road","category":"Dedicated cycleway"},"geometry":{"type":"MultiLineString","coordinates":[[[-0.9574806,51.2858224],[-0.9573108,51.2858116],[-0.9568175,51.2860945],[-0.9565049,51.2862035],[-0.9561725,51.2862941],[-0.9559659,51.2863529],[-0.9549801,51.2865765],[-0.954749,51.286514],[-0.9547368,51.2865128]]]}},
{"type":"Feature","properties":{"highway":"cycleway","name":null,"category":"Dedicated cycleway"},"geometry":{"type":"MultiLineString","coordinates":[[[-0.9547368,51.2865128],[-0.9546976,51.2865216],[-0.9546574,51.2865317],[-0.9545595,51.2865543],[-0.9544364,51.2865816]]]}},
{"type":"Feature","properties":{"highway":"cycleway","name":null,"category":"Dedicated cycleway"},"geometry":{"type":"MultiLineString","coordinates":[[[-0.9549455,51.2869638],[-0.9550868,51.2867673]]]}},
{"type":"Feature","properties":{"highway":"cycleway","name":null,"category":"Dedicated cycleway"},"geometry":{"type":"MultiLineString","coordinates":[[[-0.9544085,51.2869049],[-0.9544067,51.2868762],[-0.9543531,51.2868124],[-0.9543137,51.2867032]]]}},
{"type":"Feature","properties":{"highway":"cycleway","name":"London Road","category":"Dedicated cycleway"},"geometry":{"type":"MultiLineString","coordinates":[[[-0.9527526,51.2869618],[-0.9513917,51.287029],[-0.9502236,51.2870864]]]}},
{"type":"Feature","properties":{"highway":"cycleway","name":"London Road","category":"Dedicated cycleway"},"geometry":{"type":"MultiLineString","coordinates":[[[-0.9543137,51.2867032],[-0.9541179,51.2867806],[-0.9534598,51.2868841],[-0.9527526,51.2869618]]]}},
{"type":"Feature","properties":{"highway":"cycleway","name":"London Road","category":"Dedicated cycleway"},"geometry":{"type":"MultiLineString","coordinates":[[[-0.9502236,51.2870864],[-0.9496937,51.2871136]]]}},
{"type":"Feature","properties":{"highway":"cycleway","name":"London Road","category":"Dedicated cycleway"},"geometry":{"type":"MultiLineString","coordinates":[[[-0.9496937,51.2871136],[-0.9494117,51.2871271],[-0.9484666,51.2871615],[-0.9477633,51.2871987],[-0.9474087,51.2872184],[-0.9470192,51.287244]]]}},
{"type":"Feature","properties":{"highway":"cycleway","name":"Holt Lane","category":"Dedicated cycleway"},"geometry":{"type":"MultiLineString","coordinates":[[[-0.9450567,51.2874036],[-0.9450072,51.2874061],[-0.9449416,51.2873997],[-0.9448896,51.2873858],[-0.944842,51.2873601],[-0.9448213,51.2873258],[-0.9448101,51.2873005],[-0.9448124,51.2872746]]]}},
{"type":"Feature","properties":{"highway":"cycleway","name":"London Road","category":"Dedicated cycleway"},"geometry":{"type":"MultiLineString","coordinates":[[[-0.9464862,51.2872801],[-0.9459246,51.2873353],[-0.9456108,51.2873689],[-0.945225,51.2873929],[-0.9450567,51.2874036]]]}},
{"type":"Feature","properties":{"highway":"track","name":"Searl's Lane","category":"Track"},"geometry":{"type":"MultiLineString","coordinates":[[[-0.950096,51.2885557],[-0.9499419,51.2882782],[-0.9495716,51.2876777]]]}},
{"type":"Feature","properties":{"highway":"track","name":"Searl's Lane","category":"Track"},"geometry":{"type":"MultiLineString","coordinates":[[[-0.9493143,51.2897668],[-0.9500533,51.2887159],[-0.9501065,51.2886474],[-0.950096,51.2885557]]]}},
{"type":"Feature","properties":{"highway":"track","name":null,"category":"Track"},"geometry":{"type":"MultiLineString","coordinates":[[[-0.9513588,51.2866873],[-0.9513917,51.287029],[-0.9514005,51.2870885]]]}},
{"type":"Feature","properties":{"highway":"track","name":null,"category":"Track"},"geometry":{"type":"MultiLineString","coordinates":[[[-0.9493917,51.285242],[-0.949077,51.2851555]]]}},
{"type":"Feature","properties":{"highway":"cycleway","name":"Holt Lane","category":"Dedicated cycleway"},"geometry":{"type":"MultiLineString","coordinates":[[[-0.9476664,51.2851875],[-0.9478309,51.2850953],[-0.9479162,51.2850328],[-0.9479746,51.2849829]]]}},
{"type":"Feature","properties":{"highway":"cycleway","name":"Doctor's Acre","category":"Dedicated cycleway"},"geometry":{"type":"MultiLineString","coordinates":[[[-0.946952,51.2855707],[-0.9470056,51.2856009],[-0.9470164,51.2856378],[-0.9469788,51.2856865]]]}},
{"type":"Feature","properties":{"highway":"cycleway","name":"Holt Lane","category":"Dedicated cycleway"},"geometry":{"type":"MultiLineString","coordinates":[[[-0.9484335,51.2840947],[-0.9484192,51.2841398],[-0.9484192,51.2841683],[-0.9484218,51.2841918],[-0.9484728,51.2842287]]]}},
{"type":"Feature","properties":{"highway":"cycleway","name":null,"category":"Dedicated cycleway"},"geometry":{"type":"MultiLineString","coordinates":[[[-0.9459505,51.2865257],[-0.9460178,51.2864859]]]}},
{"type":"Feature","properties":{"highway":"cycleway","name":null,"category":"Dedicated cycleway"},"geometry":{"type":"MultiLineString","coordinates":[[[-0.9469788,51.2856865],[-0.9470178,51.2856977],[-0.9470762,51.2857145]]]}},
{"type":"Feature","properties":{"highway":"cycleway","name":null,"category":"Dedicated cycleway"},"geometry":{"type":"MultiLineString","coordinates":[[[-0.9483874,51.2840866],[-0.9484335,51.2840947]]]}},
{"type":"Feature","properties":{"highway":"cycleway","name":"Holt Lane","category":"Dedicated cycleway"},"geometry":{"type":"MultiLineString","coordinates":[[[-0.9463373,51.286267],[-0.9466079,51.2860787],[-0.9468473,51.2859121],[-0.9469337,51.2858476]]]}},
{"type":"Feature","properties":{"highway":"cycleway","name":null,"category":"Dedicated cycleway"},"geometry":{"type":"MultiLineString","coordinates":[[[-0.9484728,51.2842287],[-0.948461,51.2842852],[-0.9484511,51.2843206]]]}},
{"type":"Feature","properties":{"highway":"cycleway","name":null,"category":"Dedicated cycleway"},"geometry":{"type":"MultiLineString","coordinates":[[[-0.9480071,51.2849547],[-0.9480657,51.2848851]]]}},
{"type":"Feature","properties":{"highway":"cycleway","name":null,"category":"Dedicated cycleway"},"geometry":{"type":"MultiLineString","coordinates":[[[-0.9475358,51.2851946],[-0.9475976,51.2851913],[-0.9476664,51.2851875]]]}},
{"type":"Feature","properties":{"highway":"cycleway","name":"Holt Lane","category":"Dedicated cycleway"},"geometry":{"type":"MultiLineString","coordinates":[[[-0.9460178,51.2864859],[-0.9463373,51.286267]]]}},
{"type":"Feature","properties":{"highway":"cycleway","name":"Holt Lane","category":"Dedicated cycleway"},"geometry":{"type":"MultiLineString","coordinates":[[[-0.947256,51.2854675],[-0.9473937,51.2853785],[-0.9475242,51.2852399],[-0.9475358,51.2851946]]]}},
{"type":"Feature","properties":{"highway":"cycleway","name":"Farm Ground Close","category":"Dedicated cycleway"},"geometry":{"type":"MultiLineString","coordinates":[[[-0.9492855,51.2836885],[-0.949366,51.2837187],[-0.9494272,51.2837759],[-0.9494458,51.2837958]]]}},
{"type":"Feature","properties":{"highway":"cycleway","name":null,"category":"Dedicated cycleway"},"geometry":{"type":"MultiLineString","coordinates":[[[-0.9505298,51.2833538],[-0.9504328,51.2834461]]]}},
{"type":"Feature","properties":{"highway":"cycleway","name":null,"category":"Dedicated cycleway"},"geometry":{"type":"MultiLineString","coordinates":[[[-0.9516524,51.2829861],[-0.9517611,51.2830194],[-0.9522586,51.2831966],[-0.952674,51.2833446]]]}},
{"type":"Feature","properties":{"highway":"cycleway","name":null,"category":"Dedicated cycleway"},"geometry":{"type":"MultiLineString","coordinates":[[[-0.9514892,51.2829314],[-0.95158,51.2829618],[-0.9516524,51.2829861]]]}},
{"type":"Feature","properties":{"highway":"cycleway","name":null,"category":"Dedicated cycleway"},"geometry":{"type":"MultiLineString","coordinates":[[[-0.9549086,51.2834826],[-0.955036,51.2834994],[-0.955031,51.2836558]]]}},
{"type":"Feature","properties":{"highway":"cycleway","name":null,"category":"Dedicated cycleway"},"geometry":{"type":"MultiLineString","coordinates":[[[-0.953998,51.2833875],[-0.9538693,51.28337],[-0.9539409,51.2832074],[-0.9538387,51.2832019]]]}},
{"type":"Feature","properties":{"highway":"track","name":null,"category":"Track"},"geometry":{"type":"MultiLineString","coordinates":[[[-0.9483334,51.2798242],[-0.9487278,51.2791129],[-0.9490038,51.2786152]]]}},
{"type":"Feature","properties":{"highway":"cycleway","name":null,"category":"Dedicated cycleway"},"geometry":{"type":"MultiLineString","coordinates":[[[-0.9549455,51.2869638],[-0.9549649,51.2870172],[-0.954941,51.2870306]]]}},
{"type":"Feature","properties":{"highway":"cycleway","name":null,"category":"Dedicated cycleway"},"geometry":{"type":"MultiLineString","coordinates":[[[-0.9548715,51.2870453],[-0.9548343,51.2870511],[-0.9547872,51.2870093]]]}},
{"type":"Feature","properties":{"highway":"cycleway","name":null,"category":"Dedicated cycleway"},"geometry":{"type":"MultiLineString","coordinates":[[[-0.9551424,51.2826877],[-0.9551311,51.2827262],[-0.9549086,51.2834826]]]}},
{"type":"Feature","properties":{"highway":"cycleway","name":null,"category":"Dedicated cycleway"},"geometry":{"type":"MultiLineString","coordinates":[[[-0.9549086,51.2834826],[-0.9540249,51.2833891],[-0.953998,51.2833875]]]}},
{"type":"Feature","properties":{"highway":"cycleway","name":null,"category":"Dedicated cycleway"},"geometry":{"type":"MultiLineString","coordinates":[[[-0.9585077,51.2826287],[-0.9582066,51.2827354],[-0.9574045,51.2828947],[-0.9572258,51.2829302],[-0.9570855,51.2829414],[-0.9568562,51.2829056],[-0.9562218,51.2828008],[-0.9551424,51.2826877]]]}},
{"type":"Feature","properties":{"highway":"cycleway","name":null,"category":"Dedicated cycleway"},"geometry":{"type":"MultiLineString","coordinates":[[[-0.9538387,51.2832019],[-0.9535427,51.2832255],[-0.9531582,51.2832606]]]}},
{"type":"Feature","properties":{"highway":"cycleway","name":null,"category":"Dedicated cycleway"},"geometry":{"type":"MultiLineString","coordinates":[[[-0.9528458,51.283322],[-0.9531582,51.2832606]]]}},
{"type":"Feature","properties":{"highway":"cycleway","name":null,"category":"Dedicated cycleway"},"geometry":{"type":"MultiLineString","coordinates":[[[-0.9511742,51.2827703],[-0.9512958,51.2828585],[-0.9514892,51.2829314]]]}},
{"type":"Feature","properties":{"highway":"cycleway","name":null,"category":"Dedicated cycleway"},"geometry":{"type":"MultiLineString","coordinates":[[[-0.9504328,51.2834461],[-0.9502737,51.2834172],[-0.9496014,51.2837223],[-0.9494458,51.2837958],[-0.948761,51.2840848],[-0.9484192,51.2841683]]]}},
{"type":"Feature","properties":{"highway":"cycleway","name":null,"category":"Dedicated cycleway"},"geometry":{"type":"MultiLineString","coordinates":[[[-0.952674,51.2833446],[-0.9527372,51.2833363],[-0.9528458,51.283322]]]}},
{"type":"Feature","properties":{"highway":"cycleway","name":"Holt Lane","category":"Dedicated cycleway"},"geometry":{"type":"MultiLineString","coordinates":[[[-0.9480657,51.2848851],[-0.9482971,51.2844317],[-0.9484511,51.2843206]]]}},
{"type":"Feature","properties":{"highway":"cycleway","name":"Holt Lane","category":"Dedicated cycleway"},"geometry":{"type":"MultiLineString","coordinates":[[[-0.9479746,51.2849829],[-0.9480071,51.2849547]]]}},
{"type":"Feature","properties":{"highway":"cycleway","name":"Holt Lane","category":"Dedicated cycleway"},"geometry":{"type":"MultiLineString","coordinates":[[[-0.9471419,51.2856332],[-0.9471718,51.2855901],[-0.947256,51.2854675]]]}},
{"type":"Feature","properties":{"highway":"cycleway","name":"Holt Lane","category":"Dedicated cycleway"},"geometry":{"type":"MultiLineString","coordinates":[[[-0.9469337,51.2858476],[-0.9469665,51.2858231],[-0.9470212,51.285769],[-0.9470762,51.2857145],[-0.9471261,51.2856559],[-0.9471419,51.2856332]]]}},
{"type":"Feature","properties":{"highway":"cycleway","name":"Holt Lane","category":"Dedicated cycleway"},"geometry":{"type":"MultiLineString","coordinates":[[[-0.9448749,51.2871814],[-0.9449457,51.2871228],[-0.9450158,51.2870745],[-0.945121,51.2870096],[-0.9459505,51.2865257]]]}},
{"type":"Feature","properties":{"highway":"path","name":null,"category":"Shared path"},"geometry":{"type":"MultiLineString","coordinates":[[[-0.9609808,51.2906646],[-0.9607332,51.2908294]]]}},
{"type":"Feature","properties":{"highway":"path","name":null,"category":"Shared path"},"geometry":{"type":"MultiLineString","coordinates":[[[-0.9578997,51.2910603],[-0.9579764,51.291042],[-0.9581132,51.2910425]]]}},
{"type":"Feature","properties":{"highway":"path","name":null,"category":"Shared path"},"geometry":{"type":"MultiLineString","coordinates":[[[-0.9602877,51.2833451],[-0.960243,51.2833144],[-0.9602323,51.283295],[-0.9601623,51.2832798],[-0.9600621,51.2831939],[-0.9600484,51.2831848],[-0.9600261,51.2831824],[-0.9600105,51.2831897],[-0.9599648,51.2832098],[-0.9599434,51.2832104],[-0.9599181,51.2832079],[-0.9598928,51.2831988],[-0.9598854,51.2831889]]]}},
{"type":"Feature","properties":{"highway":"track","name":null,"category":"Track"},"geometry":{"type":"MultiLineString","coordinates":[[[-0.9585849,51.280365],[-0.958343,51.2803538],[-0.9582693,51.2802794],[-0.9582613,51.2802466]]]}}
]
}
