{
"type": "FeatureCollection",
"name": "HART__11_cycling",
"crs": { "type": "name", "properties": { "name": "urn:ogc:def:crs:OGC:1.3:CRS84" } },
"features": [
{"type":"Feature","properties":{"highway":"path","name":null,"category":"Shared path"},"geometry":{"type":"MultiLineString","coordinates":[[[-0.8248129,51.3503702],[-0.8245123,51.3505042],[-0.8243728,51.3505903],[-0.8243201,51.3507491]]]}},
{"type":"Feature","properties":{"highway":"cycleway","name":null,"category":"Dedicated cycleway"},"geometry":{"type":"MultiLineString","coordinates":[[[-0.8235474,51.3360864],[-0.8233205,51.3360874],[-0.8230961,51.3360943]]]}},
{"type":"Feature","properties":{"highway":"track","name":null,"category":"Track"},"geometry":{"type":"MultiLineString","coordinates":[[[-0.832025,51.3419965],[-0.8318313,51.3419121],[-0.8316478,51.3418322],[-0.8313303,51.3417679],[-0.8310556,51.3417143],[-0.8308496,51.3416874]]]}},
{"type":"Feature","properties":{"highway":"track","name":null,"category":"Track"},"geometry":{"type":"MultiLineString","coordinates":[[[-0.8318313,51.3419121],[-0.8319311,51.3417679],[-0.8320083,51.3416177],[-0.8321285,51.3414676],[-0.8322572,51.3413765],[-0.8324718,51.3412746],[-0.8326606,51.3411942],[-0.8327121,51.3410977],[-0.8327089,51.3410532]]]}},
{"type":"Feature","properties":{"highway":"path","name":null,"category":"Shared path"},"geometry":{"type":"MultiLineString","coordinates":[[[-0.8362991,51.3416731],[-0.8364251,51.3418474],[-0.8365118,51.3419565],[-0.836616,51.3420693],[-0.8367117,51.342144],[-0.8368236,51.3422689],[-0.8368334,51.342374],[-0.8367728,51.3425604],[-0.8364488,51.3426764]]]}},
{"type":"Feature","properties":{"highway":"path","name":null,"category":"Shared path"},"geometry":{"type":"MultiLineString","coordinates":[[[-0.8241191,51.351054],[-0.8240598,51.3512978],[-0.8239377,51.3515482],[-0.8238767,51.3516542],[-0.8238653,51.3516946],[-0.8238583,51.3517411],[-0.8238382,51.3518084],[-0.8237605,51.351956],[-0.8236559,51.3522167],[-0.8236536,51.3522223],[-0.8236452,51.3522399],[-0.8235584,51.3524221],[-0.8235503,51.3524391],[-0.8234357,51.3527336],[-0.8233091,51.3530392],[-0.8233042,51.353051],[-0.8231822,51.3533461],[-0.8231054,51.353532],[-0.822902,51.3540411],[-0.8228905,51.3540702],[-0.8228535,51.3541504],[-0.8228265,51.3542088],[-0.8228158,51.354232]]]}},
{"type":"Feature","properties":{"highway":"path","name":null,"category":"Shared path"},"geometry":{"type":"MultiLineString","coordinates":[[[-0.842825,51.352435],[-0.8421881,51.352264],[-0.8420542,51.3522747],[-0.841862,51.3522901],[-0.8416341,51.3525599],[-0.8414181,51.3528347],[-0.8410606,51.3529142],[-0.8404775,51.3528983],[-0.8397423,51.3528393],[-0.8387142,51.352944],[-0.8383217,51.3529034],[-0.8378649,51.3529391],[-0.8375772,51.3530503],[-0.8373056,51.3529617],[-0.837083,51.3527929],[-0.8369,51.3526252],[-0.8366,51.3525442],[-0.8363444,51.3525637],[-0.8360721,51.3526955],[-0.8357805,51.3527189],[-0.8353507,51.3527073],[-0.8349874,51.3526629],[-0.8347056,51.3526951],[-0.8345096,51.3527849],[-0.8342097,51.352912],[-0.8339185,51.3530651],[-0.8334899,51.3531303],[-0.8332167,51.3531807],[-0.8328086,51.3531849],[-0.8323777,51.3530472],[-0.8319722,51.3530718],[-0.8315734,51.3532442],[-0.8313356,51.3533911],[-0.8310903,51.3534391],[-0.8305883,51.3534297],[-0.8304607,51.3534273],[-0.830491,51.3533574],[-0.8305117,51.3530614],[-0.8303502,51.3530098],[-0.8301477,51.3530223],[-0.8298293,51.3530188],[-0.8290719,51.3528174],[-0.8287554,51.3528507],[-0.8283494,51.3529549],[-0.8280043,51.3530137],[-0.827852,51.3529428],[-0.8277415,51.3528049],[-0.8277217,51.3526764],[-0.8277673,51.3525474],[-0.8277535,51.3524849],[-0.8277015,51.3524587],[-0.8275847,51.3524416],[-0.8273267,51.3525182],[-0.8270921,51.352537],[-0.8264514,51.3525055],[-0.8262768,51.3524212],[-0.8260529,51.3521769],[-0.8258896,51.3520076],[-0.8258796,51.3519972],[-0.8256916,51.3517481],[-0.8254168,51.3515041],[-0.8253627,51.3513786],[-0.8253816,51.3510827],[-0.8253608,51.3509608],[-0.8252834,51.3507887],[-0.8251445,51.3506235],[-0.8251327,51.3506145],[-0.8248129,51.3503702]]]}},
{"type":"Feature","properties":{"highway":"track","name":"Copse Lane","category":"Track"},"geometry":{"type":"MultiLineString","coordinates":[[[-0.8452541,51.3474038],[-0.8453662,51.3476929],[-0.8455349,51.3480623],[-0.845631,51.3483171],[-0.8457066,51.348684],[-0.8457308,51.3487807],[-0.8457611,51.3489194],[-0.846066,51.3496776],[-0.8463665,51.3501401],[-0.8465167,51.3505234],[-0.8466556,51.3508053]]]}},
{"type":"Feature","properties":{"highway":"track","name":null,"category":"Track"},"geometry":{"type":"MultiLineString","coordinates":[[[-0.8436736,51.3424272],[-0.8433738,51.3424636],[-0.8430569,51.3425613],[-0.8429683,51.3425793]]]}},
{"type":"Feature","properties":{"highway":"bridleway","name":"Green Lane","category":"Bridleway"},"geometry":{"type":"MultiLineString","coordinates":[[[-0.8452615,51.3407727],[-0.8451242,51.341009],[-0.8445887,51.3413293],[-0.8438562,51.3421166],[-0.843735,51.3423227],[-0.8437113,51.3423631],[-0.8436736,51.3424272]]]}},
{"type":"Feature","properties":{"highway":"track","name":null,"category":"Track"},"geometry":{"type":"MultiLineString","coordinates":[[[-0.8417863,51.3468448],[-0.8419944,51.3472498]]]}},
{"type":"Feature","properties":{"highway":"track","name":null,"category":"Track"},"geometry":{"type":"MultiLineString","coordinates":[[[-0.8446341,51.3350478],[-0.8447457,51.3350777],[-0.8448155,51.3350911],[-0.8450148,51.3351079],[-0.8455155,51.3351094],[-0.8456545,51.3350977],[-0.8457515,51.3351196],[-0.8458269,51.3350765],[-0.8458484,51.3350363],[-0.8458803,51.3349956],[-0.8459259,51.3349856],[-0.8459795,51.3349856],[-0.8460305,51.3350057],[-0.846063,51.335043],[-0.8460922,51.3351129],[-0.8461193,51.3351536],[-0.8461791,51.3351572],[-0.8462561,51.3351667],[-0.8463231,51.3351787]]]}},
{"type":"Feature","properties":{"highway":"path","name":null,"category":"Shared path"},"geometry":{"type":"MultiLineString","coordinates":[[[-0.8223958,51.3342337],[-0.8221676,51.3354685],[-0.8221641,51.3354876],[-0.8221636,51.3361042],[-0.8221539,51.3366561],[-0.8221664,51.336831],[-0.8221451,51.3368858],[-0.8220144,51.3370516],[-0.8216613,51.3373001],[-0.8214897,51.3375079],[-0.8212312,51.3378023],[-0.8209914,51.338109],[-0.8209425,51.3381715],[-0.8207923,51.3383457],[-0.8206733,51.3384591],[-0.8203953,51.3386272],[-0.8200842,51.338768],[-0.8195907,51.3389959],[-0.8192849,51.339083],[-0.819045,51.339159],[-0.8188708,51.3392142],[-0.8185973,51.3393268],[-0.8183283,51.3394707],[-0.8182271,51.3395248],[-0.8180447,51.3396119],[-0.8178516,51.3397125],[-0.8177554,51.339772]]]}},
{"type":"Feature","properties":{"highway":"track","name":"Love Lane","category":"Track"},"geometry":{"type":"MultiLineString","coordinates":[[[-0.8480573,51.3447568],[-0.8480929,51.3446735],[-0.8481358,51.3445328],[-0.8481787,51.3443987],[-0.848286,51.3441645],[-0.8483611,51.3439367],[-0.8484147,51.3437624],[-0.8484898,51.3435949],[-0.8485757,51.3434541],[-0.8487688,51.3431861],[-0.8489512,51.3428644],[-0.8492271,51.3425438],[-0.8494543,51.3421765],[-0.8495491,51.342009],[-0.8496747,51.3415174],[-0.8497773,51.3411286],[-0.8498417,51.3409409],[-0.8498801,51.340862]]]}},
{"type":"Feature","properties":{"highway":"bridleway","name":null,"category":"Bridleway"},"geometry":{"type":"MultiLineString","coordinates":[[[-0.8405789,51.3431269],[-0.8404823,51.3430903],[-0.8402207,51.3429911],[-0.8397004,51.3430578],[-0.8396415,51.3430654],[-0.8392636,51.3431411],[-0.8385555,51.3432483],[-0.8382434,51.3432802]]]}},
{"type":"Feature","properties":{"highway":"cycleway","name":null,"category":"Dedicated cycleway"},"geometry":{"type":"MultiLineString","coordinates":[[[-0.8459259,51.3403074],[-0.8459798,51.3402961],[-0.8460654,51.3402772],[-0.846111,51.3402688],[-0.8461649,51.3402525]]]}},
{"type":"Feature","properties":{"highway":"cycleway","name":null,"category":"Dedicated cycleway"},"geometry":{"type":"MultiLineString","coordinates":[[[-0.8458721,51.3391706],[-0.8457205,51.3391035],[-0.8454717,51.3388706],[-0.8450107,51.3385116],[-0.8448316,51.3383896],[-0.8445935,51.3382574],[-0.8444455,51.3381855],[-0.8444001,51.3381383]]]}},
{"type":"Feature","properties":{"highway":"track","name":"Love Lane","category":"Track"},"geometry":{"type":"MultiLineString","coordinates":[[[-0.8498801,51.340862],[-0.849912,51.3407965],[-0.8501443,51.3404819]]]}},
{"type":"Feature","properties":{"highway":"path","name":null,"category":"Shared path"},"geometry":{"type":"MultiLineString","coordinates":[[[-0.8248129,51.3503702],[-0.824702,51.3502865],[-0.8246678,51.3502606]]]}},
{"type":"Feature","properties":{"highway":"path","name":null,"category":"Shared path"},"geometry":{"type":"MultiLineString","coordinates":[[[-0.8243728,51.3505903],[-0.8243298,51.3505514]]]}},
{"type":"Feature","properties":{"highway":"track","name":null,"category":"Track"},"geometry":{"type":"MultiLineString","coordinates":[[[-0.8441422,51.3331602],[-0.8441502,51.3331867],[-0.8443036,51.3336962],[-0.8444025,51.3340684],[-0.8444339,51.3342809],[-0.8445633,51.3350382]]]}},
{"type":"Feature","properties":{"highway":"track","name":"Green Lane","category":"Track"},"geometry":{"type":"MultiLineString","coordinates":[[[-0.8436736,51.3424272],[-0.8436219,51.3425991],[-0.8434836,51.343081],[-0.8434162,51.3433158],[-0.8433935,51.3433949],[-0.8433243,51.3438311],[-0.8433044,51.3439391],[-0.8432966,51.3439815],[-0.8433128,51.3440896]]]}},
{"type":"Feature","properties":{"highway":"bridleway","name":null,"category":"Bridleway"},"geometry":{"type":"MultiLineString","coordinates":[[[-0.8429683,51.3425793],[-0.8427095,51.3426259],[-0.8426504,51.342618],[-0.8414069,51.3429133],[-0.8408401,51.3430589],[-0.8405789,51.3431269]]]}},
{"type":"Feature","properties":{"highway":"path","name":null,"category":"Shared path"},"geometry":{"type":"MultiLineString","coordinates":[[[-0.8420041,51.3472923],[-0.8421693,51.3469759],[-0.8423331,51.3465786]]]}},
{"type":"Feature","properties":{"highway":"path","name":null,"category":"Shared path"},"geometry":{"type":"MultiLineString","coordinates":[[[-0.8325313,51.3453425],[-0.8327621,51.3454667]]]}},
{"type":"Feature","properties":{"highway":"path","name":null,"category":"Shared path"},"geometry":{"type":"MultiLineString","coordinates":[[[-0.8243136,51.3505367],[-0.8242668,51.3504944]]]}},
{"type":"Feature","properties":{"highway":"path","name":null,"category":"Shared path"},"geometry":{"type":"MultiLineString","coordinates":[[[-0.8243298,51.3505514],[-0.8243136,51.3505367]]]}},
{"type":"Feature","properties":{"highway":"path","name":null,"category":"Shared path"},"geometry":{"type":"MultiLineString","coordinates":[[[-0.824304,51.3507976],[-0.8242718,51.3508948],[-0.8241298,51.3510103],[-0.8241191,51.351054]]]}},
{"type":"Feature","properties":{"highway":"path","name":null,"category":"Shared path"},"geometry":{"type":"MultiLineString","coordinates":[[[-0.8243201,51.3507491],[-0.824304,51.3507976]]]}},
{"type":"Feature","properties":{"highway":"path","name":null,"category":"Shared path"},"geometry":{"type":"MultiLineString","coordinates":[[[-0.8239134,51.3511443],[-0.8241191,51.351054]]]}},
{"type":"Feature","properties":{"highway":"path","name":null,"category":"Shared path"},"geometry":{"type":"MultiLineString","coordinates":[[[-0.8239377,51.3515482],[-0.8237729,51.3513593],[-0.8237705,51.3513071],[-0.8236951,51.3512401]]]}},
{"type":"Feature","properties":{"highway":"track","name":null,"category":"Track"},"geometry":{"type":"MultiLineString","coordinates":[[[-0.8433044,51.3439391],[-0.8431122,51.3439335],[-0.8429458,51.3439604],[-0.8428164,51.3439739],[-0.8427363,51.3440181]]]}},
{"type":"Feature","properties":{"highway":"path","name":null,"category":"Shared path"},"geometry":{"type":"MultiLineString","coordinates":[[[-0.8449338,51.3369956],[-0.8449911,51.3369825],[-0.84504,51.3367929]]]}},
{"type":"Feature","properties":{"highway":"path","name":null,"category":"Shared path"},"geometry":{"type":"MultiLineString","coordinates":[[[-0.8259431,51.3453654],[-0.8259639,51.3453283],[-0.8260216,51.3453409],[-0.8260524,51.3452999],[-0.8261127,51.3451759],[-0.8261315,51.3451147],[-0.8261731,51.344943],[-0.8259478,51.3448391],[-0.8258352,51.3447997],[-0.8257842,51.3448044],[-0.8257453,51.3448182],[-0.8256755,51.3448676],[-0.8254547,51.3450635]]]}},
{"type":"Feature","properties":{"highway":"path","name":null,"category":"Shared path"},"geometry":{"type":"MultiLineString","coordinates":[[[-0.8253215,51.3449941],[-0.8253892,51.3449671],[-0.825467,51.3449118],[-0.8257271,51.3446965],[-0.8257674,51.3446572],[-0.8257969,51.3446429],[-0.8261107,51.3448104],[-0.8261804,51.3448373],[-0.8262663,51.3448791],[-0.8264366,51.3448833],[-0.8267692,51.3449068],[-0.8269771,51.3449319],[-0.8270642,51.3449319],[-0.8271434,51.3449277],[-0.8272024,51.3448858],[-0.8272077,51.3446295],[-0.8272211,51.3441252],[-0.8272266,51.3440415],[-0.8272319,51.3439736],[-0.8272332,51.3438094],[-0.8272319,51.3437089],[-0.8272547,51.3434743],[-0.827252,51.3433847],[-0.8272734,51.3432908],[-0.8272882,51.3432649],[-0.8272828,51.3431953],[-0.8272198,51.343099],[-0.827138,51.3429842],[-0.8271139,51.3428737],[-0.8271326,51.3427497],[-0.8271232,51.3427162],[-0.8271447,51.3426508],[-0.8271943,51.3426349],[-0.8272879,51.3426341]]]}}
]
}
