{
"type": "FeatureCollection",
"name": "SWALE_425_walking",
"crs": { "type": "name", "properties": { "name": "urn:ogc:def:crs:OGC:1.3:CRS84" } },
"features": [
{"type":"Feature","properties":{"highway":"footway","name":null,"category":"Footpath (pedestrian only)"},"geometry":{"type":"MultiLineString","coordinates":[[[0.718671,51.3529594],[0.7185853,51.3529922],[0.7185826,51.3530625],[0.7185222,51.3531214],[0.7183445,51.3532122],[0.7182189,51.3532916]]]}},
{"type":"Feature","properties":{"highway":"footway","name":null,"category":"Footpath (pedestrian only)"},"geometry":{"type":"MultiLineString","coordinates":[[[0.7263366,51.3575004],[0.7263797,51.3574465]]]}},
{"type":"Feature","properties":{"highway":"footway","name":null,"category":"Footpath (pedestrian only)"},"geometry":{"type":"MultiLineString","coordinates":[[[0.7217044,51.353354],[0.7216814,51.3532914],[0.7217153,51.3532437],[0.7217387,51.3530887],[0.7220315,51.3530038],[0.7222161,51.3530926],[0.722318,51.3531138],[0.7223576,51.3531635],[0.7222119,51.3531801],[0.7217896,51.3532994],[0.7217044,51.353354]]]}},
{"type":"Feature","properties":{"highway":"footway","name":null,"category":"Footpath (pedestrian only)"},"geometry":{"type":"MultiLineString","coordinates":[[[0.7263797,51.3574465],[0.7270882,51.3564089],[0.7279904,51.3553345],[0.7280199,51.3552199],[0.7280655,51.3552033],[0.7281159,51.3551847],[0.7281406,51.3551756],[0.7290696,51.354042],[0.7289819,51.3540583]]]}},
{"type":"Feature","properties":{"highway":"footway","name":null,"category":"Footpath (pedestrian only)"},"geometry":{"type":"MultiLineString","coordinates":[[[0.7177496,51.3553974],[0.7177015,51.3554888],[0.7177189,51.3555249],[0.7178155,51.3556044],[0.7179348,51.3556781],[0.71814,51.3557694],[0.7184055,51.355885],[0.7185832,51.3559662],[0.7187341,51.3560525],[0.7188575,51.3561404],[0.7189755,51.3562108],[0.719056,51.3562468],[0.7191157,51.356266],[0.7192343,51.3563004],[0.7193644,51.3563238],[0.719469,51.3563322],[0.719583,51.3563314],[0.7196997,51.3563406],[0.7197922,51.3563707],[0.7198794,51.3564109]]]}},
{"type":"Feature","properties":{"highway":"footway","name":null,"category":"Footpath (pedestrian only)"},"geometry":{"type":"MultiLineString","coordinates":[[[0.7187945,51.3559436],[0.7187388,51.355931],[0.7186979,51.3559252],[0.7186624,51.3559269],[0.7186315,51.3559369],[0.7185832,51.3559662]]]}},
{"type":"Feature","properties":{"highway":"footway","name":null,"category":"Footpath (pedestrian only)"},"geometry":{"type":"MultiLineString","coordinates":[[[0.7191157,51.356266],[0.7191264,51.3562321],[0.7191237,51.3562087],[0.7191116,51.3561785],[0.7190915,51.3561584],[0.7190553,51.3561429],[0.7189795,51.3561098],[0.7189064,51.3560684],[0.7188347,51.3560148],[0.7188059,51.3559779],[0.7187945,51.3559436],[0.718849,51.3559063]]]}},
{"type":"Feature","properties":{"highway":"track","name":null,"category":"Track"},"geometry":{"type":"MultiLineString","coordinates":[[[0.7190622,51.3588327],[0.7190158,51.358762],[0.7192244,51.3583552]]]}},
{"type":"Feature","properties":{"highway":"track","name":null,"category":"Track"},"geometry":{"type":"MultiLineString","coordinates":[[[0.7131077,51.3645576],[0.711829,51.3623635],[0.7115419,51.3622607],[0.7106374,51.3625795],[0.7105592,51.3624909]]]}},
{"type":"Feature","properties":{"highway":"footway","name":null,"category":"Footpath (pedestrian only)"},"geometry":{"type":"MultiLineString","coordinates":[[[0.7162123,51.3586987],[0.7162701,51.3586797],[0.7168535,51.3589151],[0.7171136,51.3590097],[0.7174663,51.3591386],[0.7179545,51.3593086],[0.7184044,51.3594891],[0.7188611,51.3596721],[0.7192259,51.3598195],[0.719702,51.3600213],[0.7199984,51.3601477],[0.7205965,51.3604082],[0.721204,51.3607105],[0.7213273,51.3607747],[0.7215902,51.3609115],[0.7217582,51.3610052],[0.722002,51.3611342],[0.72212,51.3611828],[0.7224043,51.3612992],[0.7226564,51.3613888],[0.7227623,51.3614177],[0.7229568,51.3614708],[0.7230561,51.3615119],[0.7234074,51.3615931],[0.7235176,51.3616256],[0.7237172,51.3616844],[0.7240485,51.3618041],[0.7243408,51.3619641],[0.7245393,51.362124],[0.7248384,51.3623593],[0.7248853,51.3623978]]]}},
{"type":"Feature","properties":{"highway":"path","name":null,"category":"Shared path"},"geometry":{"type":"MultiLineString","coordinates":[[[0.7254504,51.3635492],[0.7253702,51.3632852],[0.7252334,51.3629787],[0.7251544,51.3627088],[0.7250671,51.3625851],[0.7248853,51.3623978]]]}},
{"type":"Feature","properties":{"highway":"footway","name":null,"category":"Footpath (pedestrian only)"},"geometry":{"type":"MultiLineString","coordinates":[[[0.7185737,51.3546209],[0.7185443,51.3545918],[0.7185111,51.3545574]]]}},
{"type":"Feature","properties":{"highway":"footway","name":null,"category":"Footpath (pedestrian only)"},"geometry":{"type":"MultiLineString","coordinates":[[[0.7188184,51.3547081],[0.7187891,51.3546809],[0.718767,51.3546565]]]}},
{"type":"Feature","properties":{"highway":"footway","name":null,"category":"Footpath (pedestrian only)"},"geometry":{"type":"MultiLineString","coordinates":[[[0.7189492,51.3546641],[0.7189171,51.3546275],[0.7188978,51.3546062]]]}},
{"type":"Feature","properties":{"highway":"footway","name":null,"category":"Footpath (pedestrian only)"},"geometry":{"type":"MultiLineString","coordinates":[[[0.718767,51.3546565],[0.71871,51.3546153],[0.7186653,51.3546097],[0.7186206,51.3546139],[0.7185737,51.3546209]]]}},
{"type":"Feature","properties":{"highway":"footway","name":null,"category":"Footpath (pedestrian only)"},"geometry":{"type":"MultiLineString","coordinates":[[[0.7188184,51.3547081],[0.7188229,51.354729],[0.7188508,51.3547758],[0.7189056,51.3548037],[0.7190509,51.3548554],[0.7192453,51.3549286],[0.7193012,51.3549615],[0.7193895,51.3550292],[0.7196432,51.355279],[0.7197248,51.3553655],[0.7196723,51.3554032]]]}},
{"type":"Feature","properties":{"highway":"footway","name":null,"category":"Footpath (pedestrian only)"},"geometry":{"type":"MultiLineString","coordinates":[[[0.7196723,51.3554032],[0.7197011,51.3554264],[0.7197214,51.3554465]]]}},
{"type":"Feature","properties":{"highway":"footway","name":null,"category":"Footpath (pedestrian only)"},"geometry":{"type":"MultiLineString","coordinates":[[[0.7188743,51.354431],[0.718906,51.3544692],[0.718938,51.3545099]]]}},
{"type":"Feature","properties":{"highway":"footway","name":null,"category":"Footpath (pedestrian only)"},"geometry":{"type":"MultiLineString","coordinates":[[[0.7188978,51.3546062],[0.7188754,51.3545497],[0.7188978,51.3545245],[0.718938,51.3545099]]]}},
{"type":"Feature","properties":{"highway":"footway","name":null,"category":"Footpath (pedestrian only)"},"geometry":{"type":"MultiLineString","coordinates":[[[0.7188743,51.354431],[0.7191168,51.3543543],[0.7191582,51.3543235],[0.7191615,51.3542879],[0.7191649,51.3542482],[0.7191392,51.3542244]]]}},
{"type":"Feature","properties":{"highway":"footway","name":null,"category":"Footpath (pedestrian only)"},"geometry":{"type":"MultiLineString","coordinates":[[[0.719199,51.3542057],[0.7191392,51.3542244]]]}},
{"type":"Feature","properties":{"highway":"footway","name":null,"category":"Footpath (pedestrian only)"},"geometry":{"type":"MultiLineString","coordinates":[[[0.7189492,51.3546641],[0.7190151,51.3547193],[0.7191224,51.354766],[0.7193683,51.3548554],[0.7194463,51.3548983],[0.7195191,51.3549621],[0.7196711,51.3551115],[0.7197091,51.3551541]]]}},
{"type":"Feature","properties":{"highway":"footway","name":null,"category":"Footpath (pedestrian only)"},"geometry":{"type":"MultiLineString","coordinates":[[[0.7197091,51.3551541],[0.7197466,51.3551872],[0.7197818,51.3552246]]]}},
{"type":"Feature","properties":{"highway":"footway","name":null,"category":"Footpath (pedestrian only)"},"geometry":{"type":"MultiLineString","coordinates":[[[0.7185111,51.3545574],[0.7187,51.3544903],[0.7188743,51.354431]]]}}
]
}
