{
"type": "FeatureCollection",
"name": "25b65c521790_visibility",
"crs": { "type": "name", "properties": { "name": "urn:ogc:def:crs:OGC:1.3:CRS84" } },
"features": [
{ "type": "Feature", "properties": { "visible_points": 3, "total_points": 61, "visibility_pct": 4.918032786885246 }, "geometry": { "type": "Point", "coordinates": [ 0.547391305345851, 51.222968591864664 ] } },
{ "type": "Feature", "properties": { "visible_points": 0, "total_points": 69, "visibility_pct": 0.0 }, "geometry": { "type": "Point", "coordinates": [ 0.547589527121773, 51.222964276392034 ] } },
{ "type": "Feature", "properties": { "visible_points": 0, "total_points": 74, "visibility_pct": 0.0 }, "geometry": { "type": "Point", "coordinates": [ 0.547787748848715, 51.222959960584042 ] } },
{ "type": "Feature", "properties": { "visible_points": 1, "total_points": 74, "visibility_pct": 1.3513513513513513 }, "geometry": { "type": "Point", "coordinates": [ 0.547985970526657, 51.222955644440724 ] } },
{ "type": "Feature", "properties": { "visible_points": 12, "total_points": 69, "visibility_pct": 17.391304347826086 }, "geometry": { "type": "Point", "coordinates": [ 0.548184192155611, 51.222951327962086 ] } },
{ "type": "Feature", "properties": { "visible_points": 12, "total_points": 62, "visibility_pct": 19.35483870967742 }, "geometry": { "type": "Point", "coordinates": [ 0.548382413751234, 51.222947011142551 ] } },
{ "type": "Feature", "properties": { "visible_points": 0, "total_points": 54, "visibility_pct": 0.0 }, "geometry": { "type": "Point", "coordinates": [ 0.54858063532676, 51.222942693968079 ] } },
{ "type": "Feature", "properties": { "visible_points": 24, "total_points": 63, "visibility_pct": 38.095238095238095 }, "geometry": { "type": "Point", "coordinates": [ 0.547298146773375, 51.2230785460156 ] } },
{ "type": "Feature", "properties": { "visible_points": 18, "total_points": 73, "visibility_pct": 24.657534246575342 }, "geometry": { "type": "Point", "coordinates": [ 0.547496369034413, 51.223074230692227 ] } },
{ "type": "Feature", "properties": { "visible_points": 16, "total_points": 82, "visibility_pct": 19.512195121951219 }, "geometry": { "type": "Point", "coordinates": [ 0.547694591246464, 51.223069915033513 ] } },
{ "type": "Feature", "properties": { "visible_points": 10, "total_points": 84, "visibility_pct": 11.904761904761903 }, "geometry": { "type": "Point", "coordinates": [ 0.547892813409528, 51.223065599039458 ] } },
{ "type": "Feature", "properties": { "visible_points": 19, "total_points": 82, "visibility_pct": 23.170731707317074 }, "geometry": { "type": "Point", "coordinates": [ 0.54809103552359, 51.22306128271007 ] } },
{ "type": "Feature", "properties": { "visible_points": 20, "total_points": 73, "visibility_pct": 27.397260273972602 }, "geometry": { "type": "Point", "coordinates": [ 0.548289257592722, 51.223056966044474 ] } },
{ "type": "Feature", "properties": { "visible_points": 0, "total_points": 64, "visibility_pct": 0.0 }, "geometry": { "type": "Point", "coordinates": [ 0.548487479644157, 51.223052649027416 ] } },
{ "type": "Feature", "properties": { "visible_points": 24, "total_points": 70, "visibility_pct": 34.285714285714285 }, "geometry": { "type": "Point", "coordinates": [ 0.547403210510936, 51.223184184924392 ] } },
{ "type": "Feature", "properties": { "visible_points": 21, "total_points": 80, "visibility_pct": 26.25 }, "geometry": { "type": "Point", "coordinates": [ 0.547601433208099, 51.223179869414942 ] } },
{ "type": "Feature", "properties": { "visible_points": 20, "total_points": 88, "visibility_pct": 22.727272727272727 }, "geometry": { "type": "Point", "coordinates": [ 0.54779965585628, 51.223175553570158 ] } },
{ "type": "Feature", "properties": { "visible_points": 22, "total_points": 87, "visibility_pct": 25.287356321839084 }, "geometry": { "type": "Point", "coordinates": [ 0.547997878455466, 51.223171237390019 ] } },
{ "type": "Feature", "properties": { "visible_points": 22, "total_points": 80, "visibility_pct": 27.5 }, "geometry": { "type": "Point", "coordinates": [ 0.548196101005659, 51.223166920874554 ] } },
{ "type": "Feature", "properties": { "visible_points": 17, "total_points": 71, "visibility_pct": 23.943661971830984 }, "geometry": { "type": "Point", "coordinates": [ 0.548394323528624, 51.223162604016814 ] } },
{ "type": "Feature", "properties": { "visible_points": 0, "total_points": 61, "visibility_pct": 0.0 }, "geometry": { "type": "Point", "coordinates": [ 0.548592546038318, 51.223158286804718 ] } },
{ "type": "Feature", "properties": { "visible_points": 15, "total_points": 65, "visibility_pct": 23.076923076923077 }, "geometry": { "type": "Point", "coordinates": [ 0.547310051551331, 51.223294139088509 ] } },
{ "type": "Feature", "properties": { "visible_points": 0, "total_points": 75, "visibility_pct": 0.0 }, "geometry": { "type": "Point", "coordinates": [ 0.547508274733621, 51.223289823728344 ] } },
{ "type": "Feature", "properties": { "visible_points": 22, "total_points": 85, "visibility_pct": 25.882352941176475 }, "geometry": { "type": "Point", "coordinates": [ 0.547706497866921, 51.223285508032802 ] } },
{ "type": "Feature", "properties": { "visible_points": 23, "total_points": 89, "visibility_pct": 25.842696629213485 }, "geometry": { "type": "Point", "coordinates": [ 0.547904720951229, 51.223281192001942 ] } },
{ "type": "Feature", "properties": { "visible_points": 12, "total_points": 85, "visibility_pct": 14.117647058823529 }, "geometry": { "type": "Point", "coordinates": [ 0.548102943986543, 51.223276875635733 ] } },
{ "type": "Feature", "properties": { "visible_points": 13, "total_points": 76, "visibility_pct": 17.105263157894736 }, "geometry": { "type": "Point", "coordinates": [ 0.548301166979816, 51.223272558932926 ] } },
{ "type": "Feature", "properties": { "visible_points": 15, "total_points": 66, "visibility_pct": 22.727272727272727 }, "geometry": { "type": "Point", "coordinates": [ 0.54849938996275, 51.223268241877442 ] } },
{ "type": "Feature", "properties": { "visible_points": 20, "total_points": 68, "visibility_pct": 29.411764705882355 }, "geometry": { "type": "Point", "coordinates": [ 0.547415115823016, 51.223399777973704 ] } },
{ "type": "Feature", "properties": { "visible_points": 21, "total_points": 78, "visibility_pct": 26.923076923076923 }, "geometry": { "type": "Point", "coordinates": [ 0.547613339441441, 51.223395462427447 ] } },
{ "type": "Feature", "properties": { "visible_points": 24, "total_points": 85, "visibility_pct": 28.235294117647058 }, "geometry": { "type": "Point", "coordinates": [ 0.547811563010872, 51.223391146545836 ] } },
{ "type": "Feature", "properties": { "visible_points": 21, "total_points": 86, "visibility_pct": 24.418604651162788 }, "geometry": { "type": "Point", "coordinates": [ 0.548009786531313, 51.223386830328884 ] } },
{ "type": "Feature", "properties": { "visible_points": 18, "total_points": 79, "visibility_pct": 22.784810126582279 }, "geometry": { "type": "Point", "coordinates": [ 0.548208010002756, 51.223382513776592 ] } },
{ "type": "Feature", "properties": { "visible_points": 15, "total_points": 69, "visibility_pct": 21.739130434782609 }, "geometry": { "type": "Point", "coordinates": [ 0.548406233453965, 51.223378196880645 ] } },
{ "type": "Feature", "properties": { "visible_points": 0, "total_points": 59, "visibility_pct": 0.0 }, "geometry": { "type": "Point", "coordinates": [ 0.548604456898555, 51.223373879630913 ] } },
{ "type": "Feature", "properties": { "visible_points": 21, "total_points": 59, "visibility_pct": 35.593220338983052 }, "geometry": { "type": "Point", "coordinates": [ 0.547321956476293, 51.223509732151037 ] } },
{ "type": "Feature", "properties": { "visible_points": 20, "total_points": 68, "visibility_pct": 29.411764705882355 }, "geometry": { "type": "Point", "coordinates": [ 0.547520180579839, 51.223505416754044 ] } },
{ "type": "Feature", "properties": { "visible_points": 19, "total_points": 75, "visibility_pct": 25.333333333333336 }, "geometry": { "type": "Point", "coordinates": [ 0.547718404634394, 51.223501101021711 ] } },
{ "type": "Feature", "properties": { "visible_points": 19, "total_points": 77, "visibility_pct": 24.675324675324674 }, "geometry": { "type": "Point", "coordinates": [ 0.547916628639964, 51.223496784954023 ] } },
{ "type": "Feature", "properties": { "visible_points": 4, "total_points": 75, "visibility_pct": 5.3333333333333339 }, "geometry": { "type": "Point", "coordinates": [ 0.548114852596539, 51.223492468550994 ] } },
{ "type": "Feature", "properties": { "visible_points": 0, "total_points": 67, "visibility_pct": 0.0 }, "geometry": { "type": "Point", "coordinates": [ 0.548313076514681, 51.223488151810955 ] } },
{ "type": "Feature", "properties": { "visible_points": 1, "total_points": 58, "visibility_pct": 1.7241379310344827 }, "geometry": { "type": "Point", "coordinates": [ 0.548511300430018, 51.223483834717037 ] } },
{ "type": "Feature", "properties": { "visible_points": 0, "total_points": 56, "visibility_pct": 0.0 }, "geometry": { "type": "Point", "coordinates": [ 0.547427021282108, 51.223615371012613 ] } },
{ "type": "Feature", "properties": { "visible_points": 2, "total_points": 62, "visibility_pct": 3.225806451612903 }, "geometry": { "type": "Point", "coordinates": [ 0.547625245821795, 51.223611055429544 ] } }
]
}
