{
"type": "FeatureCollection",
"name": "SLOUG_30_toilets",
"crs": { "type": "name", "properties": { "name": "urn:ogc:def:crs:OGC:1.3:CRS84" } },
"features": [
{ "type": "Feature", "properties": { "name": "BP Connect Filling Station  Colnbrook By Pass", "payment_info": "Free", "accessible": "False", "radar": "False", "women": "True", "men": "True", "baby_change": "Unknown", "Mon": "00:00-00:00", "Tue": "00:00-00:00", "Wed": "00:00-00:00", "Thu": "00:00-00:00", "Fri": "00:00-00:00", "Sat": "00:00-00:00", "Sun": "00:00-00:00", "index_right": 23, "park_offical_id": "SLOUG_30" }, "geometry": { "type": "Point", "coordinates": [ -0.510864258, 51.484539836 ] } }
]
}
