{
"type": "FeatureCollection",
"name": "WINCH_55_toilets",
"crs": { "type": "name", "properties": { "name": "urn:ogc:def:crs:OGC:1.3:CRS84" } },
"features": [
{ "type": "Feature", "properties": { "name": "Shell Filling Station  Winchester Winnall", "payment_info": "Cost unknown", "accessible": "True", "radar": "False", "women": "Unknown", "men": "Unknown", "baby_change": "Unknown", "Mon": "00:00-00:00", "Tue": "00:00-00:00", "Wed": "00:00-00:00", "Thu": "00:00-00:00", "Fri": "00:00-00:00", "Sat": "00:00-00:00", "Sun": "00:00-00:00", "index_right": 95, "park_offical_id": "WINCH_55" }, "geometry": { "type": "Point", "coordinates": [ -1.296000481, 51.070250397 ] } },
{ "type": "Feature", "properties": { "name": "Tesco Extra Superstore  Winchester", "payment_info": "Free", "accessible": "True", "radar": "True", "women": "True", "men": "True", "baby_change": "True", "Mon": "09:00-17:00", "Tue": "09:00-17:00", "Wed": "09:00-17:00", "Thu": "09:00-17:00", "Fri": "09:00-17:00", "Sat": "09:00-17:00", "Sun": "09:00-17:00", "index_right": 95, "park_offical_id": "WINCH_55" }, "geometry": { "type": "Point", "coordinates": [ -1.293811798, 51.068457085 ] } },
{ "type": "Feature", "properties": { "name": "Chesil Street Multistory car park", "payment_info": "Free", "accessible": "True", "radar": "Unknown", "women": "True", "men": "True", "baby_change": "False", "Mon": "Unknown", "Tue": "Unknown", "Wed": "Unknown", "Thu": "Unknown", "Fri": "Unknown", "Sat": "Unknown", "Sun": "Unknown", "index_right": 95, "park_offical_id": "WINCH_55" }, "geometry": { "type": "Point", "coordinates": [ -1.305634975, 51.060288542 ] } },
{ "type": "Feature", "properties": { "name": "Costa", "payment_info": "Free", "accessible": "False", "radar": "False", "women": "Unknown", "men": "Unknown", "baby_change": "True", "Mon": "09:00-17:00", "Tue": "09:00-17:00", "Wed": "09:00-17:00", "Thu": "09:00-17:00", "Fri": "09:00-17:00", "Sat": "09:00-17:00", "Sun": "09:00-17:00", "index_right": 95, "park_offical_id": "WINCH_55" }, "geometry": { "type": "Point", "coordinates": [ -1.296923161, 51.069742058 ] } }
]
}
