{
"type": "FeatureCollection",
"name": "63927c65dc6d_visibility",
"crs": { "type": "name", "properties": { "name": "urn:ogc:def:crs:OGC:1.3:CRS84" } },
"features": [
{ "type": "Feature", "properties": { "visible_points": 21, "total_points": 65, "visibility_pct": 32.307692307692307 }, "geometry": { "type": "Point", "coordinates": [ -0.531968284072705, 51.503907174469589 ] } },
{ "type": "Feature", "properties": { "visible_points": 21, "total_points": 71, "visibility_pct": 29.577464788732392 }, "geometry": { "type": "Point", "coordinates": [ -0.531768709759613, 51.503904676030892 ] } },
{ "type": "Feature", "properties": { "visible_points": 15, "total_points": 74, "visibility_pct": 20.27027027027027 }, "geometry": { "type": "Point", "coordinates": [ -0.531569135474292, 51.503902177252229 ] } },
{ "type": "Feature", "properties": { "visible_points": 0, "total_points": 72, "visibility_pct": 0.0 }, "geometry": { "type": "Point", "coordinates": [ -0.531369561216742, 51.503899678133557 ] } },
{ "type": "Feature", "properties": { "visible_points": 0, "total_points": 67, "visibility_pct": 0.0 }, "geometry": { "type": "Point", "coordinates": [ -0.531169986986977, 51.503897178674897 ] } },
{ "type": "Feature", "properties": { "visible_points": 9, "total_points": 60, "visibility_pct": 15.0 }, "geometry": { "type": "Point", "coordinates": [ -0.530970412784988, 51.503894678876257 ] } },
{ "type": "Feature", "properties": { "visible_points": 8, "total_points": 57, "visibility_pct": 14.035087719298245 }, "geometry": { "type": "Point", "coordinates": [ -0.532264175544961, 51.504018785495603 ] } },
{ "type": "Feature", "properties": { "visible_points": 19, "total_points": 67, "visibility_pct": 28.35820895522388 }, "geometry": { "type": "Point", "coordinates": [ -0.532064600741128, 51.504016287568156 ] } },
{ "type": "Feature", "properties": { "visible_points": 26, "total_points": 77, "visibility_pct": 33.766233766233768 }, "geometry": { "type": "Point", "coordinates": [ -0.53186502596506, 51.504013789300707 ] } },
{ "type": "Feature", "properties": { "visible_points": 27, "total_points": 83, "visibility_pct": 32.53012048192771 }, "geometry": { "type": "Point", "coordinates": [ -0.531665451216766, 51.504011290693263 ] } },
{ "type": "Feature", "properties": { "visible_points": 23, "total_points": 85, "visibility_pct": 27.058823529411764 }, "geometry": { "type": "Point", "coordinates": [ -0.531465876496238, 51.504008791745854 ] } },
{ "type": "Feature", "properties": { "visible_points": 10, "total_points": 80, "visibility_pct": 12.5 }, "geometry": { "type": "Point", "coordinates": [ -0.531266301803496, 51.504006292458421 ] } },
{ "type": "Feature", "properties": { "visible_points": 6, "total_points": 73, "visibility_pct": 8.2191780821917799 }, "geometry": { "type": "Point", "coordinates": [ -0.531066727138528, 51.504003792831021 ] } },
{ "type": "Feature", "properties": { "visible_points": 0, "total_points": 68, "visibility_pct": 0.0 }, "geometry": { "type": "Point", "coordinates": [ -0.532160917844757, 51.504125400578715 ] } },
{ "type": "Feature", "properties": { "visible_points": 11, "total_points": 79, "visibility_pct": 13.924050632911392 }, "geometry": { "type": "Point", "coordinates": [ -0.531961342605717, 51.504122902482507 ] } },
{ "type": "Feature", "properties": { "visible_points": 31, "total_points": 89, "visibility_pct": 34.831460674157306 }, "geometry": { "type": "Point", "coordinates": [ -0.53176176739444, 51.504120404046311 ] } },
{ "type": "Feature", "properties": { "visible_points": 35, "total_points": 95, "visibility_pct": 36.84210526315789 }, "geometry": { "type": "Point", "coordinates": [ -0.531562192210936, 51.504117905270135 ] } },
{ "type": "Feature", "properties": { "visible_points": 0, "total_points": 93, "visibility_pct": 0.0 }, "geometry": { "type": "Point", "coordinates": [ -0.531362617055213, 51.504115406153957 ] } },
{ "type": "Feature", "properties": { "visible_points": 17, "total_points": 86, "visibility_pct": 19.767441860465116 }, "geometry": { "type": "Point", "coordinates": [ -0.531163041927267, 51.504112906697777 ] } },
{ "type": "Feature", "properties": { "visible_points": 16, "total_points": 78, "visibility_pct": 20.512820512820511 }, "geometry": { "type": "Point", "coordinates": [ -0.5309634668271, 51.50411040690161 ] } },
{ "type": "Feature", "properties": { "visible_points": 0, "total_points": 67, "visibility_pct": 0.0 }, "geometry": { "type": "Point", "coordinates": [ -0.532257235383598, 51.504234513501238 ] } },
{ "type": "Feature", "properties": { "visible_points": 25, "total_points": 79, "visibility_pct": 31.645569620253166 }, "geometry": { "type": "Point", "coordinates": [ -0.53205765968158, 51.504232015576285 ] } },
{ "type": "Feature", "properties": { "visible_points": 38, "total_points": 91, "visibility_pct": 41.758241758241759 }, "geometry": { "type": "Point", "coordinates": [ -0.531858084007325, 51.504229517311316 ] } },
{ "type": "Feature", "properties": { "visible_points": 39, "total_points": 102, "visibility_pct": 38.235294117647058 }, "geometry": { "type": "Point", "coordinates": [ -0.531658508360843, 51.504227018706388 ] } },
{ "type": "Feature", "properties": { "visible_points": 39, "total_points": 105, "visibility_pct": 37.142857142857146 }, "geometry": { "type": "Point", "coordinates": [ -0.531458932742137, 51.504224519761451 ] } },
{ "type": "Feature", "properties": { "visible_points": 31, "total_points": 99, "visibility_pct": 31.313131313131315 }, "geometry": { "type": "Point", "coordinates": [ -0.531259357151201, 51.504222020476512 ] } },
{ "type": "Feature", "properties": { "visible_points": 10, "total_points": 91, "visibility_pct": 10.989010989010989 }, "geometry": { "type": "Point", "coordinates": [ -0.531059781588056, 51.504219520851599 ] } },
{ "type": "Feature", "properties": { "visible_points": 12, "total_points": 82, "visibility_pct": 14.634146341463413 }, "geometry": { "type": "Point", "coordinates": [ -0.530860206052688, 51.504217020886671 ] } },
{ "type": "Feature", "properties": { "visible_points": 0, "total_points": 76, "visibility_pct": 0.0 }, "geometry": { "type": "Point", "coordinates": [ -0.532153977192658, 51.504341128582013 ] } },
{ "type": "Feature", "properties": { "visible_points": 38, "total_points": 89, "visibility_pct": 42.696629213483142 }, "geometry": { "type": "Point", "coordinates": [ -0.531954401055423, 51.504338630488313 ] } },
{ "type": "Feature", "properties": { "visible_points": 44, "total_points": 102, "visibility_pct": 43.137254901960787 }, "geometry": { "type": "Point", "coordinates": [ -0.531754824945954, 51.504336132054618 ] } },
{ "type": "Feature", "properties": { "visible_points": 48, "total_points": 113, "visibility_pct": 42.477876106194692 }, "geometry": { "type": "Point", "coordinates": [ -0.531555248864262, 51.504333633280922 ] } },
{ "type": "Feature", "properties": { "visible_points": 44, "total_points": 112, "visibility_pct": 39.285714285714285 }, "geometry": { "type": "Point", "coordinates": [ -0.531355672810348, 51.504331134167238 ] } },
{ "type": "Feature", "properties": { "visible_points": 29, "total_points": 104, "visibility_pct": 27.884615384615387 }, "geometry": { "type": "Point", "coordinates": [ -0.531156096784206, 51.504328634713552 ] } },
{ "type": "Feature", "properties": { "visible_points": 19, "total_points": 94, "visibility_pct": 20.212765957446805 }, "geometry": { "type": "Point", "coordinates": [ -0.530956520785856, 51.504326134919879 ] } },
{ "type": "Feature", "properties": { "visible_points": 13, "total_points": 83, "visibility_pct": 15.66265060240964 }, "geometry": { "type": "Point", "coordinates": [ -0.530756944815289, 51.504323634786196 ] } },
{ "type": "Feature", "properties": { "visible_points": 25, "total_points": 85, "visibility_pct": 29.411764705882355 }, "geometry": { "type": "Point", "coordinates": [ -0.532050718538734, 51.504447743577281 ] } },
{ "type": "Feature", "properties": { "visible_points": 41, "total_points": 98, "visibility_pct": 41.836734693877553 }, "geometry": { "type": "Point", "coordinates": [ -0.531851141966284, 51.504445245314827 ] } },
{ "type": "Feature", "properties": { "visible_points": 48, "total_points": 109, "visibility_pct": 44.036697247706428 }, "geometry": { "type": "Point", "coordinates": [ -0.531651565421605, 51.504442746712371 ] } },
{ "type": "Feature", "properties": { "visible_points": 50, "total_points": 116, "visibility_pct": 43.103448275862064 }, "geometry": { "type": "Point", "coordinates": [ -0.531451988904698, 51.504440247769928 ] } },
{ "type": "Feature", "properties": { "visible_points": 48, "total_points": 112, "visibility_pct": 42.857142857142854 }, "geometry": { "type": "Point", "coordinates": [ -0.531252412415571, 51.504437748487483 ] } },
{ "type": "Feature", "properties": { "visible_points": 4, "total_points": 103, "visibility_pct": 3.8834951456310676 }, "geometry": { "type": "Point", "coordinates": [ -0.531052835954226, 51.504435248865057 ] } },
{ "type": "Feature", "properties": { "visible_points": 8, "total_points": 93, "visibility_pct": 8.6021505376344098 }, "geometry": { "type": "Point", "coordinates": [ -0.530853259520668, 51.50443274890263 ] } },
{ "type": "Feature", "properties": { "visible_points": 16, "total_points": 81, "visibility_pct": 19.753086419753085 }, "geometry": { "type": "Point", "coordinates": [ -0.530653683114894, 51.504430248600187 ] } },
{ "type": "Feature", "properties": { "visible_points": 0, "total_points": 78, "visibility_pct": 0.0 }, "geometry": { "type": "Point", "coordinates": [ -0.532147036457265, 51.504556856578226 ] } },
{ "type": "Feature", "properties": { "visible_points": 37, "total_points": 90, "visibility_pct": 41.111111111111107 }, "geometry": { "type": "Point", "coordinates": [ -0.531947459421832, 51.504554358487006 ] } },
{ "type": "Feature", "properties": { "visible_points": 46, "total_points": 102, "visibility_pct": 45.098039215686278 }, "geometry": { "type": "Point", "coordinates": [ -0.531747882414158, 51.504551860055813 ] } },
{ "type": "Feature", "properties": { "visible_points": 50, "total_points": 111, "visibility_pct": 45.045045045045043 }, "geometry": { "type": "Point", "coordinates": [ -0.531548305434263, 51.50454936128461 ] } },
{ "type": "Feature", "properties": { "visible_points": 51, "total_points": 117, "visibility_pct": 43.589743589743591 }, "geometry": { "type": "Point", "coordinates": [ -0.531348728482143, 51.504546862173413 ] } },
{ "type": "Feature", "properties": { "visible_points": 50, "total_points": 111, "visibility_pct": 45.045045045045043 }, "geometry": { "type": "Point", "coordinates": [ -0.531149151557804, 51.504544362722214 ] } },
{ "type": "Feature", "properties": { "visible_points": 0, "total_points": 102, "visibility_pct": 0.0 }, "geometry": { "type": "Point", "coordinates": [ -0.53094957466125, 51.504541862931013 ] } },
{ "type": "Feature", "properties": { "visible_points": 2, "total_points": 91, "visibility_pct": 2.197802197802198 }, "geometry": { "type": "Point", "coordinates": [ -0.530749997792484, 51.504539362799825 ] } },
{ "type": "Feature", "properties": { "visible_points": 0, "total_points": 82, "visibility_pct": 0.0 }, "geometry": { "type": "Point", "coordinates": [ -0.532043777312591, 51.50466347157117 ] } },
{ "type": "Feature", "properties": { "visible_points": 41, "total_points": 94, "visibility_pct": 43.61702127659575 }, "geometry": { "type": "Point", "coordinates": [ -0.531844199841934, 51.504660973311225 ] } },
{ "type": "Feature", "properties": { "visible_points": 49, "total_points": 105, "visibility_pct": 46.666666666666664 }, "geometry": { "type": "Point", "coordinates": [ -0.531644622399046, 51.504658474711256 ] } },
{ "type": "Feature", "properties": { "visible_points": 54, "total_points": 114, "visibility_pct": 47.368421052631575 }, "geometry": { "type": "Point", "coordinates": [ -0.531445044983933, 51.5046559757713 ] } },
{ "type": "Feature", "properties": { "visible_points": 51, "total_points": 117, "visibility_pct": 43.589743589743591 }, "geometry": { "type": "Point", "coordinates": [ -0.531245467596595, 51.504653476491356 ] } },
{ "type": "Feature", "properties": { "visible_points": 46, "total_points": 110, "visibility_pct": 41.818181818181813 }, "geometry": { "type": "Point", "coordinates": [ -0.531045890237046, 51.504650976871389 ] } },
{ "type": "Feature", "properties": { "visible_points": 20, "total_points": 100, "visibility_pct": 20.0 }, "geometry": { "type": "Point", "coordinates": [ -0.530846312905276, 51.504648476911449 ] } },
{ "type": "Feature", "properties": { "visible_points": 6, "total_points": 89, "visibility_pct": 6.7415730337078648 }, "geometry": { "type": "Point", "coordinates": [ -0.530646735601304, 51.504645976611506 ] } },
{ "type": "Feature", "properties": { "visible_points": 26, "total_points": 85, "visibility_pct": 30.588235294117649 }, "geometry": { "type": "Point", "coordinates": [ -0.531940517704931, 51.504770086478608 ] } },
{ "type": "Feature", "properties": { "visible_points": 39, "total_points": 97, "visibility_pct": 40.206185567010309 }, "geometry": { "type": "Point", "coordinates": [ -0.531740939799045, 51.504767588049901 ] } },
{ "type": "Feature", "properties": { "visible_points": 49, "total_points": 108, "visibility_pct": 45.370370370370374 }, "geometry": { "type": "Point", "coordinates": [ -0.531541361920936, 51.504765089281186 ] } },
{ "type": "Feature", "properties": { "visible_points": 55, "total_points": 116, "visibility_pct": 47.413793103448278 }, "geometry": { "type": "Point", "coordinates": [ -0.531341784070605, 51.504762590172469 ] } },
{ "type": "Feature", "properties": { "visible_points": 51, "total_points": 116, "visibility_pct": 43.96551724137931 }, "geometry": { "type": "Point", "coordinates": [ -0.531142206248053, 51.504760090723764 ] } },
{ "type": "Feature", "properties": { "visible_points": 40, "total_points": 108, "visibility_pct": 37.037037037037038 }, "geometry": { "type": "Point", "coordinates": [ -0.530942628453283, 51.504757590935043 ] } },
{ "type": "Feature", "properties": { "visible_points": 12, "total_points": 98, "visibility_pct": 12.244897959183673 }, "geometry": { "type": "Point", "coordinates": [ -0.530743050686308, 51.504755090806341 ] } },
{ "type": "Feature", "properties": { "visible_points": 12, "total_points": 87, "visibility_pct": 13.793103448275861 }, "geometry": { "type": "Point", "coordinates": [ -0.530543472947115, 51.504752590337624 ] } },
{ "type": "Feature", "properties": { "visible_points": 37, "total_points": 89, "visibility_pct": 41.573033707865171 }, "geometry": { "type": "Point", "coordinates": [ -0.531837257634274, 51.504876701300496 ] } },
{ "type": "Feature", "properties": { "visible_points": 45, "total_points": 101, "visibility_pct": 44.554455445544555 }, "geometry": { "type": "Point", "coordinates": [ -0.531637679293167, 51.504874202703029 ] } },
{ "type": "Feature", "properties": { "visible_points": 50, "total_points": 110, "visibility_pct": 45.454545454545453 }, "geometry": { "type": "Point", "coordinates": [ -0.53143810097983, 51.504871703765573 ] } },
{ "type": "Feature", "properties": { "visible_points": 50, "total_points": 118, "visibility_pct": 42.372881355932201 }, "geometry": { "type": "Point", "coordinates": [ -0.53123852269428, 51.504869204488095 ] } },
{ "type": "Feature", "properties": { "visible_points": 48, "total_points": 114, "visibility_pct": 42.105263157894733 }, "geometry": { "type": "Point", "coordinates": [ -0.531038944436508, 51.504866704870622 ] } },
{ "type": "Feature", "properties": { "visible_points": 41, "total_points": 106, "visibility_pct": 38.679245283018872 }, "geometry": { "type": "Point", "coordinates": [ -0.530839366206526, 51.504864204913154 ] } },
{ "type": "Feature", "properties": { "visible_points": 14, "total_points": 96, "visibility_pct": 14.583333333333334 }, "geometry": { "type": "Point", "coordinates": [ -0.530639788004328, 51.504861704615685 ] } },
{ "type": "Feature", "properties": { "visible_points": 15, "total_points": 84, "visibility_pct": 17.857142857142858 }, "geometry": { "type": "Point", "coordinates": [ -0.530440209829928, 51.504859203978221 ] } },
{ "type": "Feature", "properties": { "visible_points": 1, "total_points": 81, "visibility_pct": 1.2345679012345678 }, "geometry": { "type": "Point", "coordinates": [ -0.53193357590473, 51.504985814463076 ] } },
{ "type": "Feature", "properties": { "visible_points": 43, "total_points": 93, "visibility_pct": 46.236559139784944 }, "geometry": { "type": "Point", "coordinates": [ -0.531733997100617, 51.504983316036864 ] } },
{ "type": "Feature", "properties": { "visible_points": 49, "total_points": 104, "visibility_pct": 47.115384615384613 }, "geometry": { "type": "Point", "coordinates": [ -0.531534418324285, 51.504980817270642 ] } },
{ "type": "Feature", "properties": { "visible_points": 46, "total_points": 113, "visibility_pct": 40.707964601769916 }, "geometry": { "type": "Point", "coordinates": [ -0.531334839575726, 51.504978318164419 ] } },
{ "type": "Feature", "properties": { "visible_points": 48, "total_points": 119, "visibility_pct": 40.336134453781511 }, "geometry": { "type": "Point", "coordinates": [ -0.531135260854951, 51.504975818718201 ] } },
{ "type": "Feature", "properties": { "visible_points": 45, "total_points": 113, "visibility_pct": 39.823008849557525 }, "geometry": { "type": "Point", "coordinates": [ -0.530935682161959, 51.504973318931967 ] } },
{ "type": "Feature", "properties": { "visible_points": 42, "total_points": 104, "visibility_pct": 40.384615384615387 }, "geometry": { "type": "Point", "coordinates": [ -0.530736103496755, 51.504970818805731 ] } },
{ "type": "Feature", "properties": { "visible_points": 13, "total_points": 93, "visibility_pct": 13.978494623655912 }, "geometry": { "type": "Point", "coordinates": [ -0.530536524859345, 51.504968318339508 ] } },
{ "type": "Feature", "properties": { "visible_points": 13, "total_points": 81, "visibility_pct": 16.049382716049383 }, "geometry": { "type": "Point", "coordinates": [ -0.530336946249728, 51.504965817533275 ] } },
{ "type": "Feature", "properties": { "visible_points": 0, "total_points": 84, "visibility_pct": 0.0 }, "geometry": { "type": "Point", "coordinates": [ -0.531830315343304, 51.505092429282683 ] } },
{ "type": "Feature", "properties": { "visible_points": 44, "total_points": 96, "visibility_pct": 45.833333333333329 }, "geometry": { "type": "Point", "coordinates": [ -0.531630736103964, 51.505089930687703 ] } },
{ "type": "Feature", "properties": { "visible_points": 46, "total_points": 107, "visibility_pct": 42.990654205607477 }, "geometry": { "type": "Point", "coordinates": [ -0.531431156892401, 51.50508743175272 ] } },
{ "type": "Feature", "properties": { "visible_points": 49, "total_points": 115, "visibility_pct": 42.608695652173914 }, "geometry": { "type": "Point", "coordinates": [ -0.531231577708616, 51.505084932477736 ] } },
{ "type": "Feature", "properties": { "visible_points": 45, "total_points": 119, "visibility_pct": 37.815126050420169 }, "geometry": { "type": "Point", "coordinates": [ -0.531031998552617, 51.50508243286275 ] } },
{ "type": "Feature", "properties": { "visible_points": 46, "total_points": 112, "visibility_pct": 41.071428571428569 }, "geometry": { "type": "Point", "coordinates": [ -0.530832419424399, 51.505079932907755 ] } },
{ "type": "Feature", "properties": { "visible_points": 28, "total_points": 102, "visibility_pct": 27.450980392156865 }, "geometry": { "type": "Point", "coordinates": [ -0.530632840323979, 51.505077432612779 ] } },
{ "type": "Feature", "properties": { "visible_points": 6, "total_points": 90, "visibility_pct": 6.666666666666667 }, "geometry": { "type": "Point", "coordinates": [ -0.530433261251352, 51.505074931977767 ] } },
{ "type": "Feature", "properties": { "visible_points": 11, "total_points": 77, "visibility_pct": 14.285714285714285 }, "geometry": { "type": "Point", "coordinates": [ -0.530233682206518, 51.50507243100278 ] } },
{ "type": "Feature", "properties": { "visible_points": 16, "total_points": 88, "visibility_pct": 18.181818181818183 }, "geometry": { "type": "Point", "coordinates": [ -0.531727054318873, 51.505199044016734 ] } },
{ "type": "Feature", "properties": { "visible_points": 44, "total_points": 100, "visibility_pct": 44.0 }, "geometry": { "type": "Point", "coordinates": [ -0.531527474644301, 51.505196545252993 ] } },
{ "type": "Feature", "properties": { "visible_points": 45, "total_points": 109, "visibility_pct": 41.284403669724774 }, "geometry": { "type": "Point", "coordinates": [ -0.531327894997509, 51.505194046149242 ] } },
{ "type": "Feature", "properties": { "visible_points": 44, "total_points": 117, "visibility_pct": 37.606837606837608 }, "geometry": { "type": "Point", "coordinates": [ -0.531128315378498, 51.505191546705518 ] } },
{ "type": "Feature", "properties": { "visible_points": 45, "total_points": 118, "visibility_pct": 38.135593220338983 }, "geometry": { "type": "Point", "coordinates": [ -0.530928735787269, 51.505189046921771 ] } },
{ "type": "Feature", "properties": { "visible_points": 41, "total_points": 110, "visibility_pct": 37.272727272727273 }, "geometry": { "type": "Point", "coordinates": [ -0.530729156223831, 51.505186546798029 ] } },
{ "type": "Feature", "properties": { "visible_points": 0, "total_points": 98, "visibility_pct": 0.0 }, "geometry": { "type": "Point", "coordinates": [ -0.530529576688189, 51.505184046334264 ] } },
{ "type": "Feature", "properties": { "visible_points": 0, "total_points": 85, "visibility_pct": 0.0 }, "geometry": { "type": "Point", "coordinates": [ -0.530329997180338, 51.505181545530519 ] } },
{ "type": "Feature", "properties": { "visible_points": 11, "total_points": 72, "visibility_pct": 15.277777777777779 }, "geometry": { "type": "Point", "coordinates": [ -0.530130417700291, 51.505179044386743 ] } },
{ "type": "Feature", "properties": { "visible_points": 30, "total_points": 92, "visibility_pct": 32.608695652173914 }, "geometry": { "type": "Point", "coordinates": [ -0.531623792831439, 51.50530565866525 ] } },
{ "type": "Feature", "properties": { "visible_points": 40, "total_points": 103, "visibility_pct": 38.834951456310677 }, "geometry": { "type": "Point", "coordinates": [ -0.531424212721633, 51.505303159732769 ] } },
{ "type": "Feature", "properties": { "visible_points": 41, "total_points": 112, "visibility_pct": 36.607142857142854 }, "geometry": { "type": "Point", "coordinates": [ -0.531224632639607, 51.50530066046025 ] } },
{ "type": "Feature", "properties": { "visible_points": 40, "total_points": 118, "visibility_pct": 33.898305084745758 }, "geometry": { "type": "Point", "coordinates": [ -0.531025052585366, 51.505298160847758 ] } },
{ "type": "Feature", "properties": { "visible_points": 45, "total_points": 114, "visibility_pct": 39.473684210526315 }, "geometry": { "type": "Point", "coordinates": [ -0.530825472558913, 51.505295660895257 ] } },
{ "type": "Feature", "properties": { "visible_points": 44, "total_points": 102, "visibility_pct": 43.137254901960787 }, "geometry": { "type": "Point", "coordinates": [ -0.530625892560246, 51.505293160602747 ] } },
{ "type": "Feature", "properties": { "visible_points": 34, "total_points": 89, "visibility_pct": 38.202247191011232 }, "geometry": { "type": "Point", "coordinates": [ -0.530426312589381, 51.505290659970221 ] } },
{ "type": "Feature", "properties": { "visible_points": 0, "total_points": 76, "visibility_pct": 0.0 }, "geometry": { "type": "Point", "coordinates": [ -0.530226732646309, 51.505288158997708 ] } },
{ "type": "Feature", "properties": { "visible_points": 0, "total_points": 80, "visibility_pct": 0.0 }, "geometry": { "type": "Point", "coordinates": [ -0.53172011145381, 51.505414771989479 ] } },
{ "type": "Feature", "properties": { "visible_points": 30, "total_points": 91, "visibility_pct": 32.967032967032964 }, "geometry": { "type": "Point", "coordinates": [ -0.531520530880989, 51.505412273228245 ] } },
{ "type": "Feature", "properties": { "visible_points": 39, "total_points": 100, "visibility_pct": 39.0 }, "geometry": { "type": "Point", "coordinates": [ -0.53132095033595, 51.505409774126989 ] } },
{ "type": "Feature", "properties": { "visible_points": 38, "total_points": 108, "visibility_pct": 35.185185185185183 }, "geometry": { "type": "Point", "coordinates": [ -0.531121369818692, 51.50540727468573 ] } },
{ "type": "Feature", "properties": { "visible_points": 40, "total_points": 112, "visibility_pct": 35.714285714285715 }, "geometry": { "type": "Point", "coordinates": [ -0.530921789329219, 51.505404774904477 ] } },
{ "type": "Feature", "properties": { "visible_points": 44, "total_points": 102, "visibility_pct": 43.137254901960787 }, "geometry": { "type": "Point", "coordinates": [ -0.530722208867535, 51.505402274783208 ] } },
{ "type": "Feature", "properties": { "visible_points": 40, "total_points": 91, "visibility_pct": 43.956043956043956 }, "geometry": { "type": "Point", "coordinates": [ -0.530522628433644, 51.50539977432193 ] } },
{ "type": "Feature", "properties": { "visible_points": 35, "total_points": 79, "visibility_pct": 44.303797468354425 }, "geometry": { "type": "Point", "coordinates": [ -0.530323048027549, 51.505397273520636 ] } },
{ "type": "Feature", "properties": { "visible_points": 23, "total_points": 67, "visibility_pct": 34.328358208955223 }, "geometry": { "type": "Point", "coordinates": [ -0.530123467649258, 51.505394772379347 ] } },
{ "type": "Feature", "properties": { "visible_points": 0, "total_points": 78, "visibility_pct": 0.0 }, "geometry": { "type": "Point", "coordinates": [ -0.531616849475587, 51.505521386635685 ] } },
{ "type": "Feature", "properties": { "visible_points": 30, "total_points": 87, "visibility_pct": 34.482758620689658 }, "geometry": { "type": "Point", "coordinates": [ -0.531417268467531, 51.505518887705691 ] } },
{ "type": "Feature", "properties": { "visible_points": 37, "total_points": 95, "visibility_pct": 38.94736842105263 }, "geometry": { "type": "Point", "coordinates": [ -0.531217687487251, 51.505516388435673 ] } },
{ "type": "Feature", "properties": { "visible_points": 38, "total_points": 101, "visibility_pct": 37.623762376237622 }, "geometry": { "type": "Point", "coordinates": [ -0.531018106534755, 51.505513888825661 ] } },
{ "type": "Feature", "properties": { "visible_points": 41, "total_points": 99, "visibility_pct": 41.414141414141412 }, "geometry": { "type": "Point", "coordinates": [ -0.53081852561005, 51.505511388875632 ] } },
{ "type": "Feature", "properties": { "visible_points": 42, "total_points": 89, "visibility_pct": 47.191011235955052 }, "geometry": { "type": "Point", "coordinates": [ -0.530618944713134, 51.505508888585616 ] } },
{ "type": "Feature", "properties": { "visible_points": 37, "total_points": 79, "visibility_pct": 46.835443037974684 }, "geometry": { "type": "Point", "coordinates": [ -0.530419363844017, 51.50550638795557 ] } },
{ "type": "Feature", "properties": { "visible_points": 17, "total_points": 68, "visibility_pct": 25.0 }, "geometry": { "type": "Point", "coordinates": [ -0.530219783002699, 51.505503886985508 ] } },
{ "type": "Feature", "properties": { "visible_points": 18, "total_points": 57, "visibility_pct": 31.578947368421051 }, "geometry": { "type": "Point", "coordinates": [ -0.530020202189178, 51.505501385675437 ] } },
{ "type": "Feature", "properties": { "visible_points": 21, "total_points": 74, "visibility_pct": 28.378378378378379 }, "geometry": { "type": "Point", "coordinates": [ -0.531513587034347, 51.505628001196371 ] } },
{ "type": "Feature", "properties": { "visible_points": 36, "total_points": 82, "visibility_pct": 43.902439024390247 }, "geometry": { "type": "Point", "coordinates": [ -0.531314005591047, 51.505625502097594 ] } },
{ "type": "Feature", "properties": { "visible_points": 39, "total_points": 88, "visibility_pct": 44.31818181818182 }, "geometry": { "type": "Point", "coordinates": [ -0.531114424175531, 51.505623002658822 ] } },
{ "type": "Feature", "properties": { "visible_points": 39, "total_points": 91, "visibility_pct": 42.857142857142854 }, "geometry": { "type": "Point", "coordinates": [ -0.530914842787801, 51.505620502880049 ] } },
{ "type": "Feature", "properties": { "visible_points": 40, "total_points": 86, "visibility_pct": 46.511627906976742 }, "geometry": { "type": "Point", "coordinates": [ -0.530715261427857, 51.505618002761274 ] } },
{ "type": "Feature", "properties": { "visible_points": 39, "total_points": 77, "visibility_pct": 50.649350649350644 }, "geometry": { "type": "Point", "coordinates": [ -0.530515680095713, 51.505615502302462 ] } },
{ "type": "Feature", "properties": { "visible_points": 33, "total_points": 67, "visibility_pct": 49.253731343283583 }, "geometry": { "type": "Point", "coordinates": [ -0.530316098791363, 51.505613001503662 ] } },
{ "type": "Feature", "properties": { "visible_points": 28, "total_points": 57, "visibility_pct": 49.122807017543856 }, "geometry": { "type": "Point", "coordinates": [ -0.530116517514811, 51.505610500364838 ] } },
{ "type": "Feature", "properties": { "visible_points": 0, "total_points": 62, "visibility_pct": 0.0 }, "geometry": { "type": "Point", "coordinates": [ -0.531609906036411, 51.505737114599015 ] } },
{ "type": "Feature", "properties": { "visible_points": 31, "total_points": 69, "visibility_pct": 44.927536231884055 }, "geometry": { "type": "Point", "coordinates": [ -0.531410324130087, 51.5057346156715 ] } },
{ "type": "Feature", "properties": { "visible_points": 27, "total_points": 75, "visibility_pct": 36.0 }, "geometry": { "type": "Point", "coordinates": [ -0.531210742251546, 51.505732116403991 ] } },
{ "type": "Feature", "properties": { "visible_points": 27, "total_points": 79, "visibility_pct": 34.177215189873415 }, "geometry": { "type": "Point", "coordinates": [ -0.531011160400787, 51.505729616796451 ] } },
{ "type": "Feature", "properties": { "visible_points": 31, "total_points": 79, "visibility_pct": 39.24050632911392 }, "geometry": { "type": "Point", "coordinates": [ -0.53081157857782, 51.505727116848909 ] } },
{ "type": "Feature", "properties": { "visible_points": 37, "total_points": 73, "visibility_pct": 50.684931506849317 }, "geometry": { "type": "Point", "coordinates": [ -0.530611996782641, 51.505724616561345 ] } },
{ "type": "Feature", "properties": { "visible_points": 2, "total_points": 56, "visibility_pct": 3.5714285714285712 }, "geometry": { "type": "Point", "coordinates": [ -0.531506643104371, 51.505843729157377 ] } },
{ "type": "Feature", "properties": { "visible_points": 10, "total_points": 62, "visibility_pct": 16.129032258064516 }, "geometry": { "type": "Point", "coordinates": [ -0.531307060762804, 51.505841230061108 ] } }
]
}
