{
"type": "FeatureCollection",
"name": "c5cee91e419b_visibility",
"crs": { "type": "name", "properties": { "name": "urn:ogc:def:crs:OGC:1.3:CRS84" } },
"features": [
{ "type": "Feature", "properties": { "visible_points": 0, "total_points": 46, "visibility_pct": 0.0 }, "geometry": { "type": "Point", "coordinates": [ -0.64527285007776, 51.911594896580148 ] } },
{ "type": "Feature", "properties": { "visible_points": 0, "total_points": 51, "visibility_pct": 0.0 }, "geometry": { "type": "Point", "coordinates": [ -0.645071469572439, 51.911592575116828 ] } },
{ "type": "Feature", "properties": { "visible_points": 0, "total_points": 56, "visibility_pct": 0.0 }, "geometry": { "type": "Point", "coordinates": [ -0.645168916659102, 51.911701595566093 ] } },
{ "type": "Feature", "properties": { "visible_points": 8, "total_points": 59, "visibility_pct": 13.559322033898304 }, "geometry": { "type": "Point", "coordinates": [ -0.644967535675293, 51.91169927393458 ] } },
{ "type": "Feature", "properties": { "visible_points": 0, "total_points": 58, "visibility_pct": 0.0 }, "geometry": { "type": "Point", "coordinates": [ -0.644766154719066, 51.911696951957992 ] } },
{ "type": "Feature", "properties": { "visible_points": 9, "total_points": 62, "visibility_pct": 14.516129032258066 }, "geometry": { "type": "Point", "coordinates": [ -0.645064982734364, 51.911808294468401 ] } },
{ "type": "Feature", "properties": { "visible_points": 9, "total_points": 62, "visibility_pct": 14.516129032258066 }, "geometry": { "type": "Point", "coordinates": [ -0.644863601272075, 51.911805972668716 ] } },
{ "type": "Feature", "properties": { "visible_points": 9, "total_points": 61, "visibility_pct": 14.754098360655737 }, "geometry": { "type": "Point", "coordinates": [ -0.644662219837357, 51.911803650523957 ] } },
{ "type": "Feature", "properties": { "visible_points": 2, "total_points": 58, "visibility_pct": 3.4482758620689653 }, "geometry": { "type": "Point", "coordinates": [ -0.644460838430221, 51.911801328034123 ] } },
{ "type": "Feature", "properties": { "visible_points": 0, "total_points": 62, "visibility_pct": 0.0 }, "geometry": { "type": "Point", "coordinates": [ -0.64516243027191, 51.911917314909921 ] } },
{ "type": "Feature", "properties": { "visible_points": 9, "total_points": 62, "visibility_pct": 14.516129032258066 }, "geometry": { "type": "Point", "coordinates": [ -0.644961048303556, 51.91191499328712 ] } },
{ "type": "Feature", "properties": { "visible_points": 10, "total_points": 62, "visibility_pct": 16.129032258064516 }, "geometry": { "type": "Point", "coordinates": [ -0.644759666362771, 51.911912671319243 ] } },
{ "type": "Feature", "properties": { "visible_points": 7, "total_points": 62, "visibility_pct": 11.29032258064516 }, "geometry": { "type": "Point", "coordinates": [ -0.644558284449569, 51.911910349006291 ] } },
{ "type": "Feature", "properties": { "visible_points": 2, "total_points": 56, "visibility_pct": 3.5714285714285712 }, "geometry": { "type": "Point", "coordinates": [ -0.644356902563947, 51.911908026348272 ] } },
{ "type": "Feature", "properties": { "visible_points": 2, "total_points": 62, "visibility_pct": 3.225806451612903 }, "geometry": { "type": "Point", "coordinates": [ -0.645058495813507, 51.912024013813188 ] } },
{ "type": "Feature", "properties": { "visible_points": 11, "total_points": 62, "visibility_pct": 17.741935483870968 }, "geometry": { "type": "Point", "coordinates": [ -0.644857113366657, 51.912021692022215 ] } },
{ "type": "Feature", "properties": { "visible_points": 10, "total_points": 61, "visibility_pct": 16.393442622950818 }, "geometry": { "type": "Point", "coordinates": [ -0.644655730947385, 51.91201936988616 ] } },
{ "type": "Feature", "properties": { "visible_points": 0, "total_points": 58, "visibility_pct": 0.0 }, "geometry": { "type": "Point", "coordinates": [ -0.644454348555691, 51.912017047405023 ] } },
{ "type": "Feature", "properties": { "visible_points": 0, "total_points": 58, "visibility_pct": 0.0 }, "geometry": { "type": "Point", "coordinates": [ -0.645155943801944, 51.912133034246956 ] } },
{ "type": "Feature", "properties": { "visible_points": 9, "total_points": 60, "visibility_pct": 15.0 }, "geometry": { "type": "Point", "coordinates": [ -0.644954560849023, 51.912130712632866 ] } },
{ "type": "Feature", "properties": { "visible_points": 6, "total_points": 59, "visibility_pct": 10.16949152542373 }, "geometry": { "type": "Point", "coordinates": [ -0.644753177923677, 51.912128390673715 ] } },
{ "type": "Feature", "properties": { "visible_points": 1, "total_points": 57, "visibility_pct": 1.7543859649122806 }, "geometry": { "type": "Point", "coordinates": [ -0.644551795025909, 51.91212606836946 ] } },
{ "type": "Feature", "properties": { "visible_points": 5, "total_points": 53, "visibility_pct": 9.433962264150944 }, "geometry": { "type": "Point", "coordinates": [ -0.645052008809866, 51.912239733151203 ] } },
{ "type": "Feature", "properties": { "visible_points": 0, "total_points": 55, "visibility_pct": 0.0 }, "geometry": { "type": "Point", "coordinates": [ -0.644850625378445, 51.912237411368913 ] } },
{ "type": "Feature", "properties": { "visible_points": 2, "total_points": 43, "visibility_pct": 4.6511627906976747 }, "geometry": { "type": "Point", "coordinates": [ -0.645149457249196, 51.912348753577213 ] } }
]
}
