{
"type": "FeatureCollection",
"name": "eca67e8f83f3_visibility",
"crs": { "type": "name", "properties": { "name": "urn:ogc:def:crs:OGC:1.3:CRS84" } },
"features": [
{ "type": "Feature", "properties": { "visible_points": 3, "total_points": 55, "visibility_pct": 5.4545454545454541 }, "geometry": { "type": "Point", "coordinates": [ -0.655970540945594, 51.808946271751552 ] } },
{ "type": "Feature", "properties": { "visible_points": 0, "total_points": 59, "visibility_pct": 0.0 }, "geometry": { "type": "Point", "coordinates": [ -0.655769618077195, 51.808943975751227 ] } },
{ "type": "Feature", "properties": { "visible_points": 3, "total_points": 58, "visibility_pct": 5.1724137931034484 }, "geometry": { "type": "Point", "coordinates": [ -0.656067791026303, 51.809055282836717 ] } },
{ "type": "Feature", "properties": { "visible_points": 3, "total_points": 63, "visibility_pct": 4.7619047619047619 }, "geometry": { "type": "Point", "coordinates": [ -0.655866867639241, 51.809052987021055 ] } },
{ "type": "Feature", "properties": { "visible_points": 2, "total_points": 68, "visibility_pct": 2.9411764705882351 }, "geometry": { "type": "Point", "coordinates": [ -0.65566594428006, 51.809050690861262 ] } },
{ "type": "Feature", "properties": { "visible_points": 9, "total_points": 59, "visibility_pct": 15.254237288135593 }, "geometry": { "type": "Point", "coordinates": [ -0.656165041597797, 51.80916429382178 ] } },
{ "type": "Feature", "properties": { "visible_points": 4, "total_points": 66, "visibility_pct": 6.0606060606060606 }, "geometry": { "type": "Point", "coordinates": [ -0.655964117692075, 51.809161998190817 ] } },
{ "type": "Feature", "properties": { "visible_points": 2, "total_points": 72, "visibility_pct": 2.7777777777777777 }, "geometry": { "type": "Point", "coordinates": [ -0.655763193814232, 51.809159702215702 ] } },
{ "type": "Feature", "properties": { "visible_points": 4, "total_points": 77, "visibility_pct": 5.1948051948051948 }, "geometry": { "type": "Point", "coordinates": [ -0.655562269964254, 51.809157405896428 ] } },
{ "type": "Feature", "properties": { "visible_points": 1, "total_points": 79, "visibility_pct": 1.2658227848101267 }, "geometry": { "type": "Point", "coordinates": [ -0.655361346142164, 51.809155109232982 ] } },
{ "type": "Feature", "properties": { "visible_points": 0, "total_points": 58, "visibility_pct": 0.0 }, "geometry": { "type": "Point", "coordinates": [ -0.65626229266009, 51.809273304706778 ] } },
{ "type": "Feature", "properties": { "visible_points": 6, "total_points": 66, "visibility_pct": 9.0909090909090917 }, "geometry": { "type": "Point", "coordinates": [ -0.656061368235702, 51.809271009260485 ] } },
{ "type": "Feature", "properties": { "visible_points": 0, "total_points": 73, "visibility_pct": 0.0 }, "geometry": { "type": "Point", "coordinates": [ -0.655860443839186, 51.809268713470068 ] } },
{ "type": "Feature", "properties": { "visible_points": 0, "total_points": 80, "visibility_pct": 0.0 }, "geometry": { "type": "Point", "coordinates": [ -0.655659519470547, 51.809266417335472 ] } },
{ "type": "Feature", "properties": { "visible_points": 1, "total_points": 85, "visibility_pct": 1.1764705882352942 }, "geometry": { "type": "Point", "coordinates": [ -0.655458595129782, 51.809264120856703 ] } },
{ "type": "Feature", "properties": { "visible_points": 10, "total_points": 84, "visibility_pct": 11.904761904761903 }, "geometry": { "type": "Point", "coordinates": [ -0.655257670816901, 51.809261824033769 ] } },
{ "type": "Feature", "properties": { "visible_points": 1, "total_points": 79, "visibility_pct": 1.2658227848101267 }, "geometry": { "type": "Point", "coordinates": [ -0.655056746531907, 51.809259526866668 ] } },
{ "type": "Feature", "properties": { "visible_points": 2, "total_points": 64, "visibility_pct": 3.125 }, "geometry": { "type": "Point", "coordinates": [ -0.656158619270124, 51.80938002023008 ] } },
{ "type": "Feature", "properties": { "visible_points": 6, "total_points": 73, "visibility_pct": 8.2191780821917799 }, "geometry": { "type": "Point", "coordinates": [ -0.655957694354936, 51.809377724624341 ] } },
{ "type": "Feature", "properties": { "visible_points": 4, "total_points": 81, "visibility_pct": 4.9382716049382713 }, "geometry": { "type": "Point", "coordinates": [ -0.655756769467625, 51.809375428674429 ] } },
{ "type": "Feature", "properties": { "visible_points": 2, "total_points": 88, "visibility_pct": 2.2727272727272729 }, "geometry": { "type": "Point", "coordinates": [ -0.655555844608187, 51.809373132380344 ] } },
{ "type": "Feature", "properties": { "visible_points": 9, "total_points": 88, "visibility_pct": 10.227272727272728 }, "geometry": { "type": "Point", "coordinates": [ -0.655354919776633, 51.809370835742087 ] } },
{ "type": "Feature", "properties": { "visible_points": 13, "total_points": 86, "visibility_pct": 15.11627906976744 }, "geometry": { "type": "Point", "coordinates": [ -0.655153994972962, 51.809368538759671 ] } },
{ "type": "Feature", "properties": { "visible_points": 0, "total_points": 83, "visibility_pct": 0.0 }, "geometry": { "type": "Point", "coordinates": [ -0.654953070197181, 51.809366241433111 ] } },
{ "type": "Feature", "properties": { "visible_points": 6, "total_points": 78, "visibility_pct": 7.6923076923076925 }, "geometry": { "type": "Point", "coordinates": [ -0.655854019955501, 51.809484439913291 ] } },
{ "type": "Feature", "properties": { "visible_points": 12, "total_points": 85, "visibility_pct": 14.117647058823529 }, "geometry": { "type": "Point", "coordinates": [ -0.655653094577389, 51.809482143803905 ] } },
{ "type": "Feature", "properties": { "visible_points": 11, "total_points": 88, "visibility_pct": 12.5 }, "geometry": { "type": "Point", "coordinates": [ -0.655452169227153, 51.809479847350332 ] } },
{ "type": "Feature", "properties": { "visible_points": 15, "total_points": 89, "visibility_pct": 16.853932584269664 }, "geometry": { "type": "Point", "coordinates": [ -0.655251243904804, 51.809477550552607 ] } },
{ "type": "Feature", "properties": { "visible_points": 26, "total_points": 88, "visibility_pct": 29.545454545454547 }, "geometry": { "type": "Point", "coordinates": [ -0.655050318610343, 51.80947525341071 ] } },
{ "type": "Feature", "properties": { "visible_points": 27, "total_points": 85, "visibility_pct": 31.764705882352938 }, "geometry": { "type": "Point", "coordinates": [ -0.654849393343772, 51.809472955924647 ] } },
{ "type": "Feature", "properties": { "visible_points": 3, "total_points": 81, "visibility_pct": 3.7037037037037033 }, "geometry": { "type": "Point", "coordinates": [ -0.654648468105097, 51.809470658094405 ] } },
{ "type": "Feature", "properties": { "visible_points": 9, "total_points": 78, "visibility_pct": 11.538461538461538 }, "geometry": { "type": "Point", "coordinates": [ -0.655750345037384, 51.809591155127386 ] } },
{ "type": "Feature", "properties": { "visible_points": 15, "total_points": 84, "visibility_pct": 17.857142857142858 }, "geometry": { "type": "Point", "coordinates": [ -0.655549419168471, 51.809588858858525 ] } },
{ "type": "Feature", "properties": { "visible_points": 25, "total_points": 87, "visibility_pct": 28.735632183908045 }, "geometry": { "type": "Point", "coordinates": [ -0.655348493327437, 51.809586562245464 ] } },
{ "type": "Feature", "properties": { "visible_points": 34, "total_points": 89, "visibility_pct": 38.202247191011232 }, "geometry": { "type": "Point", "coordinates": [ -0.655147567514296, 51.809584265288251 ] } },
{ "type": "Feature", "properties": { "visible_points": 33, "total_points": 89, "visibility_pct": 37.078651685393261 }, "geometry": { "type": "Point", "coordinates": [ -0.654946641729037, 51.809581967986873 ] } },
{ "type": "Feature", "properties": { "visible_points": 32, "total_points": 88, "visibility_pct": 36.363636363636367 }, "geometry": { "type": "Point", "coordinates": [ -0.654745715971673, 51.809579670341321 ] } },
{ "type": "Feature", "properties": { "visible_points": 0, "total_points": 85, "visibility_pct": 0.0 }, "geometry": { "type": "Point", "coordinates": [ -0.654544790242212, 51.80957737235159 ] } },
{ "type": "Feature", "properties": { "visible_points": 20, "total_points": 82, "visibility_pct": 24.390243902439025 }, "geometry": { "type": "Point", "coordinates": [ -0.65544574324087, 51.809695573838226 ] } },
{ "type": "Feature", "properties": { "visible_points": 34, "total_points": 86, "visibility_pct": 39.534883720930232 }, "geometry": { "type": "Point", "coordinates": [ -0.655244816909042, 51.809693277065705 ] } },
{ "type": "Feature", "properties": { "visible_points": 35, "total_points": 89, "visibility_pct": 39.325842696629216 }, "geometry": { "type": "Point", "coordinates": [ -0.655043890605095, 51.809690979949025 ] } },
{ "type": "Feature", "properties": { "visible_points": 33, "total_points": 90, "visibility_pct": 36.666666666666664 }, "geometry": { "type": "Point", "coordinates": [ -0.654842964329043, 51.809688682488144 ] } },
{ "type": "Feature", "properties": { "visible_points": 33, "total_points": 90, "visibility_pct": 36.666666666666664 }, "geometry": { "type": "Point", "coordinates": [ -0.654642038080886, 51.809686384683104 ] } },
{ "type": "Feature", "properties": { "visible_points": 35, "total_points": 88, "visibility_pct": 39.772727272727273 }, "geometry": { "type": "Point", "coordinates": [ -0.654441111860637, 51.809684086533878 ] } },
{ "type": "Feature", "properties": { "visible_points": 4, "total_points": 84, "visibility_pct": 4.7619047619047619 }, "geometry": { "type": "Point", "coordinates": [ -0.654240185668282, 51.809681788040514 ] } },
{ "type": "Feature", "properties": { "visible_points": 28, "total_points": 79, "visibility_pct": 35.443037974683541 }, "geometry": { "type": "Point", "coordinates": [ -0.655342066794581, 51.809802288743086 ] } },
{ "type": "Feature", "properties": { "visible_points": 36, "total_points": 84, "visibility_pct": 42.857142857142854 }, "geometry": { "type": "Point", "coordinates": [ -0.655141139971951, 51.809799991811069 ] } },
{ "type": "Feature", "properties": { "visible_points": 31, "total_points": 88, "visibility_pct": 35.227272727272727 }, "geometry": { "type": "Point", "coordinates": [ -0.654940213177203, 51.809797694534886 ] } },
{ "type": "Feature", "properties": { "visible_points": 34, "total_points": 91, "visibility_pct": 37.362637362637365 }, "geometry": { "type": "Point", "coordinates": [ -0.654739286410356, 51.809795396914531 ] } },
{ "type": "Feature", "properties": { "visible_points": 40, "total_points": 91, "visibility_pct": 43.956043956043956 }, "geometry": { "type": "Point", "coordinates": [ -0.654538359671405, 51.809793098949996 ] } },
{ "type": "Feature", "properties": { "visible_points": 37, "total_points": 91, "visibility_pct": 40.659340659340657 }, "geometry": { "type": "Point", "coordinates": [ -0.654337432960358, 51.809790800641295 ] } },
{ "type": "Feature", "properties": { "visible_points": 21, "total_points": 89, "visibility_pct": 23.595505617977526 }, "geometry": { "type": "Point", "coordinates": [ -0.654136506277215, 51.809788501988422 ] } },
{ "type": "Feature", "properties": { "visible_points": 4, "total_points": 83, "visibility_pct": 4.8192771084337354 }, "geometry": { "type": "Point", "coordinates": [ -0.653935579621988, 51.809786202991376 ] } },
{ "type": "Feature", "properties": { "visible_points": 38, "total_points": 82, "visibility_pct": 46.341463414634148 }, "geometry": { "type": "Point", "coordinates": [ -0.655037462516163, 51.809906706481549 ] } },
{ "type": "Feature", "properties": { "visible_points": 36, "total_points": 87, "visibility_pct": 41.379310344827587 }, "geometry": { "type": "Point", "coordinates": [ -0.654836535230621, 51.809904409045885 ] } },
{ "type": "Feature", "properties": { "visible_points": 35, "total_points": 91, "visibility_pct": 38.461538461538467 }, "geometry": { "type": "Point", "coordinates": [ -0.654635607972971, 51.809902111266048 ] } },
{ "type": "Feature", "properties": { "visible_points": 44, "total_points": 93, "visibility_pct": 47.311827956989248 }, "geometry": { "type": "Point", "coordinates": [ -0.654434680743225, 51.809899813142003 ] } },
{ "type": "Feature", "properties": { "visible_points": 45, "total_points": 93, "visibility_pct": 48.387096774193552 }, "geometry": { "type": "Point", "coordinates": [ -0.654233753541382, 51.809897514673821 ] } },
{ "type": "Feature", "properties": { "visible_points": 46, "total_points": 92, "visibility_pct": 50.0 }, "geometry": { "type": "Point", "coordinates": [ -0.654032826367447, 51.809895215861445 ] } },
{ "type": "Feature", "properties": { "visible_points": 0, "total_points": 89, "visibility_pct": 0.0 }, "geometry": { "type": "Point", "coordinates": [ -0.653831899221432, 51.809892916704904 ] } },
{ "type": "Feature", "properties": { "visible_points": 0, "total_points": 82, "visibility_pct": 0.0 }, "geometry": { "type": "Point", "coordinates": [ -0.653630972103329, 51.809890617204196 ] } },
{ "type": "Feature", "properties": { "visible_points": 38, "total_points": 79, "visibility_pct": 48.101265822784811 }, "geometry": { "type": "Point", "coordinates": [ -0.654933784541685, 51.810013421077166 ] } },
{ "type": "Feature", "properties": { "visible_points": 40, "total_points": 85, "visibility_pct": 47.058823529411761 }, "geometry": { "type": "Point", "coordinates": [ -0.654732856765335, 51.810011123481985 ] } },
{ "type": "Feature", "properties": { "visible_points": 37, "total_points": 90, "visibility_pct": 41.111111111111107 }, "geometry": { "type": "Point", "coordinates": [ -0.654531929016882, 51.810008825542646 ] } },
{ "type": "Feature", "properties": { "visible_points": 49, "total_points": 94, "visibility_pct": 52.12765957446809 }, "geometry": { "type": "Point", "coordinates": [ -0.654331001296338, 51.810006527259134 ] } },
{ "type": "Feature", "properties": { "visible_points": 51, "total_points": 95, "visibility_pct": 53.684210526315788 }, "geometry": { "type": "Point", "coordinates": [ -0.654130073603699, 51.810004228631449 ] } },
{ "type": "Feature", "properties": { "visible_points": 52, "total_points": 95, "visibility_pct": 54.736842105263165 }, "geometry": { "type": "Point", "coordinates": [ -0.653929145938976, 51.81000192965957 ] } },
{ "type": "Feature", "properties": { "visible_points": 50, "total_points": 94, "visibility_pct": 53.191489361702125 }, "geometry": { "type": "Point", "coordinates": [ -0.653728218302163, 51.80999963034354 ] } },
{ "type": "Feature", "properties": { "visible_points": 8, "total_points": 88, "visibility_pct": 9.0909090909090917 }, "geometry": { "type": "Point", "coordinates": [ -0.653527290693271, 51.809997330683323 ] } },
{ "type": "Feature", "properties": { "visible_points": 0, "total_points": 81, "visibility_pct": 0.0 }, "geometry": { "type": "Point", "coordinates": [ -0.653326363112309, 51.809995030678941 ] } },
{ "type": "Feature", "properties": { "visible_points": 43, "total_points": 83, "visibility_pct": 51.807228915662648 }, "geometry": { "type": "Point", "coordinates": [ -0.654629177781344, 51.810117837843215 ] } },
{ "type": "Feature", "properties": { "visible_points": 49, "total_points": 89, "visibility_pct": 55.056179775280903 }, "geometry": { "type": "Point", "coordinates": [ -0.654428249542094, 51.81011553974438 ] } },
{ "type": "Feature", "properties": { "visible_points": 53, "total_points": 94, "visibility_pct": 56.38297872340425 }, "geometry": { "type": "Point", "coordinates": [ -0.654227321330745, 51.810113241301366 ] } },
{ "type": "Feature", "properties": { "visible_points": 55, "total_points": 97, "visibility_pct": 56.701030927835049 }, "geometry": { "type": "Point", "coordinates": [ -0.654026393147308, 51.810110942514186 ] } },
{ "type": "Feature", "properties": { "visible_points": 56, "total_points": 98, "visibility_pct": 57.142857142857139 }, "geometry": { "type": "Point", "coordinates": [ -0.653825464991789, 51.810108643382812 ] } },
{ "type": "Feature", "properties": { "visible_points": 51, "total_points": 97, "visibility_pct": 52.577319587628871 }, "geometry": { "type": "Point", "coordinates": [ -0.653624536864179, 51.810106343907272 ] } },
{ "type": "Feature", "properties": { "visible_points": 52, "total_points": 94, "visibility_pct": 55.319148936170215 }, "geometry": { "type": "Point", "coordinates": [ -0.653423608764504, 51.810104044087574 ] } },
{ "type": "Feature", "properties": { "visible_points": 25, "total_points": 87, "visibility_pct": 28.735632183908045 }, "geometry": { "type": "Point", "coordinates": [ -0.653222680692748, 51.810101743923674 ] } },
{ "type": "Feature", "properties": { "visible_points": 0, "total_points": 80, "visibility_pct": 0.0 }, "geometry": { "type": "Point", "coordinates": [ -0.653021752648927, 51.810099443415616 ] } },
{ "type": "Feature", "properties": { "visible_points": 49, "total_points": 79, "visibility_pct": 62.025316455696199 }, "geometry": { "type": "Point", "coordinates": [ -0.654525498278646, 51.81022455212954 ] } },
{ "type": "Feature", "properties": { "visible_points": 52, "total_points": 87, "visibility_pct": 59.770114942528743 }, "geometry": { "type": "Point", "coordinates": [ -0.654324569548592, 51.810222253871217 ] } },
{ "type": "Feature", "properties": { "visible_points": 55, "total_points": 93, "visibility_pct": 59.13978494623656 }, "geometry": { "type": "Point", "coordinates": [ -0.654123640846442, 51.810219955268707 ] } },
{ "type": "Feature", "properties": { "visible_points": 57, "total_points": 98, "visibility_pct": 58.163265306122447 }, "geometry": { "type": "Point", "coordinates": [ -0.653922712172204, 51.810217656322031 ] } },
{ "type": "Feature", "properties": { "visible_points": 61, "total_points": 100, "visibility_pct": 61.0 }, "geometry": { "type": "Point", "coordinates": [ -0.653721783525886, 51.810215357031176 ] } },
{ "type": "Feature", "properties": { "visible_points": 58, "total_points": 100, "visibility_pct": 57.999999999999993 }, "geometry": { "type": "Point", "coordinates": [ -0.653520854907484, 51.810213057396147 ] } },
{ "type": "Feature", "properties": { "visible_points": 51, "total_points": 98, "visibility_pct": 52.040816326530617 }, "geometry": { "type": "Point", "coordinates": [ -0.653319926317009, 51.810210757416925 ] } },
{ "type": "Feature", "properties": { "visible_points": 46, "total_points": 93, "visibility_pct": 49.462365591397848 }, "geometry": { "type": "Point", "coordinates": [ -0.653118997754466, 51.81020845709353 ] } },
{ "type": "Feature", "properties": { "visible_points": 0, "total_points": 86, "visibility_pct": 0.0 }, "geometry": { "type": "Point", "coordinates": [ -0.652918069219857, 51.810206156425956 ] } },
{ "type": "Feature", "properties": { "visible_points": 0, "total_points": 77, "visibility_pct": 0.0 }, "geometry": { "type": "Point", "coordinates": [ -0.652717140713181, 51.810203855414223 ] } },
{ "type": "Feature", "properties": { "visible_points": 55, "total_points": 83, "visibility_pct": 66.265060240963862 }, "geometry": { "type": "Point", "coordinates": [ -0.654220889036376, 51.810328967923169 ] } },
{ "type": "Feature", "properties": { "visible_points": 57, "total_points": 91, "visibility_pct": 62.637362637362635 }, "geometry": { "type": "Point", "coordinates": [ -0.654019959843422, 51.810326669161164 ] } },
{ "type": "Feature", "properties": { "visible_points": 60, "total_points": 97, "visibility_pct": 61.855670103092784 }, "geometry": { "type": "Point", "coordinates": [ -0.65381903067838, 51.810324370054992 ] } },
{ "type": "Feature", "properties": { "visible_points": 59, "total_points": 101, "visibility_pct": 58.415841584158414 }, "geometry": { "type": "Point", "coordinates": [ -0.653618101541266, 51.810322070604634 ] } },
{ "type": "Feature", "properties": { "visible_points": 55, "total_points": 102, "visibility_pct": 53.921568627450981 }, "geometry": { "type": "Point", "coordinates": [ -0.653417172432068, 51.810319770810104 ] } },
{ "type": "Feature", "properties": { "visible_points": 50, "total_points": 101, "visibility_pct": 49.504950495049506 }, "geometry": { "type": "Point", "coordinates": [ -0.653216243350795, 51.810317470671393 ] } },
{ "type": "Feature", "properties": { "visible_points": 46, "total_points": 97, "visibility_pct": 47.422680412371129 }, "geometry": { "type": "Point", "coordinates": [ -0.653015314297462, 51.810315170188495 ] } },
{ "type": "Feature", "properties": { "visible_points": 35, "total_points": 87, "visibility_pct": 40.229885057471265 }, "geometry": { "type": "Point", "coordinates": [ -0.652814385272056, 51.810312869361411 ] } },
{ "type": "Feature", "properties": { "visible_points": 0, "total_points": 75, "visibility_pct": 0.0 }, "geometry": { "type": "Point", "coordinates": [ -0.652613456274602, 51.810310568190168 ] } },
{ "type": "Feature", "properties": { "visible_points": 53, "total_points": 79, "visibility_pct": 67.088607594936718 }, "geometry": { "type": "Point", "coordinates": [ -0.654117208005443, 51.810435681900231 ] } },
{ "type": "Feature", "properties": { "visible_points": 56, "total_points": 87, "visibility_pct": 64.367816091954026 }, "geometry": { "type": "Point", "coordinates": [ -0.653916278321681, 51.810433382978722 ] } },
{ "type": "Feature", "properties": { "visible_points": 57, "total_points": 94, "visibility_pct": 60.638297872340431 }, "geometry": { "type": "Point", "coordinates": [ -0.65371534866584, 51.810431083713063 ] } },
{ "type": "Feature", "properties": { "visible_points": 55, "total_points": 99, "visibility_pct": 55.555555555555557 }, "geometry": { "type": "Point", "coordinates": [ -0.653514419037917, 51.810428784103195 ] } },
{ "type": "Feature", "properties": { "visible_points": 51, "total_points": 99, "visibility_pct": 51.515151515151516 }, "geometry": { "type": "Point", "coordinates": [ -0.653313489437921, 51.810426484149168 ] } },
{ "type": "Feature", "properties": { "visible_points": 43, "total_points": 98, "visibility_pct": 43.877551020408163 }, "geometry": { "type": "Point", "coordinates": [ -0.653112559865855, 51.810424183850941 ] } },
{ "type": "Feature", "properties": { "visible_points": 39, "total_points": 92, "visibility_pct": 42.391304347826086 }, "geometry": { "type": "Point", "coordinates": [ -0.652911630321727, 51.810421883208548 ] } },
{ "type": "Feature", "properties": { "visible_points": 33, "total_points": 81, "visibility_pct": 40.74074074074074 }, "geometry": { "type": "Point", "coordinates": [ -0.652710700805533, 51.810419582221975 ] } },
{ "type": "Feature", "properties": { "visible_points": 26, "total_points": 70, "visibility_pct": 37.142857142857146 }, "geometry": { "type": "Point", "coordinates": [ -0.652509771317279, 51.810417280891201 ] } },
{ "type": "Feature", "properties": { "visible_points": 0, "total_points": 59, "visibility_pct": 0.0 }, "geometry": { "type": "Point", "coordinates": [ -0.652308841856976, 51.810414979216276 ] } },
{ "type": "Feature", "properties": { "visible_points": 53, "total_points": 81, "visibility_pct": 65.432098765432102 }, "geometry": { "type": "Point", "coordinates": [ -0.653812596281219, 51.810540096721418 ] } },
{ "type": "Feature", "properties": { "visible_points": 50, "total_points": 88, "visibility_pct": 56.81818181818182 }, "geometry": { "type": "Point", "coordinates": [ -0.653611666134567, 51.810537797296227 ] } },
{ "type": "Feature", "properties": { "visible_points": 50, "total_points": 93, "visibility_pct": 53.763440860215049 }, "geometry": { "type": "Point", "coordinates": [ -0.653410736015845, 51.810535497526878 ] } },
{ "type": "Feature", "properties": { "visible_points": 45, "total_points": 94, "visibility_pct": 47.872340425531917 }, "geometry": { "type": "Point", "coordinates": [ -0.653209805925049, 51.810533197413349 ] } },
{ "type": "Feature", "properties": { "visible_points": 40, "total_points": 92, "visibility_pct": 43.478260869565219 }, "geometry": { "type": "Point", "coordinates": [ -0.653008875862183, 51.810530896955619 ] } },
{ "type": "Feature", "properties": { "visible_points": 35, "total_points": 84, "visibility_pct": 41.666666666666671 }, "geometry": { "type": "Point", "coordinates": [ -0.652807945827259, 51.810528596153702 ] } },
{ "type": "Feature", "properties": { "visible_points": 31, "total_points": 74, "visibility_pct": 41.891891891891895 }, "geometry": { "type": "Point", "coordinates": [ -0.652607015820269, 51.810526295007627 ] } },
{ "type": "Feature", "properties": { "visible_points": 24, "total_points": 63, "visibility_pct": 38.095238095238095 }, "geometry": { "type": "Point", "coordinates": [ -0.652406085841231, 51.81052399351735 ] } },
{ "type": "Feature", "properties": { "visible_points": 3, "total_points": 53, "visibility_pct": 5.6603773584905666 }, "geometry": { "type": "Point", "coordinates": [ -0.652205155890135, 51.810521691682908 ] } },
{ "type": "Feature", "properties": { "visible_points": 50, "total_points": 80, "visibility_pct": 62.5 }, "geometry": { "type": "Point", "coordinates": [ -0.65350798308457, 51.810644510804515 ] } },
{ "type": "Feature", "properties": { "visible_points": 45, "total_points": 84, "visibility_pct": 53.571428571428569 }, "geometry": { "type": "Point", "coordinates": [ -0.653307052475041, 51.810642210875663 ] } },
{ "type": "Feature", "properties": { "visible_points": 41, "total_points": 86, "visibility_pct": 47.674418604651166 }, "geometry": { "type": "Point", "coordinates": [ -0.653106121893442, 51.81063991060261 ] } },
{ "type": "Feature", "properties": { "visible_points": 35, "total_points": 82, "visibility_pct": 42.68292682926829 }, "geometry": { "type": "Point", "coordinates": [ -0.652905191339774, 51.810637609985392 ] } },
{ "type": "Feature", "properties": { "visible_points": 30, "total_points": 75, "visibility_pct": 40.0 }, "geometry": { "type": "Point", "coordinates": [ -0.652704260814051, 51.810635309023979 ] } },
{ "type": "Feature", "properties": { "visible_points": 6, "total_points": 66, "visibility_pct": 9.0909090909090917 }, "geometry": { "type": "Point", "coordinates": [ -0.652503330316269, 51.81063300771838 ] } },
{ "type": "Feature", "properties": { "visible_points": 11, "total_points": 56, "visibility_pct": 19.642857142857142 }, "geometry": { "type": "Point", "coordinates": [ -0.652302399846432, 51.810630706068601 ] } },
{ "type": "Feature", "properties": { "visible_points": 46, "total_points": 71, "visibility_pct": 64.788732394366207 }, "geometry": { "type": "Point", "coordinates": [ -0.653404299515836, 51.810751224237904 ] } },
{ "type": "Feature", "properties": { "visible_points": 40, "total_points": 74, "visibility_pct": 54.054054054054056 }, "geometry": { "type": "Point", "coordinates": [ -0.653203368415499, 51.810748924149536 ] } },
{ "type": "Feature", "properties": { "visible_points": 34, "total_points": 76, "visibility_pct": 44.736842105263158 }, "geometry": { "type": "Point", "coordinates": [ -0.653002437343099, 51.810746623716994 ] } },
{ "type": "Feature", "properties": { "visible_points": 10, "total_points": 72, "visibility_pct": 13.888888888888889 }, "geometry": { "type": "Point", "coordinates": [ -0.652801506298629, 51.810744322940259 ] } },
{ "type": "Feature", "properties": { "visible_points": 11, "total_points": 65, "visibility_pct": 16.923076923076923 }, "geometry": { "type": "Point", "coordinates": [ -0.652600575282104, 51.810742021819337 ] } },
{ "type": "Feature", "properties": { "visible_points": 36, "total_points": 62, "visibility_pct": 58.064516129032263 }, "geometry": { "type": "Point", "coordinates": [ -0.65330061542836, 51.810857937596396 ] } },
{ "type": "Feature", "properties": { "visible_points": 39, "total_points": 64, "visibility_pct": 60.9375 }, "geometry": { "type": "Point", "coordinates": [ -0.653099683837221, 51.810855637348524 ] } },
{ "type": "Feature", "properties": { "visible_points": 17, "total_points": 64, "visibility_pct": 26.5625 }, "geometry": { "type": "Point", "coordinates": [ -0.652898752274009, 51.810853336756473 ] } }
]
}
