{
"type": "FeatureCollection",
"name": "CRAWL_125_toilets",
"crs": { "type": "name", "properties": { "name": "urn:ogc:def:crs:OGC:1.3:CRS84" } },
"features": [
{ "type": "Feature", "properties": { "name": "Three Bridges FC", "payment_info": "Cost unknown", "accessible": "False", "radar": "Unknown", "women": "True", "men": "True", "baby_change": "Unknown", "Mon": "09:00-17:00", "Tue": "09:00-17:00", "Wed": "09:00-17:00", "Thu": "09:00-17:00", "Fri": "09:00-17:00", "Sat": "09:00-17:00", "Sun": "09:00-17:00", "index_right": 12, "park_offical_id": "CRAWL_125" }, "geometry": { "type": "Point", "coordinates": [ -0.167123079, 51.115118694 ] } },
{ "type": "Feature", "properties": { "name": "The Hawth Theatre", "payment_info": "Cost unknown", "accessible": "True", "radar": "False", "women": "True", "men": "True", "baby_change": "Unknown", "Mon": "Unknown", "Tue": "Unknown", "Wed": "Unknown", "Thu": "Unknown", "Fri": "Unknown", "Sat": "Unknown", "Sun": "Unknown", "index_right": 12, "park_offical_id": "CRAWL_125" }, "geometry": { "type": "Point", "coordinates": [ -0.174429417, 51.111460579 ] } },
{ "type": "Feature", "properties": { "name": "Furnace Green Parade", "payment_info": "Cost unknown", "accessible": "True", "radar": "True", "women": "True", "men": "True", "baby_change": "False", "Mon": "Unknown", "Tue": "Unknown", "Wed": "Unknown", "Thu": "Unknown", "Fri": "Unknown", "Sat": "Unknown", "Sun": "Unknown", "index_right": 12, "park_offical_id": "CRAWL_125" }, "geometry": { "type": "Point", "coordinates": [ -0.168249607, 51.107705306 ] } },
{ "type": "Feature", "properties": { "name": "Crawley Libary", "payment_info": "Free", "accessible": "True", "radar": "True", "women": "False", "men": "False", "baby_change": "True", "Mon": "Unknown", "Tue": "Unknown", "Wed": "Unknown", "Thu": "Unknown", "Fri": "Unknown", "Sat": "Unknown", "Sun": "Unknown", "index_right": 12, "park_offical_id": "CRAWL_125" }, "geometry": { "type": "Point", "coordinates": [ -0.182202458, 51.113844935 ] } }
]
}
