{
"type": "FeatureCollection",
"name": "03c0786b4e70_visibility",
"crs": { "type": "name", "properties": { "name": "urn:ogc:def:crs:OGC:1.3:CRS84" } },
"features": [
{ "type": "Feature", "properties": { "visible_points": 0, "total_points": 67, "visibility_pct": 0.0 }, "geometry": { "type": "Point", "coordinates": [ -1.13274586928096, 51.249574501656497 ] } },
{ "type": "Feature", "properties": { "visible_points": 1, "total_points": 64, "visibility_pct": 1.5625 }, "geometry": { "type": "Point", "coordinates": [ -1.132547360731494, 51.249573029180922 ] } },
{ "type": "Feature", "properties": { "visible_points": 0, "total_points": 58, "visibility_pct": 0.0 }, "geometry": { "type": "Point", "coordinates": [ -1.132348852198454, 51.249571556368871 ] } },
{ "type": "Feature", "properties": { "visible_points": 1, "total_points": 79, "visibility_pct": 1.2658227848101267 }, "geometry": { "type": "Point", "coordinates": [ -1.133240111086443, 51.249686073788993 ] } },
{ "type": "Feature", "properties": { "visible_points": 0, "total_points": 80, "visibility_pct": 0.0 }, "geometry": { "type": "Point", "coordinates": [ -1.133041602044358, 51.249684602143347 ] } },
{ "type": "Feature", "properties": { "visible_points": 4, "total_points": 79, "visibility_pct": 5.0632911392405067 }, "geometry": { "type": "Point", "coordinates": [ -1.132843093018693, 51.249683130161237 ] } },
{ "type": "Feature", "properties": { "visible_points": 0, "total_points": 76, "visibility_pct": 0.0 }, "geometry": { "type": "Point", "coordinates": [ -1.132644584009447, 51.24968165784265 ] } },
{ "type": "Feature", "properties": { "visible_points": 2, "total_points": 71, "visibility_pct": 2.8169014084507045 }, "geometry": { "type": "Point", "coordinates": [ -1.132446075016633, 51.249680185187579 ] } },
{ "type": "Feature", "properties": { "visible_points": 1, "total_points": 81, "visibility_pct": 1.2345679012345678 }, "geometry": { "type": "Point", "coordinates": [ -1.133535845705349, 51.2497961730569 ] } },
{ "type": "Feature", "properties": { "visible_points": 0, "total_points": 87, "visibility_pct": 0.0 }, "geometry": { "type": "Point", "coordinates": [ -1.133337336187073, 51.249794701904733 ] } },
{ "type": "Feature", "properties": { "visible_points": 0, "total_points": 91, "visibility_pct": 0.0 }, "geometry": { "type": "Point", "coordinates": [ -1.133138826685213, 51.249793230416067 ] } },
{ "type": "Feature", "properties": { "visible_points": 5, "total_points": 91, "visibility_pct": 5.4945054945054945 }, "geometry": { "type": "Point", "coordinates": [ -1.132940317199772, 51.249791758590945 ] } },
{ "type": "Feature", "properties": { "visible_points": 0, "total_points": 89, "visibility_pct": 0.0 }, "geometry": { "type": "Point", "coordinates": [ -1.132741807730748, 51.249790286429331 ] } },
{ "type": "Feature", "properties": { "visible_points": 0, "total_points": 84, "visibility_pct": 0.0 }, "geometry": { "type": "Point", "coordinates": [ -1.132543298278152, 51.249788813931254 ] } },
{ "type": "Feature", "properties": { "visible_points": 0, "total_points": 76, "visibility_pct": 0.0 }, "geometry": { "type": "Point", "coordinates": [ -1.132344788841988, 51.249787341096678 ] } },
{ "type": "Feature", "properties": { "visible_points": 0, "total_points": 75, "visibility_pct": 0.0 }, "geometry": { "type": "Point", "coordinates": [ -1.134030091714433, 51.249907741921518 ] } },
{ "type": "Feature", "properties": { "visible_points": 0, "total_points": 82, "visibility_pct": 0.0 }, "geometry": { "type": "Point", "coordinates": [ -1.133831581703571, 51.249906271599293 ] } },
{ "type": "Feature", "properties": { "visible_points": 0, "total_points": 88, "visibility_pct": 0.0 }, "geometry": { "type": "Point", "coordinates": [ -1.133633071709108, 51.249904800940598 ] } },
{ "type": "Feature", "properties": { "visible_points": 0, "total_points": 94, "visibility_pct": 0.0 }, "geometry": { "type": "Point", "coordinates": [ -1.13343456173106, 51.249903329945425 ] } },
{ "type": "Feature", "properties": { "visible_points": 2, "total_points": 99, "visibility_pct": 2.0202020202020203 }, "geometry": { "type": "Point", "coordinates": [ -1.133236051769423, 51.249901858613754 ] } },
{ "type": "Feature", "properties": { "visible_points": 5, "total_points": 103, "visibility_pct": 4.8543689320388346 }, "geometry": { "type": "Point", "coordinates": [ -1.133037541824203, 51.249900386945619 ] } },
{ "type": "Feature", "properties": { "visible_points": 5, "total_points": 102, "visibility_pct": 4.9019607843137258 }, "geometry": { "type": "Point", "coordinates": [ -1.132839031895398, 51.249898914941006 ] } },
{ "type": "Feature", "properties": { "visible_points": 1, "total_points": 96, "visibility_pct": 1.0416666666666665 }, "geometry": { "type": "Point", "coordinates": [ -1.132640521983022, 51.249897442599902 ] } },
{ "type": "Feature", "properties": { "visible_points": 0, "total_points": 86, "visibility_pct": 0.0 }, "geometry": { "type": "Point", "coordinates": [ -1.132442012087068, 51.249895969922306 ] } },
{ "type": "Feature", "properties": { "visible_points": 0, "total_points": 76, "visibility_pct": 0.0 }, "geometry": { "type": "Point", "coordinates": [ -1.132243502207553, 51.249894496908254 ] } },
{ "type": "Feature", "properties": { "visible_points": 5, "total_points": 80, "visibility_pct": 6.25 }, "geometry": { "type": "Point", "coordinates": [ -1.1341273190811, 51.250016369416208 ] } },
{ "type": "Feature", "properties": { "visible_points": 9, "total_points": 88, "visibility_pct": 10.227272727272728 }, "geometry": { "type": "Point", "coordinates": [ -1.133928808610467, 51.250014899250978 ] } },
{ "type": "Feature", "properties": { "visible_points": 6, "total_points": 95, "visibility_pct": 6.3157894736842106 }, "geometry": { "type": "Point", "coordinates": [ -1.133730298156232, 51.250013428749284 ] } },
{ "type": "Feature", "properties": { "visible_points": 0, "total_points": 100, "visibility_pct": 0.0 }, "geometry": { "type": "Point", "coordinates": [ -1.133531787718406, 51.250011957911084 ] } },
{ "type": "Feature", "properties": { "visible_points": 0, "total_points": 105, "visibility_pct": 0.0 }, "geometry": { "type": "Point", "coordinates": [ -1.133333277296984, 51.250010486736421 ] } },
{ "type": "Feature", "properties": { "visible_points": 3, "total_points": 108, "visibility_pct": 2.7777777777777777 }, "geometry": { "type": "Point", "coordinates": [ -1.133134766891988, 51.25000901522526 ] } },
{ "type": "Feature", "properties": { "visible_points": 7, "total_points": 110, "visibility_pct": 6.3636363636363633 }, "geometry": { "type": "Point", "coordinates": [ -1.132936256503401, 51.250007543377627 ] } },
{ "type": "Feature", "properties": { "visible_points": 1, "total_points": 105, "visibility_pct": 0.95238095238095244 }, "geometry": { "type": "Point", "coordinates": [ -1.132737746131241, 51.250006071193511 ] } },
{ "type": "Feature", "properties": { "visible_points": 1, "total_points": 94, "visibility_pct": 1.0638297872340425 }, "geometry": { "type": "Point", "coordinates": [ -1.132539235775504, 51.250004598672916 ] } },
{ "type": "Feature", "properties": { "visible_points": 0, "total_points": 83, "visibility_pct": 0.0 }, "geometry": { "type": "Point", "coordinates": [ -1.132340725436197, 51.250003125815816 ] } },
{ "type": "Feature", "properties": { "visible_points": 2, "total_points": 71, "visibility_pct": 2.8169014084507045 }, "geometry": { "type": "Point", "coordinates": [ -1.132142215113322, 51.250001652622274 ] } },
{ "type": "Feature", "properties": { "visible_points": 0, "total_points": 70, "visibility_pct": 0.0 }, "geometry": { "type": "Point", "coordinates": [ -1.134423057837956, 51.250126466507588 ] } },
{ "type": "Feature", "properties": { "visible_points": 0, "total_points": 82, "visibility_pct": 0.0 }, "geometry": { "type": "Point", "coordinates": [ -1.134224546891144, 51.250124996835844 ] } },
{ "type": "Feature", "properties": { "visible_points": 0, "total_points": 93, "visibility_pct": 0.0 }, "geometry": { "type": "Point", "coordinates": [ -1.134026035960735, 51.250123526827608 ] } },
{ "type": "Feature", "properties": { "visible_points": 12, "total_points": 101, "visibility_pct": 11.881188118811881 }, "geometry": { "type": "Point", "coordinates": [ -1.133827525046714, 51.250122056482901 ] } },
{ "type": "Feature", "properties": { "visible_points": 15, "total_points": 106, "visibility_pct": 14.150943396226415 }, "geometry": { "type": "Point", "coordinates": [ -1.133629014149113, 51.250120585801696 ] } },
{ "type": "Feature", "properties": { "visible_points": 0, "total_points": 109, "visibility_pct": 0.0 }, "geometry": { "type": "Point", "coordinates": [ -1.133430503267917, 51.250119114784034 ] } },
{ "type": "Feature", "properties": { "visible_points": 0, "total_points": 110, "visibility_pct": 0.0 }, "geometry": { "type": "Point", "coordinates": [ -1.133231992403129, 51.250117643429874 ] } },
{ "type": "Feature", "properties": { "visible_points": 3, "total_points": 110, "visibility_pct": 2.7272727272727271 }, "geometry": { "type": "Point", "coordinates": [ -1.133033481554762, 51.250116171739222 ] } },
{ "type": "Feature", "properties": { "visible_points": 0, "total_points": 109, "visibility_pct": 0.0 }, "geometry": { "type": "Point", "coordinates": [ -1.132834970722816, 51.2501146997121 ] } },
{ "type": "Feature", "properties": { "visible_points": 2, "total_points": 98, "visibility_pct": 2.0408163265306123 }, "geometry": { "type": "Point", "coordinates": [ -1.132636459907293, 51.250113227348486 ] } },
{ "type": "Feature", "properties": { "visible_points": 1, "total_points": 86, "visibility_pct": 1.1627906976744187 }, "geometry": { "type": "Point", "coordinates": [ -1.132437949108194, 51.250111754648387 ] } },
{ "type": "Feature", "properties": { "visible_points": 2, "total_points": 74, "visibility_pct": 2.7027027027027026 }, "geometry": { "type": "Point", "coordinates": [ -1.132239438325531, 51.250110281611803 ] } },
{ "type": "Feature", "properties": { "visible_points": 1, "total_points": 62, "visibility_pct": 1.6129032258064515 }, "geometry": { "type": "Point", "coordinates": [ -1.132040927559299, 51.250108808238743 ] } },
{ "type": "Feature", "properties": { "visible_points": 1, "total_points": 57, "visibility_pct": 1.7543859649122806 }, "geometry": { "type": "Point", "coordinates": [ -1.134718797967691, 51.250236562865574 ] } },
{ "type": "Feature", "properties": { "visible_points": 7, "total_points": 69, "visibility_pct": 10.144927536231885 }, "geometry": { "type": "Point", "coordinates": [ -1.134520286551144, 51.250235093695203 ] } },
{ "type": "Feature", "properties": { "visible_points": 3, "total_points": 81, "visibility_pct": 3.7037037037037033 }, "geometry": { "type": "Point", "coordinates": [ -1.134321775144558, 51.250233624180446 ] } },
{ "type": "Feature", "properties": { "visible_points": 18, "total_points": 93, "visibility_pct": 19.35483870967742 }, "geometry": { "type": "Point", "coordinates": [ -1.134123263754366, 51.250232154329211 ] } },
{ "type": "Feature", "properties": { "visible_points": 15, "total_points": 104, "visibility_pct": 14.423076923076922 }, "geometry": { "type": "Point", "coordinates": [ -1.133924752380573, 51.250230684141492 ] } },
{ "type": "Feature", "properties": { "visible_points": 14, "total_points": 109, "visibility_pct": 12.844036697247708 }, "geometry": { "type": "Point", "coordinates": [ -1.133726241023186, 51.250229213617295 ] } },
{ "type": "Feature", "properties": { "visible_points": 13, "total_points": 110, "visibility_pct": 11.818181818181818 }, "geometry": { "type": "Point", "coordinates": [ -1.133527729682208, 51.250227742756607 ] } },
{ "type": "Feature", "properties": { "visible_points": 13, "total_points": 109, "visibility_pct": 11.926605504587156 }, "geometry": { "type": "Point", "coordinates": [ -1.13332921835764, 51.250226271559441 ] } },
{ "type": "Feature", "properties": { "visible_points": 0, "total_points": 107, "visibility_pct": 0.0 }, "geometry": { "type": "Point", "coordinates": [ -1.133130707049484, 51.250224800025791 ] } },
{ "type": "Feature", "properties": { "visible_points": 4, "total_points": 104, "visibility_pct": 3.8461538461538463 }, "geometry": { "type": "Point", "coordinates": [ -1.132932195757747, 51.250223328155649 ] } },
{ "type": "Feature", "properties": { "visible_points": 0, "total_points": 98, "visibility_pct": 0.0 }, "geometry": { "type": "Point", "coordinates": [ -1.132733684482434, 51.250221855949022 ] } },
{ "type": "Feature", "properties": { "visible_points": 1, "total_points": 87, "visibility_pct": 1.1494252873563218 }, "geometry": { "type": "Point", "coordinates": [ -1.132535173223549, 51.250220383405903 ] } },
{ "type": "Feature", "properties": { "visible_points": 0, "total_points": 75, "visibility_pct": 0.0 }, "geometry": { "type": "Point", "coordinates": [ -1.132336661981088, 51.250218910526307 ] } },
{ "type": "Feature", "properties": { "visible_points": 1, "total_points": 64, "visibility_pct": 1.5625 }, "geometry": { "type": "Point", "coordinates": [ -1.132138150755063, 51.250217437310248 ] } },
{ "type": "Feature", "properties": { "visible_points": 1, "total_points": 53, "visibility_pct": 1.8867924528301887 }, "geometry": { "type": "Point", "coordinates": [ -1.131939639545477, 51.250215963757675 ] } },
{ "type": "Feature", "properties": { "visible_points": 0, "total_points": 64, "visibility_pct": 0.0 }, "geometry": { "type": "Point", "coordinates": [ -1.134617515707711, 51.250343720807756 ] } },
{ "type": "Feature", "properties": { "visible_points": 18, "total_points": 75, "visibility_pct": 24.0 }, "geometry": { "type": "Point", "coordinates": [ -1.134419003841347, 51.25034225145 ] } },
{ "type": "Feature", "properties": { "visible_points": 20, "total_points": 86, "visibility_pct": 23.255813953488371 }, "geometry": { "type": "Point", "coordinates": [ -1.134220491991377, 51.25034078175576 ] } },
{ "type": "Feature", "properties": { "visible_points": 18, "total_points": 97, "visibility_pct": 18.556701030927837 }, "geometry": { "type": "Point", "coordinates": [ -1.134021980157802, 51.25033931172505 ] } },
{ "type": "Feature", "properties": { "visible_points": 16, "total_points": 107, "visibility_pct": 14.953271028037381 }, "geometry": { "type": "Point", "coordinates": [ -1.133823468340634, 51.250337841357847 ] } },
{ "type": "Feature", "properties": { "visible_points": 16, "total_points": 107, "visibility_pct": 14.953271028037381 }, "geometry": { "type": "Point", "coordinates": [ -1.133624956539867, 51.250336370654153 ] } },
{ "type": "Feature", "properties": { "visible_points": 16, "total_points": 105, "visibility_pct": 15.238095238095239 }, "geometry": { "type": "Point", "coordinates": [ -1.133426444755513, 51.250334899613975 ] } },
{ "type": "Feature", "properties": { "visible_points": 0, "total_points": 101, "visibility_pct": 0.0 }, "geometry": { "type": "Point", "coordinates": [ -1.133227932987571, 51.250333428237312 ] } },
{ "type": "Feature", "properties": { "visible_points": 0, "total_points": 97, "visibility_pct": 0.0 }, "geometry": { "type": "Point", "coordinates": [ -1.133029421236045, 51.250331956524157 ] } },
{ "type": "Feature", "properties": { "visible_points": 2, "total_points": 92, "visibility_pct": 2.1739130434782608 }, "geometry": { "type": "Point", "coordinates": [ -1.132830909500939, 51.250330484474517 ] } },
{ "type": "Feature", "properties": { "visible_points": 0, "total_points": 85, "visibility_pct": 0.0 }, "geometry": { "type": "Point", "coordinates": [ -1.132632397782258, 51.250329012088393 ] } },
{ "type": "Feature", "properties": { "visible_points": 0, "total_points": 75, "visibility_pct": 0.0 }, "geometry": { "type": "Point", "coordinates": [ -1.132433886080005, 51.250327539365784 ] } },
{ "type": "Feature", "properties": { "visible_points": 0, "total_points": 64, "visibility_pct": 0.0 }, "geometry": { "type": "Point", "coordinates": [ -1.132235374394184, 51.250326066306712 ] } },
{ "type": "Feature", "properties": { "visible_points": 9, "total_points": 68, "visibility_pct": 13.23529411764706 }, "geometry": { "type": "Point", "coordinates": [ -1.134516232981517, 51.250450878644521 ] } },
{ "type": "Feature", "properties": { "visible_points": 20, "total_points": 78, "visibility_pct": 25.641025641025639 }, "geometry": { "type": "Point", "coordinates": [ -1.134317720671763, 51.25044940910729 ] } },
{ "type": "Feature", "properties": { "visible_points": 21, "total_points": 88, "visibility_pct": 23.863636363636363 }, "geometry": { "type": "Point", "coordinates": [ -1.13411920837841, 51.250447939233574 ] } },
{ "type": "Feature", "properties": { "visible_points": 19, "total_points": 97, "visibility_pct": 19.587628865979383 }, "geometry": { "type": "Point", "coordinates": [ -1.133920696101452, 51.250446469023345 ] } },
{ "type": "Feature", "properties": { "visible_points": 17, "total_points": 100, "visibility_pct": 17.0 }, "geometry": { "type": "Point", "coordinates": [ -1.133722183840902, 51.250444998476659 ] } },
{ "type": "Feature", "properties": { "visible_points": 19, "total_points": 97, "visibility_pct": 19.587628865979383 }, "geometry": { "type": "Point", "coordinates": [ -1.133523671596755, 51.250443527593475 ] } },
{ "type": "Feature", "properties": { "visible_points": 0, "total_points": 93, "visibility_pct": 0.0 }, "geometry": { "type": "Point", "coordinates": [ -1.133325159369026, 51.250442056373792 ] } },
{ "type": "Feature", "properties": { "visible_points": 0, "total_points": 89, "visibility_pct": 0.0 }, "geometry": { "type": "Point", "coordinates": [ -1.133126647157707, 51.250440584817646 ] } },
{ "type": "Feature", "properties": { "visible_points": 2, "total_points": 85, "visibility_pct": 2.3529411764705883 }, "geometry": { "type": "Point", "coordinates": [ -1.132928134962806, 51.250439112924994 ] } },
{ "type": "Feature", "properties": { "visible_points": 0, "total_points": 68, "visibility_pct": 0.0 }, "geometry": { "type": "Point", "coordinates": [ -1.134414949467698, 51.250558036321941 ] } },
{ "type": "Feature", "properties": { "visible_points": 20, "total_points": 77, "visibility_pct": 25.97402597402597 }, "geometry": { "type": "Point", "coordinates": [ -1.134216436723996, 51.250556566608516 ] } },
{ "type": "Feature", "properties": { "visible_points": 20, "total_points": 85, "visibility_pct": 23.52941176470588 }, "geometry": { "type": "Point", "coordinates": [ -1.134017923996574, 51.250555096558543 ] } },
{ "type": "Feature", "properties": { "visible_points": 18, "total_points": 88, "visibility_pct": 20.454545454545457 }, "geometry": { "type": "Point", "coordinates": [ -1.133819411285437, 51.250553626172 ] } },
{ "type": "Feature", "properties": { "visible_points": 18, "total_points": 88, "visibility_pct": 20.454545454545457 }, "geometry": { "type": "Point", "coordinates": [ -1.133620898590592, 51.250552155448887 ] } },
{ "type": "Feature", "properties": { "visible_points": 15, "total_points": 85, "visibility_pct": 17.647058823529413 }, "geometry": { "type": "Point", "coordinates": [ -1.133422385912033, 51.250550684389211 ] } },
{ "type": "Feature", "properties": { "visible_points": 0, "total_points": 81, "visibility_pct": 0.0 }, "geometry": { "type": "Point", "coordinates": [ -1.133223873249779, 51.250549212992972 ] } },
{ "type": "Feature", "properties": { "visible_points": 10, "total_points": 66, "visibility_pct": 15.151515151515152 }, "geometry": { "type": "Point", "coordinates": [ -1.134313664904966, 51.250665193836603 ] } },
{ "type": "Feature", "properties": { "visible_points": 13, "total_points": 72, "visibility_pct": 18.055555555555554 }, "geometry": { "type": "Point", "coordinates": [ -1.13411515173262, 51.250663723949614 ] } },
{ "type": "Feature", "properties": { "visible_points": 0, "total_points": 76, "visibility_pct": 0.0 }, "geometry": { "type": "Point", "coordinates": [ -1.133916638576437, 51.250662253725991 ] } },
{ "type": "Feature", "properties": { "visible_points": 0, "total_points": 77, "visibility_pct": 0.0 }, "geometry": { "type": "Point", "coordinates": [ -1.133718125436425, 51.250660783165713 ] } },
{ "type": "Feature", "properties": { "visible_points": 11, "total_points": 60, "visibility_pct": 18.333333333333332 }, "geometry": { "type": "Point", "coordinates": [ -1.134212379864203, 51.250772351244152 ] } },
{ "type": "Feature", "properties": { "visible_points": 0, "total_points": 64, "visibility_pct": 0.0 }, "geometry": { "type": "Point", "coordinates": [ -1.134013866257006, 51.250770881183193 ] } }
]
}
