{
"type": "FeatureCollection",
"name": "TUNWE_8_NACH",
"crs": { "type": "name", "properties": { "name": "urn:ogc:def:crs:OGC:1.3:CRS84" } },
"features": [
{"type":"Feature","properties":{"id":3080,"nach":0.53446452735226713},"geometry":{"type":"LineString","coordinates":[[0.4294512,51.138689],[0.4288338,51.1389765]]}},
{"type":"Feature","properties":{"id":2894,"nach":0.53883833735005016},"geometry":{"type":"LineString","coordinates":[[0.4295108,51.1396836],[0.4291075,51.139274600000014],[0.4288895,51.1390451],[0.4288338,51.1389765]]}},
{"type":"Feature","properties":{"id":2915,"nach":0.52333325939534925},"geometry":{"type":"LineString","coordinates":[[0.4284293,51.13913],[0.4285804,51.1390739],[0.4288338,51.1389765]]}},
{"type":"Feature","properties":{"id":2912,"nach":0.47854767899754941},"geometry":{"type":"LineString","coordinates":[[0.4284954,51.1386191],[0.4285997,51.138728699999987],[0.4288081,51.1389296],[0.4288338,51.1389765]]}},
{"type":"Feature","properties":{"id":3079,"nach":0.52997103777807042},"geometry":{"type":"LineString","coordinates":[[0.4294512,51.138689],[0.4299464,51.1384874]]}},
{"type":"Feature","properties":{"id":3081,"nach":0.2757050331236402},"geometry":{"type":"LineString","coordinates":[[0.4294512,51.138689],[0.4295544,51.1387958],[0.4296067,51.1388236],[0.4296711,51.1388312],[0.4298904,51.1388315],[0.4300858,51.1388277]]}},
{"type":"Feature","properties":{"id":3090,"nach":0.5396066040605092},"geometry":{"type":"LineString","coordinates":[[0.4297672,51.1399543],[0.4295108,51.1396836]]}},
{"type":"Feature","properties":{"id":3077,"nach":0.30103654231625643},"geometry":{"type":"LineString","coordinates":[[0.4300858,51.1388277],[0.4302449,51.1389881],[0.4304166,51.1392143],[0.4306206,51.1395111],[0.4305388,51.1395338],[0.430351,51.1395405],[0.4300634,51.1395969],[0.4297844,51.139644],[0.4295108,51.1396836]]}},
{"type":"Feature","properties":{"id":2914,"nach":0.44322312495748289},"geometry":{"type":"LineString","coordinates":[[0.4284293,51.13913],[0.4284235,51.1390612],[0.4284121,51.138938],[0.4284587,51.1386699],[0.4284954,51.1386191]]}},
{"type":"Feature","properties":{"id":20009,"nach":0.53897141640203616},"geometry":{"type":"LineString","coordinates":[[0.428301,51.1391609],[0.4284293,51.13913]]}},
{"type":"Feature","properties":{"id":3072,"nach":0.50245628908650575},"geometry":{"type":"LineString","coordinates":[[0.4283179,51.1383667],[0.4284954,51.1386191]]}},
{"type":"Feature","properties":{"id":35163,"nach":0.50624307045807726},"geometry":{"type":"LineString","coordinates":[[0.4271996,51.1398739],[0.4273392,51.1397352],[0.4275803,51.139444600000012],[0.4276112,51.1393647]]}},
{"type":"Feature","properties":{"id":20010,"nach":0.52889031301023803},"geometry":{"type":"LineString","coordinates":[[0.428301,51.1391609],[0.4278745,51.1393114],[0.4277799,51.1393429],[0.4276841,51.139361],[0.4276112,51.1393647]]}},
{"type":"Feature","properties":{"id":27533,"nach":0.45963390952574823},"geometry":{"type":"LineString","coordinates":[[0.4273389,51.1393403],[0.4273993,51.1393495],[0.4274999,51.1393613],[0.4276112,51.1393647]]}},
{"type":"Feature","properties":{"id":35161,"nach":0.49632971942426207},"geometry":{"type":"LineString","coordinates":[[0.4271996,51.1398739],[0.4268385,51.1402327]]}},
{"type":"Feature","properties":{"id":35164,"nach":0.38358282984115966},"geometry":{"type":"LineString","coordinates":[[0.427383,51.1399375],[0.4271996,51.1398739]]}},
{"type":"Feature","properties":{"id":20012,"nach":0.38493690022486943},"geometry":{"type":"LineString","coordinates":[[0.4283579,51.13963660000001],[0.4284999,51.139580900000013],[0.428301,51.1391609]]}},
{"type":"Feature","properties":{"id":27534,"nach":0.39139291705208712},"geometry":{"type":"LineString","coordinates":[[0.4273389,51.1393403],[0.4258404,51.1390351],[0.4242434,51.138793],[0.4228472,51.13864250000001],[0.4220973,51.1385261],[0.4216323,51.1384815],[0.4207334,51.1383867]]}},
{"type":"Feature","properties":{"id":27536,"nach":0.38578147567849608},"geometry":{"type":"LineString","coordinates":[[0.4273117,51.1389439],[0.4273389,51.139001100000016],[0.4273389,51.1393403]]}},
{"type":"Feature","properties":{"id":42907,"nach":0.33287234581233621},"geometry":{"type":"LineString","coordinates":[[0.4224752,51.1446488],[0.4224897,51.1447431],[0.4225694,51.145171900000015],[0.4228881,51.145485299999983],[0.4229576,51.1455538],[0.4231293,51.1457226],[0.4231276,51.1458127]]}},
{"type":"Feature","properties":{"id":42903,"nach":0.28280572394021447},"geometry":{"type":"LineString","coordinates":[[0.4222655,51.1446362],[0.4220504,51.1446696],[0.4216815,51.1448831],[0.4216252,51.1449597],[0.4215433,51.14507110000001],[0.4209664,51.1454482],[0.4208336,51.145483],[0.420684,51.145523900000015],[0.4199984,51.146537],[0.4196194,51.146552200000016]]}},
{"type":"Feature","properties":{"id":28266,"nach":0.40190747555203821},"geometry":{"type":"LineString","coordinates":[[0.422095,51.1321039],[0.4220264,51.131996],[0.4219787,51.1318896]]}},
{"type":"Feature","properties":{"id":28265,"nach":0.39065459429578353},"geometry":{"type":"LineString","coordinates":[[0.422095,51.1321039],[0.4221297,51.1322702],[0.4222585,51.132934],[0.4223044,51.133093],[0.4223541,51.1332153],[0.4225575,51.133433900000014],[0.4232631,51.1339455]]}},
{"type":"Feature","properties":{"id":28267,"nach":0.30631277418338948},"geometry":{"type":"LineString","coordinates":[[0.4228225,51.1319964],[0.4227553,51.13203290000002],[0.4226626,51.1320578],[0.4225709,51.1320674],[0.4224334,51.1320693],[0.4222531,51.1320597],[0.422095,51.1321039]]}},
{"type":"Feature","properties":{"id":13441,"nach":0.44790259426537188},"geometry":{"type":"LineString","coordinates":[[0.4260306,51.139943100000011],[0.4268385,51.1402327]]}},
{"type":"Feature","properties":{"id":25753,"nach":0.44715581942931948},"geometry":{"type":"LineString","coordinates":[[0.4253313,51.1417426],[0.4253481,51.1416585],[0.4254199,51.1415263],[0.4255325,51.1413568],[0.4256549,51.1412047],[0.4259685,51.1409065],[0.4261205,51.14076270000001],[0.4262688,51.1406397],[0.4265765,51.1404375],[0.4268385,51.1402327]]}},
{"type":"Feature","properties":{"id":2872,"nach":0.43209549243111073},"geometry":{"type":"LineString","coordinates":[[0.4278615,51.1410642],[0.427748,51.1410068],[0.4271919,51.1405279],[0.4270693,51.1404223],[0.4268385,51.1402327]]}},
{"type":"Feature","properties":{"id":13445,"nach":0.37019308825032959},"geometry":{"type":"LineString","coordinates":[[0.4260973,51.1398725],[0.4260306,51.139943100000011]]}},
{"type":"Feature","properties":{"id":13444,"nach":0.37019308825032959},"geometry":{"type":"LineString","coordinates":[[0.4259715,51.1400101],[0.4260306,51.139943100000011]]}},
{"type":"Feature","properties":{"id":25752,"nach":0.44411060813833997},"geometry":{"type":"LineString","coordinates":[[0.4253313,51.1417426],[0.4253277,51.1417827],[0.4253308,51.1421179]]}},
{"type":"Feature","properties":{"id":25755,"nach":0.35896140103435065},"geometry":{"type":"LineString","coordinates":[[0.4244658,51.14148620000001],[0.4249111,51.1417372],[0.4250098,51.1417666],[0.4250992,51.14176470000001],[0.4251938,51.1417565],[0.4253313,51.1417426]]}},
{"type":"Feature","properties":{"id":20268,"nach":0.46879891134292745},"geometry":{"type":"LineString","coordinates":[[0.4294477,51.14121],[0.4279675,51.1410835],[0.4278615,51.1410642]]}},
{"type":"Feature","properties":{"id":13448,"nach":0.40640336524680915},"geometry":{"type":"LineString","coordinates":[[0.4253308,51.1421179],[0.4255627,51.1421629],[0.4256887,51.1421709],[0.4258226,51.1421559],[0.4259231,51.1421629],[0.4259996,51.1421929],[0.4260491,51.1422289],[0.426124,51.14226],[0.4262054,51.142272],[0.4262947,51.142257],[0.4263505,51.1422269],[0.4264207,51.142182900000016],[0.4264898,51.1421238],[0.4265736,51.1420321],[0.4268037,51.1417654],[0.4271273,51.1414723],[0.4275157,51.14118950000001],[0.4276717,51.1411102],[0.4278615,51.1410642]]}},
{"type":"Feature","properties":{"id":38709,"nach":0.48684790552196466},"geometry":{"type":"LineString","coordinates":[[0.4300243,51.1412012],[0.429781,51.1412385],[0.4294477,51.14121]]}},
{"type":"Feature","properties":{"id":20270,"nach":0.37014551879435265},"geometry":{"type":"LineString","coordinates":[[0.4284062,51.141429],[0.4293461,51.1414664],[0.4294094,51.1414204],[0.4294477,51.14121]]}},
{"type":"Feature","properties":{"id":36458,"nach":0.44222906263924999},"geometry":{"type":"LineString","coordinates":[[0.425166,51.1425872],[0.4251861,51.14257460000001],[0.4252609,51.1424965],[0.4253075,51.1423443],[0.4253308,51.1421179]]}},
{"type":"Feature","properties":{"id":2896,"nach":0.54740319280797889},"geometry":{"type":"LineString","coordinates":[[0.430659,51.1407948],[0.4308445,51.1409729]]}},
{"type":"Feature","properties":{"id":38708,"nach":0.5013526549630718},"geometry":{"type":"LineString","coordinates":[[0.4300243,51.1412012],[0.4301255,51.1411857],[0.4303197,51.1410901],[0.4305148,51.1410363],[0.4308445,51.1409729]]}},
{"type":"Feature","properties":{"id":2886,"nach":0.54283928121545122},"geometry":{"type":"LineString","coordinates":[[0.4313401,51.1416044],[0.4312342,51.1414252],[0.4311488,51.1413062],[0.4310139,51.141137400000012],[0.4308445,51.1409729]]}},
{"type":"Feature","properties":{"id":3070,"nach":0.53798946148962667},"geometry":{"type":"LineString","coordinates":[[0.4304133,51.1405674],[0.430659,51.1407948]]}},
{"type":"Feature","properties":{"id":2900,"nach":0.4925880486507882},"geometry":{"type":"LineString","coordinates":[[0.4313839,51.1404813],[0.4312868,51.1405424],[0.4309829,51.1406687],[0.430659,51.1407948]]}},
{"type":"Feature","properties":{"id":38711,"nach":0.37544094898513508},"geometry":{"type":"LineString","coordinates":[[0.4299021,51.1410872],[0.4299692,51.1410846],[0.4300243,51.1412012]]}},
{"type":"Feature","properties":{"id":2884,"nach":0.53456628603906486},"geometry":{"type":"LineString","coordinates":[[0.4313401,51.1416044],[0.4315067,51.1418584]]}},
{"type":"Feature","properties":{"id":2885,"nach":0.41576032184335959},"geometry":{"type":"LineString","coordinates":[[0.4313401,51.1416044],[0.4318053,51.1415331],[0.4319338,51.141522],[0.4323687,51.1415377]]}},
{"type":"Feature","properties":{"id":24739,"nach":0.36964430293064543},"geometry":{"type":"LineString","coordinates":[[0.431117,51.141943],[0.4310174,51.1419371],[0.4307869,51.141830400000011],[0.4305971,51.141732],[0.4305227,51.1416579],[0.4303508,51.1414706]]}},
{"type":"Feature","properties":{"id":24738,"nach":0.43964951457053769},"geometry":{"type":"LineString","coordinates":[[0.431117,51.141943],[0.4312492,51.1419338],[0.4315067,51.1418584]]}},
{"type":"Feature","properties":{"id":32713,"nach":0.3429080847644978},"geometry":{"type":"LineString","coordinates":[[0.4290055,51.14359850000001],[0.4289999,51.1434638],[0.4289999,51.1434323],[0.4291253,51.1432749],[0.4291867,51.143236399999985],[0.4294404,51.143220700000015],[0.4295853,51.1431989],[0.429752,51.142885],[0.4298928,51.1426978],[0.4305334,51.1423832],[0.4307125,51.1422739],[0.4310964,51.142005700000013],[0.431117,51.141943]]}},
{"type":"Feature","properties":{"id":31766,"nach":0.5155230749022921},"geometry":{"type":"LineString","coordinates":[[0.4318112,51.1422806],[0.4316968,51.1421238],[0.4315067,51.1418584]]}},
{"type":"Feature","properties":{"id":31764,"nach":0.44668198981493096},"geometry":{"type":"LineString","coordinates":[[0.4318112,51.1422806],[0.4313432,51.1424304]]}},
{"type":"Feature","properties":{"id":34281,"nach":0.48255007215587542},"geometry":{"type":"LineString","coordinates":[[0.432526,51.1432609],[0.4318112,51.1422806]]}},
{"type":"Feature","properties":{"id":2887,"nach":0.37188886292834722},"geometry":{"type":"LineString","coordinates":[[0.4323649,51.1415753],[0.4323687,51.1415377]]}},
{"type":"Feature","properties":{"id":42751,"nach":0.36637019046472769},"geometry":{"type":"LineString","coordinates":[[0.432534,51.1412764],[0.4323833,51.1413872],[0.4323757,51.1414636],[0.4323687,51.1415377]]}},
{"type":"Feature","properties":{"id":42750,"nach":0.37740570534659679},"geometry":{"type":"LineString","coordinates":[[0.432534,51.1412764],[0.4322278,51.1411345],[0.4318707,51.14087090000001],[0.4315298,51.1405701],[0.4313839,51.1404813]]}},
{"type":"Feature","properties":{"id":42754,"nach":0.0},"geometry":{"type":"LineString","coordinates":[[0.4425456,51.1429394],[0.4408057,51.1425519],[0.439514,51.1426839],[0.4383638,51.1428696],[0.4375227,51.1431146],[0.4371858,51.1430258],[0.4371801,51.143015],[0.4362362,51.1426479],[0.4361399,51.1426038],[0.4360383,51.14252650000001],[0.4357333,51.1422354],[0.4354646,51.1420069],[0.4354028,51.141927500000016],[0.4353295,51.141749],[0.4352159,51.14159750000001],[0.4350779,51.1414216],[0.4350276,51.1412972],[0.434996,51.141262],[0.434927,51.1412521],[0.4348667,51.1412647],[0.4346592,51.1413447],[0.4343086,51.141465700000012],[0.4335603,51.14159020000001],[0.4331137,51.141479200000013],[0.4327105,51.1413444],[0.432534,51.1412764]]}},
{"type":"Feature","properties":{"id":2908,"nach":0.55388207154306424},"geometry":{"type":"LineString","coordinates":[[0.4302557,51.1383587],[0.4299464,51.1384874]]}},
{"type":"Feature","properties":{"id":3076,"nach":0.34097259085210141},"geometry":{"type":"LineString","coordinates":[[0.4300858,51.1388277],[0.4299784,51.1385213],[0.4299464,51.1384874]]}},
{"type":"Feature","properties":{"id":3073,"nach":0.46247046761790761},"geometry":{"type":"LineString","coordinates":[[0.4283179,51.1383667],[0.4283936,51.1383653],[0.4285645,51.138396],[0.4287381,51.1384237],[0.4290671,51.138439900000016],[0.4295282,51.1384496],[0.4297761,51.1384467],[0.429888,51.1384589],[0.4299464,51.1384874]]}},
{"type":"Feature","properties":{"id":2907,"nach":0.5519402207898495},"geometry":{"type":"LineString","coordinates":[[0.4302557,51.1383587],[0.4304143,51.1383057]]}},
{"type":"Feature","properties":{"id":33796,"nach":0.38108495529630521},"geometry":{"type":"LineString","coordinates":[[0.4288078,51.1374936],[0.4289599,51.1374985],[0.4290634,51.1375093],[0.4291748,51.1375337],[0.4293811,51.137799],[0.429521,51.1379054],[0.4297011,51.1380023],[0.4299596,51.1381267],[0.4301085,51.1382171],[0.4301947,51.1382878],[0.4302557,51.1383587]]}},
{"type":"Feature","properties":{"id":4031,"nach":0.44479986517408077},"geometry":{"type":"LineString","coordinates":[[0.4263374,51.1385771],[0.4263132,51.1385198],[0.426299,51.1384586],[0.4262863,51.13836950000001],[0.4262716,51.1382657],[0.4263227,51.1382283],[0.4264037,51.1382098],[0.4266009,51.1382221],[0.4269013,51.1382383],[0.4270562,51.1382357],[0.4272382,51.1382031],[0.4274936,51.1381252],[0.4276395,51.1381306],[0.4277781,51.1382065],[0.4279271,51.1382921],[0.4280352,51.1383517],[0.4281119,51.138388],[0.4281857,51.1383872],[0.4283179,51.1383667]]}},
{"type":"Feature","properties":{"id":27527,"nach":0.50709229486574869},"geometry":{"type":"LineString","coordinates":[[0.427887,51.1378604],[0.4280445,51.1380113],[0.4281834,51.1381805],[0.4283179,51.1383667]]}},
{"type":"Feature","properties":{"id":3091,"nach":0.53563418675118646},"geometry":{"type":"LineString","coordinates":[[0.4297672,51.1399543],[0.4304133,51.1405674]]}},
{"type":"Feature","properties":{"id":3092,"nach":0.45203755315648492},"geometry":{"type":"LineString","coordinates":[[0.4297672,51.1399543],[0.4296535,51.1400105],[0.4292595,51.1401246],[0.4288231,51.1401941],[0.4286072,51.1401963]]}},
{"type":"Feature","properties":{"id":3093,"nach":0.45066528373517245},"geometry":{"type":"LineString","coordinates":[[0.4298552,51.1407777],[0.4304133,51.1405674]]}},
{"type":"Feature","properties":{"id":3065,"nach":0.49192825240505478},"geometry":{"type":"LineString","coordinates":[[0.4314129,51.1404322],[0.4313839,51.1404813]]}},
{"type":"Feature","properties":{"id":3105,"nach":0.45134732922130161},"geometry":{"type":"LineString","coordinates":[[0.4337967,51.1392192],[0.433796,51.1393212],[0.433721,51.1397026],[0.4336367,51.139859199999989],[0.4335214,51.139974400000014],[0.4333651,51.1400653],[0.4331245,51.1401587],[0.4327632,51.1402282],[0.4323408,51.140291600000012],[0.4316578,51.1403974],[0.4314129,51.1404322]]}},
{"type":"Feature","properties":{"id":3099,"nach":0.42165542885850443},"geometry":{"type":"LineString","coordinates":[[0.4308529,51.1392083],[0.4311019,51.1396836],[0.4312756,51.1400443],[0.4313527,51.140219],[0.4314111,51.1403677],[0.4314129,51.1404322]]}},
{"type":"Feature","properties":{"id":3098,"nach":0.42230013425704821},"geometry":{"type":"LineString","coordinates":[[0.4308529,51.1392083],[0.431617,51.1390661],[0.4316568,51.1390275],[0.4316532,51.1389851],[0.4316165,51.138947599999987],[0.4315307,51.1389275],[0.430778,51.1390518]]}},
{"type":"Feature","properties":{"id":25545,"nach":0.44083526096911085},"geometry":{"type":"LineString","coordinates":[[0.4306027,51.1387086],[0.4306168,51.138738],[0.430778,51.1390518]]}},
{"type":"Feature","properties":{"id":25544,"nach":0.49119707264384832},"geometry":{"type":"LineString","coordinates":[[0.4306027,51.1387086],[0.4305019,51.1384912],[0.4304143,51.1383057]]}},
{"type":"Feature","properties":{"id":25552,"nach":0.46076573158931183},"geometry":{"type":"LineString","coordinates":[[0.4311693,51.1385398],[0.4311123,51.13857],[0.4310623,51.1386288],[0.4308063,51.138685],[0.4306027,51.1387086]]}},
{"type":"Feature","properties":{"id":7828,"nach":0.54465797786285197},"geometry":{"type":"LineString","coordinates":[[0.4314957,51.1378835],[0.4311425,51.1379888],[0.4307133,51.1381677],[0.4304143,51.1383057]]}},
{"type":"Feature","properties":{"id":7827,"nach":0.53987900765773256},"geometry":{"type":"LineString","coordinates":[[0.4314957,51.1378835],[0.4317821,51.1378126],[0.4320185,51.1377634],[0.4323024,51.137742100000018],[0.4325312,51.13773410000001]]}},
{"type":"Feature","properties":{"id":10891,"nach":0.33267419145049842},"geometry":{"type":"LineString","coordinates":[[0.4324755,51.1341576],[0.4325028,51.1343465],[0.4326218,51.1345608],[0.4328288,51.1348205],[0.4325132,51.1349472],[0.4321199,51.1351777],[0.4318508,51.1353953],[0.4316542,51.1356615],[0.4315817,51.1360219],[0.4314731,51.1367135],[0.4314302,51.1369278],[0.4314946,51.1372377],[0.431411,51.1375934],[0.4314369,51.1377266],[0.4314957,51.1378835]]}},
{"type":"Feature","properties":{"id":23554,"nach":0.50570037346436969},"geometry":{"type":"LineString","coordinates":[[0.4367202,51.1369116],[0.4367591,51.1369043]]}},
{"type":"Feature","properties":{"id":23561,"nach":0.41796260891711878},"geometry":{"type":"LineString","coordinates":[[0.4370351,51.1359861],[0.4370502,51.1360688],[0.4370925,51.1362995],[0.4369551,51.1365041],[0.4368264,51.136665700000016],[0.4367577,51.1368219],[0.4367591,51.1369043]]}},
{"type":"Feature","properties":{"id":23616,"nach":0.49265065702816324},"geometry":{"type":"LineString","coordinates":[[0.4378033,51.1368164],[0.4372434,51.1368446],[0.4367591,51.1369043]]}},
{"type":"Feature","properties":{"id":23555,"nach":0.50630618775192326},"geometry":{"type":"LineString","coordinates":[[0.4367202,51.1369116],[0.4363917,51.1369736]]}},
{"type":"Feature","properties":{"id":25395,"nach":0.35487094186064222},"geometry":{"type":"LineString","coordinates":[[0.4342216,51.133989],[0.4344531,51.1345311],[0.4345845,51.134797],[0.4346999,51.1350428],[0.434791,51.135221199999989],[0.4348608,51.1353373],[0.4349128,51.1353878],[0.4349788,51.1354265],[0.4350485,51.1354585],[0.4351434,51.1355016],[0.4353865,51.1356083],[0.4356198,51.1357008],[0.4358344,51.135796800000016],[0.4360302,51.1359062],[0.4362237,51.136066900000017],[0.4366207,51.1366896],[0.4367202,51.1369116]]}},
{"type":"Feature","properties":{"id":23559,"nach":0.34057762291209581},"geometry":{"type":"LineString","coordinates":[[0.4370351,51.1359861],[0.4374187,51.1358776]]}},
{"type":"Feature","properties":{"id":23560,"nach":0.33934453618939847},"geometry":{"type":"LineString","coordinates":[[0.4370351,51.1359861],[0.4365174,51.1360265]]}},
{"type":"Feature","properties":{"id":23615,"nach":0.46150942494700919},"geometry":{"type":"LineString","coordinates":[[0.4378033,51.1368164],[0.4379886,51.1370876],[0.4380734,51.137212]]}},
{"type":"Feature","properties":{"id":34028,"nach":0.4682794928368948},"geometry":{"type":"LineString","coordinates":[[0.4382167,51.1367956],[0.4378033,51.1368164]]}},
{"type":"Feature","properties":{"id":13120,"nach":0.44862876520697387},"geometry":{"type":"LineString","coordinates":[[0.4347269,51.1383335],[0.4336217,51.138489]]}},
{"type":"Feature","properties":{"id":3059,"nach":0.43640405805041466},"geometry":{"type":"LineString","coordinates":[[0.4326203,51.138645],[0.4336217,51.138489]]}},
{"type":"Feature","properties":{"id":3104,"nach":0.40166116443231686},"geometry":{"type":"LineString","coordinates":[[0.4337967,51.1392192],[0.4338345,51.1389693],[0.4337636,51.1387967],[0.4336217,51.138489]]}},
{"type":"Feature","properties":{"id":13122,"nach":0.36721536013627937},"geometry":{"type":"LineString","coordinates":[[0.4347269,51.1383335],[0.4346722,51.1381684],[0.4345694,51.1379658],[0.434423,51.1378501]]}},
{"type":"Feature","properties":{"id":13121,"nach":0.37360348718671699},"geometry":{"type":"LineString","coordinates":[[0.4347269,51.1383335],[0.4347461,51.1383766]]}},
{"type":"Feature","properties":{"id":3100,"nach":0.43543252962916057},"geometry":{"type":"LineString","coordinates":[[0.4329692,51.1394144],[0.4326203,51.138645]]}},
{"type":"Feature","properties":{"id":3062,"nach":0.49150512444102967},"geometry":{"type":"LineString","coordinates":[[0.4325312,51.13773410000001],[0.4325197,51.1379964],[0.4324816,51.1382967],[0.4326203,51.138645]]}},
{"type":"Feature","properties":{"id":3106,"nach":0.41992122216222566},"geometry":{"type":"LineString","coordinates":[[0.4337967,51.1392192],[0.4335493,51.1392783],[0.4329692,51.1394144]]}},
{"type":"Feature","properties":{"id":3103,"nach":0.375523419478905},"geometry":{"type":"LineString","coordinates":[[0.4324867,51.1396048],[0.4329692,51.1394144]]}},
{"type":"Feature","properties":{"id":25542,"nach":0.5298361037107211},"geometry":{"type":"LineString","coordinates":[[0.4331092,51.1377361],[0.4328281,51.137744],[0.4325312,51.13773410000001]]}},
{"type":"Feature","properties":{"id":25541,"nach":0.52034792684531372},"geometry":{"type":"LineString","coordinates":[[0.4331092,51.1377361],[0.433192,51.1377323],[0.4334977,51.1377171],[0.4337804,51.137688],[0.4339866,51.1376579],[0.4341962,51.1376063],[0.4356353,51.137142100000013],[0.4358259,51.1370896]]}},
{"type":"Feature","properties":{"id":25543,"nach":0.37654480971386373},"geometry":{"type":"LineString","coordinates":[[0.4330399,51.1375028],[0.4331092,51.1377361]]}},
{"type":"Feature","properties":{"id":3096,"nach":0.37332071374323766},"geometry":{"type":"LineString","coordinates":[[0.4298917,51.1409132],[0.4298552,51.1407777]]}},
{"type":"Feature","properties":{"id":13449,"nach":0.37332071374323766},"geometry":{"type":"LineString","coordinates":[[0.4297897,51.1406503],[0.4298552,51.1407777]]}},
{"type":"Feature","properties":{"id":4033,"nach":0.36771554421177666},"geometry":{"type":"LineString","coordinates":[[0.4266198,51.138552800000014],[0.4263374,51.1385771]]}},
{"type":"Feature","properties":{"id":4032,"nach":0.36771554421177666},"geometry":{"type":"LineString","coordinates":[[0.4262378,51.1385855],[0.4263374,51.1385771]]}},
{"type":"Feature","properties":{"id":27528,"nach":0.44968191926385676},"geometry":{"type":"LineString","coordinates":[[0.427887,51.1378604],[0.4277071,51.1377307],[0.427147,51.1374292],[0.4269333,51.1372885],[0.4266591,51.13711],[0.4262735,51.1367696],[0.4261683,51.136669100000013],[0.4260781,51.136555500000014],[0.4258731,51.136194],[0.4258371,51.1361197]]}},
{"type":"Feature","properties":{"id":27530,"nach":0.45733227287361111},"geometry":{"type":"LineString","coordinates":[[0.4282411,51.1376935],[0.427887,51.1378604]]}},
{"type":"Feature","properties":{"id":36350,"nach":0.33758798008732904},"geometry":{"type":"LineString","coordinates":[[0.418579,51.138111200000012],[0.4168898,51.1379607],[0.4161832,51.1378742],[0.4154793,51.1377544],[0.4150098,51.137772900000016],[0.4143082,51.1378432],[0.4131325,51.138099299999986],[0.4125091,51.1382344]]}},
{"type":"Feature","properties":{"id":36349,"nach":0.36006214583429241},"geometry":{"type":"LineString","coordinates":[[0.418579,51.138111200000012],[0.4189237,51.1381618],[0.4190055,51.1381723]]}},
{"type":"Feature","properties":{"id":36352,"nach":0.28817615875907093},"geometry":{"type":"LineString","coordinates":[[0.4177341,51.1384677],[0.4179622,51.13842],[0.4182105,51.1383961],[0.4184365,51.1383667],[0.4184857,51.1383288],[0.418579,51.138111200000012]]}},
{"type":"Feature","properties":{"id":3089,"nach":0.37435593211975116},"geometry":{"type":"LineString","coordinates":[[0.428477,51.1399811],[0.4286072,51.1401963]]}},
{"type":"Feature","properties":{"id":3088,"nach":0.37359615728421008},"geometry":{"type":"LineString","coordinates":[[0.4287799,51.1404678],[0.428683,51.1403312],[0.4286072,51.1401963]]}},
{"type":"Feature","properties":{"id":3228,"nach":0.34921691580609621},"geometry":{"type":"LineString","coordinates":[[0.4353605,51.1364613],[0.4358524,51.136313800000011]]}},
{"type":"Feature","properties":{"id":3234,"nach":0.35028274758996386},"geometry":{"type":"LineString","coordinates":[[0.4350467,51.136549],[0.4353605,51.1364613]]}},
{"type":"Feature","properties":{"id":3232,"nach":0.42777364641153753},"geometry":{"type":"LineString","coordinates":[[0.4358259,51.1370896],[0.4356494,51.1368165],[0.4354782,51.136574],[0.4353605,51.1364613]]}},
{"type":"Feature","properties":{"id":25443,"nach":0.51422208964468574},"geometry":{"type":"LineString","coordinates":[[0.4360227,51.1370484],[0.4358259,51.1370896]]}},
{"type":"Feature","properties":{"id":25445,"nach":0.51002995541053575},"geometry":{"type":"LineString","coordinates":[[0.4360227,51.1370484],[0.4362783,51.136995],[0.4363917,51.1369736]]}},
{"type":"Feature","properties":{"id":25446,"nach":0.3547890890824944},"geometry":{"type":"LineString","coordinates":[[0.4364894,51.137466900000014],[0.4364086,51.1374383],[0.4363753,51.1374218],[0.4363627,51.137398],[0.4363669,51.1373635],[0.4364683,51.137211],[0.4364831,51.1371713],[0.4364788,51.13713280000001],[0.4364429,51.137111600000011],[0.4363796,51.137097],[0.4363056,51.137091700000013],[0.4362169,51.1370931],[0.4361429,51.1370957],[0.4360859,51.1370917],[0.4360227,51.1370484]]}},
{"type":"Feature","properties":{"id":40056,"nach":0.27350669769558811},"geometry":{"type":"LineString","coordinates":[[0.431294,51.1310913],[0.4313054,51.1311211],[0.4321511,51.13228740000001],[0.4322986,51.1327194],[0.4323881,51.1332827],[0.4323908,51.1338149],[0.4324417,51.134047],[0.4324755,51.1341576]]}},
{"type":"Feature","properties":{"id":25396,"nach":0.33671406293564604},"geometry":{"type":"LineString","coordinates":[[0.4342216,51.133989],[0.4341655,51.1339881],[0.4340907,51.1339913],[0.4331488,51.134095500000015],[0.4328846,51.1341255],[0.4326949,51.1341441],[0.4325949,51.134152800000017],[0.43255,51.1341536],[0.4324755,51.1341576]]}},
{"type":"Feature","properties":{"id":40055,"nach":0.30662011776594811},"geometry":{"type":"LineString","coordinates":[[0.431294,51.1310913],[0.4306958,51.129529]]}},
{"type":"Feature","properties":{"id":40057,"nach":0.22527511710248771},"geometry":{"type":"LineString","coordinates":[[0.431294,51.1310913],[0.4315341,51.1310895],[0.4317002,51.1310647],[0.4320087,51.1309898],[0.4334678,51.1306262],[0.4340827,51.130471],[0.434544,51.1303531],[0.4348551,51.1302698],[0.4349598,51.130245],[0.4351173,51.1302252],[0.4353004,51.1302235],[0.4354332,51.1302168],[0.4355465,51.1302016]]}},
{"type":"Feature","properties":{"id":25397,"nach":0.30760878526976743},"geometry":{"type":"LineString","coordinates":[[0.4342216,51.133989],[0.434781,51.1339216],[0.4349789,51.1339002],[0.435497,51.133847]]}},
{"type":"Feature","properties":{"id":36457,"nach":0.39604661687182485},"geometry":{"type":"LineString","coordinates":[[0.425166,51.1425872],[0.4249297,51.1427353],[0.4243933,51.143018],[0.423535,51.14355650000001],[0.4227839,51.1440546],[0.422589,51.1443208],[0.4225121,51.1445141]]}},
{"type":"Feature","properties":{"id":36460,"nach":0.36253149003083346},"geometry":{"type":"LineString","coordinates":[[0.4252399,51.1426813],[0.4252488,51.1426467],[0.42523,51.1426239],[0.425166,51.1425872]]}},
{"type":"Feature","properties":{"id":38059,"nach":0.19485563572152323},"geometry":{"type":"LineString","coordinates":[[0.4212899,51.1316275],[0.4217534,51.1318792],[0.4217835,51.1321773],[0.4219238,51.132597099999984],[0.4219777,51.1330101],[0.4221827,51.1331049],[0.4223877,51.133477200000016],[0.4229367,51.1339396],[0.4228805,51.134109500000015]]}},
{"type":"Feature","properties":{"id":17338,"nach":0.32781775108651029},"geometry":{"type":"LineString","coordinates":[[0.4196316,51.1349114],[0.4194884,51.134546700000016],[0.4196899,51.1341799],[0.4196959,51.1339132],[0.4195762,51.1336266],[0.4192191,51.1327427],[0.4190275,51.1323308],[0.4191014,51.1322657]]}},
{"type":"Feature","properties":{"id":20838,"nach":0.36368020468134266},"geometry":{"type":"LineString","coordinates":[[0.4199204,51.13479610000001],[0.4196316,51.1349114]]}},
{"type":"Feature","properties":{"id":38054,"nach":0.35169241135001034},"geometry":{"type":"LineString","coordinates":[[0.4184591,51.1351119],[0.4196316,51.1349114]]}},
{"type":"Feature","properties":{"id":38051,"nach":0.28831442534502794},"geometry":{"type":"LineString","coordinates":[[0.4205743,51.1381623],[0.4204505,51.137987600000017],[0.4201248,51.137506],[0.4200071,51.1370404],[0.4199193,51.1366861],[0.4195403,51.1359525],[0.4194246,51.1357159],[0.4194146,51.1354606],[0.4194884,51.1349848],[0.4196316,51.1349114]]}},
{"type":"Feature","properties":{"id":17333,"nach":0.34362991199876325},"geometry":{"type":"LineString","coordinates":[[0.4228805,51.134109500000015],[0.4232631,51.1339455]]}},
{"type":"Feature","properties":{"id":20837,"nach":0.38399154810934782},"geometry":{"type":"LineString","coordinates":[[0.4246018,51.1348872],[0.4239759,51.1344163],[0.4232631,51.1339455]]}},
{"type":"Feature","properties":{"id":20839,"nach":0.30851660701841427},"geometry":{"type":"LineString","coordinates":[[0.4199204,51.13479610000001],[0.420283,51.134613],[0.4210449,51.1345604],[0.4219694,51.1344026],[0.4228805,51.134109500000015]]}},
{"type":"Feature","properties":{"id":34524,"nach":0.41226406370460472},"geometry":{"type":"LineString","coordinates":[[0.4248498,51.1350902],[0.4246018,51.1348872]]}},
{"type":"Feature","properties":{"id":20840,"nach":0.3022433343425826},"geometry":{"type":"LineString","coordinates":[[0.4199204,51.13479610000001],[0.4202682,51.134789],[0.4207507,51.1347887],[0.4212981,51.1347919],[0.4218887,51.1348154],[0.4230202,51.134859400000018],[0.4246018,51.1348872]]}},
{"type":"Feature","properties":{"id":38052,"nach":0.37401587971030226},"geometry":{"type":"LineString","coordinates":[[0.4205743,51.1381623],[0.4206308,51.138242],[0.4207334,51.1383867]]}},
{"type":"Feature","properties":{"id":38053,"nach":0.30238109097636484},"geometry":{"type":"LineString","coordinates":[[0.4205743,51.1381623],[0.4199636,51.1381025],[0.4189263,51.136143499999989]]}},
{"type":"Feature","properties":{"id":17351,"nach":0.2189899959397858},"geometry":{"type":"LineString","coordinates":[[0.4222874,51.1444723],[0.4220157,51.1442163],[0.4215719,51.1438972],[0.4213044,51.1437096],[0.4209278,51.1434445],[0.4208481,51.1431962],[0.421034,51.1419376],[0.4209085,51.140623],[0.4205777,51.1397763],[0.4202977,51.1392992],[0.420346,51.1391387],[0.4205246,51.1389357],[0.4206695,51.1386934],[0.4207334,51.1383867]]}},
{"type":"Feature","properties":{"id":27095,"nach":0.38711778009134767},"geometry":{"type":"LineString","coordinates":[[0.4190055,51.1381723],[0.4197874,51.1382628],[0.4200472,51.1382929],[0.4207334,51.1383867]]}},
{"type":"Feature","properties":{"id":17680,"nach":0.29997581956812142},"geometry":{"type":"LineString","coordinates":[[0.4225121,51.1445141],[0.4222874,51.1444723]]}},
{"type":"Feature","properties":{"id":42901,"nach":0.21893216856628184},"geometry":{"type":"LineString","coordinates":[[0.4222655,51.1446362],[0.4222874,51.1444723]]}},
{"type":"Feature","properties":{"id":27106,"nach":0.35887507778024796},"geometry":{"type":"LineString","coordinates":[[0.4190707,51.138705900000012],[0.419029,51.1386281],[0.4190039,51.1385592],[0.418986,51.1384805],[0.4189812,51.138399600000014],[0.4189824,51.138332899999988],[0.4190055,51.1381723]]}},
{"type":"Feature","properties":{"id":42905,"nach":0.3837352825405308},"geometry":{"type":"LineString","coordinates":[[0.4224752,51.1446488],[0.4225121,51.1445141]]}},
{"type":"Feature","properties":{"id":42906,"nach":0.35041911852571989},"geometry":{"type":"LineString","coordinates":[[0.4224752,51.1446488],[0.4222655,51.1446362]]}},
{"type":"Feature","properties":{"id":42908,"nach":0.30003758155630805},"geometry":{"type":"LineString","coordinates":[[0.4221566,51.144469],[0.4221988,51.1446132],[0.4222655,51.1446362]]}},
{"type":"Feature","properties":{"id":34030,"nach":0.45445519982005195},"geometry":{"type":"LineString","coordinates":[[0.4382167,51.1367956],[0.4388097,51.1367657],[0.4390874,51.1367224],[0.4392707,51.1366817],[0.4393678,51.136639400000014],[0.4394842,51.1365592],[0.4398068,51.1363141],[0.4401406,51.1361309],[0.4405044,51.136031200000012],[0.4407488,51.1359675],[0.4410256,51.1359011],[0.4415374,51.1357694],[0.441764,51.1356921],[0.4419144,51.1356037],[0.4420293,51.1355183],[0.4421519,51.1353945],[0.4423432,51.1351951],[0.4425317,51.135010800000011],[0.4426619,51.1349114],[0.4430959,51.1346911]]}},
{"type":"Feature","properties":{"id":34031,"nach":0.35697720729683702},"geometry":{"type":"LineString","coordinates":[[0.4382675,51.1365703],[0.4382617,51.1366313],[0.4382567,51.1366523],[0.438249,51.1366818],[0.4382385,51.1367077],[0.4382306,51.1367342],[0.4382167,51.1367956]]}},
{"type":"Feature","properties":{"id":34525,"nach":0.42748244078508457},"geometry":{"type":"LineString","coordinates":[[0.4248498,51.1350902],[0.4252885,51.135453800000015],[0.4256786,51.1358867],[0.4257555,51.1359837],[0.4258371,51.1361197]]}},
{"type":"Feature","properties":{"id":34527,"nach":0.34406318305142569},"geometry":{"type":"LineString","coordinates":[[0.4252938,51.1348306],[0.4252454,51.1348534],[0.4248498,51.1350902]]}},
{"type":"Feature","properties":{"id":23551,"nach":0.35997941803579547},"geometry":{"type":"LineString","coordinates":[[0.4363917,51.1369736],[0.4361419,51.1365903]]}},
{"type":"Feature","properties":{"id":27640,"nach":0.3883190319505796},"geometry":{"type":"LineString","coordinates":[[0.4346141,51.1453281],[0.4348498,51.1454928],[0.4351175,51.1456542],[0.4354647,51.1458919],[0.4360238,51.1463204],[0.4368377,51.147004]]}},
{"type":"Feature","properties":{"id":27641,"nach":0.31831870320951983},"geometry":{"type":"LineString","coordinates":[[0.4355142,51.145225],[0.4355444,51.1451474],[0.435433,51.1450808],[0.4353843,51.1450458],[0.435308,51.1450014],[0.4352717,51.1449958],[0.4351356,51.14506],[0.4348633,51.145164800000011],[0.4346141,51.1453281]]}},
{"type":"Feature","properties":{"id":41360,"nach":0.40920154434871203},"geometry":{"type":"LineString","coordinates":[[0.4341719,51.1450171],[0.4342014,51.1450398],[0.4346141,51.1453281]]}},
{"type":"Feature","properties":{"id":42752,"nach":0.17126811417070001},"geometry":{"type":"LineString","coordinates":[[0.4425456,51.1429394],[0.4424921,51.142752200000011],[0.441674,51.1426916],[0.4410866,51.1425654],[0.4409498,51.14251320000001],[0.4405689,51.141739199999989],[0.4405206,51.141549],[0.4403919,51.1401926],[0.4403594,51.140142],[0.4395492,51.1388815],[0.4395255,51.1388446],[0.4392583,51.1385761],[0.4391332,51.138450400000011],[0.4391223,51.13843940000001],[0.4388657,51.138181599999989],[0.4387556,51.1380969],[0.438509,51.1379072]]}},
{"type":"Feature","properties":{"id":23604,"nach":0.32690836278229185},"geometry":{"type":"LineString","coordinates":[[0.4384522,51.1377677],[0.4392359,51.137523500000015]]}},
{"type":"Feature","properties":{"id":23611,"nach":0.38114841355144063},"geometry":{"type":"LineString","coordinates":[[0.438509,51.1379072],[0.4384522,51.1377677]]}},
{"type":"Feature","properties":{"id":23607,"nach":0.42800775091979099},"geometry":{"type":"LineString","coordinates":[[0.4380734,51.137212],[0.4384522,51.1377677]]}},
{"type":"Feature","properties":{"id":23613,"nach":0.32211896961951691},"geometry":{"type":"LineString","coordinates":[[0.438509,51.1379072],[0.4383293,51.1378837],[0.437876,51.1376615]]}},
{"type":"Feature","properties":{"id":23608,"nach":0.3486443170000264},"geometry":{"type":"LineString","coordinates":[[0.4380734,51.137212],[0.4376089,51.1372998],[0.4374774,51.1372897]]}},
{"type":"Feature","properties":{"id":25551,"nach":0.43166783938372072},"geometry":{"type":"LineString","coordinates":[[0.4311693,51.1385398],[0.4312585,51.1385481],[0.4313418,51.13854280000001]]}},
{"type":"Feature","properties":{"id":33969,"nach":0.38152641803503456},"geometry":{"type":"LineString","coordinates":[[0.4316871,51.1384299],[0.4316594,51.138463200000011],[0.431586,51.1384979],[0.4315306,51.1385153],[0.4314379,51.1385289],[0.4313418,51.13854280000001]]}},
{"type":"Feature","properties":{"id":25725,"nach":0.34601382048151935},"geometry":{"type":"LineString","coordinates":[[0.4246522,51.1366662],[0.424467,51.1364638],[0.4244401,51.1364113],[0.4244461,51.136353200000016],[0.4245357,51.1363195],[0.4248404,51.1362688],[0.4250884,51.1362464],[0.4252437,51.1362445],[0.425402,51.1362239],[0.4258371,51.1361197]]}},
{"type":"Feature","properties":{"id":27105,"nach":0.2824127485450928},"geometry":{"type":"LineString","coordinates":[[0.4190707,51.138705900000012],[0.4190767,51.1387173],[0.419146,51.1388027],[0.4192009,51.1388671],[0.4192972,51.138939500000014]]}},
{"type":"Feature","properties":{"id":27108,"nach":0.27654602926779165},"geometry":{"type":"LineString","coordinates":[[0.4195269,51.138566200000014],[0.4194706,51.13868930000001],[0.4194363,51.138728],[0.4193787,51.1387375],[0.4193003,51.1387336],[0.4190707,51.138705900000012]]}},
{"type":"Feature","properties":{"id":27531,"nach":0.37922232910704823},"geometry":{"type":"LineString","coordinates":[[0.4282411,51.1376935],[0.4282495,51.1376744],[0.4282428,51.1376553],[0.4281124,51.1375463]]}},
{"type":"Feature","properties":{"id":33795,"nach":0.37850725521272199},"geometry":{"type":"LineString","coordinates":[[0.4285742,51.1375497],[0.4284017,51.137633300000012],[0.4282411,51.1376935]]}},
{"type":"Feature","properties":{"id":41359,"nach":0.42818264480679197},"geometry":{"type":"LineString","coordinates":[[0.4341719,51.1450171],[0.4340346,51.144911],[0.4337607,51.1447092]]}},
{"type":"Feature","properties":{"id":41361,"nach":0.33151132430435332},"geometry":{"type":"LineString","coordinates":[[0.4343906,51.1449222],[0.4341719,51.1450171]]}},
{"type":"Feature","properties":{"id":31768,"nach":0.36933659995733598},"geometry":{"type":"LineString","coordinates":[[0.4309231,51.1425649],[0.4313432,51.1424304]]}},
{"type":"Feature","properties":{"id":31767,"nach":0.36933659995733598},"geometry":{"type":"LineString","coordinates":[[0.4310655,51.1422282],[0.4313432,51.1424304]]}},
{"type":"Feature","properties":{"id":42748,"nach":0.35242956257190783},"geometry":{"type":"LineString","coordinates":[[0.4322766,51.1438872],[0.4324984,51.1438301],[0.4324725,51.1435655],[0.4324517,51.1433893],[0.4324517,51.1433525],[0.4324578,51.1433226],[0.4324774,51.1432996],[0.432526,51.1432609]]}},
{"type":"Feature","properties":{"id":42744,"nach":0.46328146743798893},"geometry":{"type":"LineString","coordinates":[[0.4329791,51.1438823],[0.4329431,51.1438329],[0.432526,51.1432609]]}},
{"type":"Feature","properties":{"id":33794,"nach":0.32722799716243006},"geometry":{"type":"LineString","coordinates":[[0.4344192,51.1443468],[0.4337607,51.1447092]]}},
{"type":"Feature","properties":{"id":42745,"nach":0.44372939021037733},"geometry":{"type":"LineString","coordinates":[[0.4329791,51.1438823],[0.4330671,51.1440029],[0.4332119,51.144193500000021],[0.4337607,51.1447092]]}},
{"type":"Feature","properties":{"id":42747,"nach":0.34144809298076162},"geometry":{"type":"LineString","coordinates":[[0.4331343,51.1433753],[0.43313,51.1435907],[0.4331987,51.143798],[0.4331751,51.1438235],[0.4329791,51.1438823]]}}
]
}
