{
"type": "FeatureCollection",
"name": "356fe2758de8_visibility",
"crs": { "type": "name", "properties": { "name": "urn:ogc:def:crs:OGC:1.3:CRS84" } },
"features": [
{ "type": "Feature", "properties": { "visible_points": 15, "total_points": 54, "visibility_pct": 27.777777777777779 }, "geometry": { "type": "Point", "coordinates": [ 0.917347170927097, 51.196797815721517 ] } },
{ "type": "Feature", "properties": { "visible_points": 0, "total_points": 53, "visibility_pct": 0.0 }, "geometry": { "type": "Point", "coordinates": [ 0.917545218855495, 51.196792877034021 ] } },
{ "type": "Feature", "properties": { "visible_points": 0, "total_points": 50, "visibility_pct": 0.0 }, "geometry": { "type": "Point", "coordinates": [ 0.917743266727876, 51.196787938011774 ] } },
{ "type": "Feature", "properties": { "visible_points": 15, "total_points": 60, "visibility_pct": 25.0 }, "geometry": { "type": "Point", "coordinates": [ 0.917254956740128, 51.196908049563795 ] } },
{ "type": "Feature", "properties": { "visible_points": 0, "total_points": 59, "visibility_pct": 0.0 }, "geometry": { "type": "Point", "coordinates": [ 0.917453005156027, 51.196903111023353 ] } },
{ "type": "Feature", "properties": { "visible_points": 4, "total_points": 57, "visibility_pct": 7.0175438596491224 }, "geometry": { "type": "Point", "coordinates": [ 0.91765105351592, 51.196898172148174 ] } },
{ "type": "Feature", "properties": { "visible_points": 3, "total_points": 53, "visibility_pct": 5.6603773584905666 }, "geometry": { "type": "Point", "coordinates": [ 0.9178491018198, 51.196893232938187 ] } },
{ "type": "Feature", "properties": { "visible_points": 18, "total_points": 65, "visibility_pct": 27.692307692307693 }, "geometry": { "type": "Point", "coordinates": [ 0.917162742121666, 51.197018283339979 ] } },
{ "type": "Feature", "properties": { "visible_points": 15, "total_points": 64, "visibility_pct": 23.4375 }, "geometry": { "type": "Point", "coordinates": [ 0.917360791025078, 51.197013344946605 ] } },
{ "type": "Feature", "properties": { "visible_points": 5, "total_points": 63, "visibility_pct": 7.9365079365079358 }, "geometry": { "type": "Point", "coordinates": [ 0.917558839872477, 51.197008406218458 ] } },
{ "type": "Feature", "properties": { "visible_points": 0, "total_points": 60, "visibility_pct": 0.0 }, "geometry": { "type": "Point", "coordinates": [ 0.917756888663871, 51.197003467155561 ] } },
{ "type": "Feature", "properties": { "visible_points": 15, "total_points": 67, "visibility_pct": 22.388059701492537 }, "geometry": { "type": "Point", "coordinates": [ 0.917070527071715, 51.197128517050054 ] } },
{ "type": "Feature", "properties": { "visible_points": 8, "total_points": 69, "visibility_pct": 11.594202898550725 }, "geometry": { "type": "Point", "coordinates": [ 0.917268576462635, 51.197123578803733 ] } },
{ "type": "Feature", "properties": { "visible_points": 2, "total_points": 68, "visibility_pct": 2.9411764705882351 }, "geometry": { "type": "Point", "coordinates": [ 0.917466625797551, 51.197118640222648 ] } },
{ "type": "Feature", "properties": { "visible_points": 3, "total_points": 66, "visibility_pct": 4.5454545454545459 }, "geometry": { "type": "Point", "coordinates": [ 0.917664675076452, 51.197113701306797 ] } },
{ "type": "Feature", "properties": { "visible_points": 0, "total_points": 66, "visibility_pct": 0.0 }, "geometry": { "type": "Point", "coordinates": [ 0.917176361468699, 51.197233812594774 ] } },
{ "type": "Feature", "properties": { "visible_points": 2, "total_points": 68, "visibility_pct": 2.9411764705882351 }, "geometry": { "type": "Point", "coordinates": [ 0.917374411291127, 51.197228874160743 ] } },
{ "type": "Feature", "properties": { "visible_points": 0, "total_points": 69, "visibility_pct": 0.0 }, "geometry": { "type": "Point", "coordinates": [ 0.917572461057549, 51.197223935391953 ] } },
{ "type": "Feature", "properties": { "visible_points": 13, "total_points": 59, "visibility_pct": 22.033898305084744 }, "geometry": { "type": "Point", "coordinates": [ 0.917084146043267, 51.197344046319692 ] } },
{ "type": "Feature", "properties": { "visible_points": 0, "total_points": 62, "visibility_pct": 0.0 }, "geometry": { "type": "Point", "coordinates": [ 0.917282196353213, 51.197339108032722 ] } },
{ "type": "Feature", "properties": { "visible_points": 1, "total_points": 63, "visibility_pct": 1.5873015873015872 }, "geometry": { "type": "Point", "coordinates": [ 0.917480246607149, 51.197334169410986 ] } },
{ "type": "Feature", "properties": { "visible_points": 13, "total_points": 51, "visibility_pct": 25.490196078431371 }, "geometry": { "type": "Point", "coordinates": [ 0.916991930186333, 51.197454279978516 ] } },
{ "type": "Feature", "properties": { "visible_points": 6, "total_points": 55, "visibility_pct": 10.909090909090908 }, "geometry": { "type": "Point", "coordinates": [ 0.917189980983791, 51.197449341838606 ] } },
{ "type": "Feature", "properties": { "visible_points": 0, "total_points": 57, "visibility_pct": 0.0 }, "geometry": { "type": "Point", "coordinates": [ 0.917388031725256, 51.197444403363932 ] } },
{ "type": "Feature", "properties": { "visible_points": 0, "total_points": 57, "visibility_pct": 0.0 }, "geometry": { "type": "Point", "coordinates": [ 0.917586082410703, 51.197439464554492 ] } },
{ "type": "Feature", "properties": { "visible_points": 10, "total_points": 47, "visibility_pct": 21.276595744680851 }, "geometry": { "type": "Point", "coordinates": [ 0.917097765182877, 51.197559575578374 ] } },
{ "type": "Feature", "properties": { "visible_points": 0, "total_points": 50, "visibility_pct": 0.0 }, "geometry": { "type": "Point", "coordinates": [ 0.917295816411859, 51.197554637250768 ] } },
{ "type": "Feature", "properties": { "visible_points": 0, "total_points": 50, "visibility_pct": 0.0 }, "geometry": { "type": "Point", "coordinates": [ 0.917493867584832, 51.197549698588375 ] } },
{ "type": "Feature", "properties": { "visible_points": 0, "total_points": 42, "visibility_pct": 0.0 }, "geometry": { "type": "Point", "coordinates": [ 0.917203600666955, 51.197664871071495 ] } }
]
}
