{
"type": "FeatureCollection",
"name": "6cd96f51b2d4_visibility",
"crs": { "type": "name", "properties": { "name": "urn:ogc:def:crs:OGC:1.3:CRS84" } },
"features": [
{ "type": "Feature", "properties": { "visible_points": 0, "total_points": 65, "visibility_pct": 0.0 }, "geometry": { "type": "Point", "coordinates": [ 0.954335171910956, 51.197969739733985 ] } },
{ "type": "Feature", "properties": { "visible_points": 2, "total_points": 64, "visibility_pct": 3.125 }, "geometry": { "type": "Point", "coordinates": [ 0.954533218323698, 51.197964738443083 ] } },
{ "type": "Feature", "properties": { "visible_points": 0, "total_points": 61, "visibility_pct": 0.0 }, "geometry": { "type": "Point", "coordinates": [ 0.954731264679512, 51.197959736817332 ] } },
{ "type": "Feature", "properties": { "visible_points": 1, "total_points": 56, "visibility_pct": 1.7857142857142856 }, "geometry": { "type": "Point", "coordinates": [ 0.954929310978386, 51.197954734856715 ] } },
{ "type": "Feature", "properties": { "visible_points": 0, "total_points": 74, "visibility_pct": 0.0 }, "geometry": { "type": "Point", "coordinates": [ 0.954243045068154, 51.198080001179761 ] } },
{ "type": "Feature", "properties": { "visible_points": 2, "total_points": 74, "visibility_pct": 2.7027027027027026 }, "geometry": { "type": "Point", "coordinates": [ 0.954441091971087, 51.198075000037122 ] } },
{ "type": "Feature", "properties": { "visible_points": 2, "total_points": 71, "visibility_pct": 2.8169014084507045 }, "geometry": { "type": "Point", "coordinates": [ 0.954639138817096, 51.198069998559632 ] } },
{ "type": "Feature", "properties": { "visible_points": 0, "total_points": 67, "visibility_pct": 0.0 }, "geometry": { "type": "Point", "coordinates": [ 0.954837185606166, 51.198064996747235 ] } },
{ "type": "Feature", "properties": { "visible_points": 0, "total_points": 60, "visibility_pct": 0.0 }, "geometry": { "type": "Point", "coordinates": [ 0.955035232338301, 51.198059994599987 ] } },
{ "type": "Feature", "properties": { "visible_points": 1, "total_points": 81, "visibility_pct": 1.2345679012345678 }, "geometry": { "type": "Point", "coordinates": [ 0.954150917792101, 51.198190262558363 ] } },
{ "type": "Feature", "properties": { "visible_points": 0, "total_points": 84, "visibility_pct": 0.0 }, "geometry": { "type": "Point", "coordinates": [ 0.954348965185229, 51.198185261563978 ] } },
{ "type": "Feature", "properties": { "visible_points": 0, "total_points": 81, "visibility_pct": 0.0 }, "geometry": { "type": "Point", "coordinates": [ 0.954547012521427, 51.198180260234714 ] } },
{ "type": "Feature", "properties": { "visible_points": 0, "total_points": 76, "visibility_pct": 0.0 }, "geometry": { "type": "Point", "coordinates": [ 0.954745059800699, 51.198175258570586 ] } },
{ "type": "Feature", "properties": { "visible_points": 0, "total_points": 69, "visibility_pct": 0.0 }, "geometry": { "type": "Point", "coordinates": [ 0.954943107023033, 51.198170256571579 ] } },
{ "type": "Feature", "properties": { "visible_points": 0, "total_points": 79, "visibility_pct": 0.0 }, "geometry": { "type": "Point", "coordinates": [ 0.954058790082791, 51.198300523869783 ] } },
{ "type": "Feature", "properties": { "visible_points": 2, "total_points": 86, "visibility_pct": 2.3255813953488373 }, "geometry": { "type": "Point", "coordinates": [ 0.954256837966115, 51.198295523023646 ] } },
{ "type": "Feature", "properties": { "visible_points": 0, "total_points": 86, "visibility_pct": 0.0 }, "geometry": { "type": "Point", "coordinates": [ 0.95445488579251, 51.198290521842644 ] } },
{ "type": "Feature", "properties": { "visible_points": 0, "total_points": 82, "visibility_pct": 0.0 }, "geometry": { "type": "Point", "coordinates": [ 0.95465293356198, 51.198285520326742 ] } },
{ "type": "Feature", "properties": { "visible_points": 0, "total_points": 76, "visibility_pct": 0.0 }, "geometry": { "type": "Point", "coordinates": [ 0.954850981274511, 51.198280518475975 ] } },
{ "type": "Feature", "properties": { "visible_points": 2, "total_points": 66, "visibility_pct": 3.0303030303030303 }, "geometry": { "type": "Point", "coordinates": [ 0.955049028930109, 51.198275516290337 ] } },
{ "type": "Feature", "properties": { "visible_points": 0, "total_points": 72, "visibility_pct": 0.0 }, "geometry": { "type": "Point", "coordinates": [ 0.953966661940222, 51.198410785114007 ] } },
{ "type": "Feature", "properties": { "visible_points": 0, "total_points": 82, "visibility_pct": 0.0 }, "geometry": { "type": "Point", "coordinates": [ 0.95416471031374, 51.198405784416124 ] } },
{ "type": "Feature", "properties": { "visible_points": 2, "total_points": 86, "visibility_pct": 2.3255813953488373 }, "geometry": { "type": "Point", "coordinates": [ 0.954362758630339, 51.198400783383363 ] } },
{ "type": "Feature", "properties": { "visible_points": 1, "total_points": 85, "visibility_pct": 1.1764705882352942 }, "geometry": { "type": "Point", "coordinates": [ 0.954560806890007, 51.198395782015716 ] } },
{ "type": "Feature", "properties": { "visible_points": 1, "total_points": 81, "visibility_pct": 1.2345679012345678 }, "geometry": { "type": "Point", "coordinates": [ 0.954758855092742, 51.198390780313197 ] } },
{ "type": "Feature", "properties": { "visible_points": 0, "total_points": 70, "visibility_pct": 0.0 }, "geometry": { "type": "Point", "coordinates": [ 0.954956903238542, 51.198385778275799 ] } },
{ "type": "Feature", "properties": { "visible_points": 0, "total_points": 64, "visibility_pct": 0.0 }, "geometry": { "type": "Point", "coordinates": [ 0.953874533364387, 51.198521046291035 ] } },
{ "type": "Feature", "properties": { "visible_points": 0, "total_points": 73, "visibility_pct": 0.0 }, "geometry": { "type": "Point", "coordinates": [ 0.954072582228107, 51.198516045741414 ] } },
{ "type": "Feature", "properties": { "visible_points": 0, "total_points": 80, "visibility_pct": 0.0 }, "geometry": { "type": "Point", "coordinates": [ 0.954270631034907, 51.198511044856907 ] } },
{ "type": "Feature", "properties": { "visible_points": 0, "total_points": 82, "visibility_pct": 0.0 }, "geometry": { "type": "Point", "coordinates": [ 0.954468679784776, 51.198506043637508 ] } },
{ "type": "Feature", "properties": { "visible_points": 0, "total_points": 78, "visibility_pct": 0.0 }, "geometry": { "type": "Point", "coordinates": [ 0.954666728477721, 51.198501042083244 ] } },
{ "type": "Feature", "properties": { "visible_points": 0, "total_points": 69, "visibility_pct": 0.0 }, "geometry": { "type": "Point", "coordinates": [ 0.954864777113721, 51.198496040194094 ] } },
{ "type": "Feature", "properties": { "visible_points": 1, "total_points": 59, "visibility_pct": 1.6949152542372881 }, "geometry": { "type": "Point", "coordinates": [ 0.95506282569279, 51.198491037970058 ] } },
{ "type": "Feature", "properties": { "visible_points": 0, "total_points": 55, "visibility_pct": 0.0 }, "geometry": { "type": "Point", "coordinates": [ 0.953782404355283, 51.198631307400873 ] } },
{ "type": "Feature", "properties": { "visible_points": 0, "total_points": 63, "visibility_pct": 0.0 }, "geometry": { "type": "Point", "coordinates": [ 0.953980453709204, 51.1986263069995 ] } },
{ "type": "Feature", "properties": { "visible_points": 0, "total_points": 71, "visibility_pct": 0.0 }, "geometry": { "type": "Point", "coordinates": [ 0.954178503006213, 51.198621306263242 ] } },
{ "type": "Feature", "properties": { "visible_points": 0, "total_points": 75, "visibility_pct": 0.0 }, "geometry": { "type": "Point", "coordinates": [ 0.954376552246287, 51.19861630519209 ] } },
{ "type": "Feature", "properties": { "visible_points": 5, "total_points": 74, "visibility_pct": 6.756756756756757 }, "geometry": { "type": "Point", "coordinates": [ 0.954574601429435, 51.19861130378608 ] } },
{ "type": "Feature", "properties": { "visible_points": 7, "total_points": 66, "visibility_pct": 10.606060606060606 }, "geometry": { "type": "Point", "coordinates": [ 0.954772650555649, 51.198606302045185 ] } },
{ "type": "Feature", "properties": { "visible_points": 6, "total_points": 57, "visibility_pct": 10.526315789473683 }, "geometry": { "type": "Point", "coordinates": [ 0.954970699624925, 51.198601299969397 ] } },
{ "type": "Feature", "properties": { "visible_points": 3, "total_points": 46, "visibility_pct": 6.5217391304347823 }, "geometry": { "type": "Point", "coordinates": [ 0.953690274912906, 51.198741568443523 ] } }
]
}
