{
"type": "FeatureCollection",
"name": "79919b39aaeb_visibility",
"crs": { "type": "name", "properties": { "name": "urn:ogc:def:crs:OGC:1.3:CRS84" } },
"features": [
{ "type": "Feature", "properties": { "visible_points": 30, "total_points": 74, "visibility_pct": 40.54054054054054 }, "geometry": { "type": "Point", "coordinates": [ 0.667738995704342, 51.14698218840774 ] } },
{ "type": "Feature", "properties": { "visible_points": 26, "total_points": 74, "visibility_pct": 35.135135135135137 }, "geometry": { "type": "Point", "coordinates": [ 0.667936871350326, 51.146977672368735 ] } },
{ "type": "Feature", "properties": { "visible_points": 5, "total_points": 71, "visibility_pct": 7.042253521126761 }, "geometry": { "type": "Point", "coordinates": [ 0.668134746945065, 51.146973155995298 ] } },
{ "type": "Feature", "properties": { "visible_points": 6, "total_points": 66, "visibility_pct": 9.0909090909090917 }, "geometry": { "type": "Point", "coordinates": [ 0.668332622488564, 51.146968639287365 ] } },
{ "type": "Feature", "properties": { "visible_points": 36, "total_points": 80, "visibility_pct": 45.0 }, "geometry": { "type": "Point", "coordinates": [ 0.66744839721968, 51.14709675128546 ] } },
{ "type": "Feature", "properties": { "visible_points": 32, "total_points": 85, "visibility_pct": 37.647058823529413 }, "geometry": { "type": "Point", "coordinates": [ 0.667646273402857, 51.147092235730511 ] } },
{ "type": "Feature", "properties": { "visible_points": 18, "total_points": 85, "visibility_pct": 21.176470588235293 }, "geometry": { "type": "Point", "coordinates": [ 0.667844149534792, 51.147087719841089 ] } },
{ "type": "Feature", "properties": { "visible_points": 19, "total_points": 84, "visibility_pct": 22.61904761904762 }, "geometry": { "type": "Point", "coordinates": [ 0.668042025615492, 51.1470832036172 ] } },
{ "type": "Feature", "properties": { "visible_points": 0, "total_points": 79, "visibility_pct": 0.0 }, "geometry": { "type": "Point", "coordinates": [ 0.668239901644947, 51.147078687058816 ] } },
{ "type": "Feature", "properties": { "visible_points": 0, "total_points": 71, "visibility_pct": 0.0 }, "geometry": { "type": "Point", "coordinates": [ 0.668437777623155, 51.147074170165993 ] } },
{ "type": "Feature", "properties": { "visible_points": 5, "total_points": 62, "visibility_pct": 8.064516129032258 }, "geometry": { "type": "Point", "coordinates": [ 0.668635653550112, 51.14706965293869 ] } },
{ "type": "Feature", "properties": { "visible_points": 21, "total_points": 65, "visibility_pct": 32.307692307692307 }, "geometry": { "type": "Point", "coordinates": [ 0.666959920505576, 51.147215828197503 ] } },
{ "type": "Feature", "properties": { "visible_points": 29, "total_points": 75, "visibility_pct": 38.666666666666664 }, "geometry": { "type": "Point", "coordinates": [ 0.66715779727717, 51.147211313461042 ] } },
{ "type": "Feature", "properties": { "visible_points": 36, "total_points": 85, "visibility_pct": 42.352941176470587 }, "geometry": { "type": "Point", "coordinates": [ 0.667355673997529, 51.147206798390151 ] } },
{ "type": "Feature", "properties": { "visible_points": 39, "total_points": 93, "visibility_pct": 41.935483870967744 }, "geometry": { "type": "Point", "coordinates": [ 0.66755355066666, 51.147202282984765 ] } },
{ "type": "Feature", "properties": { "visible_points": 19, "total_points": 97, "visibility_pct": 19.587628865979383 }, "geometry": { "type": "Point", "coordinates": [ 0.667751427284557, 51.147197767244911 ] } },
{ "type": "Feature", "properties": { "visible_points": 17, "total_points": 96, "visibility_pct": 17.708333333333336 }, "geometry": { "type": "Point", "coordinates": [ 0.667949303851216, 51.147193251170606 ] } },
{ "type": "Feature", "properties": { "visible_points": 16, "total_points": 89, "visibility_pct": 17.977528089887642 }, "geometry": { "type": "Point", "coordinates": [ 0.668147180366632, 51.147188734761798 ] } },
{ "type": "Feature", "properties": { "visible_points": 0, "total_points": 80, "visibility_pct": 0.0 }, "geometry": { "type": "Point", "coordinates": [ 0.668345056830805, 51.147184218018516 ] } },
{ "type": "Feature", "properties": { "visible_points": 0, "total_points": 70, "visibility_pct": 0.0 }, "geometry": { "type": "Point", "coordinates": [ 0.668542933243727, 51.147179700940782 ] } },
{ "type": "Feature", "properties": { "visible_points": 7, "total_points": 60, "visibility_pct": 11.666666666666666 }, "geometry": { "type": "Point", "coordinates": [ 0.668740809605393, 51.147175183528567 ] } },
{ "type": "Feature", "properties": { "visible_points": 16, "total_points": 66, "visibility_pct": 24.242424242424242 }, "geometry": { "type": "Point", "coordinates": [ 0.666867195876801, 51.147325874934545 ] } },
{ "type": "Feature", "properties": { "visible_points": 28, "total_points": 77, "visibility_pct": 36.363636363636367 }, "geometry": { "type": "Point", "coordinates": [ 0.667065073134346, 51.147321360347682 ] } },
{ "type": "Feature", "properties": { "visible_points": 33, "total_points": 88, "visibility_pct": 37.5 }, "geometry": { "type": "Point", "coordinates": [ 0.667262950340665, 51.147316845426339 ] } },
{ "type": "Feature", "properties": { "visible_points": 34, "total_points": 98, "visibility_pct": 34.693877551020407 }, "geometry": { "type": "Point", "coordinates": [ 0.667460827495758, 51.147312330170521 ] } },
{ "type": "Feature", "properties": { "visible_points": 21, "total_points": 105, "visibility_pct": 20.0 }, "geometry": { "type": "Point", "coordinates": [ 0.667658704599612, 51.147307814580238 ] } },
{ "type": "Feature", "properties": { "visible_points": 20, "total_points": 105, "visibility_pct": 19.047619047619047 }, "geometry": { "type": "Point", "coordinates": [ 0.667856581652234, 51.147303298655494 ] } },
{ "type": "Feature", "properties": { "visible_points": 16, "total_points": 99, "visibility_pct": 16.161616161616163 }, "geometry": { "type": "Point", "coordinates": [ 0.668054458653617, 51.147298782396241 ] } },
{ "type": "Feature", "properties": { "visible_points": 16, "total_points": 89, "visibility_pct": 17.977528089887642 }, "geometry": { "type": "Point", "coordinates": [ 0.668252335603751, 51.147294265802529 ] } },
{ "type": "Feature", "properties": { "visible_points": 3, "total_points": 78, "visibility_pct": 3.8461538461538463 }, "geometry": { "type": "Point", "coordinates": [ 0.668450212502641, 51.147289748874364 ] } },
{ "type": "Feature", "properties": { "visible_points": 4, "total_points": 67, "visibility_pct": 5.9701492537313428 }, "geometry": { "type": "Point", "coordinates": [ 0.668648089350274, 51.147285231611711 ] } },
{ "type": "Feature", "properties": { "visible_points": 0, "total_points": 56, "visibility_pct": 0.0 }, "geometry": { "type": "Point", "coordinates": [ 0.668845966146659, 51.147280714014578 ] } },
{ "type": "Feature", "properties": { "visible_points": 23, "total_points": 77, "visibility_pct": 29.870129870129869 }, "geometry": { "type": "Point", "coordinates": [ 0.666972348556806, 51.147431407165769 ] } },
{ "type": "Feature", "properties": { "visible_points": 26, "total_points": 89, "visibility_pct": 29.213483146067414 }, "geometry": { "type": "Point", "coordinates": [ 0.667170226249085, 51.147426892393995 ] } },
{ "type": "Feature", "properties": { "visible_points": 29, "total_points": 100, "visibility_pct": 28.999999999999996 }, "geometry": { "type": "Point", "coordinates": [ 0.667368103890139, 51.147422377287775 ] } },
{ "type": "Feature", "properties": { "visible_points": 36, "total_points": 108, "visibility_pct": 33.333333333333329 }, "geometry": { "type": "Point", "coordinates": [ 0.667565981479957, 51.147417861847046 ] } },
{ "type": "Feature", "properties": { "visible_points": 26, "total_points": 111, "visibility_pct": 23.423423423423422 }, "geometry": { "type": "Point", "coordinates": [ 0.667763859018542, 51.147413346071858 ] } },
{ "type": "Feature", "properties": { "visible_points": 20, "total_points": 109, "visibility_pct": 18.348623853211009 }, "geometry": { "type": "Point", "coordinates": [ 0.667961736505894, 51.147408829962195 ] } },
{ "type": "Feature", "properties": { "visible_points": 2, "total_points": 99, "visibility_pct": 2.0202020202020203 }, "geometry": { "type": "Point", "coordinates": [ 0.668159613941994, 51.147404313518052 ] } },
{ "type": "Feature", "properties": { "visible_points": 13, "total_points": 87, "visibility_pct": 14.942528735632186 }, "geometry": { "type": "Point", "coordinates": [ 0.668357491326852, 51.147399796739435 ] } },
{ "type": "Feature", "properties": { "visible_points": 8, "total_points": 74, "visibility_pct": 10.810810810810811 }, "geometry": { "type": "Point", "coordinates": [ 0.668555368660459, 51.147395279626359 ] } },
{ "type": "Feature", "properties": { "visible_points": 4, "total_points": 61, "visibility_pct": 6.557377049180328 }, "geometry": { "type": "Point", "coordinates": [ 0.668753245942812, 51.147390762178802 ] } },
{ "type": "Feature", "properties": { "visible_points": 4, "total_points": 49, "visibility_pct": 8.1632653061224492 }, "geometry": { "type": "Point", "coordinates": [ 0.668951123173906, 51.147386244396763 ] } },
{ "type": "Feature", "properties": { "visible_points": 19, "total_points": 74, "visibility_pct": 25.675675675675674 }, "geometry": { "type": "Point", "coordinates": [ 0.666879623544542, 51.147541453915366 ] } },
{ "type": "Feature", "properties": { "visible_points": 21, "total_points": 87, "visibility_pct": 24.137931034482758 }, "geometry": { "type": "Point", "coordinates": [ 0.667077501722787, 51.147536939293175 ] } },
{ "type": "Feature", "properties": { "visible_points": 21, "total_points": 100, "visibility_pct": 21.0 }, "geometry": { "type": "Point", "coordinates": [ 0.6672753798498, 51.147532424336504 ] } },
{ "type": "Feature", "properties": { "visible_points": 0, "total_points": 110, "visibility_pct": 0.0 }, "geometry": { "type": "Point", "coordinates": [ 0.667473257925589, 51.147527909045358 ] } },
{ "type": "Feature", "properties": { "visible_points": 33, "total_points": 114, "visibility_pct": 28.947368421052634 }, "geometry": { "type": "Point", "coordinates": [ 0.667671135950141, 51.147523393419725 ] } },
{ "type": "Feature", "properties": { "visible_points": 31, "total_points": 111, "visibility_pct": 27.927927927927925 }, "geometry": { "type": "Point", "coordinates": [ 0.667869013923457, 51.147518877459639 ] } },
{ "type": "Feature", "properties": { "visible_points": 34, "total_points": 104, "visibility_pct": 32.692307692307693 }, "geometry": { "type": "Point", "coordinates": [ 0.66806689184553, 51.147514361165072 ] } },
{ "type": "Feature", "properties": { "visible_points": 26, "total_points": 93, "visibility_pct": 27.956989247311824 }, "geometry": { "type": "Point", "coordinates": [ 0.668264769716357, 51.147509844536017 ] } },
{ "type": "Feature", "properties": { "visible_points": 22, "total_points": 80, "visibility_pct": 27.5 }, "geometry": { "type": "Point", "coordinates": [ 0.668462647535937, 51.147505327572496 ] } },
{ "type": "Feature", "properties": { "visible_points": 15, "total_points": 67, "visibility_pct": 22.388059701492537 }, "geometry": { "type": "Point", "coordinates": [ 0.668660525304266, 51.147500810274494 ] } },
{ "type": "Feature", "properties": { "visible_points": 17, "total_points": 83, "visibility_pct": 20.481927710843372 }, "geometry": { "type": "Point", "coordinates": [ 0.666984776761761, 51.147646986123817 ] } },
{ "type": "Feature", "properties": { "visible_points": 9, "total_points": 96, "visibility_pct": 9.375 }, "geometry": { "type": "Point", "coordinates": [ 0.667182655374744, 51.147642471316722 ] } },
{ "type": "Feature", "properties": { "visible_points": 13, "total_points": 107, "visibility_pct": 12.149532710280374 }, "geometry": { "type": "Point", "coordinates": [ 0.667380533936501, 51.147637956175153 ] } },
{ "type": "Feature", "properties": { "visible_points": 0, "total_points": 113, "visibility_pct": 0.0 }, "geometry": { "type": "Point", "coordinates": [ 0.667578412447021, 51.147633440699089 ] } },
{ "type": "Feature", "properties": { "visible_points": 32, "total_points": 110, "visibility_pct": 29.09090909090909 }, "geometry": { "type": "Point", "coordinates": [ 0.667776290906308, 51.147628924888572 ] } },
{ "type": "Feature", "properties": { "visible_points": 36, "total_points": 104, "visibility_pct": 34.615384615384613 }, "geometry": { "type": "Point", "coordinates": [ 0.667974169314351, 51.14762440874356 ] } },
{ "type": "Feature", "properties": { "visible_points": 32, "total_points": 95, "visibility_pct": 33.684210526315788 }, "geometry": { "type": "Point", "coordinates": [ 0.668172047671157, 51.147619892264082 ] } },
{ "type": "Feature", "properties": { "visible_points": 13, "total_points": 76, "visibility_pct": 17.105263157894736 }, "geometry": { "type": "Point", "coordinates": [ 0.666892051366011, 51.147757032885949 ] } },
{ "type": "Feature", "properties": { "visible_points": 14, "total_points": 89, "visibility_pct": 15.730337078651685 }, "geometry": { "type": "Point", "coordinates": [ 0.667089930464962, 51.147752518228437 ] } },
{ "type": "Feature", "properties": { "visible_points": 10, "total_points": 99, "visibility_pct": 10.1010101010101 }, "geometry": { "type": "Point", "coordinates": [ 0.667287809512686, 51.147748003236444 ] } },
{ "type": "Feature", "properties": { "visible_points": 22, "total_points": 107, "visibility_pct": 20.5607476635514 }, "geometry": { "type": "Point", "coordinates": [ 0.667485688509184, 51.147743487909956 ] } },
{ "type": "Feature", "properties": { "visible_points": 28, "total_points": 110, "visibility_pct": 25.454545454545453 }, "geometry": { "type": "Point", "coordinates": [ 0.667683567454438, 51.147738972249002 ] } },
{ "type": "Feature", "properties": { "visible_points": 31, "total_points": 103, "visibility_pct": 30.097087378640776 }, "geometry": { "type": "Point", "coordinates": [ 0.667881446348458, 51.147734456253566 ] } },
{ "type": "Feature", "properties": { "visible_points": 15, "total_points": 78, "visibility_pct": 19.230769230769234 }, "geometry": { "type": "Point", "coordinates": [ 0.666997205120451, 51.14786256507162 ] } },
{ "type": "Feature", "properties": { "visible_points": 6, "total_points": 88, "visibility_pct": 6.8181818181818175 }, "geometry": { "type": "Point", "coordinates": [ 0.667195084654147, 51.147858050229196 ] } },
{ "type": "Feature", "properties": { "visible_points": 2, "total_points": 96, "visibility_pct": 2.083333333333333 }, "geometry": { "type": "Point", "coordinates": [ 0.667392964136616, 51.147853535052292 ] } },
{ "type": "Feature", "properties": { "visible_points": 16, "total_points": 99, "visibility_pct": 16.161616161616163 }, "geometry": { "type": "Point", "coordinates": [ 0.667590843567847, 51.147849019540921 ] } },
{ "type": "Feature", "properties": { "visible_points": 17, "total_points": 77, "visibility_pct": 22.077922077922079 }, "geometry": { "type": "Point", "coordinates": [ 0.66710235936088, 51.147968097153459 ] } },
{ "type": "Feature", "properties": { "visible_points": 13, "total_points": 84, "visibility_pct": 15.476190476190476 }, "geometry": { "type": "Point", "coordinates": [ 0.66730023932932, 51.147963582126124 ] } },
{ "type": "Feature", "properties": { "visible_points": 12, "total_points": 87, "visibility_pct": 13.793103448275861 }, "geometry": { "type": "Point", "coordinates": [ 0.667498119246535, 51.147959066764308 ] } },
{ "type": "Feature", "properties": { "visible_points": 20, "total_points": 88, "visibility_pct": 22.727272727272727 }, "geometry": { "type": "Point", "coordinates": [ 0.667695999112508, 51.147954551068018 ] } },
{ "type": "Feature", "properties": { "visible_points": 15, "total_points": 73, "visibility_pct": 20.547945205479451 }, "geometry": { "type": "Point", "coordinates": [ 0.667207514087301, 51.148073629131446 ] } },
{ "type": "Feature", "properties": { "visible_points": 17, "total_points": 76, "visibility_pct": 22.368421052631579 }, "geometry": { "type": "Point", "coordinates": [ 0.667405394490485, 51.148069113919206 ] } },
{ "type": "Feature", "properties": { "visible_points": 3, "total_points": 77, "visibility_pct": 3.8961038961038961 }, "geometry": { "type": "Point", "coordinates": [ 0.667603274842449, 51.148064598372486 ] } },
{ "type": "Feature", "properties": { "visible_points": 11, "total_points": 76, "visibility_pct": 14.473684210526317 }, "geometry": { "type": "Point", "coordinates": [ 0.667801155143166, 51.14806008249127 ] } },
{ "type": "Feature", "properties": { "visible_points": 16, "total_points": 62, "visibility_pct": 25.806451612903224 }, "geometry": { "type": "Point", "coordinates": [ 0.667114788410538, 51.148183676068243 ] } },
{ "type": "Feature", "properties": { "visible_points": 18, "total_points": 66, "visibility_pct": 27.27272727272727 }, "geometry": { "type": "Point", "coordinates": [ 0.66731266929971, 51.148179161005586 ] } },
{ "type": "Feature", "properties": { "visible_points": 15, "total_points": 67, "visibility_pct": 22.388059701492537 }, "geometry": { "type": "Point", "coordinates": [ 0.667510550137654, 51.148174645608428 ] } },
{ "type": "Feature", "properties": { "visible_points": 0, "total_points": 66, "visibility_pct": 0.0 }, "geometry": { "type": "Point", "coordinates": [ 0.667708430924357, 51.148170129876796 ] } },
{ "type": "Feature", "properties": { "visible_points": 5, "total_points": 64, "visibility_pct": 7.8125 }, "geometry": { "type": "Point", "coordinates": [ 0.667906311659824, 51.148165613810697 ] } },
{ "type": "Feature", "properties": { "visible_points": 9, "total_points": 56, "visibility_pct": 16.071428571428573 }, "geometry": { "type": "Point", "coordinates": [ 0.667219943674199, 51.148289208023435 ] } },
{ "type": "Feature", "properties": { "visible_points": 13, "total_points": 58, "visibility_pct": 22.413793103448278 }, "geometry": { "type": "Point", "coordinates": [ 0.667417824998122, 51.148284692775867 ] } },
{ "type": "Feature", "properties": { "visible_points": 5, "total_points": 57, "visibility_pct": 8.7719298245614024 }, "geometry": { "type": "Point", "coordinates": [ 0.667615706270815, 51.148280177193811 ] } },
{ "type": "Feature", "properties": { "visible_points": 4, "total_points": 55, "visibility_pct": 7.2727272727272725 }, "geometry": { "type": "Point", "coordinates": [ 0.667813587492271, 51.148275661277275 ] } }
]
}
