{
"type": "FeatureCollection",
"name": "a03fe71a3e4d_visibility",
"crs": { "type": "name", "properties": { "name": "urn:ogc:def:crs:OGC:1.3:CRS84" } },
"features": [
{ "type": "Feature", "properties": { "visible_points": 10, "total_points": 75, "visibility_pct": 13.333333333333334 }, "geometry": { "type": "Point", "coordinates": [ 0.859281580820371, 51.213611521957233 ] } },
{ "type": "Feature", "properties": { "visible_points": 3, "total_points": 73, "visibility_pct": 4.10958904109589 }, "geometry": { "type": "Point", "coordinates": [ 0.859479709588257, 51.213606682856934 ] } },
{ "type": "Feature", "properties": { "visible_points": 8, "total_points": 68, "visibility_pct": 11.76470588235294 }, "geometry": { "type": "Point", "coordinates": [ 0.859677838301181, 51.213601843421486 ] } },
{ "type": "Feature", "properties": { "visible_points": 0, "total_points": 61, "visibility_pct": 0.0 }, "geometry": { "type": "Point", "coordinates": [ 0.859875966959132, 51.213597003650897 ] } },
{ "type": "Feature", "properties": { "visible_points": 8, "total_points": 57, "visibility_pct": 14.035087719298245 }, "geometry": { "type": "Point", "coordinates": [ 0.858594808094501, 51.213736227427823 ] } },
{ "type": "Feature", "properties": { "visible_points": 9, "total_points": 67, "visibility_pct": 13.432835820895523 }, "geometry": { "type": "Point", "coordinates": [ 0.858792937514944, 51.2137313894819 ] } },
{ "type": "Feature", "properties": { "visible_points": 0, "total_points": 77, "visibility_pct": 0.0 }, "geometry": { "type": "Point", "coordinates": [ 0.858991066880434, 51.213726551200821 ] } },
{ "type": "Feature", "properties": { "visible_points": 36, "total_points": 85, "visibility_pct": 42.352941176470587 }, "geometry": { "type": "Point", "coordinates": [ 0.859189196190967, 51.213721712584608 ] } },
{ "type": "Feature", "properties": { "visible_points": 37, "total_points": 86, "visibility_pct": 43.02325581395349 }, "geometry": { "type": "Point", "coordinates": [ 0.859387325446536, 51.21371687363326 ] } },
{ "type": "Feature", "properties": { "visible_points": 37, "total_points": 81, "visibility_pct": 45.679012345679013 }, "geometry": { "type": "Point", "coordinates": [ 0.859585454647137, 51.213712034346784 ] } },
{ "type": "Feature", "properties": { "visible_points": 34, "total_points": 74, "visibility_pct": 45.945945945945951 }, "geometry": { "type": "Point", "coordinates": [ 0.859783583792774, 51.213707194725139 ] } },
{ "type": "Feature", "properties": { "visible_points": 0, "total_points": 66, "visibility_pct": 0.0 }, "geometry": { "type": "Point", "coordinates": [ 0.859981712883429, 51.21370235476838 ] } },
{ "type": "Feature", "properties": { "visible_points": 0, "total_points": 68, "visibility_pct": 0.0 }, "geometry": { "type": "Point", "coordinates": [ 0.858700551477473, 51.213841579743587 ] } },
{ "type": "Feature", "properties": { "visible_points": 36, "total_points": 79, "visibility_pct": 45.569620253164558 }, "geometry": { "type": "Point", "coordinates": [ 0.858898681330639, 51.213836741611466 ] } },
{ "type": "Feature", "properties": { "visible_points": 41, "total_points": 89, "visibility_pct": 46.067415730337082 }, "geometry": { "type": "Point", "coordinates": [ 0.859096811128855, 51.213831903144211 ] } },
{ "type": "Feature", "properties": { "visible_points": 43, "total_points": 97, "visibility_pct": 44.329896907216494 }, "geometry": { "type": "Point", "coordinates": [ 0.859294940872108, 51.213827064341814 ] } },
{ "type": "Feature", "properties": { "visible_points": 44, "total_points": 94, "visibility_pct": 46.808510638297875 }, "geometry": { "type": "Point", "coordinates": [ 0.859493070560391, 51.213822225204275 ] } },
{ "type": "Feature", "properties": { "visible_points": 43, "total_points": 87, "visibility_pct": 49.425287356321839 }, "geometry": { "type": "Point", "coordinates": [ 0.859691200193711, 51.213817385731595 ] } },
{ "type": "Feature", "properties": { "visible_points": 36, "total_points": 79, "visibility_pct": 45.569620253164558 }, "geometry": { "type": "Point", "coordinates": [ 0.859889329772058, 51.213812545923787 ] } },
{ "type": "Feature", "properties": { "visible_points": 5, "total_points": 67, "visibility_pct": 7.4626865671641784 }, "geometry": { "type": "Point", "coordinates": [ 0.858608165007285, 51.213951769937474 ] } },
{ "type": "Feature", "properties": { "visible_points": 37, "total_points": 79, "visibility_pct": 46.835443037974684 }, "geometry": { "type": "Point", "coordinates": [ 0.858806295348134, 51.213946931954318 ] } },
{ "type": "Feature", "properties": { "visible_points": 42, "total_points": 91, "visibility_pct": 46.153846153846153 }, "geometry": { "type": "Point", "coordinates": [ 0.859004425634028, 51.213942093636021 ] } },
{ "type": "Feature", "properties": { "visible_points": 46, "total_points": 102, "visibility_pct": 45.098039215686278 }, "geometry": { "type": "Point", "coordinates": [ 0.859202555864968, 51.213937254982582 ] } },
{ "type": "Feature", "properties": { "visible_points": 49, "total_points": 107, "visibility_pct": 45.794392523364486 }, "geometry": { "type": "Point", "coordinates": [ 0.859400686040939, 51.213932415994002 ] } },
{ "type": "Feature", "properties": { "visible_points": 49, "total_points": 100, "visibility_pct": 49.0 }, "geometry": { "type": "Point", "coordinates": [ 0.859598816161943, 51.21392757667028 ] } },
{ "type": "Feature", "properties": { "visible_points": 48, "total_points": 92, "visibility_pct": 52.173913043478258 }, "geometry": { "type": "Point", "coordinates": [ 0.859796946227979, 51.213922737011401 ] } },
{ "type": "Feature", "properties": { "visible_points": 13, "total_points": 82, "visibility_pct": 15.853658536585366 }, "geometry": { "type": "Point", "coordinates": [ 0.859995076239039, 51.213917897017389 ] } },
{ "type": "Feature", "properties": { "visible_points": 9, "total_points": 77, "visibility_pct": 11.688311688311687 }, "geometry": { "type": "Point", "coordinates": [ 0.858713908932909, 51.214057122229363 ] } },
{ "type": "Feature", "properties": { "visible_points": 47, "total_points": 89, "visibility_pct": 52.80898876404494 }, "geometry": { "type": "Point", "coordinates": [ 0.858912039706493, 51.214052284060031 ] } },
{ "type": "Feature", "properties": { "visible_points": 51, "total_points": 102, "visibility_pct": 50.0 }, "geometry": { "type": "Point", "coordinates": [ 0.859110170425111, 51.214047445555558 ] } },
{ "type": "Feature", "properties": { "visible_points": 55, "total_points": 113, "visibility_pct": 48.672566371681413 }, "geometry": { "type": "Point", "coordinates": [ 0.859308301088772, 51.214042606715935 ] } },
{ "type": "Feature", "properties": { "visible_points": 56, "total_points": 112, "visibility_pct": 50.0 }, "geometry": { "type": "Point", "coordinates": [ 0.859506431697469, 51.21403776754115 ] } },
{ "type": "Feature", "properties": { "visible_points": 55, "total_points": 105, "visibility_pct": 52.380952380952387 }, "geometry": { "type": "Point", "coordinates": [ 0.859704562251195, 51.21403292803123 ] } },
{ "type": "Feature", "properties": { "visible_points": 50, "total_points": 95, "visibility_pct": 52.631578947368418 }, "geometry": { "type": "Point", "coordinates": [ 0.859902692749949, 51.214028088186176 ] } },
{ "type": "Feature", "properties": { "visible_points": 0, "total_points": 83, "visibility_pct": 0.0 }, "geometry": { "type": "Point", "coordinates": [ 0.860100823193724, 51.214023248005979 ] } },
{ "type": "Feature", "properties": { "visible_points": 0, "total_points": 87, "visibility_pct": 0.0 }, "geometry": { "type": "Point", "coordinates": [ 0.858819653346233, 51.214162474416248 ] } },
{ "type": "Feature", "properties": { "visible_points": 54, "total_points": 100, "visibility_pct": 54.0 }, "geometry": { "type": "Point", "coordinates": [ 0.859017784552543, 51.214157636060733 ] } },
{ "type": "Feature", "properties": { "visible_points": 57, "total_points": 110, "visibility_pct": 51.81818181818182 }, "geometry": { "type": "Point", "coordinates": [ 0.859215915703893, 51.214152797370062 ] } },
{ "type": "Feature", "properties": { "visible_points": 61, "total_points": 117, "visibility_pct": 52.136752136752143 }, "geometry": { "type": "Point", "coordinates": [ 0.85941404680028, 51.214147958344249 ] } },
{ "type": "Feature", "properties": { "visible_points": 62, "total_points": 112, "visibility_pct": 55.357142857142861 }, "geometry": { "type": "Point", "coordinates": [ 0.8596121778417, 51.21414311898328 ] } },
{ "type": "Feature", "properties": { "visible_points": 60, "total_points": 103, "visibility_pct": 58.252427184466015 }, "geometry": { "type": "Point", "coordinates": [ 0.859810308828151, 51.214138279287184 ] } },
{ "type": "Feature", "properties": { "visible_points": 11, "total_points": 92, "visibility_pct": 11.956521739130435 }, "geometry": { "type": "Point", "coordinates": [ 0.860008439759618, 51.214133439255932 ] } },
{ "type": "Feature", "properties": { "visible_points": 0, "total_points": 80, "visibility_pct": 0.0 }, "geometry": { "type": "Point", "coordinates": [ 0.860206570636113, 51.214128598889538 ] } },
{ "type": "Feature", "properties": { "visible_points": 14, "total_points": 80, "visibility_pct": 17.5 }, "geometry": { "type": "Point", "coordinates": [ 0.858727266553243, 51.214272664704687 ] } },
{ "type": "Feature", "properties": { "visible_points": 54, "total_points": 92, "visibility_pct": 58.695652173913047 }, "geometry": { "type": "Point", "coordinates": [ 0.858925398247251, 51.214267826498123 ] } },
{ "type": "Feature", "properties": { "visible_points": 60, "total_points": 104, "visibility_pct": 57.692307692307686 }, "geometry": { "type": "Point", "coordinates": [ 0.859123529886294, 51.21426298795641 ] } },
{ "type": "Feature", "properties": { "visible_points": 65, "total_points": 113, "visibility_pct": 57.522123893805308 }, "geometry": { "type": "Point", "coordinates": [ 0.859321661470376, 51.214258149079555 ] } },
{ "type": "Feature", "properties": { "visible_points": 67, "total_points": 117, "visibility_pct": 57.26495726495726 }, "geometry": { "type": "Point", "coordinates": [ 0.859519792999491, 51.214253309867544 ] } },
{ "type": "Feature", "properties": { "visible_points": 67, "total_points": 110, "visibility_pct": 60.909090909090914 }, "geometry": { "type": "Point", "coordinates": [ 0.859717924473635, 51.214248470320385 ] } },
{ "type": "Feature", "properties": { "visible_points": 65, "total_points": 100, "visibility_pct": 65.0 }, "geometry": { "type": "Point", "coordinates": [ 0.859916055892805, 51.214243630438098 ] } },
{ "type": "Feature", "properties": { "visible_points": 0, "total_points": 88, "visibility_pct": 0.0 }, "geometry": { "type": "Point", "coordinates": [ 0.860114187257, 51.214238790220655 ] } },
{ "type": "Feature", "properties": { "visible_points": 14, "total_points": 84, "visibility_pct": 16.666666666666664 }, "geometry": { "type": "Point", "coordinates": [ 0.858833011509234, 51.214378016867705 ] } },
{ "type": "Feature", "properties": { "visible_points": 59, "total_points": 96, "visibility_pct": 61.458333333333336 }, "geometry": { "type": "Point", "coordinates": [ 0.859031143635973, 51.214373178474951 ] } },
{ "type": "Feature", "properties": { "visible_points": 67, "total_points": 107, "visibility_pct": 62.616822429906534 }, "geometry": { "type": "Point", "coordinates": [ 0.85922927570775, 51.214368339747061 ] } },
{ "type": "Feature", "properties": { "visible_points": 71, "total_points": 115, "visibility_pct": 61.739130434782609 }, "geometry": { "type": "Point", "coordinates": [ 0.859427407724561, 51.214363500684016 ] } },
{ "type": "Feature", "properties": { "visible_points": 74, "total_points": 116, "visibility_pct": 63.793103448275865 }, "geometry": { "type": "Point", "coordinates": [ 0.85962553968641, 51.214358661285821 ] } },
{ "type": "Feature", "properties": { "visible_points": 70, "total_points": 108, "visibility_pct": 64.81481481481481 }, "geometry": { "type": "Point", "coordinates": [ 0.85982367159328, 51.214353821552471 ] } },
{ "type": "Feature", "properties": { "visible_points": 65, "total_points": 97, "visibility_pct": 67.010309278350505 }, "geometry": { "type": "Point", "coordinates": [ 0.860021803445176, 51.214348981483973 ] } },
{ "type": "Feature", "properties": { "visible_points": 0, "total_points": 87, "visibility_pct": 0.0 }, "geometry": { "type": "Point", "coordinates": [ 0.860219935242093, 51.214344141080339 ] } },
{ "type": "Feature", "properties": { "visible_points": 3, "total_points": 87, "visibility_pct": 3.4482758620689653 }, "geometry": { "type": "Point", "coordinates": [ 0.858938756952922, 51.21448336892572 ] } },
{ "type": "Feature", "properties": { "visible_points": 64, "total_points": 99, "visibility_pct": 64.646464646464651 }, "geometry": { "type": "Point", "coordinates": [ 0.859136889512401, 51.214478530346774 ] } },
{ "type": "Feature", "properties": { "visible_points": 70, "total_points": 109, "visibility_pct": 64.22018348623854 }, "geometry": { "type": "Point", "coordinates": [ 0.859335022016912, 51.21447369143268 ] } },
{ "type": "Feature", "properties": { "visible_points": 74, "total_points": 117, "visibility_pct": 63.247863247863243 }, "geometry": { "type": "Point", "coordinates": [ 0.859533154466462, 51.214468852183458 ] } },
{ "type": "Feature", "properties": { "visible_points": 73, "total_points": 114, "visibility_pct": 64.035087719298247 }, "geometry": { "type": "Point", "coordinates": [ 0.859731286861039, 51.214464012599066 ] } },
{ "type": "Feature", "properties": { "visible_points": 70, "total_points": 105, "visibility_pct": 66.666666666666657 }, "geometry": { "type": "Point", "coordinates": [ 0.859929419200635, 51.214459172679518 ] } },
{ "type": "Feature", "properties": { "visible_points": 58, "total_points": 96, "visibility_pct": 60.416666666666664 }, "geometry": { "type": "Point", "coordinates": [ 0.860127551485259, 51.214454332424829 ] } },
{ "type": "Feature", "properties": { "visible_points": 0, "total_points": 87, "visibility_pct": 0.0 }, "geometry": { "type": "Point", "coordinates": [ 0.860325683714897, 51.214449491835012 ] } },
{ "type": "Feature", "properties": { "visible_points": 48, "total_points": 91, "visibility_pct": 52.747252747252752 }, "geometry": { "type": "Point", "coordinates": [ 0.859044502884321, 51.214588720878716 ] } },
{ "type": "Feature", "properties": { "visible_points": 66, "total_points": 102, "visibility_pct": 64.705882352941174 }, "geometry": { "type": "Point", "coordinates": [ 0.859242635876542, 51.214583882113587 ] } },
{ "type": "Feature", "properties": { "visible_points": 68, "total_points": 111, "visibility_pct": 61.261261261261254 }, "geometry": { "type": "Point", "coordinates": [ 0.85944076881379, 51.214579043013295 ] } },
{ "type": "Feature", "properties": { "visible_points": 69, "total_points": 118, "visibility_pct": 58.474576271186443 }, "geometry": { "type": "Point", "coordinates": [ 0.859638901696072, 51.214574203577875 ] } },
{ "type": "Feature", "properties": { "visible_points": 69, "total_points": 111, "visibility_pct": 62.162162162162161 }, "geometry": { "type": "Point", "coordinates": [ 0.859837034523379, 51.214569363807271 ] } },
{ "type": "Feature", "properties": { "visible_points": 66, "total_points": 104, "visibility_pct": 63.46153846153846 }, "geometry": { "type": "Point", "coordinates": [ 0.86003516729571, 51.21456452370154 ] } },
{ "type": "Feature", "properties": { "visible_points": 54, "total_points": 96, "visibility_pct": 56.25 }, "geometry": { "type": "Point", "coordinates": [ 0.86023330001306, 51.214559683260653 ] } },
{ "type": "Feature", "properties": { "visible_points": 14, "total_points": 82, "visibility_pct": 17.073170731707318 }, "geometry": { "type": "Point", "coordinates": [ 0.858952115823513, 51.214698911342829 ] } },
{ "type": "Feature", "properties": { "visible_points": 58, "total_points": 94, "visibility_pct": 61.702127659574465 }, "geometry": { "type": "Point", "coordinates": [ 0.859150249303436, 51.214694072726672 ] } },
{ "type": "Feature", "properties": { "visible_points": 65, "total_points": 105, "visibility_pct": 61.904761904761905 }, "geometry": { "type": "Point", "coordinates": [ 0.859348382728391, 51.214689233775353 ] } },
{ "type": "Feature", "properties": { "visible_points": 66, "total_points": 114, "visibility_pct": 57.894736842105267 }, "geometry": { "type": "Point", "coordinates": [ 0.85954651609838, 51.214684394488877 ] } },
{ "type": "Feature", "properties": { "visible_points": 68, "total_points": 117, "visibility_pct": 58.119658119658126 }, "geometry": { "type": "Point", "coordinates": [ 0.859744649413402, 51.21467955486726 ] } },
{ "type": "Feature", "properties": { "visible_points": 70, "total_points": 111, "visibility_pct": 63.063063063063062 }, "geometry": { "type": "Point", "coordinates": [ 0.859942782673443, 51.214674714910473 ] } },
{ "type": "Feature", "properties": { "visible_points": 65, "total_points": 104, "visibility_pct": 62.5 }, "geometry": { "type": "Point", "coordinates": [ 0.860140915878501, 51.214669874618551 ] } },
{ "type": "Feature", "properties": { "visible_points": 44, "total_points": 97, "visibility_pct": 45.360824742268044 }, "geometry": { "type": "Point", "coordinates": [ 0.86033904902858, 51.214665033991466 ] } },
{ "type": "Feature", "properties": { "visible_points": 12, "total_points": 85, "visibility_pct": 14.117647058823529 }, "geometry": { "type": "Point", "coordinates": [ 0.859057862297599, 51.214804263271979 ] } },
{ "type": "Feature", "properties": { "visible_points": 58, "total_points": 97, "visibility_pct": 59.793814432989691 }, "geometry": { "type": "Point", "coordinates": [ 0.859255996210265, 51.214799424469625 ] } },
{ "type": "Feature", "properties": { "visible_points": 64, "total_points": 108, "visibility_pct": 59.259259259259252 }, "geometry": { "type": "Point", "coordinates": [ 0.859454130067962, 51.214794585332108 ] } },
{ "type": "Feature", "properties": { "visible_points": 67, "total_points": 116, "visibility_pct": 57.758620689655174 }, "geometry": { "type": "Point", "coordinates": [ 0.859652263870693, 51.214789745859434 ] } },
{ "type": "Feature", "properties": { "visible_points": 68, "total_points": 116, "visibility_pct": 58.620689655172406 }, "geometry": { "type": "Point", "coordinates": [ 0.859850397618448, 51.214784906051619 ] } },
{ "type": "Feature", "properties": { "visible_points": 70, "total_points": 111, "visibility_pct": 63.063063063063062 }, "geometry": { "type": "Point", "coordinates": [ 0.860048531311224, 51.214780065908649 ] } },
{ "type": "Feature", "properties": { "visible_points": 59, "total_points": 105, "visibility_pct": 56.19047619047619 }, "geometry": { "type": "Point", "coordinates": [ 0.860246664949018, 51.214775225430508 ] } },
{ "type": "Feature", "properties": { "visible_points": 0, "total_points": 99, "visibility_pct": 0.0 }, "geometry": { "type": "Point", "coordinates": [ 0.860444798531828, 51.214770384617239 ] } },
{ "type": "Feature", "properties": { "visible_points": 0, "total_points": 89, "visibility_pct": 0.0 }, "geometry": { "type": "Point", "coordinates": [ 0.859163609259401, 51.214909615096097 ] } },
{ "type": "Feature", "properties": { "visible_points": 58, "total_points": 101, "visibility_pct": 57.42574257425742 }, "geometry": { "type": "Point", "coordinates": [ 0.859361743604815, 51.214904776107531 ] } },
{ "type": "Feature", "properties": { "visible_points": 66, "total_points": 110, "visibility_pct": 60.0 }, "geometry": { "type": "Point", "coordinates": [ 0.859559877895254, 51.214899936783823 ] } },
{ "type": "Feature", "properties": { "visible_points": 71, "total_points": 117, "visibility_pct": 60.683760683760681 }, "geometry": { "type": "Point", "coordinates": [ 0.859758012130729, 51.214895097124959 ] } },
{ "type": "Feature", "properties": { "visible_points": 70, "total_points": 116, "visibility_pct": 60.344827586206897 }, "geometry": { "type": "Point", "coordinates": [ 0.859956146311219, 51.214890257130946 ] } },
{ "type": "Feature", "properties": { "visible_points": 68, "total_points": 112, "visibility_pct": 60.714285714285708 }, "geometry": { "type": "Point", "coordinates": [ 0.860154280436734, 51.214885416801764 ] } },
{ "type": "Feature", "properties": { "visible_points": 59, "total_points": 107, "visibility_pct": 55.140186915887845 }, "geometry": { "type": "Point", "coordinates": [ 0.860352414507263, 51.214880576137446 ] } },
{ "type": "Feature", "properties": { "visible_points": 28, "total_points": 101, "visibility_pct": 27.722772277227726 }, "geometry": { "type": "Point", "coordinates": [ 0.860550548522804, 51.214875735137966 ] } },
{ "type": "Feature", "properties": { "visible_points": 15, "total_points": 81, "visibility_pct": 18.518518518518519 }, "geometry": { "type": "Point", "coordinates": [ 0.859071221875798, 51.215019805654762 ] } },
{ "type": "Feature", "properties": { "visible_points": 48, "total_points": 93, "visibility_pct": 51.612903225806448 }, "geometry": { "type": "Point", "coordinates": [ 0.859269356708928, 51.215014966815161 ] } },
{ "type": "Feature", "properties": { "visible_points": 61, "total_points": 104, "visibility_pct": 58.653846153846153 }, "geometry": { "type": "Point", "coordinates": [ 0.859467491487089, 51.21501012764044 ] } },
{ "type": "Feature", "properties": { "visible_points": 67, "total_points": 113, "visibility_pct": 59.292035398230091 }, "geometry": { "type": "Point", "coordinates": [ 0.859665626210273, 51.21500528813052 ] } },
{ "type": "Feature", "properties": { "visible_points": 74, "total_points": 118, "visibility_pct": 62.711864406779661 }, "geometry": { "type": "Point", "coordinates": [ 0.85986376087849, 51.215000448285465 ] } },
{ "type": "Feature", "properties": { "visible_points": 79, "total_points": 116, "visibility_pct": 68.103448275862064 }, "geometry": { "type": "Point", "coordinates": [ 0.860061895491723, 51.214995608105241 ] } },
{ "type": "Feature", "properties": { "visible_points": 72, "total_points": 113, "visibility_pct": 63.716814159292035 }, "geometry": { "type": "Point", "coordinates": [ 0.860260030049971, 51.214990767589875 ] } },
{ "type": "Feature", "properties": { "visible_points": 63, "total_points": 109, "visibility_pct": 57.798165137614674 }, "geometry": { "type": "Point", "coordinates": [ 0.860458164553236, 51.214985926739345 ] } },
{ "type": "Feature", "properties": { "visible_points": 36, "total_points": 96, "visibility_pct": 37.5 }, "geometry": { "type": "Point", "coordinates": [ 0.860854433394795, 51.214976244032833 ] } },
{ "type": "Feature", "properties": { "visible_points": 37, "total_points": 86, "visibility_pct": 43.02325581395349 }, "geometry": { "type": "Point", "coordinates": [ 0.861052567733074, 51.214971402176836 ] } },
{ "type": "Feature", "properties": { "visible_points": 31, "total_points": 75, "visibility_pct": 41.333333333333336 }, "geometry": { "type": "Point", "coordinates": [ 0.861250702016353, 51.214966559985697 ] } },
{ "type": "Feature", "properties": { "visible_points": 0, "total_points": 64, "visibility_pct": 0.0 }, "geometry": { "type": "Point", "coordinates": [ 0.861448836244627, 51.214961717459396 ] } },
{ "type": "Feature", "properties": { "visible_points": 12, "total_points": 84, "visibility_pct": 14.285714285714285 }, "geometry": { "type": "Point", "coordinates": [ 0.859176969380302, 51.215125157455027 ] } },
{ "type": "Feature", "properties": { "visible_points": 54, "total_points": 96, "visibility_pct": 56.25 }, "geometry": { "type": "Point", "coordinates": [ 0.859375104646177, 51.215120318429236 ] } },
{ "type": "Feature", "properties": { "visible_points": 65, "total_points": 107, "visibility_pct": 60.747663551401864 }, "geometry": { "type": "Point", "coordinates": [ 0.859573239857089, 51.215115479068281 ] } },
{ "type": "Feature", "properties": { "visible_points": 72, "total_points": 115, "visibility_pct": 62.608695652173921 }, "geometry": { "type": "Point", "coordinates": [ 0.859771375013023, 51.215110639372178 ] } },
{ "type": "Feature", "properties": { "visible_points": 79, "total_points": 119, "visibility_pct": 66.386554621848731 }, "geometry": { "type": "Point", "coordinates": [ 0.85996951011398, 51.215105799340918 ] } },
{ "type": "Feature", "properties": { "visible_points": 81, "total_points": 117, "visibility_pct": 69.230769230769226 }, "geometry": { "type": "Point", "coordinates": [ 0.860167645159954, 51.215100958974517 ] } },
{ "type": "Feature", "properties": { "visible_points": 76, "total_points": 114, "visibility_pct": 66.666666666666657 }, "geometry": { "type": "Point", "coordinates": [ 0.860365780150947, 51.215096118272939 ] } },
{ "type": "Feature", "properties": { "visible_points": 60, "total_points": 111, "visibility_pct": 54.054054054054056 }, "geometry": { "type": "Point", "coordinates": [ 0.860563915086947, 51.215091277236219 ] } },
{ "type": "Feature", "properties": { "visible_points": 47, "total_points": 106, "visibility_pct": 44.339622641509436 }, "geometry": { "type": "Point", "coordinates": [ 0.860762049967957, 51.215086435864322 ] } },
{ "type": "Feature", "properties": { "visible_points": 43, "total_points": 97, "visibility_pct": 44.329896907216494 }, "geometry": { "type": "Point", "coordinates": [ 0.860960184793969, 51.21508159415729 ] } },
{ "type": "Feature", "properties": { "visible_points": 38, "total_points": 87, "visibility_pct": 43.678160919540232 }, "geometry": { "type": "Point", "coordinates": [ 0.861158319564978, 51.215076752115081 ] } },
{ "type": "Feature", "properties": { "visible_points": 31, "total_points": 77, "visibility_pct": 40.259740259740262 }, "geometry": { "type": "Point", "coordinates": [ 0.861356454280988, 51.215071909737738 ] } },
{ "type": "Feature", "properties": { "visible_points": 0, "total_points": 87, "visibility_pct": 0.0 }, "geometry": { "type": "Point", "coordinates": [ 0.859282717372533, 51.21523050915026 ] } },
{ "type": "Feature", "properties": { "visible_points": 58, "total_points": 99, "visibility_pct": 58.585858585858588 }, "geometry": { "type": "Point", "coordinates": [ 0.859480853071161, 51.215225669938256 ] } },
{ "type": "Feature", "properties": { "visible_points": 68, "total_points": 109, "visibility_pct": 62.385321100917437 }, "geometry": { "type": "Point", "coordinates": [ 0.859678988714822, 51.215220830391118 ] } },
{ "type": "Feature", "properties": { "visible_points": 76, "total_points": 117, "visibility_pct": 64.957264957264954 }, "geometry": { "type": "Point", "coordinates": [ 0.859877124303503, 51.215215990508824 ] } },
{ "type": "Feature", "properties": { "visible_points": 79, "total_points": 119, "visibility_pct": 66.386554621848731 }, "geometry": { "type": "Point", "coordinates": [ 0.860075259837205, 51.215211150291367 ] } },
{ "type": "Feature", "properties": { "visible_points": 77, "total_points": 118, "visibility_pct": 65.254237288135599 }, "geometry": { "type": "Point", "coordinates": [ 0.860273395315926, 51.21520630973874 ] } },
{ "type": "Feature", "properties": { "visible_points": 74, "total_points": 116, "visibility_pct": 63.793103448275865 }, "geometry": { "type": "Point", "coordinates": [ 0.860471530739651, 51.215201468850971 ] } },
{ "type": "Feature", "properties": { "visible_points": 61, "total_points": 114, "visibility_pct": 53.508771929824562 }, "geometry": { "type": "Point", "coordinates": [ 0.8606696661084, 51.215196627628053 ] } },
{ "type": "Feature", "properties": { "visible_points": 52, "total_points": 108, "visibility_pct": 48.148148148148145 }, "geometry": { "type": "Point", "coordinates": [ 0.860867801422142, 51.215191786069958 ] } },
{ "type": "Feature", "properties": { "visible_points": 47, "total_points": 99, "visibility_pct": 47.474747474747474 }, "geometry": { "type": "Point", "coordinates": [ 0.861065936680885, 51.215186944176722 ] } },
{ "type": "Feature", "properties": { "visible_points": 38, "total_points": 89, "visibility_pct": 42.696629213483142 }, "geometry": { "type": "Point", "coordinates": [ 0.861264071884633, 51.215182101948315 ] } },
{ "type": "Feature", "properties": { "visible_points": 30, "total_points": 79, "visibility_pct": 37.974683544303801 }, "geometry": { "type": "Point", "coordinates": [ 0.861462207033366, 51.21517725938476 ] } },
{ "type": "Feature", "properties": { "visible_points": 15, "total_points": 78, "visibility_pct": 19.230769230769234 }, "geometry": { "type": "Point", "coordinates": [ 0.859190329666139, 51.215340699803477 ] } },
{ "type": "Feature", "properties": { "visible_points": 0, "total_points": 90, "visibility_pct": 0.0 }, "geometry": { "type": "Point", "coordinates": [ 0.859388465852492, 51.215335860740453 ] } },
{ "type": "Feature", "properties": { "visible_points": 57, "total_points": 101, "visibility_pct": 56.435643564356432 }, "geometry": { "type": "Point", "coordinates": [ 0.859586601983879, 51.215331021342266 ] } },
{ "type": "Feature", "properties": { "visible_points": 64, "total_points": 111, "visibility_pct": 57.657657657657658 }, "geometry": { "type": "Point", "coordinates": [ 0.859784738060287, 51.215326181608923 ] } },
{ "type": "Feature", "properties": { "visible_points": 74, "total_points": 119, "visibility_pct": 62.184873949579831 }, "geometry": { "type": "Point", "coordinates": [ 0.859982874081719, 51.215321341540438 ] } },
{ "type": "Feature", "properties": { "visible_points": 76, "total_points": 119, "visibility_pct": 63.865546218487388 }, "geometry": { "type": "Point", "coordinates": [ 0.860181010048173, 51.215316501136769 ] } },
{ "type": "Feature", "properties": { "visible_points": 77, "total_points": 119, "visibility_pct": 64.705882352941174 }, "geometry": { "type": "Point", "coordinates": [ 0.860379145959633, 51.215311660397944 ] } },
{ "type": "Feature", "properties": { "visible_points": 73, "total_points": 118, "visibility_pct": 61.864406779661017 }, "geometry": { "type": "Point", "coordinates": [ 0.860577281816107, 51.21530681932397 ] } },
{ "type": "Feature", "properties": { "visible_points": 63, "total_points": 117, "visibility_pct": 53.846153846153847 }, "geometry": { "type": "Point", "coordinates": [ 0.860775417617587, 51.215301977914827 ] } },
{ "type": "Feature", "properties": { "visible_points": 56, "total_points": 110, "visibility_pct": 50.909090909090907 }, "geometry": { "type": "Point", "coordinates": [ 0.860973553364072, 51.215297136170548 ] } },
{ "type": "Feature", "properties": { "visible_points": 49, "total_points": 101, "visibility_pct": 48.514851485148512 }, "geometry": { "type": "Point", "coordinates": [ 0.86117168905555, 51.215292294091078 ] } },
{ "type": "Feature", "properties": { "visible_points": 41, "total_points": 91, "visibility_pct": 45.054945054945058 }, "geometry": { "type": "Point", "coordinates": [ 0.861369824692028, 51.215287451676481 ] } },
{ "type": "Feature", "properties": { "visible_points": 33, "total_points": 80, "visibility_pct": 41.25 }, "geometry": { "type": "Point", "coordinates": [ 0.861567960273499, 51.215282608926714 ] } },
{ "type": "Feature", "properties": { "visible_points": 13, "total_points": 80, "visibility_pct": 16.25 }, "geometry": { "type": "Point", "coordinates": [ 0.859296078201077, 51.215446051474842 ] } },
{ "type": "Feature", "properties": { "visible_points": 48, "total_points": 92, "visibility_pct": 52.173913043478258 }, "geometry": { "type": "Point", "coordinates": [ 0.859494214820191, 51.21544121222562 ] } },
{ "type": "Feature", "properties": { "visible_points": 58, "total_points": 103, "visibility_pct": 56.310679611650485 }, "geometry": { "type": "Point", "coordinates": [ 0.859692351384334, 51.21543637264125 ] } },
{ "type": "Feature", "properties": { "visible_points": 68, "total_points": 113, "visibility_pct": 60.176991150442483 }, "geometry": { "type": "Point", "coordinates": [ 0.859890487893492, 51.215431532721702 ] } },
{ "type": "Feature", "properties": { "visible_points": 74, "total_points": 120, "visibility_pct": 61.666666666666671 }, "geometry": { "type": "Point", "coordinates": [ 0.860088624347681, 51.215426692466991 ] } },
{ "type": "Feature", "properties": { "visible_points": 80, "total_points": 120, "visibility_pct": 66.666666666666657 }, "geometry": { "type": "Point", "coordinates": [ 0.860286760746876, 51.215421851877146 ] } },
{ "type": "Feature", "properties": { "visible_points": 76, "total_points": 119, "visibility_pct": 63.865546218487388 }, "geometry": { "type": "Point", "coordinates": [ 0.860484897091085, 51.215417010952123 ] } },
{ "type": "Feature", "properties": { "visible_points": 73, "total_points": 119, "visibility_pct": 61.344537815126053 }, "geometry": { "type": "Point", "coordinates": [ 0.860683033380303, 51.21541216969193 ] } },
{ "type": "Feature", "properties": { "visible_points": 66, "total_points": 118, "visibility_pct": 55.932203389830505 }, "geometry": { "type": "Point", "coordinates": [ 0.860881169614526, 51.215407328096596 ] } },
{ "type": "Feature", "properties": { "visible_points": 60, "total_points": 112, "visibility_pct": 53.571428571428569 }, "geometry": { "type": "Point", "coordinates": [ 0.861079305793748, 51.215402486166099 ] } },
{ "type": "Feature", "properties": { "visible_points": 54, "total_points": 103, "visibility_pct": 52.427184466019419 }, "geometry": { "type": "Point", "coordinates": [ 0.861277441917965, 51.215397643900431 ] } },
{ "type": "Feature", "properties": { "visible_points": 48, "total_points": 93, "visibility_pct": 51.612903225806448 }, "geometry": { "type": "Point", "coordinates": [ 0.861475577987174, 51.215392801299615 ] } },
{ "type": "Feature", "properties": { "visible_points": 43, "total_points": 81, "visibility_pct": 53.086419753086425 }, "geometry": { "type": "Point", "coordinates": [ 0.861673714001377, 51.215387958363635 ] } },
{ "type": "Feature", "properties": { "visible_points": 8, "total_points": 83, "visibility_pct": 9.6385542168674707 }, "geometry": { "type": "Point", "coordinates": [ 0.859401827223757, 51.215551403041175 ] } },
{ "type": "Feature", "properties": { "visible_points": 48, "total_points": 95, "visibility_pct": 50.526315789473685 }, "geometry": { "type": "Point", "coordinates": [ 0.859599964275629, 51.21554656360577 ] } },
{ "type": "Feature", "properties": { "visible_points": 58, "total_points": 106, "visibility_pct": 54.716981132075468 }, "geometry": { "type": "Point", "coordinates": [ 0.859798101272528, 51.215541723835194 ] } },
{ "type": "Feature", "properties": { "visible_points": 66, "total_points": 114, "visibility_pct": 57.894736842105267 }, "geometry": { "type": "Point", "coordinates": [ 0.859996238214444, 51.215536883729442 ] } },
{ "type": "Feature", "properties": { "visible_points": 70, "total_points": 120, "visibility_pct": 58.333333333333336 }, "geometry": { "type": "Point", "coordinates": [ 0.860194375101382, 51.21553204328854 ] } },
{ "type": "Feature", "properties": { "visible_points": 78, "total_points": 120, "visibility_pct": 65.0 }, "geometry": { "type": "Point", "coordinates": [ 0.860392511933328, 51.215527202512476 ] } },
{ "type": "Feature", "properties": { "visible_points": 78, "total_points": 120, "visibility_pct": 65.0 }, "geometry": { "type": "Point", "coordinates": [ 0.860590648710286, 51.215522361401248 ] } },
{ "type": "Feature", "properties": { "visible_points": 75, "total_points": 120, "visibility_pct": 62.5 }, "geometry": { "type": "Point", "coordinates": [ 0.860788785432249, 51.215517519954872 ] } },
{ "type": "Feature", "properties": { "visible_points": 67, "total_points": 118, "visibility_pct": 56.779661016949156 }, "geometry": { "type": "Point", "coordinates": [ 0.860986922099213, 51.215512678173333 ] } },
{ "type": "Feature", "properties": { "visible_points": 62, "total_points": 111, "visibility_pct": 55.85585585585585 }, "geometry": { "type": "Point", "coordinates": [ 0.861185058711175, 51.215507836056616 ] } },
{ "type": "Feature", "properties": { "visible_points": 58, "total_points": 102, "visibility_pct": 56.862745098039213 }, "geometry": { "type": "Point", "coordinates": [ 0.861383195268132, 51.215502993604744 ] } },
{ "type": "Feature", "properties": { "visible_points": 47, "total_points": 91, "visibility_pct": 51.648351648351657 }, "geometry": { "type": "Point", "coordinates": [ 0.861581331770078, 51.215498150817716 ] } },
{ "type": "Feature", "properties": { "visible_points": 35, "total_points": 86, "visibility_pct": 40.697674418604649 }, "geometry": { "type": "Point", "coordinates": [ 0.859507576734177, 51.21565675450249 ] } },
{ "type": "Feature", "properties": { "visible_points": 47, "total_points": 98, "visibility_pct": 47.959183673469383 }, "geometry": { "type": "Point", "coordinates": [ 0.859705714218813, 51.21565191488088 ] } },
{ "type": "Feature", "properties": { "visible_points": 52, "total_points": 108, "visibility_pct": 48.148148148148145 }, "geometry": { "type": "Point", "coordinates": [ 0.859903851648469, 51.215647074924107 ] } },
{ "type": "Feature", "properties": { "visible_points": 60, "total_points": 116, "visibility_pct": 51.724137931034484 }, "geometry": { "type": "Point", "coordinates": [ 0.860101989023142, 51.215642234632149 ] } },
{ "type": "Feature", "properties": { "visible_points": 66, "total_points": 120, "visibility_pct": 55.000000000000007 }, "geometry": { "type": "Point", "coordinates": [ 0.860300126342829, 51.21563739400505 ] } },
{ "type": "Feature", "properties": { "visible_points": 72, "total_points": 120, "visibility_pct": 60.0 }, "geometry": { "type": "Point", "coordinates": [ 0.860498263607532, 51.215632553042788 ] } },
{ "type": "Feature", "properties": { "visible_points": 77, "total_points": 120, "visibility_pct": 64.166666666666671 }, "geometry": { "type": "Point", "coordinates": [ 0.860696400817236, 51.215627711745356 ] } },
{ "type": "Feature", "properties": { "visible_points": 76, "total_points": 120, "visibility_pct": 63.333333333333329 }, "geometry": { "type": "Point", "coordinates": [ 0.860894537971946, 51.21562287011276 ] } },
{ "type": "Feature", "properties": { "visible_points": 70, "total_points": 117, "visibility_pct": 59.82905982905983 }, "geometry": { "type": "Point", "coordinates": [ 0.861092675071654, 51.215618028145009 ] } },
{ "type": "Feature", "properties": { "visible_points": 67, "total_points": 109, "visibility_pct": 61.467889908256879 }, "geometry": { "type": "Point", "coordinates": [ 0.86129081211636, 51.215613185842088 ] } },
{ "type": "Feature", "properties": { "visible_points": 55, "total_points": 99, "visibility_pct": 55.555555555555557 }, "geometry": { "type": "Point", "coordinates": [ 0.861488949106055, 51.215608343204011 ] } },
{ "type": "Feature", "properties": { "visible_points": 53, "total_points": 87, "visibility_pct": 60.919540229885058 }, "geometry": { "type": "Point", "coordinates": [ 0.861687086040739, 51.21560350023077 ] } },
{ "type": "Feature", "properties": { "visible_points": 11, "total_points": 77, "visibility_pct": 14.285714285714285 }, "geometry": { "type": "Point", "coordinates": [ 0.859415188759976, 51.215766945331424 ] } },
{ "type": "Feature", "properties": { "visible_points": 35, "total_points": 89, "visibility_pct": 39.325842696629216 }, "geometry": { "type": "Point", "coordinates": [ 0.859613326732342, 51.215762105858779 ] } },
{ "type": "Feature", "properties": { "visible_points": 47, "total_points": 100, "visibility_pct": 47.0 }, "geometry": { "type": "Point", "coordinates": [ 0.859811464649742, 51.215757266050964 ] } },
{ "type": "Feature", "properties": { "visible_points": 51, "total_points": 110, "visibility_pct": 46.36363636363636 }, "geometry": { "type": "Point", "coordinates": [ 0.860009602512159, 51.215752425907979 ] } },
{ "type": "Feature", "properties": { "visible_points": 62, "total_points": 117, "visibility_pct": 52.991452991452995 }, "geometry": { "type": "Point", "coordinates": [ 0.86020774031959, 51.215747585429853 ] } },
{ "type": "Feature", "properties": { "visible_points": 68, "total_points": 120, "visibility_pct": 56.666666666666664 }, "geometry": { "type": "Point", "coordinates": [ 0.860405878072032, 51.215742744616527 ] } },
{ "type": "Feature", "properties": { "visible_points": 73, "total_points": 120, "visibility_pct": 60.833333333333329 }, "geometry": { "type": "Point", "coordinates": [ 0.860604015769486, 51.215737903468053 ] } },
{ "type": "Feature", "properties": { "visible_points": 77, "total_points": 120, "visibility_pct": 64.166666666666671 }, "geometry": { "type": "Point", "coordinates": [ 0.860802153411943, 51.215733061984416 ] } },
{ "type": "Feature", "properties": { "visible_points": 75, "total_points": 120, "visibility_pct": 62.5 }, "geometry": { "type": "Point", "coordinates": [ 0.861000290999399, 51.215728220165616 ] } },
{ "type": "Feature", "properties": { "visible_points": 71, "total_points": 115, "visibility_pct": 61.739130434782609 }, "geometry": { "type": "Point", "coordinates": [ 0.861198428531853, 51.215723378011653 ] } },
{ "type": "Feature", "properties": { "visible_points": 64, "total_points": 107, "visibility_pct": 59.813084112149525 }, "geometry": { "type": "Point", "coordinates": [ 0.861396566009299, 51.215718535522512 ] } },
{ "type": "Feature", "properties": { "visible_points": 55, "total_points": 96, "visibility_pct": 57.291666666666664 }, "geometry": { "type": "Point", "coordinates": [ 0.861594703431742, 51.215713692698237 ] } },
{ "type": "Feature", "properties": { "visible_points": 48, "total_points": 84, "visibility_pct": 57.142857142857139 }, "geometry": { "type": "Point", "coordinates": [ 0.861792840799162, 51.215708849538778 ] } },
{ "type": "Feature", "properties": { "visible_points": 12, "total_points": 80, "visibility_pct": 15.0 }, "geometry": { "type": "Point", "coordinates": [ 0.859520938813128, 51.215872296768893 ] } },
{ "type": "Feature", "properties": { "visible_points": 14, "total_points": 92, "visibility_pct": 15.217391304347828 }, "geometry": { "type": "Point", "coordinates": [ 0.859719077218262, 51.215867457110036 ] } },
{ "type": "Feature", "properties": { "visible_points": 44, "total_points": 103, "visibility_pct": 42.718446601941743 }, "geometry": { "type": "Point", "coordinates": [ 0.859917215568422, 51.215862617116017 ] } },
{ "type": "Feature", "properties": { "visible_points": 57, "total_points": 111, "visibility_pct": 51.351351351351347 }, "geometry": { "type": "Point", "coordinates": [ 0.8601153538636, 51.215857776786827 ] } },
{ "type": "Feature", "properties": { "visible_points": 63, "total_points": 118, "visibility_pct": 53.389830508474581 }, "geometry": { "type": "Point", "coordinates": [ 0.860313492103792, 51.215852936122474 ] } },
{ "type": "Feature", "properties": { "visible_points": 67, "total_points": 120, "visibility_pct": 55.833333333333336 }, "geometry": { "type": "Point", "coordinates": [ 0.860511630288991, 51.215848095122965 ] } },
{ "type": "Feature", "properties": { "visible_points": 73, "total_points": 120, "visibility_pct": 60.833333333333329 }, "geometry": { "type": "Point", "coordinates": [ 0.860709768419195, 51.215843253788293 ] } },
{ "type": "Feature", "properties": { "visible_points": 76, "total_points": 120, "visibility_pct": 63.333333333333329 }, "geometry": { "type": "Point", "coordinates": [ 0.860907906494408, 51.215838412118444 ] } },
{ "type": "Feature", "properties": { "visible_points": 76, "total_points": 120, "visibility_pct": 63.333333333333329 }, "geometry": { "type": "Point", "coordinates": [ 0.861106044514613, 51.215833570113425 ] } },
{ "type": "Feature", "properties": { "visible_points": 65, "total_points": 113, "visibility_pct": 57.522123893805308 }, "geometry": { "type": "Point", "coordinates": [ 0.861304182479813, 51.21582872777325 ] } },
{ "type": "Feature", "properties": { "visible_points": 56, "total_points": 104, "visibility_pct": 53.846153846153847 }, "geometry": { "type": "Point", "coordinates": [ 0.861502320390008, 51.215823885097905 ] } },
{ "type": "Feature", "properties": { "visible_points": 46, "total_points": 92, "visibility_pct": 50.0 }, "geometry": { "type": "Point", "coordinates": [ 0.861700458245186, 51.215819042087396 ] } },
{ "type": "Feature", "properties": { "visible_points": 43, "total_points": 80, "visibility_pct": 53.75 }, "geometry": { "type": "Point", "coordinates": [ 0.86189859604535, 51.215814198741732 ] } },
{ "type": "Feature", "properties": { "visible_points": 11, "total_points": 83, "visibility_pct": 13.253012048192772 }, "geometry": { "type": "Point", "coordinates": [ 0.859626689354027, 51.215977648101322 ] } },
{ "type": "Feature", "properties": { "visible_points": 25, "total_points": 95, "visibility_pct": 26.315789473684209 }, "geometry": { "type": "Point", "coordinates": [ 0.859824828191935, 51.215972808256268 ] } },
{ "type": "Feature", "properties": { "visible_points": 36, "total_points": 105, "visibility_pct": 34.285714285714285 }, "geometry": { "type": "Point", "coordinates": [ 0.860022966974861, 51.215967968076036 ] } },
{ "type": "Feature", "properties": { "visible_points": 59, "total_points": 113, "visibility_pct": 52.212389380530979 }, "geometry": { "type": "Point", "coordinates": [ 0.860221105702797, 51.215963127560642 ] } },
{ "type": "Feature", "properties": { "visible_points": 67, "total_points": 119, "visibility_pct": 56.30252100840336 }, "geometry": { "type": "Point", "coordinates": [ 0.860419244375749, 51.215958286710098 ] } },
{ "type": "Feature", "properties": { "visible_points": 70, "total_points": 120, "visibility_pct": 58.333333333333336 }, "geometry": { "type": "Point", "coordinates": [ 0.86061738299371, 51.21595344552437 ] } },
{ "type": "Feature", "properties": { "visible_points": 78, "total_points": 120, "visibility_pct": 65.0 }, "geometry": { "type": "Point", "coordinates": [ 0.860815521556671, 51.215948604003472 ] } },
{ "type": "Feature", "properties": { "visible_points": 82, "total_points": 120, "visibility_pct": 68.333333333333329 }, "geometry": { "type": "Point", "coordinates": [ 0.86101366006463, 51.215943762147418 ] } },
{ "type": "Feature", "properties": { "visible_points": 71, "total_points": 119, "visibility_pct": 59.663865546218489 }, "geometry": { "type": "Point", "coordinates": [ 0.86121179851759, 51.215938919956194 ] } },
{ "type": "Feature", "properties": { "visible_points": 55, "total_points": 111, "visibility_pct": 49.549549549549546 }, "geometry": { "type": "Point", "coordinates": [ 0.861409936915543, 51.215934077429807 ] } },
{ "type": "Feature", "properties": { "visible_points": 48, "total_points": 100, "visibility_pct": 48.0 }, "geometry": { "type": "Point", "coordinates": [ 0.86160807525848, 51.21592923456825 ] } },
{ "type": "Feature", "properties": { "visible_points": 44, "total_points": 88, "visibility_pct": 50.0 }, "geometry": { "type": "Point", "coordinates": [ 0.861806213546402, 51.215924391371544 ] } },
{ "type": "Feature", "properties": { "visible_points": 11, "total_points": 87, "visibility_pct": 12.643678160919542 }, "geometry": { "type": "Point", "coordinates": [ 0.85973244038269, 51.216082999328712 ] } },
{ "type": "Feature", "properties": { "visible_points": 29, "total_points": 98, "visibility_pct": 29.591836734693878 }, "geometry": { "type": "Point", "coordinates": [ 0.859930579653362, 51.216078159297467 ] } },
{ "type": "Feature", "properties": { "visible_points": 40, "total_points": 107, "visibility_pct": 37.383177570093459 }, "geometry": { "type": "Point", "coordinates": [ 0.860128718869056, 51.216073318931016 ] } },
{ "type": "Feature", "properties": { "visible_points": 56, "total_points": 115, "visibility_pct": 48.695652173913047 }, "geometry": { "type": "Point", "coordinates": [ 0.860326858029759, 51.216068478229417 ] } },
{ "type": "Feature", "properties": { "visible_points": 67, "total_points": 120, "visibility_pct": 55.833333333333336 }, "geometry": { "type": "Point", "coordinates": [ 0.860524997135468, 51.216063637192661 ] } },
{ "type": "Feature", "properties": { "visible_points": 71, "total_points": 120, "visibility_pct": 59.166666666666664 }, "geometry": { "type": "Point", "coordinates": [ 0.86072313618619, 51.216058795820715 ] } },
{ "type": "Feature", "properties": { "visible_points": 77, "total_points": 120, "visibility_pct": 64.166666666666671 }, "geometry": { "type": "Point", "coordinates": [ 0.860921275181909, 51.216053954113633 ] } },
{ "type": "Feature", "properties": { "visible_points": 71, "total_points": 120, "visibility_pct": 59.166666666666664 }, "geometry": { "type": "Point", "coordinates": [ 0.861119414122624, 51.216049112071353 ] } },
{ "type": "Feature", "properties": { "visible_points": 63, "total_points": 117, "visibility_pct": 53.846153846153847 }, "geometry": { "type": "Point", "coordinates": [ 0.861317553008333, 51.216044269693924 ] } },
{ "type": "Feature", "properties": { "visible_points": 54, "total_points": 108, "visibility_pct": 50.0 }, "geometry": { "type": "Point", "coordinates": [ 0.861515691839036, 51.216039426981325 ] } },
{ "type": "Feature", "properties": { "visible_points": 47, "total_points": 96, "visibility_pct": 48.958333333333329 }, "geometry": { "type": "Point", "coordinates": [ 0.861713830614724, 51.216034583933549 ] } },
{ "type": "Feature", "properties": { "visible_points": 33, "total_points": 84, "visibility_pct": 39.285714285714285 }, "geometry": { "type": "Point", "coordinates": [ 0.86191196933539, 51.216029740550624 ] } },
{ "type": "Feature", "properties": { "visible_points": 0, "total_points": 90, "visibility_pct": 0.0 }, "geometry": { "type": "Point", "coordinates": [ 0.859838191899109, 51.216188350451077 ] } },
{ "type": "Feature", "properties": { "visible_points": 36, "total_points": 101, "visibility_pct": 35.64356435643564 }, "geometry": { "type": "Point", "coordinates": [ 0.860036331602555, 51.216183510233606 ] } },
{ "type": "Feature", "properties": { "visible_points": 46, "total_points": 110, "visibility_pct": 41.818181818181813 }, "geometry": { "type": "Point", "coordinates": [ 0.860234471251011, 51.216178669680964 ] } },
{ "type": "Feature", "properties": { "visible_points": 52, "total_points": 117, "visibility_pct": 44.444444444444443 }, "geometry": { "type": "Point", "coordinates": [ 0.860432610844483, 51.21617382879316 ] } },
{ "type": "Feature", "properties": { "visible_points": 59, "total_points": 120, "visibility_pct": 49.166666666666664 }, "geometry": { "type": "Point", "coordinates": [ 0.860630750382957, 51.216168987570178 ] } },
{ "type": "Feature", "properties": { "visible_points": 61, "total_points": 120, "visibility_pct": 50.833333333333329 }, "geometry": { "type": "Point", "coordinates": [ 0.860828889866438, 51.216164146012041 ] } },
{ "type": "Feature", "properties": { "visible_points": 66, "total_points": 120, "visibility_pct": 55.000000000000007 }, "geometry": { "type": "Point", "coordinates": [ 0.861027029294912, 51.216159304118733 ] } },
{ "type": "Feature", "properties": { "visible_points": 64, "total_points": 120, "visibility_pct": 53.333333333333336 }, "geometry": { "type": "Point", "coordinates": [ 0.861225168668386, 51.216154461890255 ] } },
{ "type": "Feature", "properties": { "visible_points": 57, "total_points": 114, "visibility_pct": 50.0 }, "geometry": { "type": "Point", "coordinates": [ 0.861423307986851, 51.216149619326622 ] } },
{ "type": "Feature", "properties": { "visible_points": 46, "total_points": 104, "visibility_pct": 44.230769230769226 }, "geometry": { "type": "Point", "coordinates": [ 0.861621447250306, 51.21614477642779 ] } },
{ "type": "Feature", "properties": { "visible_points": 44, "total_points": 92, "visibility_pct": 47.826086956521742 }, "geometry": { "type": "Point", "coordinates": [ 0.861819586458739, 51.216139933193809 ] } },
{ "type": "Feature", "properties": { "visible_points": 0, "total_points": 79, "visibility_pct": 0.0 }, "geometry": { "type": "Point", "coordinates": [ 0.862017725612155, 51.216135089624657 ] } },
{ "type": "Feature", "properties": { "visible_points": 12, "total_points": 80, "visibility_pct": 15.0 }, "geometry": { "type": "Point", "coordinates": [ 0.859745803712093, 51.216298541536915 ] } },
{ "type": "Feature", "properties": { "visible_points": 23, "total_points": 92, "visibility_pct": 25.0 }, "geometry": { "type": "Point", "coordinates": [ 0.859943943903292, 51.216293701468395 ] } },
{ "type": "Feature", "properties": { "visible_points": 35, "total_points": 103, "visibility_pct": 33.980582524271846 }, "geometry": { "type": "Point", "coordinates": [ 0.860142084039507, 51.216288861064726 ] } },
{ "type": "Feature", "properties": { "visible_points": 46, "total_points": 113, "visibility_pct": 40.707964601769916 }, "geometry": { "type": "Point", "coordinates": [ 0.860340224120738, 51.216284020325872 ] } },
{ "type": "Feature", "properties": { "visible_points": 51, "total_points": 119, "visibility_pct": 42.857142857142854 }, "geometry": { "type": "Point", "coordinates": [ 0.860538364146973, 51.216279179251863 ] } },
{ "type": "Feature", "properties": { "visible_points": 52, "total_points": 120, "visibility_pct": 43.333333333333336 }, "geometry": { "type": "Point", "coordinates": [ 0.860736504118213, 51.216274337842684 ] } },
{ "type": "Feature", "properties": { "visible_points": 53, "total_points": 120, "visibility_pct": 44.166666666666664 }, "geometry": { "type": "Point", "coordinates": [ 0.860934644034457, 51.21626949609832 ] } },
{ "type": "Feature", "properties": { "visible_points": 57, "total_points": 120, "visibility_pct": 47.5 }, "geometry": { "type": "Point", "coordinates": [ 0.86113278389569, 51.216264654018808 ] } },
{ "type": "Feature", "properties": { "visible_points": 60, "total_points": 118, "visibility_pct": 50.847457627118644 }, "geometry": { "type": "Point", "coordinates": [ 0.861330923701924, 51.216259811604111 ] } },
{ "type": "Feature", "properties": { "visible_points": 54, "total_points": 110, "visibility_pct": 49.090909090909093 }, "geometry": { "type": "Point", "coordinates": [ 0.861529063453142, 51.216254968854244 ] } },
{ "type": "Feature", "properties": { "visible_points": 39, "total_points": 99, "visibility_pct": 39.393939393939391 }, "geometry": { "type": "Point", "coordinates": [ 0.861727203149349, 51.216250125769214 ] } },
{ "type": "Feature", "properties": { "visible_points": 28, "total_points": 87, "visibility_pct": 32.183908045977013 }, "geometry": { "type": "Point", "coordinates": [ 0.861925342790537, 51.216245282349014 ] } },
{ "type": "Feature", "properties": { "visible_points": 0, "total_points": 74, "visibility_pct": 0.0 }, "geometry": { "type": "Point", "coordinates": [ 0.862123482376699, 51.216240438593658 ] } },
{ "type": "Feature", "properties": { "visible_points": 8, "total_points": 80, "visibility_pct": 10.0 }, "geometry": { "type": "Point", "coordinates": [ 0.859851555771265, 51.216403892635398 ] } },
{ "type": "Feature", "properties": { "visible_points": 25, "total_points": 91, "visibility_pct": 27.472527472527474 }, "geometry": { "type": "Point", "coordinates": [ 0.860049696395243, 51.216399052380694 ] } },
{ "type": "Feature", "properties": { "visible_points": 28, "total_points": 101, "visibility_pct": 27.722772277227726 }, "geometry": { "type": "Point", "coordinates": [ 0.860247836964232, 51.216394211790806 ] } },
{ "type": "Feature", "properties": { "visible_points": 33, "total_points": 110, "visibility_pct": 30.0 }, "geometry": { "type": "Point", "coordinates": [ 0.860445977478233, 51.216389370865762 ] } },
{ "type": "Feature", "properties": { "visible_points": 41, "total_points": 115, "visibility_pct": 35.652173913043477 }, "geometry": { "type": "Point", "coordinates": [ 0.860644117937235, 51.216384529605534 ] } },
{ "type": "Feature", "properties": { "visible_points": 43, "total_points": 115, "visibility_pct": 37.391304347826086 }, "geometry": { "type": "Point", "coordinates": [ 0.860842258341244, 51.216379688010129 ] } },
{ "type": "Feature", "properties": { "visible_points": 48, "total_points": 115, "visibility_pct": 41.739130434782609 }, "geometry": { "type": "Point", "coordinates": [ 0.861040398690249, 51.216374846079574 ] } },
{ "type": "Feature", "properties": { "visible_points": 48, "total_points": 115, "visibility_pct": 41.739130434782609 }, "geometry": { "type": "Point", "coordinates": [ 0.861238538984245, 51.216370003813829 ] } },
{ "type": "Feature", "properties": { "visible_points": 48, "total_points": 110, "visibility_pct": 43.636363636363633 }, "geometry": { "type": "Point", "coordinates": [ 0.861436679223239, 51.216365161212927 ] } },
{ "type": "Feature", "properties": { "visible_points": 42, "total_points": 100, "visibility_pct": 42.0 }, "geometry": { "type": "Point", "coordinates": [ 0.861634819407214, 51.216360318276848 ] } },
{ "type": "Feature", "properties": { "visible_points": 32, "total_points": 89, "visibility_pct": 35.955056179775283 }, "geometry": { "type": "Point", "coordinates": [ 0.861832959536171, 51.216355475005599 ] } },
{ "type": "Feature", "properties": { "visible_points": 0, "total_points": 77, "visibility_pct": 0.0 }, "geometry": { "type": "Point", "coordinates": [ 0.862031099610115, 51.216350631399173 ] } },
{ "type": "Feature", "properties": { "visible_points": 16, "total_points": 78, "visibility_pct": 20.512820512820511 }, "geometry": { "type": "Point", "coordinates": [ 0.859957308318213, 51.21650924362887 ] } },
{ "type": "Feature", "properties": { "visible_points": 18, "total_points": 88, "visibility_pct": 20.454545454545457 }, "geometry": { "type": "Point", "coordinates": [ 0.860155449374964, 51.216504403187955 ] } },
{ "type": "Feature", "properties": { "visible_points": 24, "total_points": 97, "visibility_pct": 24.742268041237114 }, "geometry": { "type": "Point", "coordinates": [ 0.86035359037673, 51.216499562411869 ] } },
{ "type": "Feature", "properties": { "visible_points": 30, "total_points": 104, "visibility_pct": 28.846153846153843 }, "geometry": { "type": "Point", "coordinates": [ 0.860551731323502, 51.216494721300599 ] } },
{ "type": "Feature", "properties": { "visible_points": 34, "total_points": 107, "visibility_pct": 31.775700934579437 }, "geometry": { "type": "Point", "coordinates": [ 0.860749872215275, 51.216489879854166 ] } },
{ "type": "Feature", "properties": { "visible_points": 42, "total_points": 107, "visibility_pct": 39.252336448598129 }, "geometry": { "type": "Point", "coordinates": [ 0.860948013052048, 51.216485038072555 ] } },
{ "type": "Feature", "properties": { "visible_points": 45, "total_points": 107, "visibility_pct": 42.056074766355138 }, "geometry": { "type": "Point", "coordinates": [ 0.86114615383382, 51.216480195955761 ] } },
{ "type": "Feature", "properties": { "visible_points": 46, "total_points": 105, "visibility_pct": 43.80952380952381 }, "geometry": { "type": "Point", "coordinates": [ 0.861344294560581, 51.216475353503824 ] } },
{ "type": "Feature", "properties": { "visible_points": 37, "total_points": 98, "visibility_pct": 37.755102040816325 }, "geometry": { "type": "Point", "coordinates": [ 0.861542435232334, 51.216470510716697 ] } },
{ "type": "Feature", "properties": { "visible_points": 29, "total_points": 88, "visibility_pct": 32.954545454545453 }, "geometry": { "type": "Point", "coordinates": [ 0.861740575849065, 51.216465667594406 ] } },
{ "type": "Feature", "properties": { "visible_points": 21, "total_points": 77, "visibility_pct": 27.27272727272727 }, "geometry": { "type": "Point", "coordinates": [ 0.861938716410784, 51.216460824136924 ] } },
{ "type": "Feature", "properties": { "visible_points": 5, "total_points": 66, "visibility_pct": 7.5757575757575761 }, "geometry": { "type": "Point", "coordinates": [ 0.862136856917472, 51.216455980344293 ] } },
{ "type": "Feature", "properties": { "visible_points": 5, "total_points": 66, "visibility_pct": 7.5757575757575761 }, "geometry": { "type": "Point", "coordinates": [ 0.859864919808411, 51.216619434809239 ] } },
{ "type": "Feature", "properties": { "visible_points": 12, "total_points": 75, "visibility_pct": 16.0 }, "geometry": { "type": "Point", "coordinates": [ 0.860063061352931, 51.216614594517296 ] } },
{ "type": "Feature", "properties": { "visible_points": 0, "total_points": 84, "visibility_pct": 0.0 }, "geometry": { "type": "Point", "coordinates": [ 0.860261202842461, 51.216609753890161 ] } },
{ "type": "Feature", "properties": { "visible_points": 10, "total_points": 91, "visibility_pct": 10.989010989010989 }, "geometry": { "type": "Point", "coordinates": [ 0.860459344277003, 51.21660491292787 ] } },
{ "type": "Feature", "properties": { "visible_points": 12, "total_points": 97, "visibility_pct": 12.371134020618557 }, "geometry": { "type": "Point", "coordinates": [ 0.860657485656547, 51.216600071630381 ] } },
{ "type": "Feature", "properties": { "visible_points": 37, "total_points": 98, "visibility_pct": 37.755102040816325 }, "geometry": { "type": "Point", "coordinates": [ 0.860855626981092, 51.216595229997736 ] } },
{ "type": "Feature", "properties": { "visible_points": 42, "total_points": 98, "visibility_pct": 42.857142857142854 }, "geometry": { "type": "Point", "coordinates": [ 0.861053768250636, 51.216590388029928 ] } },
{ "type": "Feature", "properties": { "visible_points": 41, "total_points": 98, "visibility_pct": 41.836734693877553 }, "geometry": { "type": "Point", "coordinates": [ 0.861251909465173, 51.216585545726915 ] } },
{ "type": "Feature", "properties": { "visible_points": 34, "total_points": 93, "visibility_pct": 36.55913978494624 }, "geometry": { "type": "Point", "coordinates": [ 0.861450050624699, 51.216580703088752 ] } },
{ "type": "Feature", "properties": { "visible_points": 23, "total_points": 85, "visibility_pct": 27.058823529411764 }, "geometry": { "type": "Point", "coordinates": [ 0.861648191729213, 51.216575860115427 ] } },
{ "type": "Feature", "properties": { "visible_points": 21, "total_points": 76, "visibility_pct": 27.631578947368425 }, "geometry": { "type": "Point", "coordinates": [ 0.861846332778707, 51.216571016806895 ] } },
{ "type": "Feature", "properties": { "visible_points": 0, "total_points": 66, "visibility_pct": 0.0 }, "geometry": { "type": "Point", "coordinates": [ 0.862044473773176, 51.216566173163216 ] } },
{ "type": "Feature", "properties": { "visible_points": 0, "total_points": 63, "visibility_pct": 0.0 }, "geometry": { "type": "Point", "coordinates": [ 0.859970672898126, 51.216724785778858 ] } },
{ "type": "Feature", "properties": { "visible_points": 0, "total_points": 71, "visibility_pct": 0.0 }, "geometry": { "type": "Point", "coordinates": [ 0.860168814875427, 51.216719945300689 ] } },
{ "type": "Feature", "properties": { "visible_points": 0, "total_points": 78, "visibility_pct": 0.0 }, "geometry": { "type": "Point", "coordinates": [ 0.860366956797738, 51.216715104487342 ] } },
{ "type": "Feature", "properties": { "visible_points": 0, "total_points": 84, "visibility_pct": 0.0 }, "geometry": { "type": "Point", "coordinates": [ 0.860565098665053, 51.21671026333884 ] } },
{ "type": "Feature", "properties": { "visible_points": 0, "total_points": 87, "visibility_pct": 0.0 }, "geometry": { "type": "Point", "coordinates": [ 0.860763240477376, 51.216705421855153 ] } },
{ "type": "Feature", "properties": { "visible_points": 0, "total_points": 88, "visibility_pct": 0.0 }, "geometry": { "type": "Point", "coordinates": [ 0.860961382234695, 51.216700580036296 ] } },
{ "type": "Feature", "properties": { "visible_points": 0, "total_points": 88, "visibility_pct": 0.0 }, "geometry": { "type": "Point", "coordinates": [ 0.861159523937007, 51.216695737882247 ] } },
{ "type": "Feature", "properties": { "visible_points": 0, "total_points": 86, "visibility_pct": 0.0 }, "geometry": { "type": "Point", "coordinates": [ 0.861357665584312, 51.216690895393043 ] } },
{ "type": "Feature", "properties": { "visible_points": 0, "total_points": 80, "visibility_pct": 0.0 }, "geometry": { "type": "Point", "coordinates": [ 0.861555807176604, 51.216686052568662 ] } },
{ "type": "Feature", "properties": { "visible_points": 0, "total_points": 72, "visibility_pct": 0.0 }, "geometry": { "type": "Point", "coordinates": [ 0.861753948713881, 51.216681209409103 ] } },
{ "type": "Feature", "properties": { "visible_points": 9, "total_points": 64, "visibility_pct": 14.0625 }, "geometry": { "type": "Point", "coordinates": [ 0.861952090196138, 51.216676365914374 ] } },
{ "type": "Feature", "properties": { "visible_points": 4, "total_points": 55, "visibility_pct": 7.2727272727272725 }, "geometry": { "type": "Point", "coordinates": [ 0.862150231623366, 51.216671522084447 ] } },
{ "type": "Feature", "properties": { "visible_points": 0, "total_points": 77, "visibility_pct": 0.0 }, "geometry": { "type": "Point", "coordinates": [ 0.861265280111166, 51.216801087629541 ] } },
{ "type": "Feature", "properties": { "visible_points": 0, "total_points": 73, "visibility_pct": 0.0 }, "geometry": { "type": "Point", "coordinates": [ 0.861463422191241, 51.216796244954104 ] } },
{ "type": "Feature", "properties": { "visible_points": 0, "total_points": 67, "visibility_pct": 0.0 }, "geometry": { "type": "Point", "coordinates": [ 0.861661564216305, 51.216791401943496 ] } },
{ "type": "Feature", "properties": { "visible_points": 0, "total_points": 60, "visibility_pct": 0.0 }, "geometry": { "type": "Point", "coordinates": [ 0.861859706186341, 51.216786558597718 ] } },
{ "type": "Feature", "properties": { "visible_points": 0, "total_points": 52, "visibility_pct": 0.0 }, "geometry": { "type": "Point", "coordinates": [ 0.86205784810136, 51.216781714916756 ] } }
]
}
