{
"type": "FeatureCollection",
"name": "28280e0304e0_foliage",
"crs": { "type": "name", "properties": { "name": "urn:ogc:def:crs:OGC:1.3:CRS84" } },
"features": [
{ "type": "Feature", "properties": { "max_height": 13.021255493164062, "mean_height": 7.0017728805541992, "std_height": 3.3947405815124512, "count_pixels": 43, "percent_cover": 0.81025061239871876, "percent_above_0.1m": 95.348837209302332, "low_level_<0.5": 0.0, "mid_level_0.5-2": 6.9767441860465116, "tall_2+": 88.372093023255815 }, "geometry": { "type": "Point", "coordinates": [ -0.695072906165678, 51.068868105753133 ] } },
{ "type": "Feature", "properties": { "max_height": 14.69927978515625, "mean_height": 9.1755609512329102, "std_height": 3.8740777969360352, "count_pixels": 41, "percent_cover": 0.77256453740342945, "percent_above_0.1m": 92.682926829268297, "low_level_<0.5": 0.0, "mid_level_0.5-2": 2.4390243902439024, "tall_2+": 90.243902439024396 }, "geometry": { "type": "Point", "coordinates": [ -0.694875199652867, 51.068865901288596 ] } },
{ "type": "Feature", "properties": { "max_height": 13.154266357421875, "mean_height": 5.7825431823730469, "std_height": 3.5362544059753418, "count_pixels": 41, "percent_cover": 0.77256453740342945, "percent_above_0.1m": 95.121951219512198, "low_level_<0.5": 2.4390243902439024, "mid_level_0.5-2": 9.7560975609756095, "tall_2+": 80.487804878048792 }, "geometry": { "type": "Point", "coordinates": [ -0.694677493164935, 51.068863696489707 ] } },
{ "type": "Feature", "properties": { "max_height": 22.594009399414062, "mean_height": 19.758087158203125, "std_height": 1.6329234838485718, "count_pixels": 41, "percent_cover": 0.77256453740342945, "percent_above_0.1m": 100.0, "low_level_<0.5": 0.0, "mid_level_0.5-2": 0.0, "tall_2+": 100.0 }, "geometry": { "type": "Point", "coordinates": [ -0.695959553876708, 51.068985901041181 ] } },
{ "type": "Feature", "properties": { "max_height": 20.885772705078125, "mean_height": 13.65434741973877, "std_height": 5.1266112327575684, "count_pixels": 41, "percent_cover": 0.77256453740342945, "percent_above_0.1m": 100.0, "low_level_<0.5": 0.0, "mid_level_0.5-2": 0.0, "tall_2+": 100.0 }, "geometry": { "type": "Point", "coordinates": [ -0.695761846795347, 51.068983698073247 ] } },
{ "type": "Feature", "properties": { "max_height": 13.156494140625, "mean_height": 6.4315967559814453, "std_height": 4.2513184547424316, "count_pixels": 38, "percent_cover": 0.71603542491049565, "percent_above_0.1m": 84.210526315789465, "low_level_<0.5": 2.6315789473684208, "mid_level_0.5-2": 0.0, "tall_2+": 81.578947368421055 }, "geometry": { "type": "Point", "coordinates": [ -0.695564139738853, 51.068981494770945 ] } },
{ "type": "Feature", "properties": { "max_height": 14.934249877929688, "mean_height": 6.6317019462585449, "std_height": 4.1686582565307617, "count_pixels": 41, "percent_cover": 0.77256453740342945, "percent_above_0.1m": 100.0, "low_level_<0.5": 0.0, "mid_level_0.5-2": 21.951219512195124, "tall_2+": 78.048780487804876 }, "geometry": { "type": "Point", "coordinates": [ -0.695366432707209, 51.068979291134276 ] } },
{ "type": "Feature", "properties": { "max_height": 15.081512451171875, "mean_height": 9.7109899520874023, "std_height": 2.5911760330200195, "count_pixels": 41, "percent_cover": 0.77256453740342945, "percent_above_0.1m": 100.0, "low_level_<0.5": 0.0, "mid_level_0.5-2": 0.0, "tall_2+": 100.0 }, "geometry": { "type": "Point", "coordinates": [ -0.695168725700436, 51.068977087163255 ] } },
{ "type": "Feature", "properties": { "max_height": 10.502761840820312, "mean_height": 3.1142253875732422, "std_height": 3.6003386974334717, "count_pixels": 41, "percent_cover": 0.77256453740342945, "percent_above_0.1m": 60.975609756097562, "low_level_<0.5": 0.0, "mid_level_0.5-2": 14.634146341463413, "tall_2+": 43.902439024390247 }, "geometry": { "type": "Point", "coordinates": [ -0.694971018718525, 51.068974882857866 ] } },
{ "type": "Feature", "properties": { "max_height": 11.057769775390625, "mean_height": 1.2062381505966187, "std_height": 2.6464259624481201, "count_pixels": 43, "percent_cover": 0.81025061239871876, "percent_above_0.1m": 25.581395348837212, "low_level_<0.5": 2.3255813953488373, "mid_level_0.5-2": 4.6511627906976747, "tall_2+": 18.604651162790699 }, "geometry": { "type": "Point", "coordinates": [ -0.694773311761487, 51.068972678218138 ] } },
{ "type": "Feature", "properties": { "max_height": 12.51800537109375, "mean_height": 5.4444990158081055, "std_height": 4.184028148651123, "count_pixels": 43, "percent_cover": 0.81025061239871876, "percent_above_0.1m": 81.395348837209298, "low_level_<0.5": 6.9767441860465116, "mid_level_0.5-2": 6.9767441860465116, "tall_2+": 67.441860465116278 }, "geometry": { "type": "Point", "coordinates": [ -0.694575604829321, 51.068970473244036 ] } },
{ "type": "Feature", "properties": { "max_height": 22.574508666992188, "mean_height": 15.798345565795898, "std_height": 3.6381294727325439, "count_pixels": 41, "percent_cover": 0.77256453740342945, "percent_above_0.1m": 100.0, "low_level_<0.5": 0.0, "mid_level_0.5-2": 0.0, "tall_2+": 100.0 }, "geometry": { "type": "Point", "coordinates": [ -0.69645079090755, 51.069099286351531 ] } },
{ "type": "Feature", "properties": { "max_height": 22.149276733398438, "mean_height": 11.435493469238281, "std_height": 8.3803768157958984, "count_pixels": 41, "percent_cover": 0.77256453740342945, "percent_above_0.1m": 82.926829268292678, "low_level_<0.5": 9.7560975609756095, "mid_level_0.5-2": 2.4390243902439024, "tall_2+": 70.731707317073173 }, "geometry": { "type": "Point", "coordinates": [ -0.696253083307396, 51.06909708421145 ] } },
{ "type": "Feature", "properties": { "max_height": 21.688018798828125, "mean_height": 8.1927080154418945, "std_height": 8.4913759231567383, "count_pixels": 43, "percent_cover": 0.81025061239871876, "percent_above_0.1m": 58.139534883720934, "low_level_<0.5": 2.3255813953488373, "mid_level_0.5-2": 2.3255813953488373, "tall_2+": 53.488372093023251 }, "geometry": { "type": "Point", "coordinates": [ -0.696055375732096, 51.06909488173703 ] } },
{ "type": "Feature", "properties": { "max_height": 22.140777587890625, "mean_height": 7.3436689376831055, "std_height": 8.6606483459472656, "count_pixels": 43, "percent_cover": 0.81025061239871876, "percent_above_0.1m": 48.837209302325576, "low_level_<0.5": 0.0, "mid_level_0.5-2": 0.0, "tall_2+": 48.837209302325576 }, "geometry": { "type": "Point", "coordinates": [ -0.695857668181639, 51.069092678928222 ] } },
{ "type": "Feature", "properties": { "max_height": 7.94451904296875, "mean_height": 1.8491414785385132, "std_height": 2.578667163848877, "count_pixels": 42, "percent_cover": 0.79140757490107405, "percent_above_0.1m": 61.904761904761905, "low_level_<0.5": 11.904761904761903, "mid_level_0.5-2": 14.285714285714285, "tall_2+": 30.952380952380953 }, "geometry": { "type": "Point", "coordinates": [ -0.695659960656044, 51.069090475785096 ] } },
{ "type": "Feature", "properties": { "max_height": 7.6717529296875, "mean_height": 4.1125054359436035, "std_height": 2.4518182277679443, "count_pixels": 42, "percent_cover": 0.79140757490107405, "percent_above_0.1m": 97.61904761904762, "low_level_<0.5": 7.1428571428571423, "mid_level_0.5-2": 19.047619047619047, "tall_2+": 71.428571428571431 }, "geometry": { "type": "Point", "coordinates": [ -0.695462253155299, 51.06908827230756 ] } },
{ "type": "Feature", "properties": { "max_height": 11.59100341796875, "mean_height": 4.4970989227294922, "std_height": 3.4524836540222168, "count_pixels": 43, "percent_cover": 0.81025061239871876, "percent_above_0.1m": 93.023255813953483, "low_level_<0.5": 6.9767441860465116, "mid_level_0.5-2": 16.279069767441861, "tall_2+": 69.767441860465112 }, "geometry": { "type": "Point", "coordinates": [ -0.69526454567942, 51.069086068495714 ] } },
{ "type": "Feature", "properties": { "max_height": 19.6185302734375, "mean_height": 12.751095771789551, "std_height": 5.255608081817627, "count_pixels": 43, "percent_cover": 0.81025061239871876, "percent_above_0.1m": 97.674418604651152, "low_level_<0.5": 4.6511627906976747, "mid_level_0.5-2": 0.0, "tall_2+": 93.023255813953483 }, "geometry": { "type": "Point", "coordinates": [ -0.695066838228408, 51.069083864349473 ] } },
{ "type": "Feature", "properties": { "max_height": 0.0575103759765625, "mean_height": 0.0021135283168405294, "std_height": 0.0096916509792208672, "count_pixels": 41, "percent_cover": 0.77256453740342945, "percent_above_0.1m": 0.0, "low_level_<0.5": 0.0, "mid_level_0.5-2": 0.0, "tall_2+": 0.0 }, "geometry": { "type": "Point", "coordinates": [ -0.694869130802261, 51.069081659868893 ] } },
{ "type": "Feature", "properties": { "max_height": 10.525253295898438, "mean_height": 1.9407382011413574, "std_height": 3.2101118564605713, "count_pixels": 41, "percent_cover": 0.77256453740342945, "percent_above_0.1m": 39.024390243902438, "low_level_<0.5": 4.8780487804878048, "mid_level_0.5-2": 0.0, "tall_2+": 31.707317073170731 }, "geometry": { "type": "Point", "coordinates": [ -0.694671423400989, 51.069079455053938 ] } },
{ "type": "Feature", "properties": { "max_height": 21.816009521484375, "mean_height": 8.8610067367553711, "std_height": 5.6763706207275391, "count_pixels": 41, "percent_cover": 0.77256453740342945, "percent_above_0.1m": 95.121951219512198, "low_level_<0.5": 0.0, "mid_level_0.5-2": 14.634146341463413, "tall_2+": 80.487804878048792 }, "geometry": { "type": "Point", "coordinates": [ -0.694473716024595, 51.06907724990463 ] } },
{ "type": "Feature", "properties": { "max_height": 16.486251831054688, "mean_height": 9.2765417098999023, "std_height": 4.3261003494262695, "count_pixels": 43, "percent_cover": 0.81025061239871876, "percent_above_0.1m": 100.0, "low_level_<0.5": 2.3255813953488373, "mid_level_0.5-2": 4.6511627906976747, "tall_2+": 93.023255813953483 }, "geometry": { "type": "Point", "coordinates": [ -0.696348906076127, 51.06920606467046 ] } },
{ "type": "Feature", "properties": { "max_height": 14.076751708984375, "mean_height": 1.6179206371307373, "std_height": 3.341001033782959, "count_pixels": 41, "percent_cover": 0.77256453740342945, "percent_above_0.1m": 36.585365853658537, "low_level_<0.5": 2.4390243902439024, "mid_level_0.5-2": 7.3170731707317067, "tall_2+": 24.390243902439025 }, "geometry": { "type": "Point", "coordinates": [ -0.696151198031722, 51.069203862355195 ] } },
{ "type": "Feature", "properties": { "max_height": 0.0012664794921875, "mean_height": -6.7361972469370812e-05, "std_height": 0.00076597015140578151, "count_pixels": 41, "percent_cover": 0.77256453740342945, "percent_above_0.1m": 0.0, "low_level_<0.5": 0.0, "mid_level_0.5-2": 0.0, "tall_2+": 0.0 }, "geometry": { "type": "Point", "coordinates": [ -0.69595349001217, 51.069201659705548 ] } },
{ "type": "Feature", "properties": { "max_height": 0.50750732421875, "mean_height": 0.021929856389760971, "std_height": 0.099144510924816132, "count_pixels": 41, "percent_cover": 0.77256453740342945, "percent_above_0.1m": 4.8780487804878048, "low_level_<0.5": 2.4390243902439024, "mid_level_0.5-2": 2.4390243902439024, "tall_2+": 0.0 }, "geometry": { "type": "Point", "coordinates": [ -0.695755782017467, 51.069199456721549 ] } },
{ "type": "Feature", "properties": { "max_height": 7.7642669677734375, "mean_height": 4.1596102714538574, "std_height": 2.8613607883453369, "count_pixels": 38, "percent_cover": 0.71603542491049565, "percent_above_0.1m": 81.578947368421055, "low_level_<0.5": 2.6315789473684208, "mid_level_0.5-2": 7.8947368421052628, "tall_2+": 71.05263157894737 }, "geometry": { "type": "Point", "coordinates": [ -0.695558074047624, 51.069197253403203 ] } },
{ "type": "Feature", "properties": { "max_height": 6.4860076904296875, "mean_height": 0.69369322061538696, "std_height": 1.6511012315750122, "count_pixels": 41, "percent_cover": 0.77256453740342945, "percent_above_0.1m": 26.829268292682929, "low_level_<0.5": 2.4390243902439024, "mid_level_0.5-2": 9.7560975609756095, "tall_2+": 12.195121951219512 }, "geometry": { "type": "Point", "coordinates": [ -0.695360366102642, 51.069195049750483 ] } },
{ "type": "Feature", "properties": { "max_height": 18.762252807617188, "mean_height": 11.102119445800781, "std_height": 6.8105087280273438, "count_pixels": 41, "percent_cover": 0.77256453740342945, "percent_above_0.1m": 97.560975609756099, "low_level_<0.5": 9.7560975609756095, "mid_level_0.5-2": 9.7560975609756095, "tall_2+": 78.048780487804876 }, "geometry": { "type": "Point", "coordinates": [ -0.695162658182521, 51.069192845763403 ] } },
{ "type": "Feature", "properties": { "max_height": 18.5460205078125, "mean_height": 7.0962882041931152, "std_height": 6.1645908355712891, "count_pixels": 41, "percent_cover": 0.77256453740342945, "percent_above_0.1m": 73.170731707317074, "low_level_<0.5": 0.0, "mid_level_0.5-2": 9.7560975609756095, "tall_2+": 63.414634146341463 }, "geometry": { "type": "Point", "coordinates": [ -0.694964950287263, 51.069190641441956 ] } },
{ "type": "Feature", "properties": { "max_height": 1.0837554931640625, "mean_height": 0.07196471095085144, "std_height": 0.22442169487476349, "count_pixels": 43, "percent_cover": 0.81025061239871876, "percent_above_0.1m": 9.3023255813953494, "low_level_<0.5": 2.3255813953488373, "mid_level_0.5-2": 6.9767441860465116, "tall_2+": 0.0 }, "geometry": { "type": "Point", "coordinates": [ -0.694767242416882, 51.06918843678617 ] } },
{ "type": "Feature", "properties": { "max_height": 11.524261474609375, "mean_height": 3.2097101211547852, "std_height": 3.813326358795166, "count_pixels": 43, "percent_cover": 0.81025061239871876, "percent_above_0.1m": 60.465116279069761, "low_level_<0.5": 6.9767441860465116, "mid_level_0.5-2": 6.9767441860465116, "tall_2+": 46.511627906976742 }, "geometry": { "type": "Point", "coordinates": [ -0.694569534571375, 51.069186231796003 ] } },
{ "type": "Feature", "properties": { "max_height": 21.574508666992188, "mean_height": 9.5997219085693359, "std_height": 7.8287825584411621, "count_pixels": 43, "percent_cover": 0.81025061239871876, "percent_above_0.1m": 79.069767441860463, "low_level_<0.5": 0.0, "mid_level_0.5-2": 9.3023255813953494, "tall_2+": 69.767441860465112 }, "geometry": { "type": "Point", "coordinates": [ -0.696049312286939, 51.069310640405192 ] } },
{ "type": "Feature", "properties": { "max_height": 2.4432525634765625, "mean_height": 0.48970210552215576, "std_height": 0.78398430347442627, "count_pixels": 43, "percent_cover": 0.81025061239871876, "percent_above_0.1m": 34.883720930232556, "low_level_<0.5": 4.6511627906976747, "mid_level_0.5-2": 23.255813953488371, "tall_2+": 6.9767441860465116 }, "geometry": { "type": "Point", "coordinates": [ -0.695851603823136, 51.069308437580361 ] } },
{ "type": "Feature", "properties": { "max_height": 2.511505126953125, "mean_height": 0.57246983051300049, "std_height": 0.7980339527130127, "count_pixels": 42, "percent_cover": 0.79140757490107405, "percent_above_0.1m": 50.0, "low_level_<0.5": 9.5238095238095237, "mid_level_0.5-2": 23.809523809523807, "tall_2+": 11.904761904761903 }, "geometry": { "type": "Point", "coordinates": [ -0.695653895384182, 51.069306234421148 ] } },
{ "type": "Feature", "properties": { "max_height": 7.641021728515625, "mean_height": 1.8744285106658936, "std_height": 2.2797253131866455, "count_pixels": 42, "percent_cover": 0.79140757490107405, "percent_above_0.1m": 69.047619047619051, "low_level_<0.5": 7.1428571428571423, "mid_level_0.5-2": 30.952380952380953, "tall_2+": 30.952380952380953 }, "geometry": { "type": "Point", "coordinates": [ -0.695456186970093, 51.06930403092759 ] } },
{ "type": "Feature", "properties": { "max_height": 7.397003173828125, "mean_height": 1.4393885135650635, "std_height": 2.2247786521911621, "count_pixels": 43, "percent_cover": 0.81025061239871876, "percent_above_0.1m": 65.116279069767444, "low_level_<0.5": 20.930232558139537, "mid_level_0.5-2": 23.255813953488371, "tall_2+": 20.930232558139537 }, "geometry": { "type": "Point", "coordinates": [ -0.695258478580865, 51.069301827099665 ] } },
{ "type": "Feature", "properties": { "max_height": 17.890518188476562, "mean_height": 8.172083854675293, "std_height": 5.5594244003295898, "count_pixels": 43, "percent_cover": 0.81025061239871876, "percent_above_0.1m": 88.372093023255815, "low_level_<0.5": 4.6511627906976747, "mid_level_0.5-2": 4.6511627906976747, "tall_2+": 79.069767441860463 }, "geometry": { "type": "Point", "coordinates": [ -0.695060770216498, 51.069299622937386 ] } },
{ "type": "Feature", "properties": { "max_height": 12.4835205078125, "mean_height": 2.8622627258300781, "std_height": 4.1492433547973633, "count_pixels": 41, "percent_cover": 0.77256453740342945, "percent_above_0.1m": 53.658536585365859, "low_level_<0.5": 4.8780487804878048, "mid_level_0.5-2": 12.195121951219512, "tall_2+": 34.146341463414636 }, "geometry": { "type": "Point", "coordinates": [ -0.694863061877003, 51.069297418440733 ] } },
{ "type": "Feature", "properties": { "max_height": 0.5742645263671875, "mean_height": 0.034397777169942856, "std_height": 0.10135016590356827, "count_pixels": 41, "percent_cover": 0.77256453740342945, "percent_above_0.1m": 14.634146341463413, "low_level_<0.5": 4.8780487804878048, "mid_level_0.5-2": 2.4390243902439024, "tall_2+": 0.0 }, "geometry": { "type": "Point", "coordinates": [ -0.694665353562382, 51.069295213609713 ] } },
{ "type": "Feature", "properties": { "max_height": 14.886260986328125, "mean_height": 7.9542503356933594, "std_height": 4.3950276374816895, "count_pixels": 41, "percent_cover": 0.77256453740342945, "percent_above_0.1m": 97.560975609756099, "low_level_<0.5": 4.8780487804878048, "mid_level_0.5-2": 7.3170731707317067, "tall_2+": 85.365853658536579 }, "geometry": { "type": "Point", "coordinates": [ -0.694467645272641, 51.06929300844434 ] } },
{ "type": "Feature", "properties": { "max_height": 10.725265502929688, "mean_height": 1.1648589372634888, "std_height": 2.6358411312103271, "count_pixels": 41, "percent_cover": 0.77256453740342945, "percent_above_0.1m": 31.707317073170731, "low_level_<0.5": 4.8780487804878048, "mid_level_0.5-2": 4.8780487804878048, "tall_2+": 17.073170731707318 }, "geometry": { "type": "Point", "coordinates": [ -0.695947426073044, 51.069417418361475 ] } },
{ "type": "Feature", "properties": { "max_height": 0.89801025390625, "mean_height": 0.027792582288384438, "std_height": 0.1428859531879425, "count_pixels": 41, "percent_cover": 0.77256453740342945, "percent_above_0.1m": 4.8780487804878048, "low_level_<0.5": 2.4390243902439024, "mid_level_0.5-2": 2.4390243902439024, "tall_2+": 0.0 }, "geometry": { "type": "Point", "coordinates": [ -0.695749717164989, 51.069415215361417 ] } },
{ "type": "Feature", "properties": { "max_height": 2.2842559814453125, "mean_height": 0.29182031750679016, "std_height": 0.49791786074638367, "count_pixels": 38, "percent_cover": 0.71603542491049565, "percent_above_0.1m": 39.473684210526315, "low_level_<0.5": 15.789473684210526, "mid_level_0.5-2": 21.052631578947366, "tall_2+": 2.6315789473684208 }, "geometry": { "type": "Point", "coordinates": [ -0.695552008281784, 51.069413012027034 ] } },
{ "type": "Feature", "properties": { "max_height": 7.8242645263671875, "mean_height": 5.6294689178466797, "std_height": 1.9458603858947754, "count_pixels": 41, "percent_cover": 0.77256453740342945, "percent_above_0.1m": 100.0, "low_level_<0.5": 0.0, "mid_level_0.5-2": 7.3170731707317067, "tall_2+": 92.682926829268297 }, "geometry": { "type": "Point", "coordinates": [ -0.695354299423443, 51.069410808358256 ] } },
{ "type": "Feature", "properties": { "max_height": 5.7860107421875, "mean_height": 0.70657128095626831, "std_height": 1.3789733648300171, "count_pixels": 41, "percent_cover": 0.77256453740342945, "percent_above_0.1m": 43.902439024390247, "low_level_<0.5": 17.073170731707318, "mid_level_0.5-2": 12.195121951219512, "tall_2+": 14.634146341463413 }, "geometry": { "type": "Point", "coordinates": [ -0.695156590589966, 51.069408604355111 ] } },
{ "type": "Feature", "properties": { "max_height": 11.048263549804688, "mean_height": 4.5584220886230469, "std_height": 2.9828836917877197, "count_pixels": 41, "percent_cover": 0.77256453740342945, "percent_above_0.1m": 95.121951219512198, "low_level_<0.5": 7.3170731707317067, "mid_level_0.5-2": 12.195121951219512, "tall_2+": 75.609756097560975 }, "geometry": { "type": "Point", "coordinates": [ -0.694958881781359, 51.069406400017627 ] } },
{ "type": "Feature", "properties": { "max_height": 7.8725128173828125, "mean_height": 1.9803249835968018, "std_height": 1.724307656288147, "count_pixels": 43, "percent_cover": 0.81025061239871876, "percent_above_0.1m": 83.720930232558146, "low_level_<0.5": 6.9767441860465116, "mid_level_0.5-2": 37.209302325581397, "tall_2+": 39.534883720930232 }, "geometry": { "type": "Point", "coordinates": [ -0.694761172997622, 51.069404195345761 ] } },
{ "type": "Feature", "properties": { "max_height": 12.935516357421875, "mean_height": 3.5381238460540771, "std_height": 3.726064920425415, "count_pixels": 43, "percent_cover": 0.81025061239871876, "percent_above_0.1m": 83.720930232558146, "low_level_<0.5": 11.627906976744185, "mid_level_0.5-2": 13.953488372093023, "tall_2+": 55.813953488372093 }, "geometry": { "type": "Point", "coordinates": [ -0.69456346423876, 51.069401990339536 ] } },
{ "type": "Feature", "properties": { "max_height": 10.13726806640625, "mean_height": 1.0121169090270996, "std_height": 2.1965124607086182, "count_pixels": 43, "percent_cover": 0.81025061239871876, "percent_above_0.1m": 37.209302325581397, "low_level_<0.5": 2.3255813953488373, "mid_level_0.5-2": 16.279069767441861, "tall_2+": 13.953488372093023 }, "geometry": { "type": "Point", "coordinates": [ -0.695845539390034, 51.069524196224023 ] } },
{ "type": "Feature", "properties": { "max_height": 13.121017456054688, "mean_height": 3.8064243793487549, "std_height": 4.487297534942627, "count_pixels": 42, "percent_cover": 0.79140757490107405, "percent_above_0.1m": 71.428571428571431, "low_level_<0.5": 11.904761904761903, "mid_level_0.5-2": 11.904761904761903, "tall_2+": 45.238095238095241 }, "geometry": { "type": "Point", "coordinates": [ -0.695647830037717, 51.069521993048767 ] } },
{ "type": "Feature", "properties": { "max_height": 16.84228515625, "mean_height": 4.0011482238769531, "std_height": 4.1444535255432129, "count_pixels": 42, "percent_cover": 0.79140757490107405, "percent_above_0.1m": 92.857142857142861, "low_level_<0.5": 4.7619047619047619, "mid_level_0.5-2": 23.809523809523807, "tall_2+": 61.904761904761905 }, "geometry": { "type": "Point", "coordinates": [ -0.695450120710267, 51.069519789539157 ] } },
{ "type": "Feature", "properties": { "max_height": 15.8382568359375, "mean_height": 2.4628536701202393, "std_height": 4.22467041015625, "count_pixels": 43, "percent_cover": 0.81025061239871876, "percent_above_0.1m": 48.837209302325576, "low_level_<0.5": 4.6511627906976747, "mid_level_0.5-2": 11.627906976744185, "tall_2+": 27.906976744186046 }, "geometry": { "type": "Point", "coordinates": [ -0.695252411407671, 51.069517585695188 ] } },
{ "type": "Feature", "properties": { "max_height": 16.781005859375, "mean_height": 9.3113975524902344, "std_height": 4.4134626388549805, "count_pixels": 43, "percent_cover": 0.81025061239871876, "percent_above_0.1m": 100.0, "low_level_<0.5": 0.0, "mid_level_0.5-2": 9.3023255813953494, "tall_2+": 90.697674418604649 }, "geometry": { "type": "Point", "coordinates": [ -0.695054702129952, 51.069515381516837 ] } },
{ "type": "Feature", "properties": { "max_height": 17.774993896484375, "mean_height": 10.832322120666504, "std_height": 4.4243745803833008, "count_pixels": 41, "percent_cover": 0.77256453740342945, "percent_above_0.1m": 100.0, "low_level_<0.5": 2.4390243902439024, "mid_level_0.5-2": 2.4390243902439024, "tall_2+": 95.121951219512198 }, "geometry": { "type": "Point", "coordinates": [ -0.694856992877092, 51.069513177004126 ] } }
]
}
