{
"type": "FeatureCollection",
"name": "58a3a332d7e4_foliage",
"crs": { "type": "name", "properties": { "name": "urn:ogc:def:crs:OGC:1.3:CRS84" } },
"features": [
{ "type": "Feature", "properties": { "max_height": 1.1895008087158203, "mean_height": 0.18256682157516479, "std_height": 0.25106033682823181, "count_pixels": 42, "percent_cover": 0.64102564102564097, "percent_above_0.1m": 59.523809523809526, "low_level_<0.5": 45.238095238095241, "mid_level_0.5-2": 4.7619047619047619, "tall_2+": 0.0 }, "geometry": { "type": "Point", "coordinates": [ -0.74974123507933, 50.861920379652133 ] } },
{ "type": "Feature", "properties": { "max_height": 11.987752914428711, "mean_height": 3.8994605541229248, "std_height": 4.4455013275146484, "count_pixels": 43, "percent_cover": 0.65628815628815629, "percent_above_0.1m": 74.418604651162795, "low_level_<0.5": 6.9767441860465116, "mid_level_0.5-2": 11.627906976744185, "tall_2+": 48.837209302325576 }, "geometry": { "type": "Point", "coordinates": [ -0.749544398217922, 50.861918271129049 ] } },
{ "type": "Feature", "properties": { "max_height": 9.3700027465820312, "mean_height": 2.9784843921661377, "std_height": 3.0476295948028564, "count_pixels": 43, "percent_cover": 0.65628815628815629, "percent_above_0.1m": 69.767441860465112, "low_level_<0.5": 9.3023255813953494, "mid_level_0.5-2": 4.6511627906976747, "tall_2+": 55.813953488372093 }, "geometry": { "type": "Point", "coordinates": [ -0.749347561380446, 50.861916162274163 ] } },
{ "type": "Feature", "properties": { "max_height": 9.9960002899169922, "mean_height": 3.9318327903747559, "std_height": 3.2410905361175537, "count_pixels": 40, "percent_cover": 0.61050061050061055, "percent_above_0.1m": 75.0, "low_level_<0.5": 2.5, "mid_level_0.5-2": 10.0, "tall_2+": 62.5 }, "geometry": { "type": "Point", "coordinates": [ -0.749150724566918, 50.861914053087467 ] } },
{ "type": "Feature", "properties": { "max_height": 11.486501693725586, "mean_height": 4.0034489631652832, "std_height": 3.7925820350646973, "count_pixels": 43, "percent_cover": 0.65628815628815629, "percent_above_0.1m": 65.116279069767444, "low_level_<0.5": 2.3255813953488373, "mid_level_0.5-2": 4.6511627906976747, "tall_2+": 58.139534883720934 }, "geometry": { "type": "Point", "coordinates": [ -0.748953887777332, 50.861911943568956 ] } },
{ "type": "Feature", "properties": { "max_height": 10.093002319335938, "mean_height": 2.6601481437683105, "std_height": 3.6022107601165771, "count_pixels": 41, "percent_cover": 0.62576312576312576, "percent_above_0.1m": 48.780487804878049, "low_level_<0.5": 0.0, "mid_level_0.5-2": 9.7560975609756095, "tall_2+": 36.585365853658537 }, "geometry": { "type": "Point", "coordinates": [ -0.749639931437732, 50.862027211472629 ] } },
{ "type": "Feature", "properties": { "max_height": 8.1472511291503906, "mean_height": 1.6240379810333252, "std_height": 2.0971765518188477, "count_pixels": 41, "percent_cover": 0.62576312576312576, "percent_above_0.1m": 63.414634146341463, "low_level_<0.5": 4.8780487804878048, "mid_level_0.5-2": 29.268292682926827, "tall_2+": 29.268292682926827 }, "geometry": { "type": "Point", "coordinates": [ -0.749443094127495, 50.862025102773025 ] } },
{ "type": "Feature", "properties": { "max_height": 6.69000244140625, "mean_height": 0.85248243808746338, "std_height": 1.7734524011611938, "count_pixels": 40, "percent_cover": 0.61050061050061055, "percent_above_0.1m": 30.0, "low_level_<0.5": 2.5, "mid_level_0.5-2": 7.5, "tall_2+": 17.5 }, "geometry": { "type": "Point", "coordinates": [ -0.7492462568412, 50.862022993741633 ] } },
{ "type": "Feature", "properties": { "max_height": 8.7757549285888672, "mean_height": 2.1890206336975098, "std_height": 2.8064532279968262, "count_pixels": 40, "percent_cover": 0.61050061050061055, "percent_above_0.1m": 47.5, "low_level_<0.5": 0.0, "mid_level_0.5-2": 7.5, "tall_2+": 40.0 }, "geometry": { "type": "Point", "coordinates": [ -0.749049419578853, 50.86202088437841 ] } },
{ "type": "Feature", "properties": { "max_height": 13.325502395629883, "mean_height": 6.3935251235961914, "std_height": 3.1044514179229736, "count_pixels": 42, "percent_cover": 0.64102564102564097, "percent_above_0.1m": 95.238095238095227, "low_level_<0.5": 0.0, "mid_level_0.5-2": 7.1428571428571423, "tall_2+": 88.095238095238088 }, "geometry": { "type": "Point", "coordinates": [ -0.749932302913292, 50.86213825995415 ] } },
{ "type": "Feature", "properties": { "max_height": 10.074502944946289, "mean_height": 2.2095370292663574, "std_height": 3.2546629905700684, "count_pixels": 42, "percent_cover": 0.64102564102564097, "percent_above_0.1m": 40.476190476190474, "low_level_<0.5": 0.0, "mid_level_0.5-2": 2.3809523809523809, "tall_2+": 35.714285714285715 }, "geometry": { "type": "Point", "coordinates": [ -0.749735465106358, 50.862136151741659 ] } },
{ "type": "Feature", "properties": { "max_height": 6.9807510375976562, "mean_height": 0.66323411464691162, "std_height": 1.6710609197616577, "count_pixels": 43, "percent_cover": 0.65628815628815629, "percent_above_0.1m": 16.279069767441861, "low_level_<0.5": 0.0, "mid_level_0.5-2": 2.3255813953488373, "tall_2+": 13.953488372093023 }, "geometry": { "type": "Point", "coordinates": [ -0.749538627323357, 50.862134043197351 ] } },
{ "type": "Feature", "properties": { "max_height": 5.8180027008056641, "mean_height": 0.61303079128265381, "std_height": 1.1955944299697876, "count_pixels": 43, "percent_cover": 0.65628815628815629, "percent_above_0.1m": 39.534883720930232, "low_level_<0.5": 9.3023255813953494, "mid_level_0.5-2": 18.604651162790699, "tall_2+": 9.3023255813953494 }, "geometry": { "type": "Point", "coordinates": [ -0.749341789564298, 50.862131934321262 ] } },
{ "type": "Feature", "properties": { "max_height": 0.0005016326904296875, "mean_height": 2.6559830075711943e-05, "std_height": 0.0002782665251288563, "count_pixels": 40, "percent_cover": 0.61050061050061055, "percent_above_0.1m": 0.0, "low_level_<0.5": 0.0, "mid_level_0.5-2": 0.0, "tall_2+": 0.0 }, "geometry": { "type": "Point", "coordinates": [ -0.749144951829179, 50.862129825113328 ] } },
{ "type": "Feature", "properties": { "max_height": 8.3152523040771484, "mean_height": 2.8004028797149658, "std_height": 2.7354331016540527, "count_pixels": 43, "percent_cover": 0.65628815628815629, "percent_above_0.1m": 69.767441860465112, "low_level_<0.5": 6.9767441860465116, "mid_level_0.5-2": 13.953488372093023, "tall_2+": 48.837209302325576 }, "geometry": { "type": "Point", "coordinates": [ -0.748948114118005, 50.862127715573571 ] } },
{ "type": "Feature", "properties": { "max_height": 4.9040012359619141, "mean_height": 1.0400078296661377, "std_height": 1.3389893770217896, "count_pixels": 40, "percent_cover": 0.61050061050061055, "percent_above_0.1m": 55.000000000000007, "low_level_<0.5": 5.0, "mid_level_0.5-2": 32.5, "tall_2+": 17.5 }, "geometry": { "type": "Point", "coordinates": [ -0.750421514134683, 50.862251415112212 ] } },
{ "type": "Feature", "properties": { "max_height": 6.5702533721923828, "mean_height": 1.7321584224700928, "std_height": 2.2280235290527344, "count_pixels": 43, "percent_cover": 0.65628815628815629, "percent_above_0.1m": 51.162790697674424, "low_level_<0.5": 4.6511627906976747, "mid_level_0.5-2": 13.953488372093023, "tall_2+": 32.558139534883722 }, "geometry": { "type": "Point", "coordinates": [ -0.750224675807134, 50.862249307718692 ] } },
{ "type": "Feature", "properties": { "max_height": 6.8577499389648438, "mean_height": 1.129858136177063, "std_height": 1.448514461517334, "count_pixels": 42, "percent_cover": 0.64102564102564097, "percent_above_0.1m": 64.285714285714292, "low_level_<0.5": 7.1428571428571423, "mid_level_0.5-2": 35.714285714285715, "tall_2+": 19.047619047619047 }, "geometry": { "type": "Point", "coordinates": [ -0.750027837503502, 50.862247199993327 ] } },
{ "type": "Feature", "properties": { "max_height": 6.4442520141601562, "mean_height": 0.48161455988883972, "std_height": 1.2569965124130249, "count_pixels": 42, "percent_cover": 0.64102564102564097, "percent_above_0.1m": 23.809523809523807, "low_level_<0.5": 9.5238095238095237, "mid_level_0.5-2": 4.7619047619047619, "tall_2+": 9.5238095238095237 }, "geometry": { "type": "Point", "coordinates": [ -0.749830999223803, 50.862245091936146 ] } },
{ "type": "Feature", "properties": { "max_height": 0.0015010833740234375, "mean_height": -5.3591844334732741e-05, "std_height": 0.0005829333676956594, "count_pixels": 41, "percent_cover": 0.62576312576312576, "percent_above_0.1m": 0.0, "low_level_<0.5": 0.0, "mid_level_0.5-2": 0.0, "tall_2+": 0.0 }, "geometry": { "type": "Point", "coordinates": [ -0.749634160968041, 50.862242983547148 ] } },
{ "type": "Feature", "properties": { "max_height": 9.6915016174316406, "mean_height": 4.4672880172729492, "std_height": 3.7052738666534424, "count_pixels": 41, "percent_cover": 0.62576312576312576, "percent_above_0.1m": 70.731707317073173, "low_level_<0.5": 2.4390243902439024, "mid_level_0.5-2": 4.8780487804878048, "tall_2+": 63.414634146341463 }, "geometry": { "type": "Point", "coordinates": [ -0.74943732273621, 50.862240874826341 ] } },
{ "type": "Feature", "properties": { "max_height": 8.6430015563964844, "mean_height": 3.3230013847351074, "std_height": 3.1691415309906006, "count_pixels": 40, "percent_cover": 0.61050061050061055, "percent_above_0.1m": 65.0, "low_level_<0.5": 2.5, "mid_level_0.5-2": 7.5, "tall_2+": 55.000000000000007 }, "geometry": { "type": "Point", "coordinates": [ -0.74924048452832, 50.862238765773711 ] } },
{ "type": "Feature", "properties": { "max_height": 9.2090034484863281, "mean_height": 1.1183388233184814, "std_height": 2.3124444484710693, "count_pixels": 40, "percent_cover": 0.61050061050061055, "percent_above_0.1m": 27.5, "low_level_<0.5": 2.5, "mid_level_0.5-2": 5.0, "tall_2+": 20.0 }, "geometry": { "type": "Point", "coordinates": [ -0.749043646344379, 50.862236656389243 ] } },
{ "type": "Feature", "properties": { "max_height": 8.2314987182617188, "mean_height": 1.6933550834655762, "std_height": 2.7199311256408691, "count_pixels": 41, "percent_cover": 0.62576312576312576, "percent_above_0.1m": 34.146341463414636, "low_level_<0.5": 0.0, "mid_level_0.5-2": 4.8780487804878048, "tall_2+": 29.268292682926827 }, "geometry": { "type": "Point", "coordinates": [ -0.748846808184383, 50.862234546672958 ] } },
{ "type": "Feature", "properties": { "max_height": 8.6455020904541016, "mean_height": 1.1329641342163086, "std_height": 2.2253665924072266, "count_pixels": 40, "percent_cover": 0.61050061050061055, "percent_above_0.1m": 35.0, "low_level_<0.5": 7.5, "mid_level_0.5-2": 7.5, "tall_2+": 20.0 }, "geometry": { "type": "Point", "coordinates": [ -0.750517050119249, 50.86236035476626 ] } },
{ "type": "Feature", "properties": { "max_height": 7.0707511901855469, "mean_height": 0.4828890860080719, "std_height": 1.4870564937591553, "count_pixels": 40, "percent_cover": 0.61050061050061055, "percent_above_0.1m": 15.0, "low_level_<0.5": 2.5, "mid_level_0.5-2": 0.0, "tall_2+": 10.0 }, "geometry": { "type": "Point", "coordinates": [ -0.750320211318936, 50.862358247528043 ] } },
{ "type": "Feature", "properties": { "max_height": 0.00025177001953125, "mean_height": -7.7829128713347018e-05, "std_height": 0.00034226567368023098, "count_pixels": 41, "percent_cover": 0.62576312576312576, "percent_above_0.1m": 0.0, "low_level_<0.5": 0.0, "mid_level_0.5-2": 0.0, "tall_2+": 0.0 }, "geometry": { "type": "Point", "coordinates": [ -0.750123372542539, 50.862356139957974 ] } },
{ "type": "Feature", "properties": { "max_height": 8.7970008850097656, "mean_height": 4.3628115653991699, "std_height": 3.318817138671875, "count_pixels": 42, "percent_cover": 0.64102564102564097, "percent_above_0.1m": 83.333333333333343, "low_level_<0.5": 4.7619047619047619, "mid_level_0.5-2": 16.666666666666664, "tall_2+": 61.904761904761905 }, "geometry": { "type": "Point", "coordinates": [ -0.749926533790076, 50.862354032056125 ] } },
{ "type": "Feature", "properties": { "max_height": 0.91950225830078125, "mean_height": 0.078578859567642212, "std_height": 0.20013213157653809, "count_pixels": 42, "percent_cover": 0.64102564102564097, "percent_above_0.1m": 16.666666666666664, "low_level_<0.5": 9.5238095238095237, "mid_level_0.5-2": 4.7619047619047619, "tall_2+": 0.0 }, "geometry": { "type": "Point", "coordinates": [ -0.749729695061541, 50.862351923822423 ] } },
{ "type": "Feature", "properties": { "max_height": 8.9617519378662109, "mean_height": 1.3746989965438843, "std_height": 2.6079890727996826, "count_pixels": 43, "percent_cover": 0.65628815628815629, "percent_above_0.1m": 34.883720930232556, "low_level_<0.5": 4.6511627906976747, "mid_level_0.5-2": 6.9767441860465116, "tall_2+": 20.930232558139537 }, "geometry": { "type": "Point", "coordinates": [ -0.749532856356942, 50.862349815256898 ] } },
{ "type": "Feature", "properties": { "max_height": 10.41450309753418, "mean_height": 4.7763323783874512, "std_height": 3.3087372779846191, "count_pixels": 43, "percent_cover": 0.65628815628815629, "percent_above_0.1m": 81.395348837209298, "low_level_<0.5": 2.3255813953488373, "mid_level_0.5-2": 4.6511627906976747, "tall_2+": 74.418604651162795 }, "geometry": { "type": "Point", "coordinates": [ -0.749336017676283, 50.86234770635955 ] } },
{ "type": "Feature", "properties": { "max_height": 8.4472522735595703, "mean_height": 1.8041642904281616, "std_height": 2.4743335247039795, "count_pixels": 40, "percent_cover": 0.61050061050061055, "percent_above_0.1m": 47.5, "low_level_<0.5": 2.5, "mid_level_0.5-2": 10.0, "tall_2+": 35.0 }, "geometry": { "type": "Point", "coordinates": [ -0.749139179019562, 50.862345597130393 ] } },
{ "type": "Feature", "properties": { "max_height": 9.9160041809082031, "mean_height": 3.6410834789276123, "std_height": 3.3253965377807617, "count_pixels": 43, "percent_cover": 0.65628815628815629, "percent_above_0.1m": 72.093023255813947, "low_level_<0.5": 2.3255813953488373, "mid_level_0.5-2": 11.627906976744185, "tall_2+": 58.139534883720934 }, "geometry": { "type": "Point", "coordinates": [ -0.748942340386793, 50.862343487569419 ] } },
{ "type": "Feature", "properties": { "max_height": 11.127004623413086, "mean_height": 2.7618389129638672, "std_height": 3.3701305389404297, "count_pixels": 40, "percent_cover": 0.61050061050061055, "percent_above_0.1m": 67.5, "low_level_<0.5": 10.0, "mid_level_0.5-2": 15.0, "tall_2+": 42.5 }, "geometry": { "type": "Point", "coordinates": [ -0.750415747279568, 50.862467187262851 ] } },
{ "type": "Feature", "properties": { "max_height": 1.6822509765625, "mean_height": 0.065413981676101685, "std_height": 0.30197754502296448, "count_pixels": 43, "percent_cover": 0.65628815628815629, "percent_above_0.1m": 4.6511627906976747, "low_level_<0.5": 0.0, "mid_level_0.5-2": 4.6511627906976747, "tall_2+": 0.0 }, "geometry": { "type": "Point", "coordinates": [ -0.75021890803041, 50.862465079848107 ] } },
{ "type": "Feature", "properties": { "max_height": 2.4280014038085938, "mean_height": 0.17704309523105621, "std_height": 0.57893693447113037, "count_pixels": 42, "percent_cover": 0.64102564102564097, "percent_above_0.1m": 9.5238095238095237, "low_level_<0.5": 0.0, "mid_level_0.5-2": 4.7619047619047619, "tall_2+": 4.7619047619047619 }, "geometry": { "type": "Point", "coordinates": [ -0.750022068805176, 50.862462972101532 ] } },
{ "type": "Feature", "properties": { "max_height": 5.2375011444091797, "mean_height": 0.49509665369987488, "std_height": 1.0667158365249634, "count_pixels": 42, "percent_cover": 0.64102564102564097, "percent_above_0.1m": 38.095238095238095, "low_level_<0.5": 11.904761904761903, "mid_level_0.5-2": 14.285714285714285, "tall_2+": 9.5238095238095237 }, "geometry": { "type": "Point", "coordinates": [ -0.749825229603871, 50.862460864023141 ] } },
{ "type": "Feature", "properties": { "max_height": 7.9485015869140625, "mean_height": 3.2798309326171875, "std_height": 3.3234961032867432, "count_pixels": 41, "percent_cover": 0.62576312576312576, "percent_above_0.1m": 60.975609756097562, "low_level_<0.5": 4.8780487804878048, "mid_level_0.5-2": 4.8780487804878048, "tall_2+": 51.219512195121951 }, "geometry": { "type": "Point", "coordinates": [ -0.749628390426496, 50.86245875561292 ] } },
{ "type": "Feature", "properties": { "max_height": 7.7020034790039062, "mean_height": 3.4426355361938477, "std_height": 2.5410642623901367, "count_pixels": 41, "percent_cover": 0.62576312576312576, "percent_above_0.1m": 85.365853658536579, "low_level_<0.5": 7.3170731707317067, "mid_level_0.5-2": 7.3170731707317067, "tall_2+": 70.731707317073173 }, "geometry": { "type": "Point", "coordinates": [ -0.749431551273068, 50.862456646870882 ] } },
{ "type": "Feature", "properties": { "max_height": 7.433502197265625, "mean_height": 1.9396142959594727, "std_height": 2.125490665435791, "count_pixels": 40, "percent_cover": 0.61050061050061055, "percent_above_0.1m": 70.0, "low_level_<0.5": 10.0, "mid_level_0.5-2": 15.0, "tall_2+": 45.0 }, "geometry": { "type": "Point", "coordinates": [ -0.749234712143572, 50.862454537797021 ] } },
{ "type": "Feature", "properties": { "max_height": 1.8785037994384766, "mean_height": 0.073007680475711823, "std_height": 0.30362039804458618, "count_pixels": 40, "percent_cover": 0.61050061050061055, "percent_above_0.1m": 10.0, "low_level_<0.5": 5.0, "mid_level_0.5-2": 5.0, "tall_2+": 0.0 }, "geometry": { "type": "Point", "coordinates": [ -0.749037873038024, 50.862452428391322 ] } },
{ "type": "Feature", "properties": { "max_height": 7.895751953125, "mean_height": 2.0192329883575439, "std_height": 2.2424943447113037, "count_pixels": 41, "percent_cover": 0.62576312576312576, "percent_above_0.1m": 58.536585365853654, "low_level_<0.5": 4.8780487804878048, "mid_level_0.5-2": 9.7560975609756095, "tall_2+": 43.902439024390247 }, "geometry": { "type": "Point", "coordinates": [ -0.748841033956423, 50.862450318653813 ] } },
{ "type": "Feature", "properties": { "max_height": 8.0145015716552734, "mean_height": 1.5400762557983398, "std_height": 2.4141740798950195, "count_pixels": 40, "percent_cover": 0.61050061050061055, "percent_above_0.1m": 42.5, "low_level_<0.5": 5.0, "mid_level_0.5-2": 10.0, "tall_2+": 27.5 }, "geometry": { "type": "Point", "coordinates": [ -0.75031444396711, 50.862574019663697 ] } },
{ "type": "Feature", "properties": { "max_height": 8.5760021209716797, "mean_height": 2.2259035110473633, "std_height": 3.0141172409057617, "count_pixels": 41, "percent_cover": 0.62576312576312576, "percent_above_0.1m": 51.219512195121951, "low_level_<0.5": 2.4390243902439024, "mid_level_0.5-2": 12.195121951219512, "tall_2+": 34.146341463414636 }, "geometry": { "type": "Point", "coordinates": [ -0.750117604269105, 50.862571912072411 ] } },
{ "type": "Feature", "properties": { "max_height": 12.528751373291016, "mean_height": 4.5609240531921387, "std_height": 4.8474717140197754, "count_pixels": 42, "percent_cover": 0.64102564102564097, "percent_above_0.1m": 64.285714285714292, "low_level_<0.5": 2.3809523809523809, "mid_level_0.5-2": 9.5238095238095237, "tall_2+": 50.0 }, "geometry": { "type": "Point", "coordinates": [ -0.749920764595029, 50.862569804149331 ] } },
{ "type": "Feature", "properties": { "max_height": 10.229000091552734, "mean_height": 2.1242160797119141, "std_height": 3.0637125968933105, "count_pixels": 42, "percent_cover": 0.64102564102564097, "percent_above_0.1m": 57.142857142857139, "low_level_<0.5": 4.7619047619047619, "mid_level_0.5-2": 19.047619047619047, "tall_2+": 33.333333333333329 }, "geometry": { "type": "Point", "coordinates": [ -0.749723924944882, 50.862567695894413 ] } },
{ "type": "Feature", "properties": { "max_height": 7.8697528839111328, "mean_height": 4.9455652236938477, "std_height": 2.5439984798431396, "count_pixels": 43, "percent_cover": 0.65628815628815629, "percent_above_0.1m": 88.372093023255815, "low_level_<0.5": 0.0, "mid_level_0.5-2": 2.3255813953488373, "tall_2+": 83.720930232558146 }, "geometry": { "type": "Point", "coordinates": [ -0.749527085318671, 50.862565587307664 ] } },
{ "type": "Feature", "properties": { "max_height": 7.2770023345947266, "mean_height": 0.78987360000610352, "std_height": 1.6094604730606079, "count_pixels": 43, "percent_cover": 0.65628815628815629, "percent_above_0.1m": 44.186046511627907, "low_level_<0.5": 9.3023255813953494, "mid_level_0.5-2": 18.604651162790699, "tall_2+": 13.953488372093023 }, "geometry": { "type": "Point", "coordinates": [ -0.749330245716401, 50.862563478389085 ] } },
{ "type": "Feature", "properties": { "max_height": 3.4710044860839844, "mean_height": 0.93545138835906982, "std_height": 1.2190983295440674, "count_pixels": 40, "percent_cover": 0.61050061050061055, "percent_above_0.1m": 50.0, "low_level_<0.5": 7.5, "mid_level_0.5-2": 20.0, "tall_2+": 22.5 }, "geometry": { "type": "Point", "coordinates": [ -0.749133406138074, 50.862561369138703 ] } },
{ "type": "Feature", "properties": { "max_height": 7.946502685546875, "mean_height": 1.2441703081130981, "std_height": 2.1620633602142334, "count_pixels": 43, "percent_cover": 0.65628815628815629, "percent_above_0.1m": 34.883720930232556, "low_level_<0.5": 0.0, "mid_level_0.5-2": 13.953488372093023, "tall_2+": 20.930232558139537 }, "geometry": { "type": "Point", "coordinates": [ -0.748936566583692, 50.862559259556484 ] } },
{ "type": "Feature", "properties": { "max_height": 9.0192508697509766, "mean_height": 0.94408875703811646, "std_height": 2.2887356281280518, "count_pixels": 40, "percent_cover": 0.61050061050061055, "percent_above_0.1m": 35.0, "low_level_<0.5": 17.5, "mid_level_0.5-2": 5.0, "tall_2+": 12.5 }, "geometry": { "type": "Point", "coordinates": [ -0.750409980352654, 50.862682959404736 ] } },
{ "type": "Feature", "properties": { "max_height": 7.1297512054443359, "mean_height": 1.1851699352264404, "std_height": 2.1735146045684814, "count_pixels": 43, "percent_cover": 0.65628815628815629, "percent_above_0.1m": 37.209302325581397, "low_level_<0.5": 6.9767441860465116, "mid_level_0.5-2": 9.3023255813953494, "tall_2+": 20.930232558139537 }, "geometry": { "type": "Point", "coordinates": [ -0.750213140181871, 50.862680851968761 ] } },
{ "type": "Feature", "properties": { "max_height": 9.1827507019042969, "mean_height": 3.6804838180541992, "std_height": 2.3601796627044678, "count_pixels": 42, "percent_cover": 0.64102564102564097, "percent_above_0.1m": 92.857142857142861, "low_level_<0.5": 4.7619047619047619, "mid_level_0.5-2": 14.285714285714285, "tall_2+": 73.80952380952381 }, "geometry": { "type": "Point", "coordinates": [ -0.750016300035019, 50.862678744200977 ] } },
{ "type": "Feature", "properties": { "max_height": 6.9755039215087891, "mean_height": 1.1345789432525635, "std_height": 1.9480041265487671, "count_pixels": 42, "percent_cover": 0.64102564102564097, "percent_above_0.1m": 40.476190476190474, "low_level_<0.5": 4.7619047619047619, "mid_level_0.5-2": 9.5238095238095237, "tall_2+": 23.809523809523807 }, "geometry": { "type": "Point", "coordinates": [ -0.749819459912098, 50.862676636101348 ] } },
{ "type": "Feature", "properties": { "max_height": 4.9070014953613281, "mean_height": 1.0162452459335327, "std_height": 1.5835505723953247, "count_pixels": 41, "percent_cover": 0.62576312576312576, "percent_above_0.1m": 39.024390243902438, "low_level_<0.5": 4.8780487804878048, "mid_level_0.5-2": 12.195121951219512, "tall_2+": 21.951219512195124 }, "geometry": { "type": "Point", "coordinates": [ -0.749622619813108, 50.862674527669917 ] } },
{ "type": "Feature", "properties": { "max_height": 12.792501449584961, "mean_height": 3.9777090549468994, "std_height": 3.9270792007446289, "count_pixels": 41, "percent_cover": 0.62576312576312576, "percent_above_0.1m": 78.048780487804876, "low_level_<0.5": 7.3170731707317067, "mid_level_0.5-2": 12.195121951219512, "tall_2+": 58.536585365853654 }, "geometry": { "type": "Point", "coordinates": [ -0.749425779738059, 50.862672418906641 ] } },
{ "type": "Feature", "properties": { "max_height": 11.959503173828125, "mean_height": 4.2960577011108398, "std_height": 3.9950780868530273, "count_pixels": 40, "percent_cover": 0.61050061050061055, "percent_above_0.1m": 80.0, "low_level_<0.5": 2.5, "mid_level_0.5-2": 22.5, "tall_2+": 52.5 }, "geometry": { "type": "Point", "coordinates": [ -0.749228939686949, 50.862670309811556 ] } },
{ "type": "Feature", "properties": { "max_height": 9.4272518157958984, "mean_height": 0.47651392221450806, "std_height": 1.6712746620178223, "count_pixels": 40, "percent_cover": 0.61050061050061055, "percent_above_0.1m": 17.5, "low_level_<0.5": 5.0, "mid_level_0.5-2": 5.0, "tall_2+": 7.5 }, "geometry": { "type": "Point", "coordinates": [ -0.749032099659786, 50.862668200384633 ] } },
{ "type": "Feature", "properties": { "max_height": 11.729251861572266, "mean_height": 4.4797334671020508, "std_height": 3.453364372253418, "count_pixels": 41, "percent_cover": 0.62576312576312576, "percent_above_0.1m": 92.682926829268297, "low_level_<0.5": 2.4390243902439024, "mid_level_0.5-2": 21.951219512195124, "tall_2+": 65.853658536585371 }, "geometry": { "type": "Point", "coordinates": [ -0.748835259656569, 50.862666090625893 ] } },
{ "type": "Feature", "properties": { "max_height": 14.607501983642578, "mean_height": 6.3756017684936523, "std_height": 4.2198004722595215, "count_pixels": 40, "percent_cover": 0.61050061050061055, "percent_above_0.1m": 87.5, "low_level_<0.5": 2.5, "mid_level_0.5-2": 7.5, "tall_2+": 77.5 }, "geometry": { "type": "Point", "coordinates": [ -0.750308676543476, 50.862789791790568 ] } },
{ "type": "Feature", "properties": { "max_height": 5.6387500762939453, "mean_height": 0.85928809642791748, "std_height": 1.5699828863143921, "count_pixels": 41, "percent_cover": 0.62576312576312576, "percent_above_0.1m": 29.268292682926827, "low_level_<0.5": 2.4390243902439024, "mid_level_0.5-2": 7.3170731707317067, "tall_2+": 19.512195121951219 }, "geometry": { "type": "Point", "coordinates": [ -0.750111835923849, 50.862787684178095 ] } },
{ "type": "Feature", "properties": { "max_height": 4.3587532043457031, "mean_height": 0.65116840600967407, "std_height": 1.2609571218490601, "count_pixels": 42, "percent_cover": 0.64102564102564097, "percent_above_0.1m": 30.952380952380953, "low_level_<0.5": 2.3809523809523809, "mid_level_0.5-2": 11.904761904761903, "tall_2+": 14.285714285714285 }, "geometry": { "type": "Point", "coordinates": [ -0.749914995328147, 50.862785576233769 ] } },
{ "type": "Feature", "properties": { "max_height": 0.37900161743164062, "mean_height": 0.041965574026107788, "std_height": 0.10166709870100021, "count_pixels": 42, "percent_cover": 0.64102564102564097, "percent_above_0.1m": 14.285714285714285, "low_level_<0.5": 14.285714285714285, "mid_level_0.5-2": 0.0, "tall_2+": 0.0 }, "geometry": { "type": "Point", "coordinates": [ -0.749718154756379, 50.862783467957634 ] } },
{ "type": "Feature", "properties": { "max_height": 4.3430023193359375, "mean_height": 0.39374545216560364, "std_height": 0.90654850006103516, "count_pixels": 43, "percent_cover": 0.65628815628815629, "percent_above_0.1m": 27.906976744186046, "low_level_<0.5": 9.3023255813953494, "mid_level_0.5-2": 6.9767441860465116, "tall_2+": 9.3023255813953494 }, "geometry": { "type": "Point", "coordinates": [ -0.749521314208546, 50.862781359349668 ] } },
{ "type": "Feature", "properties": { "max_height": 4.0049991607666016, "mean_height": 1.0675595998764038, "std_height": 1.24336838722229, "count_pixels": 43, "percent_cover": 0.65628815628815629, "percent_above_0.1m": 58.139534883720934, "low_level_<0.5": 9.3023255813953494, "mid_level_0.5-2": 25.581395348837212, "tall_2+": 23.255813953488371 }, "geometry": { "type": "Point", "coordinates": [ -0.749324473684655, 50.862779250409872 ] } },
{ "type": "Feature", "properties": { "max_height": 16.125, "mean_height": 5.973414421081543, "std_height": 4.841702938079834, "count_pixels": 40, "percent_cover": 0.61050061050061055, "percent_above_0.1m": 87.5, "low_level_<0.5": 7.5, "mid_level_0.5-2": 12.5, "tall_2+": 67.5 }, "geometry": { "type": "Point", "coordinates": [ -0.749127633184702, 50.862777141138245 ] } },
{ "type": "Feature", "properties": { "max_height": 9.92425537109375, "mean_height": 2.6224496364593506, "std_height": 3.129004955291748, "count_pixels": 43, "percent_cover": 0.65628815628815629, "percent_above_0.1m": 62.790697674418603, "low_level_<0.5": 6.9767441860465116, "mid_level_0.5-2": 11.627906976744185, "tall_2+": 44.186046511627907 }, "geometry": { "type": "Point", "coordinates": [ -0.748930792708702, 50.86277503153481 ] } },
{ "type": "Feature", "properties": { "max_height": 11.358251571655273, "mean_height": 4.4904599189758301, "std_height": 4.0310020446777344, "count_pixels": 42, "percent_cover": 0.64102564102564097, "percent_above_0.1m": 69.047619047619051, "low_level_<0.5": 0.0, "mid_level_0.5-2": 7.1428571428571423, "tall_2+": 59.523809523809526 }, "geometry": { "type": "Point", "coordinates": [ -0.748733952256652, 50.862772921599529 ] } },
{ "type": "Feature", "properties": { "max_height": 0.96175193786621094, "mean_height": 0.045739863067865372, "std_height": 0.16247081756591797, "count_pixels": 43, "percent_cover": 0.65628815628815629, "percent_above_0.1m": 4.6511627906976747, "low_level_<0.5": 0.0, "mid_level_0.5-2": 4.6511627906976747, "tall_2+": 0.0 }, "geometry": { "type": "Point", "coordinates": [ -0.750207372261522, 50.862896624080662 ] } },
{ "type": "Feature", "properties": { "max_height": 10.306999206542969, "mean_height": 1.5061323642730713, "std_height": 2.9495522975921631, "count_pixels": 42, "percent_cover": 0.64102564102564097, "percent_above_0.1m": 40.476190476190474, "low_level_<0.5": 4.7619047619047619, "mid_level_0.5-2": 16.666666666666664, "tall_2+": 19.047619047619047 }, "geometry": { "type": "Point", "coordinates": [ -0.750010531193036, 50.862894516291647 ] } },
{ "type": "Feature", "properties": { "max_height": 10.498003005981445, "mean_height": 1.7594066858291626, "std_height": 3.1166121959686279, "count_pixels": 42, "percent_cover": 0.64102564102564097, "percent_above_0.1m": 47.619047619047613, "low_level_<0.5": 19.047619047619047, "mid_level_0.5-2": 4.7619047619047619, "tall_2+": 23.809523809523807 }, "geometry": { "type": "Point", "coordinates": [ -0.749813690148487, 50.862892408170808 ] } },
{ "type": "Feature", "properties": { "max_height": 11.312503814697266, "mean_height": 0.9796600341796875, "std_height": 2.3759384155273438, "count_pixels": 41, "percent_cover": 0.62576312576312576, "percent_above_0.1m": 34.146341463414636, "low_level_<0.5": 12.195121951219512, "mid_level_0.5-2": 4.8780487804878048, "tall_2+": 14.634146341463413 }, "geometry": { "type": "Point", "coordinates": [ -0.749616849127869, 50.862890299718138 ] } },
{ "type": "Feature", "properties": { "max_height": 13.203500747680664, "mean_height": 2.2461659908294678, "std_height": 3.4424848556518555, "count_pixels": 41, "percent_cover": 0.62576312576312576, "percent_above_0.1m": 56.09756097560976, "low_level_<0.5": 4.8780487804878048, "mid_level_0.5-2": 9.7560975609756095, "tall_2+": 31.707317073170731 }, "geometry": { "type": "Point", "coordinates": [ -0.749420008131189, 50.862888190933653 ] } },
{ "type": "Feature", "properties": { "max_height": 17.535505294799805, "mean_height": 11.371577262878418, "std_height": 4.471064567565918, "count_pixels": 40, "percent_cover": 0.61050061050061055, "percent_above_0.1m": 100.0, "low_level_<0.5": 0.0, "mid_level_0.5-2": 5.0, "tall_2+": 95.0 }, "geometry": { "type": "Point", "coordinates": [ -0.749223167158455, 50.862886081817315 ] } },
{ "type": "Feature", "properties": { "max_height": 17.687000274658203, "mean_height": 11.623008728027344, "std_height": 3.9511995315551758, "count_pixels": 40, "percent_cover": 0.61050061050061055, "percent_above_0.1m": 100.0, "low_level_<0.5": 0.0, "mid_level_0.5-2": 0.0, "tall_2+": 100.0 }, "geometry": { "type": "Point", "coordinates": [ -0.749026326209664, 50.862883972369183 ] } },
{ "type": "Feature", "properties": { "max_height": 11.694751739501953, "mean_height": 4.4854354858398438, "std_height": 4.2274041175842285, "count_pixels": 41, "percent_cover": 0.62576312576312576, "percent_above_0.1m": 70.731707317073173, "low_level_<0.5": 4.8780487804878048, "mid_level_0.5-2": 7.3170731707317067, "tall_2+": 58.536585365853654 }, "geometry": { "type": "Point", "coordinates": [ -0.74882948528482, 50.862881862589205 ] } },
{ "type": "Feature", "properties": { "max_height": 7.2737503051757812, "mean_height": 0.60349553823471069, "std_height": 1.7090911865234375, "count_pixels": 41, "percent_cover": 0.62576312576312576, "percent_above_0.1m": 14.634146341463413, "low_level_<0.5": 0.0, "mid_level_0.5-2": 4.8780487804878048, "tall_2+": 9.7560975609756095 }, "geometry": { "type": "Point", "coordinates": [ -0.750106067506769, 50.863003456274996 ] } },
{ "type": "Feature", "properties": { "max_height": 14.587753295898438, "mean_height": 7.3854479789733887, "std_height": 4.7002687454223633, "count_pixels": 42, "percent_cover": 0.64102564102564097, "percent_above_0.1m": 80.952380952380949, "low_level_<0.5": 0.0, "mid_level_0.5-2": 0.0, "tall_2+": 78.571428571428569 }, "geometry": { "type": "Point", "coordinates": [ -0.749909225989433, 50.863001348309446 ] } },
{ "type": "Feature", "properties": { "max_height": 10.779251098632812, "mean_height": 0.97056108713150024, "std_height": 2.2067131996154785, "count_pixels": 42, "percent_cover": 0.64102564102564097, "percent_above_0.1m": 40.476190476190474, "low_level_<0.5": 11.904761904761903, "mid_level_0.5-2": 11.904761904761903, "tall_2+": 16.666666666666664 }, "geometry": { "type": "Point", "coordinates": [ -0.749712384496028, 50.862999240012073 ] } },
{ "type": "Feature", "properties": { "max_height": 12.378501892089844, "mean_height": 1.8646355867385864, "std_height": 3.5309128761291504, "count_pixels": 43, "percent_cover": 0.65628815628815629, "percent_above_0.1m": 55.813953488372093, "low_level_<0.5": 11.627906976744185, "mid_level_0.5-2": 2.3255813953488373, "tall_2+": 23.255813953488371 }, "geometry": { "type": "Point", "coordinates": [ -0.749515543026565, 50.862997131382897 ] } },
{ "type": "Feature", "properties": { "max_height": 13.125251770019531, "mean_height": 5.2864608764648438, "std_height": 4.8000965118408203, "count_pixels": 43, "percent_cover": 0.65628815628815629, "percent_above_0.1m": 79.069767441860463, "low_level_<0.5": 9.3023255813953494, "mid_level_0.5-2": 6.9767441860465116, "tall_2+": 60.465116279069761 }, "geometry": { "type": "Point", "coordinates": [ -0.749318701581036, 50.86299502242187 ] } }
]
}
