{
"type": "FeatureCollection",
"name": "ISLWI_233_walking",
"crs": { "type": "name", "properties": { "name": "urn:ogc:def:crs:OGC:1.3:CRS84" } },
"features": [
{"type":"Feature","properties":{"highway":"footway","name":null,"category":"Footpath (pedestrian only)"},"geometry":{"type":"MultiLineString","coordinates":[[[-1.2666587,50.739831],[-1.266586,50.7398178],[-1.2665351,50.7399799],[-1.2664653,50.7405044],[-1.2665254,50.7405426]]]}},
{"type":"Feature","properties":{"highway":"footway","name":null,"category":"Footpath (pedestrian only)"},"geometry":{"type":"MultiLineString","coordinates":[[[-1.2784152,50.7379589],[-1.2784152,50.7381839],[-1.2784154,50.7384365],[-1.2784221,50.7385344],[-1.2783693,50.7385835],[-1.2783527,50.7386388],[-1.2783167,50.7387668],[-1.278308,50.7388634],[-1.2782971,50.7389789],[-1.2782388,50.7391111],[-1.2782335,50.7392222],[-1.2782211,50.7394837],[-1.2781142,50.7398232],[-1.2780058,50.7400393],[-1.2779333,50.7402512],[-1.277899,50.7403058],[-1.2777728,50.7403271],[-1.27685,50.7405444],[-1.2767519,50.7405592]]]}},
{"type":"Feature","properties":{"highway":"footway","name":null,"category":"Footpath (pedestrian only)"},"geometry":{"type":"MultiLineString","coordinates":[[[-1.2733449,50.7405301],[-1.2733356,50.740534],[-1.2732984,50.7405496],[-1.2700005,50.7419342],[-1.2698917,50.7419799]]]}},
{"type":"Feature","properties":{"highway":"track","name":"Padmore House","category":"Track"},"geometry":{"type":"MultiLineString","coordinates":[[[-1.2733868,50.7387807],[-1.2733466,50.738754],[-1.2731213,50.7385821],[-1.2727914,50.7386347],[-1.2724271,50.7386563],[-1.2721155,50.7386296],[-1.2715286,50.7387123],[-1.2712585,50.738819],[-1.2711771,50.7388657],[-1.2711445,50.7389454],[-1.271145,50.7391452],[-1.2711051,50.7392519]]]}},
{"type":"Feature","properties":{"highway":"track","name":"Padmore House","category":"Track"},"geometry":{"type":"MultiLineString","coordinates":[[[-1.2711771,50.7388657],[-1.27091,50.7389543],[-1.2707179,50.7390232]]]}},
{"type":"Feature","properties":{"highway":"track","name":"Padmore House","category":"Track"},"geometry":{"type":"MultiLineString","coordinates":[[[-1.2726787,50.7384073],[-1.2726019,50.7383653],[-1.2724856,50.7382885],[-1.2720189,50.7380899],[-1.271748,50.7380033],[-1.2716842,50.7380164],[-1.2714669,50.738254],[-1.2711579,50.738633],[-1.27091,50.7389543]]]}},
{"type":"Feature","properties":{"highway":"track","name":null,"category":"Track"},"geometry":{"type":"MultiLineString","coordinates":[[[-1.2726224,50.7388995],[-1.2722662,50.7390535],[-1.2715289,50.7394997]]]}},
{"type":"Feature","properties":{"highway":"footway","name":null,"category":"Footpath (pedestrian only)"},"geometry":{"type":"MultiLineString","coordinates":[[[-1.2771807,50.7398649],[-1.277132,50.7397715],[-1.2771154,50.7397369],[-1.2770963,50.739696],[-1.2769739,50.7397089],[-1.2769111,50.7396741],[-1.2766326,50.7397252],[-1.2764686,50.7397553]]]}},
{"type":"Feature","properties":{"highway":"footway","name":null,"category":"Footpath (pedestrian only)"},"geometry":{"type":"MultiLineString","coordinates":[[[-1.2767133,50.7339081],[-1.2767691,50.7339926],[-1.2769418,50.7341691],[-1.277141,50.7343933],[-1.2772915,50.7346006],[-1.2773579,50.7348724],[-1.2778724,50.7361486],[-1.278116,50.7365049],[-1.2784822,50.7368195],[-1.2785235,50.7369343]]]}},
{"type":"Feature","properties":{"highway":"footway","name":null,"category":"Footpath (pedestrian only)"},"geometry":{"type":"MultiLineString","coordinates":[[[-1.2785235,50.7369343],[-1.2785333,50.7369679]]]}},
{"type":"Feature","properties":{"highway":"track","name":null,"category":"Track"},"geometry":{"type":"MultiLineString","coordinates":[[[-1.2752272,50.7400901],[-1.2752495,50.7401124],[-1.2754601,50.7403373]]]}},
{"type":"Feature","properties":{"highway":"track","name":null,"category":"Track"},"geometry":{"type":"MultiLineString","coordinates":[[[-1.2760376,50.7398515],[-1.2759718,50.7397818],[-1.2759255,50.7397783],[-1.2757611,50.7398298],[-1.2754017,50.7398137],[-1.2752399,50.7397913]]]}},
{"type":"Feature","properties":{"highway":"footway","name":null,"category":"Footpath (pedestrian only)"},"geometry":{"type":"MultiLineString","coordinates":[[[-1.2687198,50.7377572],[-1.2686549,50.7377638],[-1.2685913,50.7377713]]]}},
{"type":"Feature","properties":{"highway":"track","name":null,"category":"Track"},"geometry":{"type":"MultiLineString","coordinates":[[[-1.2771193,50.7414049],[-1.2768733,50.7414717],[-1.277324,50.7427006],[-1.2763637,50.7430978]]]}},
{"type":"Feature","properties":{"highway":"footway","name":null,"category":"Footpath (pedestrian only)"},"geometry":{"type":"MultiLineString","coordinates":[[[-1.2764686,50.7397553],[-1.2764091,50.7397673]]]}},
{"type":"Feature","properties":{"highway":"footway","name":null,"category":"Footpath (pedestrian only)"},"geometry":{"type":"MultiLineString","coordinates":[[[-1.2764091,50.7397673],[-1.2763813,50.7397718],[-1.2763344,50.7398029]]]}},
{"type":"Feature","properties":{"highway":"footway","name":null,"category":"Footpath (pedestrian only)"},"geometry":{"type":"MultiLineString","coordinates":[[[-1.2777728,50.7403271],[-1.2776887,50.7402508],[-1.2775211,50.7402262],[-1.2773534,50.7402143],[-1.2773001,50.7401208],[-1.2773468,50.7400844],[-1.2773333,50.7400404],[-1.2772393,50.7400582],[-1.2769447,50.740114],[-1.2769078,50.7401058],[-1.2768696,50.7401005],[-1.2768131,50.7400981],[-1.2767568,50.740102],[-1.2767024,50.7401122],[-1.2766518,50.7401283],[-1.2766267,50.7401402],[-1.2766064,50.7401498],[-1.2765604,50.7401733]]]}},
{"type":"Feature","properties":{"highway":"track","name":null,"category":"Track"},"geometry":{"type":"MultiLineString","coordinates":[[[-1.2768842,50.7406149],[-1.2769183,50.7406129],[-1.2770361,50.7406319],[-1.277751,50.7408401],[-1.2783064,50.7410193],[-1.2788427,50.7410573],[-1.2792906,50.7410081],[-1.2802,50.7409082]]]}},
{"type":"Feature","properties":{"highway":"track","name":null,"category":"Track"},"geometry":{"type":"MultiLineString","coordinates":[[[-1.2733519,50.7384744],[-1.2732554,50.7384065]]]}},
{"type":"Feature","properties":{"highway":"track","name":null,"category":"Track"},"geometry":{"type":"MultiLineString","coordinates":[[[-1.2731213,50.7385821],[-1.2733519,50.7384744],[-1.2735585,50.7386458],[-1.2733466,50.738754]]]}},
{"type":"Feature","properties":{"highway":"track","name":null,"category":"Track"},"geometry":{"type":"MultiLineString","coordinates":[[[-1.2725494,50.7400684],[-1.2726392,50.7399915],[-1.2728146,50.7399095],[-1.273122,50.7397657]]]}},
{"type":"Feature","properties":{"highway":"track","name":null,"category":"Track"},"geometry":{"type":"MultiLineString","coordinates":[[[-1.2703271,50.7361524],[-1.2704861,50.7361725],[-1.2707834,50.7362133],[-1.2708457,50.7362685],[-1.2712212,50.7363395]]]}},
{"type":"Feature","properties":{"highway":"track","name":null,"category":"Track"},"geometry":{"type":"MultiLineString","coordinates":[[[-1.2699939,50.7364967],[-1.2700824,50.736358],[-1.2701691,50.736381],[-1.2703271,50.7361524],[-1.270485,50.7359243],[-1.2705336,50.7357939]]]}},
{"type":"Feature","properties":{"highway":"track","name":null,"category":"Track"},"geometry":{"type":"MultiLineString","coordinates":[[[-1.2702726,50.7365423],[-1.2703425,50.7365076],[-1.270452,50.7365046],[-1.2707928,50.7365502],[-1.2709438,50.7366501],[-1.2712929,50.7367642],[-1.2716278,50.7369165],[-1.2717569,50.7369292],[-1.2717658,50.7369538],[-1.2717715,50.7369798]]]}},
{"type":"Feature","properties":{"highway":"track","name":null,"category":"Track"},"geometry":{"type":"MultiLineString","coordinates":[[[-1.2607532,50.7411735],[-1.2647987,50.7393372],[-1.266703,50.7380414]]]}},
{"type":"Feature","properties":{"highway":"footway","name":null,"category":"Footpath (pedestrian only)"},"geometry":{"type":"MultiLineString","coordinates":[[[-1.269078,50.7393357],[-1.269136,50.7393326],[-1.2691856,50.73933]]]}},
{"type":"Feature","properties":{"highway":"footway","name":null,"category":"Footpath (pedestrian only)"},"geometry":{"type":"MultiLineString","coordinates":[[[-1.2766284,50.7403093],[-1.2765876,50.7403184],[-1.2761683,50.7404314]]]}},
{"type":"Feature","properties":{"highway":"track","name":null,"category":"Track"},"geometry":{"type":"MultiLineString","coordinates":[[[-1.2794915,50.7387417],[-1.2796363,50.7386848]]]}},
{"type":"Feature","properties":{"highway":"track","name":null,"category":"Track"},"geometry":{"type":"MultiLineString","coordinates":[[[-1.2793896,50.7385889],[-1.2794627,50.7387109],[-1.2794915,50.7387417],[-1.2794507,50.7387609],[-1.2782335,50.7392222],[-1.2776865,50.7394295],[-1.2774235,50.7394724]]]}},
{"type":"Feature","properties":{"highway":"track","name":null,"category":"Track"},"geometry":{"type":"MultiLineString","coordinates":[[[-1.270237,50.7365319],[-1.2702291,50.7365918],[-1.2702224,50.7366414]]]}},
{"type":"Feature","properties":{"highway":"track","name":null,"category":"Track"},"geometry":{"type":"MultiLineString","coordinates":[[[-1.2704861,50.7361725],[-1.2705121,50.7361257],[-1.2705456,50.7360732]]]}},
{"type":"Feature","properties":{"highway":"footway","name":null,"category":"Footpath (pedestrian only)"},"geometry":{"type":"MultiLineString","coordinates":[[[-1.2714046,50.7431778],[-1.2716521,50.7434014],[-1.2720343,50.7436577],[-1.2725774,50.7439751],[-1.2729268,50.7441601],[-1.2733512,50.7443858],[-1.2734847,50.7444596],[-1.2738515,50.7446175]]]}},
{"type":"Feature","properties":{"highway":"footway","name":null,"category":"Footpath (pedestrian only)"},"geometry":{"type":"MultiLineString","coordinates":[[[-1.2687103,50.7331525],[-1.2691019,50.7330031]]]}},
{"type":"Feature","properties":{"highway":"track","name":null,"category":"Track"},"geometry":{"type":"MultiLineString","coordinates":[[[-1.268882,50.7336363],[-1.2689638,50.7335845],[-1.2694238,50.7328087],[-1.2696947,50.7323444]]]}},
{"type":"Feature","properties":{"highway":"footway","name":null,"category":"Footpath (pedestrian only)"},"geometry":{"type":"MultiLineString","coordinates":[[[-1.2760717,50.7406988],[-1.2762728,50.7406479],[-1.2762822,50.7405969],[-1.2761683,50.7404314],[-1.2760288,50.7402312],[-1.2757689,50.7402988],[-1.2759081,50.7405282]]]}},
{"type":"Feature","properties":{"highway":"footway","name":null,"category":"Footpath (pedestrian only)"},"geometry":{"type":"MultiLineString","coordinates":[[[-1.2784247,50.7378955],[-1.2784152,50.7379589]]]}},
{"type":"Feature","properties":{"highway":"footway","name":null,"category":"Footpath (pedestrian only)"},"geometry":{"type":"MultiLineString","coordinates":[[[-1.2785333,50.7369679],[-1.2785655,50.7370709],[-1.2785088,50.7374974],[-1.2784247,50.7378955]]]}},
{"type":"Feature","properties":{"highway":"footway","name":null,"category":"Footpath (pedestrian only)"},"geometry":{"type":"MultiLineString","coordinates":[[[-1.2760288,50.7402312],[-1.2760073,50.740086],[-1.2760379,50.7399071],[-1.2760376,50.7398515]]]}},
{"type":"Feature","properties":{"highway":"footway","name":null,"category":"Footpath (pedestrian only)"},"geometry":{"type":"MultiLineString","coordinates":[[[-1.2782762,50.7435135],[-1.2781,50.7437948],[-1.2780706,50.7438417]]]}},
{"type":"Feature","properties":{"highway":"track","name":null,"category":"Track"},"geometry":{"type":"MultiLineString","coordinates":[[[-1.2807855,50.7352412],[-1.2796336,50.735569]]]}},
{"type":"Feature","properties":{"highway":"track","name":null,"category":"Track"},"geometry":{"type":"MultiLineString","coordinates":[[[-1.2781303,50.7348925],[-1.2785004,50.7350546],[-1.2789229,50.7351039],[-1.2796336,50.735569],[-1.2803914,50.7363007]]]}},
{"type":"Feature","properties":{"highway":"track","name":null,"category":"Track"},"geometry":{"type":"MultiLineString","coordinates":[[[-1.273097,50.7359571],[-1.27314,50.7359796],[-1.2732339,50.7360274],[-1.2732714,50.7363024]]]}},
{"type":"Feature","properties":{"highway":"track","name":null,"category":"Track"},"geometry":{"type":"MultiLineString","coordinates":[[[-1.2727027,50.7398127],[-1.2727339,50.7397907],[-1.2728805,50.7397048]]]}},
{"type":"Feature","properties":{"highway":"track","name":null,"category":"Track"},"geometry":{"type":"MultiLineString","coordinates":[[[-1.2728146,50.7399095],[-1.2727391,50.7398405],[-1.2727027,50.7398127],[-1.2726017,50.7397352]]]}},
{"type":"Feature","properties":{"highway":"track","name":null,"category":"Track"},"geometry":{"type":"MultiLineString","coordinates":[[[-1.2759718,50.7397818],[-1.2759276,50.7397323],[-1.2758237,50.7396382]]]}},
{"type":"Feature","properties":{"highway":"footway","name":null,"category":"Footpath (pedestrian only)"},"geometry":{"type":"MultiLineString","coordinates":[[[-1.2758303,50.7401123],[-1.2756612,50.7400236],[-1.2756542,50.7400068],[-1.2756333,50.7399752]]]}},
{"type":"Feature","properties":{"highway":"footway","name":null,"category":"Footpath (pedestrian only)"},"geometry":{"type":"MultiLineString","coordinates":[[[-1.2755767,50.7399915],[-1.2755935,50.7400236],[-1.2756117,50.7400368],[-1.275613,50.7400716],[-1.2756144,50.7401056],[-1.2756318,50.7401743]]]}},
{"type":"Feature","properties":{"highway":"track","name":null,"category":"Track"},"geometry":{"type":"MultiLineString","coordinates":[[[-1.2716047,50.7369592],[-1.2715579,50.7370223],[-1.2715642,50.7370578]]]}},
{"type":"Feature","properties":{"highway":"track","name":null,"category":"Track"},"geometry":{"type":"MultiLineString","coordinates":[[[-1.27182,50.7369728],[-1.2718448,50.7370007],[-1.2719545,50.7371133],[-1.2725059,50.7375377],[-1.2725772,50.7375815]]]}},
{"type":"Feature","properties":{"highway":"track","name":null,"category":"Track"},"geometry":{"type":"MultiLineString","coordinates":[[[-1.2689594,50.737161],[-1.2689411,50.7370473],[-1.268858,50.7368587]]]}},
{"type":"Feature","properties":{"highway":"footway","name":null,"category":"Footpath (pedestrian only)"},"geometry":{"type":"MultiLineString","coordinates":[[[-1.275214,50.7337681],[-1.2755082,50.7338928]]]}},
{"type":"Feature","properties":{"highway":"path","name":null,"category":"Shared path"},"geometry":{"type":"MultiLineString","coordinates":[[[-1.2766326,50.7397252],[-1.2766457,50.7397644]]]}},
{"type":"Feature","properties":{"highway":"path","name":null,"category":"Shared path"},"geometry":{"type":"MultiLineString","coordinates":[[[-1.2766267,50.7401402],[-1.2765813,50.7399553],[-1.2766242,50.739918],[-1.2765813,50.739783],[-1.2766457,50.7397644]]]}},
{"type":"Feature","properties":{"highway":"path","name":null,"category":"Shared path"},"geometry":{"type":"MultiLineString","coordinates":[[[-1.2772393,50.7400582],[-1.2772036,50.7399392],[-1.2771807,50.7398649]]]}},
{"type":"Feature","properties":{"highway":"footway","name":null,"category":"Footpath (pedestrian only)"},"geometry":{"type":"MultiLineString","coordinates":[[[-1.2779738,50.7434859],[-1.2779516,50.7434527],[-1.2779203,50.7434058]]]}},
{"type":"Feature","properties":{"highway":"footway","name":null,"category":"Footpath (pedestrian only)"},"geometry":{"type":"MultiLineString","coordinates":[[[-1.27791,50.7433903],[-1.2778179,50.7433488],[-1.2777324,50.7430966],[-1.2777402,50.7430672]]]}},
{"type":"Feature","properties":{"highway":"footway","name":null,"category":"Footpath (pedestrian only)"},"geometry":{"type":"MultiLineString","coordinates":[[[-1.2685786,50.7377728],[-1.268616,50.7378784],[-1.2687229,50.7382406],[-1.2687133,50.738272],[-1.2688894,50.7388193],[-1.2689667,50.7390597],[-1.2690503,50.7393372],[-1.2691623,50.7397211],[-1.2693447,50.7402863],[-1.2693901,50.7404781],[-1.2694255,50.740656],[-1.269426,50.74068]]]}},
{"type":"Feature","properties":{"highway":"footway","name":null,"category":"Footpath (pedestrian only)"},"geometry":{"type":"MultiLineString","coordinates":[[[-1.2780735,50.7433471],[-1.2780029,50.7433679]]]}},
{"type":"Feature","properties":{"highway":"footway","name":null,"category":"Footpath (pedestrian only)"},"geometry":{"type":"MultiLineString","coordinates":[[[-1.2780029,50.7433679],[-1.27791,50.7433903]]]}},
{"type":"Feature","properties":{"highway":"footway","name":null,"category":"Footpath (pedestrian only)"},"geometry":{"type":"MultiLineString","coordinates":[[[-1.27685,50.7405444],[-1.2768842,50.7406149]]]}},
{"type":"Feature","properties":{"highway":"footway","name":null,"category":"Footpath (pedestrian only)"},"geometry":{"type":"MultiLineString","coordinates":[[[-1.2692092,50.7393288],[-1.2692555,50.739323],[-1.2692991,50.7393052],[-1.269232,50.739183],[-1.2691878,50.7390056],[-1.2693125,50.7389623]]]}},
{"type":"Feature","properties":{"highway":"footway","name":null,"category":"Footpath (pedestrian only)"},"geometry":{"type":"MultiLineString","coordinates":[[[-1.2689749,50.7388104],[-1.2689121,50.7388169]]]}},
{"type":"Feature","properties":{"highway":"footway","name":null,"category":"Footpath (pedestrian only)"},"geometry":{"type":"MultiLineString","coordinates":[[[-1.2694433,50.7406799],[-1.2695026,50.7406795],[-1.2695459,50.7406792]]]}},
{"type":"Feature","properties":{"highway":"footway","name":null,"category":"Footpath (pedestrian only)"},"geometry":{"type":"MultiLineString","coordinates":[[[-1.2695597,50.7406791],[-1.269626,50.7410779],[-1.2696823,50.7412986],[-1.2697494,50.7414955],[-1.2699103,50.7417959],[-1.2700005,50.7419342],[-1.2701491,50.7421235],[-1.2703127,50.7423187],[-1.2705514,50.7425326],[-1.270697,50.7426415],[-1.2708169,50.7427312],[-1.2710503,50.7429094],[-1.2713721,50.7431525]]]}},
{"type":"Feature","properties":{"highway":"footway","name":null,"category":"Footpath (pedestrian only)"},"geometry":{"type":"MultiLineString","coordinates":[[[-1.2695459,50.7406792],[-1.2695597,50.7406791]]]}},
{"type":"Feature","properties":{"highway":"footway","name":null,"category":"Footpath (pedestrian only)"},"geometry":{"type":"MultiLineString","coordinates":[[[-1.269426,50.74068],[-1.2694433,50.7406799]]]}},
{"type":"Feature","properties":{"highway":"footway","name":null,"category":"Footpath (pedestrian only)"},"geometry":{"type":"MultiLineString","coordinates":[[[-1.2691856,50.73933],[-1.2692092,50.7393288]]]}},
{"type":"Feature","properties":{"highway":"footway","name":null,"category":"Footpath (pedestrian only)"},"geometry":{"type":"MultiLineString","coordinates":[[[-1.2690503,50.7393372],[-1.269078,50.7393357]]]}},
{"type":"Feature","properties":{"highway":"footway","name":null,"category":"Footpath (pedestrian only)"},"geometry":{"type":"MultiLineString","coordinates":[[[-1.2685913,50.7377713],[-1.2685786,50.7377728]]]}},
{"type":"Feature","properties":{"highway":"footway","name":null,"category":"Footpath (pedestrian only)"},"geometry":{"type":"MultiLineString","coordinates":[[[-1.2687374,50.7377554],[-1.2687198,50.7377572]]]}},
{"type":"Feature","properties":{"highway":"footway","name":null,"category":"Footpath (pedestrian only)"},"geometry":{"type":"MultiLineString","coordinates":[[[-1.2689121,50.7388169],[-1.2688894,50.7388193]]]}},
{"type":"Feature","properties":{"highway":"footway","name":null,"category":"Footpath (pedestrian only)"},"geometry":{"type":"MultiLineString","coordinates":[[[-1.2779203,50.7434058],[-1.27791,50.7433903]]]}},
{"type":"Feature","properties":{"highway":"footway","name":null,"category":"Footpath (pedestrian only)"},"geometry":{"type":"MultiLineString","coordinates":[[[-1.2779807,50.7434962],[-1.2779738,50.7434859]]]}},
{"type":"Feature","properties":{"highway":"footway","name":null,"category":"Footpath (pedestrian only)"},"geometry":{"type":"MultiLineString","coordinates":[[[-1.2783741,50.7438867],[-1.2784789,50.7439028]]]}},
{"type":"Feature","properties":{"highway":"footway","name":null,"category":"Footpath (pedestrian only)"},"geometry":{"type":"MultiLineString","coordinates":[[[-1.278482,50.7438583],[-1.2783741,50.7438867],[-1.2784205,50.7439574]]]}},
{"type":"Feature","properties":{"highway":"footway","name":null,"category":"Footpath (pedestrian only)"},"geometry":{"type":"MultiLineString","coordinates":[[[-1.2781,50.7437948],[-1.2783388,50.7438562],[-1.2783741,50.7438867]]]}}
]
}
