{
"type": "FeatureCollection",
"name": "ISLWI_119_walking",
"crs": { "type": "name", "properties": { "name": "urn:ogc:def:crs:OGC:1.3:CRS84" } },
"features": [
{"type":"Feature","properties":{"highway":"track","name":"Packsfield Lane","category":"Track"},"geometry":{"type":"MultiLineString","coordinates":[[[-1.2379302,50.7217607],[-1.2380322,50.7212877],[-1.2380635,50.7211294],[-1.2381975,50.7206426],[-1.2382669,50.7203906],[-1.2380884,50.7201253],[-1.2383844,50.7188345],[-1.2382493,50.7180159],[-1.2383057,50.7177592]]]}},
{"type":"Feature","properties":{"highway":"footway","name":null,"category":"Footpath (pedestrian only)"},"geometry":{"type":"MultiLineString","coordinates":[[[-1.2394731,50.7245068],[-1.2394722,50.7248223],[-1.2394708,50.7250411],[-1.2394984,50.7251348],[-1.2394764,50.7252231],[-1.2393968,50.7252847],[-1.2392145,50.7253668],[-1.2389448,50.7254498],[-1.2386789,50.7255462],[-1.2385689,50.7255813],[-1.2385018,50.7256288],[-1.2384643,50.7257205],[-1.2384002,50.7259184],[-1.2383657,50.7261629],[-1.23836,50.7265484],[-1.2382675,50.7267011],[-1.2380947,50.7268829],[-1.2379817,50.7269375],[-1.2378126,50.7269497],[-1.2376531,50.7269257],[-1.2373165,50.7268864],[-1.2371876,50.7268761],[-1.2370776,50.7268992],[-1.2370119,50.7269422],[-1.2368552,50.7272088],[-1.2366676,50.7276808],[-1.2366328,50.728041]]]}},
{"type":"Feature","properties":{"highway":"footway","name":null,"category":"Footpath (pedestrian only)"},"geometry":{"type":"MultiLineString","coordinates":[[[-1.2356508,50.7247751],[-1.235557,50.7246873],[-1.2353965,50.7245444],[-1.2352091,50.7244705],[-1.2350582,50.7244228],[-1.2349739,50.7243547],[-1.2349416,50.7243147],[-1.2348782,50.7242755],[-1.2348045,50.7242676],[-1.2345949,50.724179]]]}},
{"type":"Feature","properties":{"highway":"footway","name":null,"category":"Footpath (pedestrian only)"},"geometry":{"type":"MultiLineString","coordinates":[[[-1.2389832,50.7238442],[-1.239167,50.7237083],[-1.2398406,50.7232297],[-1.2401192,50.7230325],[-1.2402265,50.7229714],[-1.2403408,50.7229395],[-1.240488,50.7229535],[-1.2412588,50.7230897]]]}},
{"type":"Feature","properties":{"highway":"track","name":null,"category":"Track"},"geometry":{"type":"MultiLineString","coordinates":[[[-1.2289393,50.7234605],[-1.2289483,50.7234717],[-1.2290308,50.7235824],[-1.2294629,50.7235005],[-1.2298496,50.7234474],[-1.2301206,50.7234364],[-1.231222,50.7233013],[-1.2320985,50.7232721],[-1.2332979,50.722783],[-1.2337419,50.7227611],[-1.2341225,50.7226917],[-1.2348721,50.7227939],[-1.235006,50.7224944]]]}},
{"type":"Feature","properties":{"highway":"track","name":null,"category":"Track"},"geometry":{"type":"MultiLineString","coordinates":[[[-1.2348721,50.7227939],[-1.2353054,50.722841],[-1.2358374,50.7226334],[-1.2359432,50.7226047]]]}},
{"type":"Feature","properties":{"highway":"track","name":null,"category":"Track"},"geometry":{"type":"MultiLineString","coordinates":[[[-1.2390229,50.7167874],[-1.2389939,50.7168543],[-1.2386782,50.7171833],[-1.238554,50.7173191],[-1.2384322,50.717286],[-1.2384188,50.7172283]]]}},
{"type":"Feature","properties":{"highway":"bridleway","name":null,"category":"Bridleway"},"geometry":{"type":"MultiLineString","coordinates":[[[-1.239412,50.7165403],[-1.2394084,50.7165],[-1.2396593,50.7162127],[-1.2398871,50.7159635],[-1.2402508,50.7155402],[-1.2412288,50.7145131]]]}},
{"type":"Feature","properties":{"highway":"track","name":null,"category":"Track"},"geometry":{"type":"MultiLineString","coordinates":[[[-1.2478236,50.7203788],[-1.2478105,50.7201966]]]}},
{"type":"Feature","properties":{"highway":"track","name":null,"category":"Track"},"geometry":{"type":"MultiLineString","coordinates":[[[-1.2478092,50.7207256],[-1.2478176,50.7205027]]]}},
{"type":"Feature","properties":{"highway":"track","name":null,"category":"Track"},"geometry":{"type":"MultiLineString","coordinates":[[[-1.2478176,50.7205027],[-1.2478236,50.7203788]]]}},
{"type":"Feature","properties":{"highway":"track","name":null,"category":"Track"},"geometry":{"type":"MultiLineString","coordinates":[[[-1.2339648,50.7380956],[-1.2346171,50.7372034],[-1.2349615,50.736445],[-1.2352324,50.7357935],[-1.2353438,50.7355204],[-1.2354267,50.7353445],[-1.2353531,50.7351294],[-1.2353726,50.7350296],[-1.2354252,50.7349357],[-1.2361359,50.7345657],[-1.2365611,50.7343489],[-1.2369912,50.7341811],[-1.2372229,50.7341278],[-1.2373736,50.7341408],[-1.2388047,50.7342789],[-1.2403865,50.7324841],[-1.2412869,50.7314662],[-1.2415241,50.7313692],[-1.2417562,50.7311249],[-1.2417482,50.7309704],[-1.2418946,50.7306675],[-1.2420341,50.7306217],[-1.2422868,50.730265],[-1.2423113,50.7302282],[-1.2423783,50.7301273],[-1.2424526,50.7300309],[-1.2426784,50.7298075],[-1.2427261,50.7297603]]]}},
{"type":"Feature","properties":{"highway":"track","name":null,"category":"Track"},"geometry":{"type":"MultiLineString","coordinates":[[[-1.2412288,50.7145131],[-1.2413603,50.7145286],[-1.2418912,50.7137179]]]}},
{"type":"Feature","properties":{"highway":"track","name":null,"category":"Track"},"geometry":{"type":"MultiLineString","coordinates":[[[-1.2423783,50.7301273],[-1.2420082,50.7300271],[-1.2418789,50.7299395],[-1.2413934,50.7297816]]]}},
{"type":"Feature","properties":{"highway":"track","name":null,"category":"Track"},"geometry":{"type":"MultiLineString","coordinates":[[[-1.2457003,50.7245373],[-1.2457324,50.724634],[-1.2457029,50.7247818],[-1.2456493,50.7248836]]]}},
{"type":"Feature","properties":{"highway":"track","name":null,"category":"Track"},"geometry":{"type":"MultiLineString","coordinates":[[[-1.2462045,50.7291939],[-1.2462126,50.7291192],[-1.2463708,50.7289324],[-1.2466229,50.7287728],[-1.2474196,50.7284791],[-1.2482779,50.7280835],[-1.2482215,50.7279239]]]}},
{"type":"Feature","properties":{"highway":"track","name":null,"category":"Track"},"geometry":{"type":"MultiLineString","coordinates":[[[-1.2462528,50.7294876],[-1.2462018,50.7294061],[-1.2462045,50.7291939],[-1.246065,50.7291124],[-1.2457673,50.7284978],[-1.2456198,50.7281973],[-1.2454937,50.7280716],[-1.2454991,50.7278849]]]}},
{"type":"Feature","properties":{"highway":"footway","name":null,"category":"Footpath (pedestrian only)"},"geometry":{"type":"MultiLineString","coordinates":[[[-1.2482023,50.7242976],[-1.2483984,50.7242917],[-1.2484467,50.7242399],[-1.2484641,50.7241168]]]}},
{"type":"Feature","properties":{"highway":"footway","name":null,"category":"Footpath (pedestrian only)"},"geometry":{"type":"MultiLineString","coordinates":[[[-1.2386789,50.7255462],[-1.2384183,50.7254965]]]}},
{"type":"Feature","properties":{"highway":"footway","name":null,"category":"Footpath (pedestrian only)"},"geometry":{"type":"MultiLineString","coordinates":[[[-1.2351075,50.7258694],[-1.2351203,50.7257829],[-1.2351433,50.7256279]]]}},
{"type":"Feature","properties":{"highway":"footway","name":null,"category":"Footpath (pedestrian only)"},"geometry":{"type":"MultiLineString","coordinates":[[[-1.2364205,50.72586],[-1.2359404,50.7258333],[-1.2355416,50.7258105],[-1.2351203,50.7257829],[-1.2349158,50.7258003],[-1.2347776,50.7258676],[-1.2345517,50.7258922]]]}},
{"type":"Feature","properties":{"highway":"footway","name":null,"category":"Footpath (pedestrian only)"},"geometry":{"type":"MultiLineString","coordinates":[[[-1.2456907,50.7293108],[-1.245651,50.729325],[-1.2456061,50.7293298],[-1.2455612,50.7293246],[-1.2455333,50.7293142],[-1.2455219,50.72931],[-1.2454929,50.7292878],[-1.2454776,50.7292606],[-1.245478,50.7292317],[-1.2454939,50.7292047],[-1.2455234,50.7291827],[-1.2455631,50.7291685],[-1.245608,50.7291637],[-1.2456529,50.7291689],[-1.2456922,50.7291835],[-1.2457212,50.7292058],[-1.2457365,50.7292329],[-1.2457361,50.7292618],[-1.2457202,50.7292888],[-1.2456907,50.7293108]]]}},
{"type":"Feature","properties":{"highway":"footway","name":null,"category":"Footpath (pedestrian only)"},"geometry":{"type":"MultiLineString","coordinates":[[[-1.2455333,50.7293142],[-1.2453623,50.7294451]]]}},
{"type":"Feature","properties":{"highway":"footway","name":null,"category":"Footpath (pedestrian only)"},"geometry":{"type":"MultiLineString","coordinates":[[[-1.2456922,50.7291835],[-1.2457376,50.7291483]]]}},
{"type":"Feature","properties":{"highway":"footway","name":null,"category":"Footpath (pedestrian only)"},"geometry":{"type":"MultiLineString","coordinates":[[[-1.2451544,50.7293438],[-1.2453623,50.7294451],[-1.2455431,50.7295308],[-1.2453205,50.7297106]]]}},
{"type":"Feature","properties":{"highway":"track","name":null,"category":"Track"},"geometry":{"type":"MultiLineString","coordinates":[[[-1.2345943,50.7204601],[-1.234524,50.7202777],[-1.234425,50.720122],[-1.2342998,50.7200546],[-1.2340021,50.7199528]]]}},
{"type":"Feature","properties":{"highway":"track","name":null,"category":"Track"},"geometry":{"type":"MultiLineString","coordinates":[[[-1.24716,50.717255],[-1.2469906,50.7172626],[-1.2466142,50.7173871],[-1.2464825,50.7174846]]]}},
{"type":"Feature","properties":{"highway":"footway","name":null,"category":"Footpath (pedestrian only)"},"geometry":{"type":"MultiLineString","coordinates":[[[-1.2417043,50.7190749],[-1.241799,50.7190006],[-1.241515,50.7188267],[-1.2414444,50.7188484],[-1.2413571,50.7188891],[-1.2413163,50.7188879],[-1.2412975,50.7188704],[-1.2413156,50.7188517],[-1.2413746,50.7187991],[-1.2414182,50.7187515]]]}},
{"type":"Feature","properties":{"highway":"footway","name":null,"category":"Footpath (pedestrian only)"},"geometry":{"type":"MultiLineString","coordinates":[[[-1.2414182,50.7187515],[-1.2413115,50.7186737]]]}},
{"type":"Feature","properties":{"highway":"track","name":null,"category":"Track"},"geometry":{"type":"MultiLineString","coordinates":[[[-1.2418435,50.7191539],[-1.2420045,50.7190282],[-1.2419564,50.7190064],[-1.2418032,50.7189333],[-1.2414182,50.7187515]]]}},
{"type":"Feature","properties":{"highway":"track","name":null,"category":"Track"},"geometry":{"type":"MultiLineString","coordinates":[[[-1.2299742,50.7232709],[-1.230175,50.7231921],[-1.2306176,50.7231259],[-1.2308899,50.7230724],[-1.2312104,50.7230826],[-1.2315658,50.72308],[-1.2319265,50.723052],[-1.2321679,50.7229654],[-1.232345,50.7228092],[-1.2325153,50.7226844],[-1.2326387,50.7226063],[-1.2328278,50.7225341],[-1.233041,50.7224662],[-1.2334219,50.7222157],[-1.233674,50.7220451],[-1.2340267,50.7218311],[-1.2343459,50.7216146],[-1.2345618,50.7216205]]]}},
{"type":"Feature","properties":{"highway":"track","name":null,"category":"Track"},"geometry":{"type":"MultiLineString","coordinates":[[[-1.2485442,50.7278207],[-1.2488191,50.7277426],[-1.2490162,50.7276381],[-1.2492,50.7274352]]]}},
{"type":"Feature","properties":{"highway":"track","name":null,"category":"Track"},"geometry":{"type":"MultiLineString","coordinates":[[[-1.2482779,50.7280835],[-1.2484704,50.7278869],[-1.2485442,50.7278207],[-1.2485965,50.7277052],[-1.2486407,50.7273563],[-1.2485616,50.7269615],[-1.2485576,50.7266687],[-1.2485965,50.7263758],[-1.2487574,50.7259751],[-1.249043,50.7255922],[-1.2495339,50.7251821],[-1.2500972,50.7249206],[-1.2501568,50.7248447],[-1.2501919,50.7247475]]]}},
{"type":"Feature","properties":{"highway":"footway","name":null,"category":"Footpath (pedestrian only)"},"geometry":{"type":"MultiLineString","coordinates":[[[-1.2389832,50.7238442],[-1.2382954,50.723845],[-1.2382646,50.7239171]]]}},
{"type":"Feature","properties":{"highway":"footway","name":null,"category":"Footpath (pedestrian only)"},"geometry":{"type":"MultiLineString","coordinates":[[[-1.2394991,50.7231093],[-1.2398406,50.7232297]]]}},
{"type":"Feature","properties":{"highway":"track","name":null,"category":"Track"},"geometry":{"type":"MultiLineString","coordinates":[[[-1.2387541,50.7173964],[-1.238662,50.7173529],[-1.2386267,50.7173421],[-1.238554,50.7173191]]]}},
{"type":"Feature","properties":{"highway":"track","name":null,"category":"Track"},"geometry":{"type":"MultiLineString","coordinates":[[[-1.2381975,50.7206426],[-1.2382778,50.7206545],[-1.238392,50.7206688]]]}},
{"type":"Feature","properties":{"highway":"track","name":null,"category":"Track"},"geometry":{"type":"MultiLineString","coordinates":[[[-1.2413603,50.7145286],[-1.2413512,50.7145442],[-1.2413035,50.7146078]]]}},
{"type":"Feature","properties":{"highway":"track","name":null,"category":"Track"},"geometry":{"type":"MultiLineString","coordinates":[[[-1.2453214,50.716758],[-1.2454547,50.7166602]]]}},
{"type":"Feature","properties":{"highway":"footway","name":null,"category":"Footpath (pedestrian only)"},"geometry":{"type":"MultiLineString","coordinates":[[[-1.236766,50.7282426],[-1.2382974,50.7284957],[-1.2388828,50.7281535],[-1.2390129,50.72765]]]}},
{"type":"Feature","properties":{"highway":"track","name":"Littletown lane","category":"Track"},"geometry":{"type":"MultiLineString","coordinates":[[[-1.2447542,50.7150953],[-1.2447159,50.7148958],[-1.2446602,50.7147263],[-1.2445203,50.7144788],[-1.244253,50.7141969],[-1.2439168,50.7137977],[-1.2438825,50.7137603],[-1.2438338,50.7137412],[-1.243546,50.7137784],[-1.2418912,50.7137179]]]}},
{"type":"Feature","properties":{"highway":"footway","name":null,"category":"Footpath (pedestrian only)"},"geometry":{"type":"MultiLineString","coordinates":[[[-1.2341408,50.7232923],[-1.2342185,50.7231556],[-1.2342212,50.7230367],[-1.2341152,50.7229747]]]}},
{"type":"Feature","properties":{"highway":"footway","name":null,"category":"Footpath (pedestrian only)"},"geometry":{"type":"MultiLineString","coordinates":[[[-1.2423171,50.7245931],[-1.242302,50.7245934]]]}},
{"type":"Feature","properties":{"highway":"footway","name":null,"category":"Footpath (pedestrian only)"},"geometry":{"type":"MultiLineString","coordinates":[[[-1.242418,50.7245917],[-1.2424083,50.7245918]]]}},
{"type":"Feature","properties":{"highway":"footway","name":null,"category":"Footpath (pedestrian only)"},"geometry":{"type":"MultiLineString","coordinates":[[[-1.2424083,50.7245918],[-1.2423567,50.7245926],[-1.2423171,50.7245931]]]}},
{"type":"Feature","properties":{"highway":"footway","name":null,"category":"Footpath (pedestrian only)"},"geometry":{"type":"MultiLineString","coordinates":[[[-1.2409326,50.7246038],[-1.2409844,50.7246006]]]}},
{"type":"Feature","properties":{"highway":"footway","name":null,"category":"Footpath (pedestrian only)"},"geometry":{"type":"MultiLineString","coordinates":[[[-1.2409844,50.7246006],[-1.2410373,50.7245598],[-1.24127,50.7245662],[-1.2414759,50.724559],[-1.2422497,50.7245568],[-1.2422859,50.7245713],[-1.242302,50.7245934],[-1.2422718,50.7249448]]]}},
{"type":"Feature","properties":{"highway":"footway","name":null,"category":"Footpath (pedestrian only)"},"geometry":{"type":"MultiLineString","coordinates":[[[-1.2422718,50.7249448],[-1.2423325,50.7249558]]]}},
{"type":"Feature","properties":{"highway":"footway","name":null,"category":"Footpath (pedestrian only)"},"geometry":{"type":"MultiLineString","coordinates":[[[-1.2428867,50.7245213],[-1.2428766,50.7245602]]]}},
{"type":"Feature","properties":{"highway":"footway","name":null,"category":"Footpath (pedestrian only)"},"geometry":{"type":"MultiLineString","coordinates":[[[-1.24238,50.7253955],[-1.2423912,50.7253672]]]}},
{"type":"Feature","properties":{"highway":"footway","name":null,"category":"Footpath (pedestrian only)"},"geometry":{"type":"MultiLineString","coordinates":[[[-1.2428766,50.7245602],[-1.2424656,50.7245628],[-1.242418,50.7245917],[-1.2424138,50.7246421],[-1.2423878,50.7249576],[-1.2424167,50.7250004],[-1.2424321,50.7250539],[-1.2423912,50.7253672]]]}}
]
}
