{
"type": "FeatureCollection",
"name": "SOUT5_93_cycling",
"crs": { "type": "name", "properties": { "name": "urn:ogc:def:crs:OGC:1.3:CRS84" } },
"features": [
{"type":"Feature","properties":{"highway":"cycleway","name":"Monks Brook Greenway","category":"Dedicated cycleway"},"geometry":{"type":"MultiLineString","coordinates":[[[-1.374269,50.9404159],[-1.3742452,50.940558],[-1.3741615,50.940675],[-1.3741447,50.9408127],[-1.3741769,50.9410663],[-1.3741596,50.9411561],[-1.3741265,50.941226],[-1.3741891,50.9413952],[-1.3742208,50.9415101],[-1.3741946,50.9416029],[-1.3740784,50.9417621],[-1.3740059,50.9418114],[-1.3739449,50.9418529]]]}},
{"type":"Feature","properties":{"highway":"cycleway","name":null,"category":"Dedicated cycleway"},"geometry":{"type":"MultiLineString","coordinates":[[[-1.3762326,50.9424053],[-1.3761881,50.9423736],[-1.3761574,50.9423424],[-1.3761399,50.9423133],[-1.3761348,50.9422865],[-1.3760901,50.9422883]]]}},
{"type":"Feature","properties":{"highway":"cycleway","name":null,"category":"Dedicated cycleway"},"geometry":{"type":"MultiLineString","coordinates":[[[-1.374269,50.9404159],[-1.374211,50.9403796],[-1.3740101,50.9403097],[-1.3737996,50.9402506]]]}},
{"type":"Feature","properties":{"highway":"cycleway","name":"Monks Brook Greenway","category":"Dedicated cycleway"},"geometry":{"type":"MultiLineString","coordinates":[[[-1.3739449,50.9418529],[-1.3738035,50.941943]]]}},
{"type":"Feature","properties":{"highway":"path","name":null,"category":"Shared path"},"geometry":{"type":"MultiLineString","coordinates":[[[-1.3768646,50.9477896],[-1.3769545,50.947555],[-1.3770617,50.9473639],[-1.3772853,50.9471732],[-1.3773504,50.9471373],[-1.3775627,50.9468796],[-1.3777656,50.9465442],[-1.3778135,50.946356],[-1.3778324,50.9461503],[-1.3779188,50.945872],[-1.378055,50.9456858],[-1.3781612,50.9455888],[-1.3781152,50.9454361],[-1.3779772,50.9453469],[-1.3778049,50.9452775]]]}},
{"type":"Feature","properties":{"highway":"path","name":null,"category":"Shared path"},"geometry":{"type":"MultiLineString","coordinates":[[[-1.3712511,50.9481719],[-1.3711759,50.948121],[-1.3710647,50.9480388],[-1.370808,50.9478585],[-1.3707007,50.9477115],[-1.3706622,50.947606],[-1.3706399,50.9474625],[-1.3706419,50.9473626],[-1.3706948,50.9472397],[-1.3707903,50.947077],[-1.3708635,50.9469592],[-1.3709834,50.9467709],[-1.3710525,50.9466621],[-1.3711725,50.9464098],[-1.3712619,50.9463317],[-1.3712975,50.9463147],[-1.3713778,50.9462766],[-1.3715018,50.9462407],[-1.3715579,50.9461856]]]}},
{"type":"Feature","properties":{"highway":"path","name":null,"category":"Shared path"},"geometry":{"type":"MultiLineString","coordinates":[[[-1.3720665,50.9462829],[-1.3720968,50.9463445],[-1.3720267,50.9464518],[-1.3720221,50.9465386],[-1.3720138,50.9465976],[-1.3719536,50.9467202],[-1.3717359,50.9471707],[-1.3716368,50.9473658],[-1.3714634,50.9476657],[-1.3711759,50.948121],[-1.3711467,50.9482142],[-1.371083,50.9483146],[-1.3708954,50.9485007],[-1.370802,50.9485409],[-1.3704442,50.9485383]]]}},
{"type":"Feature","properties":{"highway":"path","name":null,"category":"Shared path"},"geometry":{"type":"MultiLineString","coordinates":[[[-1.3720138,50.9465976],[-1.3717232,50.946533],[-1.3715126,50.9464627],[-1.3712975,50.9463147]]]}},
{"type":"Feature","properties":{"highway":"cycleway","name":null,"category":"Dedicated cycleway"},"geometry":{"type":"MultiLineString","coordinates":[[[-1.3775569,50.9408487],[-1.3775107,50.9408632],[-1.3774623,50.9408955],[-1.3773321,50.9410003],[-1.3771523,50.9411659],[-1.3771293,50.941194],[-1.3771235,50.9412152],[-1.3771271,50.9412409],[-1.3771414,50.941302]]]}},
{"type":"Feature","properties":{"highway":"cycleway","name":null,"category":"Dedicated cycleway"},"geometry":{"type":"MultiLineString","coordinates":[[[-1.3772491,50.9409608],[-1.3773321,50.9410003]]]}},
{"type":"Feature","properties":{"highway":"cycleway","name":null,"category":"Dedicated cycleway"},"geometry":{"type":"MultiLineString","coordinates":[[[-1.3775569,50.9408487],[-1.3775946,50.9407945],[-1.3777608,50.9406753],[-1.3778401,50.9406352],[-1.3779986,50.9405709],[-1.3780869,50.940552],[-1.3781692,50.9405474],[-1.3782086,50.940523]]]}},
{"type":"Feature","properties":{"highway":"cycleway","name":null,"category":"Dedicated cycleway"},"geometry":{"type":"MultiLineString","coordinates":[[[-1.3771414,50.941302],[-1.3769465,50.9414683],[-1.3767925,50.9416046],[-1.3766742,50.9417256],[-1.376337,50.942068],[-1.3761533,50.9422535],[-1.3761348,50.9422865]]]}},
{"type":"Feature","properties":{"highway":"cycleway","name":null,"category":"Dedicated cycleway"},"geometry":{"type":"MultiLineString","coordinates":[[[-1.3736465,50.9420801],[-1.3738768,50.9421007],[-1.3740251,50.9421105]]]}},
{"type":"Feature","properties":{"highway":"cycleway","name":null,"category":"Dedicated cycleway"},"geometry":{"type":"MultiLineString","coordinates":[[[-1.3742335,50.9421244],[-1.3744562,50.942143]]]}},
{"type":"Feature","properties":{"highway":"cycleway","name":null,"category":"Dedicated cycleway"},"geometry":{"type":"MultiLineString","coordinates":[[[-1.3744562,50.942143],[-1.3747547,50.9421634],[-1.3750262,50.9421784]]]}},
{"type":"Feature","properties":{"highway":"cycleway","name":null,"category":"Dedicated cycleway"},"geometry":{"type":"MultiLineString","coordinates":[[[-1.3796104,50.9401176],[-1.3795012,50.9401354],[-1.3793954,50.9401485]]]}},
{"type":"Feature","properties":{"highway":"cycleway","name":null,"category":"Dedicated cycleway"},"geometry":{"type":"MultiLineString","coordinates":[[[-1.3760901,50.9422883],[-1.3759886,50.9422924],[-1.3759054,50.9422971]]]}},
{"type":"Feature","properties":{"highway":"cycleway","name":null,"category":"Dedicated cycleway"},"geometry":{"type":"MultiLineString","coordinates":[[[-1.3750262,50.9421784],[-1.3750621,50.9421708],[-1.3750958,50.9421554]]]}},
{"type":"Feature","properties":{"highway":"cycleway","name":null,"category":"Dedicated cycleway"},"geometry":{"type":"MultiLineString","coordinates":[[[-1.3756144,50.9422046],[-1.3756767,50.9422842]]]}},
{"type":"Feature","properties":{"highway":"cycleway","name":null,"category":"Dedicated cycleway"},"geometry":{"type":"MultiLineString","coordinates":[[[-1.3755707,50.9422662],[-1.3755459,50.9422456],[-1.375489,50.9422251],[-1.3754571,50.9421978]]]}},
{"type":"Feature","properties":{"highway":"cycleway","name":null,"category":"Dedicated cycleway"},"geometry":{"type":"MultiLineString","coordinates":[[[-1.3740381,50.9420617],[-1.3740251,50.9421105]]]}},
{"type":"Feature","properties":{"highway":"path","name":null,"category":"Shared path"},"geometry":{"type":"MultiLineString","coordinates":[[[-1.3701645,50.9477571],[-1.3700601,50.9478118],[-1.3700138,50.947933],[-1.3699543,50.9479781],[-1.3698279,50.9479768],[-1.3697005,50.9479492],[-1.3696669,50.9479077],[-1.3697836,50.9477085],[-1.3698374,50.947484],[-1.3698225,50.9472362],[-1.3699924,50.9469626],[-1.3701171,50.9468825],[-1.3703664,50.9467653],[-1.3705783,50.9465387],[-1.3707632,50.9463527],[-1.3709357,50.9462097],[-1.3710915,50.9460435],[-1.3712122,50.9459567]]]}},
{"type":"Feature","properties":{"highway":"cycleway","name":null,"category":"Dedicated cycleway"},"geometry":{"type":"MultiLineString","coordinates":[[[-1.3736465,50.9420801],[-1.373512,50.9420667],[-1.3734103,50.94207],[-1.373338,50.9420813],[-1.3732592,50.9420965],[-1.3728856,50.9422039],[-1.3727181,50.9422843],[-1.3726188,50.9423463],[-1.3725731,50.9423788]]]}},
{"type":"Feature","properties":{"highway":"cycleway","name":null,"category":"Dedicated cycleway"},"geometry":{"type":"MultiLineString","coordinates":[[[-1.3793503,50.9402133],[-1.3792668,50.9402379],[-1.3792095,50.940251],[-1.3791734,50.9402647],[-1.3791364,50.9402817],[-1.3790534,50.9403204],[-1.3790265,50.940404]]]}},
{"type":"Feature","properties":{"highway":"cycleway","name":null,"category":"Dedicated cycleway"},"geometry":{"type":"MultiLineString","coordinates":[[[-1.3740251,50.9421105],[-1.3741985,50.9421221],[-1.3742335,50.9421244]]]}},
{"type":"Feature","properties":{"highway":"cycleway","name":null,"category":"Dedicated cycleway"},"geometry":{"type":"MultiLineString","coordinates":[[[-1.3737919,50.9419542],[-1.3737722,50.9419732],[-1.3737485,50.9419924]]]}},
{"type":"Feature","properties":{"highway":"cycleway","name":null,"category":"Dedicated cycleway"},"geometry":{"type":"MultiLineString","coordinates":[[[-1.3762305,50.9420216],[-1.376337,50.942068]]]}},
{"type":"Feature","properties":{"highway":"track","name":null,"category":"Track"},"geometry":{"type":"MultiLineString","coordinates":[[[-1.3798106,50.9422512],[-1.3797535,50.9423812],[-1.379568,50.9427682],[-1.3794374,50.9430261]]]}},
{"type":"Feature","properties":{"highway":"cycleway","name":null,"category":"Dedicated cycleway"},"geometry":{"type":"MultiLineString","coordinates":[[[-1.3796827,50.9402432],[-1.379646,50.9401751],[-1.3796104,50.9401176]]]}},
{"type":"Feature","properties":{"highway":"cycleway","name":null,"category":"Dedicated cycleway"},"geometry":{"type":"MultiLineString","coordinates":[[[-1.3793954,50.9401485],[-1.3793456,50.940143],[-1.3792765,50.9400967],[-1.3791811,50.9400267],[-1.379121,50.9399882]]]}},
{"type":"Feature","properties":{"highway":"cycleway","name":null,"category":"Dedicated cycleway"},"geometry":{"type":"MultiLineString","coordinates":[[[-1.3793954,50.9401485],[-1.3793701,50.9401846],[-1.3793503,50.9402133]]]}},
{"type":"Feature","properties":{"highway":"cycleway","name":null,"category":"Dedicated cycleway"},"geometry":{"type":"MultiLineString","coordinates":[[[-1.3757061,50.9422921],[-1.3756767,50.9422842],[-1.3755707,50.9422662]]]}},
{"type":"Feature","properties":{"highway":"path","name":null,"category":"Shared path"},"geometry":{"type":"MultiLineString","coordinates":[[[-1.3722363,50.9466302],[-1.3720138,50.9465976]]]}},
{"type":"Feature","properties":{"highway":"track","name":null,"category":"Track"},"geometry":{"type":"MultiLineString","coordinates":[[[-1.3741633,50.9420741],[-1.3741767,50.9420401],[-1.3741921,50.9419868],[-1.3741965,50.9419594],[-1.3741577,50.9419188],[-1.3740059,50.9418114]]]}},
{"type":"Feature","properties":{"highway":"path","name":null,"category":"Shared path"},"geometry":{"type":"MultiLineString","coordinates":[[[-1.3809378,50.9434321],[-1.3813977,50.9434669]]]}},
{"type":"Feature","properties":{"highway":"cycleway","name":null,"category":"Dedicated cycleway"},"geometry":{"type":"MultiLineString","coordinates":[[[-1.3797162,50.9401613],[-1.379646,50.9401751]]]}},
{"type":"Feature","properties":{"highway":"cycleway","name":null,"category":"Dedicated cycleway"},"geometry":{"type":"MultiLineString","coordinates":[[[-1.3795834,50.940263],[-1.3796827,50.9402432]]]}},
{"type":"Feature","properties":{"highway":"cycleway","name":null,"category":"Dedicated cycleway"},"geometry":{"type":"MultiLineString","coordinates":[[[-1.3762203,50.9424535],[-1.3762326,50.9424053]]]}},
{"type":"Feature","properties":{"highway":"cycleway","name":null,"category":"Dedicated cycleway"},"geometry":{"type":"MultiLineString","coordinates":[[[-1.373667,50.941887],[-1.3737521,50.9418865]]]}},
{"type":"Feature","properties":{"highway":"cycleway","name":null,"category":"Dedicated cycleway"},"geometry":{"type":"MultiLineString","coordinates":[[[-1.3737521,50.9418865],[-1.3737623,50.9419097],[-1.3737778,50.9419268],[-1.3738035,50.941943]]]}},
{"type":"Feature","properties":{"highway":"track","name":null,"category":"Track"},"geometry":{"type":"MultiLineString","coordinates":[[[-1.3819706,50.9472368],[-1.3817574,50.9472355],[-1.3814329,50.9472165],[-1.3811827,50.9471954],[-1.3810211,50.9471607],[-1.3810218,50.9471502],[-1.3810322,50.9469783],[-1.3810484,50.9467263],[-1.3811239,50.9465973],[-1.3811655,50.9462362],[-1.3812194,50.9461896]]]}},
{"type":"Feature","properties":{"highway":"track","name":null,"category":"Track"},"geometry":{"type":"MultiLineString","coordinates":[[[-1.3795788,50.9472699],[-1.3796681,50.9473106],[-1.3797544,50.9473873],[-1.3798576,50.9474358],[-1.3803625,50.9474976],[-1.3805853,50.947478]]]}},
{"type":"Feature","properties":{"highway":"path","name":null,"category":"Shared path"},"geometry":{"type":"MultiLineString","coordinates":[[[-1.3791998,50.9404228],[-1.3792567,50.9403004]]]}},
{"type":"Feature","properties":{"highway":"cycleway","name":null,"category":"Dedicated cycleway"},"geometry":{"type":"MultiLineString","coordinates":[[[-1.3758183,50.9423249],[-1.3757597,50.9423065],[-1.3757061,50.9422921]]]}},
{"type":"Feature","properties":{"highway":"cycleway","name":null,"category":"Dedicated cycleway"},"geometry":{"type":"MultiLineString","coordinates":[[[-1.3759054,50.9422971],[-1.3758183,50.9423249]]]}},
{"type":"Feature","properties":{"highway":"cycleway","name":null,"category":"Dedicated cycleway"},"geometry":{"type":"MultiLineString","coordinates":[[[-1.373654,50.9420696],[-1.3736465,50.9420801]]]}},
{"type":"Feature","properties":{"highway":"cycleway","name":null,"category":"Dedicated cycleway"},"geometry":{"type":"MultiLineString","coordinates":[[[-1.3737248,50.9420117],[-1.3736941,50.9420366],[-1.373654,50.9420696]]]}},
{"type":"Feature","properties":{"highway":"cycleway","name":null,"category":"Dedicated cycleway"},"geometry":{"type":"MultiLineString","coordinates":[[[-1.3737485,50.9419924],[-1.3737248,50.9420117]]]}},
{"type":"Feature","properties":{"highway":"cycleway","name":null,"category":"Dedicated cycleway"},"geometry":{"type":"MultiLineString","coordinates":[[[-1.3738035,50.941943],[-1.3737919,50.9419542]]]}},
{"type":"Feature","properties":{"highway":"path","name":null,"category":"Shared path"},"geometry":{"type":"MultiLineString","coordinates":[[[-1.370808,50.9478585],[-1.3705972,50.9479039],[-1.3705069,50.9479036],[-1.3701645,50.9477571]]]}},
{"type":"Feature","properties":{"highway":"cycleway","name":null,"category":"Dedicated cycleway"},"geometry":{"type":"MultiLineString","coordinates":[[[-1.371586,50.9431667],[-1.3715647,50.9431836],[-1.3701144,50.944336]]]}},
{"type":"Feature","properties":{"highway":"cycleway","name":null,"category":"Dedicated cycleway"},"geometry":{"type":"MultiLineString","coordinates":[[[-1.3716882,50.9430845],[-1.3716327,50.9431305],[-1.371586,50.9431667]]]}},
{"type":"Feature","properties":{"highway":"cycleway","name":null,"category":"Dedicated cycleway"},"geometry":{"type":"MultiLineString","coordinates":[[[-1.3721212,50.9427399],[-1.3717069,50.9430696],[-1.3716882,50.9430845]]]}},
{"type":"Feature","properties":{"highway":"cycleway","name":null,"category":"Dedicated cycleway"},"geometry":{"type":"MultiLineString","coordinates":[[[-1.372227,50.9426547],[-1.3721728,50.9426986],[-1.3721212,50.9427399]]]}},
{"type":"Feature","properties":{"highway":"cycleway","name":null,"category":"Dedicated cycleway"},"geometry":{"type":"MultiLineString","coordinates":[[[-1.3724844,50.9424461],[-1.3724336,50.9424873],[-1.372227,50.9426547]]]}},
{"type":"Feature","properties":{"highway":"cycleway","name":null,"category":"Dedicated cycleway"},"geometry":{"type":"MultiLineString","coordinates":[[[-1.3725731,50.9423788],[-1.3725274,50.9424112],[-1.3724844,50.9424461]]]}},
{"type":"Feature","properties":{"highway":"cycleway","name":null,"category":"Dedicated cycleway"},"geometry":{"type":"MultiLineString","coordinates":[[[-1.3739323,50.9503191],[-1.3738561,50.9505906],[-1.3737971,50.9508239],[-1.3735085,50.951647],[-1.3734556,50.9521029],[-1.3735044,50.9525422],[-1.3735268,50.9527816],[-1.3735535,50.9530047],[-1.3735634,50.953226],[-1.3735816,50.9536886],[-1.3736033,50.95405],[-1.3736183,50.9542337],[-1.3736366,50.9543592],[-1.3736735,50.9544749]]]}},
{"type":"Feature","properties":{"highway":"cycleway","name":null,"category":"Dedicated cycleway"},"geometry":{"type":"MultiLineString","coordinates":[[[-1.3765126,50.9473523],[-1.3765743,50.9473909],[-1.3757532,50.9479435],[-1.3752221,50.9482572],[-1.3750412,50.9483853],[-1.3749314,50.9484839],[-1.3746956,50.9487337],[-1.3744273,50.9490769],[-1.3742728,50.9493316],[-1.3742301,50.9494175],[-1.3741346,50.9496269]]]}},
{"type":"Feature","properties":{"highway":"path","name":null,"category":"Shared path"},"geometry":{"type":"MultiLineString","coordinates":[[[-1.3741346,50.9496269],[-1.3739323,50.9503191]]]}},
{"type":"Feature","properties":{"highway":"path","name":null,"category":"Shared path"},"geometry":{"type":"MultiLineString","coordinates":[[[-1.3746676,50.9536389],[-1.3747331,50.9535397],[-1.3747778,50.9534693],[-1.374803,50.9534429],[-1.3748174,50.9534278]]]}}
]
}
