{
"type": "FeatureCollection",
"name": "MOLVA_1481_walking",
"crs": { "type": "name", "properties": { "name": "urn:ogc:def:crs:OGC:1.3:CRS84" } },
"features": [
{"type":"Feature","properties":{"highway":"footway","name":null,"category":"Footpath (pedestrian only)"},"geometry":{"type":"MultiLineString","coordinates":[[[-0.3881981,51.1261591],[-0.3877564,51.1266519],[-0.3879356,51.1267488],[-0.38871,51.126962],[-0.389051,51.1270935],[-0.3889816,51.1274556],[-0.388828,51.127948],[-0.3885812,51.1287505],[-0.3886135,51.1293324],[-0.3887658,51.1299678],[-0.388789,51.1300175],[-0.3888122,51.1300475],[-0.3888452,51.1300739],[-0.3889022,51.1301014],[-0.388985,51.1301313],[-0.3891058,51.1301601],[-0.3892518,51.130186],[-0.3892891,51.1301964],[-0.3893599,51.1302145],[-0.3893991,51.1302271],[-0.3894282,51.1302396],[-0.3894627,51.1302573],[-0.3894973,51.1302764],[-0.3896685,51.130369],[-0.3896895,51.1303814],[-0.389702,51.1303912],[-0.3897121,51.1304039],[-0.3897165,51.1304193],[-0.3897232,51.1304487],[-0.389728,51.1304769],[-0.3897297,51.1304873]]]}},
{"type":"Feature","properties":{"highway":"footway","name":null,"category":"Footpath (pedestrian only)"},"geometry":{"type":"MultiLineString","coordinates":[[[-0.3918719,51.1353432],[-0.3916676,51.134959],[-0.3916298,51.1348879],[-0.3916007,51.1348162],[-0.3915742,51.1347398],[-0.3914445,51.1342152],[-0.3914025,51.1340607],[-0.391394,51.1340337],[-0.3913972,51.1340124],[-0.3914085,51.1339954],[-0.3914231,51.1339825],[-0.391474,51.1339427],[-0.3914929,51.1339232],[-0.391509,51.1338958],[-0.3915161,51.1338689],[-0.3915667,51.1335541],[-0.3915897,51.133306],[-0.3915866,51.1332867],[-0.3915812,51.1332661],[-0.3915691,51.1332293],[-0.3915005,51.133112],[-0.3914911,51.1330852],[-0.3914844,51.1330476],[-0.3914064,51.1323551],[-0.39166,51.1315216],[-0.3916578,51.1314939],[-0.3916343,51.1314674],[-0.3915912,51.1314472],[-0.3915094,51.131423],[-0.3913694,51.1313989],[-0.3908686,51.1313344],[-0.3908217,51.1313194],[-0.3907848,51.1312964],[-0.3907396,51.1312583],[-0.3906879,51.1311985],[-0.3906531,51.1311575],[-0.3906094,51.1310827]]]}},
{"type":"Feature","properties":{"highway":"footway","name":null,"category":"Footpath (pedestrian only)"},"geometry":{"type":"MultiLineString","coordinates":[[[-0.3903647,51.130917],[-0.3905854,51.1309469],[-0.3906269,51.1309546]]]}},
{"type":"Feature","properties":{"highway":"footway","name":null,"category":"Footpath (pedestrian only)"},"geometry":{"type":"MultiLineString","coordinates":[[[-0.3749952,51.1446528],[-0.3754174,51.1446039],[-0.3758653,51.1445578],[-0.3759444,51.1445444],[-0.3764832,51.1444992],[-0.3766403,51.144482],[-0.3767214,51.1444648],[-0.3768539,51.1444065],[-0.3770923,51.1442873],[-0.3772434,51.1442117],[-0.3772951,51.1441859],[-0.3773775,51.144151],[-0.3774432,51.1441244],[-0.3775068,51.144102],[-0.3776204,51.1440692],[-0.377724,51.1440419],[-0.3778778,51.1440041],[-0.3780783,51.143958],[-0.3782522,51.1439174],[-0.3782651,51.1437753],[-0.3782712,51.1437412],[-0.37828,51.1437139],[-0.3782967,51.1436806],[-0.3787068,51.1430688],[-0.3788806,51.1428758],[-0.3789475,51.1426954],[-0.3790612,51.1425235],[-0.3792417,51.1423431],[-0.3794222,51.142255],[-0.379703,51.1420201],[-0.3798969,51.141781],[-0.3801108,51.1415755],[-0.3803312,51.1413606]]]}},
{"type":"Feature","properties":{"highway":"footway","name":null,"category":"Footpath (pedestrian only)"},"geometry":{"type":"MultiLineString","coordinates":[[[-0.3890803,51.1377469],[-0.3891299,51.1377493],[-0.3891616,51.1377516],[-0.3892988,51.1377809],[-0.3894361,51.1378064],[-0.3896178,51.1378353],[-0.3897436,51.1378553],[-0.389862,51.1378695],[-0.3899582,51.1378826],[-0.3900258,51.1378945],[-0.3901079,51.1379092],[-0.3902199,51.1379314],[-0.390474,51.1378345]]]}},
{"type":"Feature","properties":{"highway":"footway","name":null,"category":"Footpath (pedestrian only)"},"geometry":{"type":"MultiLineString","coordinates":[[[-0.3844665,51.1407386],[-0.3843483,51.1407861],[-0.3841984,51.1409383]]]}},
{"type":"Feature","properties":{"highway":"footway","name":null,"category":"Footpath (pedestrian only)"},"geometry":{"type":"MultiLineString","coordinates":[[[-0.3843483,51.1407861],[-0.3842845,51.1407463],[-0.3842426,51.1407119],[-0.3842105,51.1406751],[-0.3841784,51.140627],[-0.384168,51.1405823],[-0.384171,51.1405459],[-0.3841774,51.1405069],[-0.3841908,51.1404764],[-0.3842095,51.1404432],[-0.3842363,51.1404017],[-0.3842461,51.1403598],[-0.3842514,51.140301],[-0.3842585,51.1402031],[-0.3842656,51.1400744],[-0.3842719,51.1400055],[-0.3842759,51.1399429],[-0.3842797,51.1398245],[-0.3842947,51.1397416],[-0.384313,51.1396992],[-0.3843313,51.1396709],[-0.3843589,51.1396422],[-0.3844457,51.139583],[-0.3845853,51.1395096],[-0.3846797,51.1394551],[-0.3847659,51.1393984],[-0.3848164,51.1393585],[-0.3848819,51.1393167],[-0.3849226,51.1392918],[-0.3849667,51.1392726],[-0.3850202,51.1392537],[-0.3850875,51.1392351],[-0.3851224,51.1392194]]]}},
{"type":"Feature","properties":{"highway":"footway","name":null,"category":"Footpath (pedestrian only)"},"geometry":{"type":"MultiLineString","coordinates":[[[-0.3933128,51.1379004],[-0.3934008,51.1378958],[-0.3935258,51.1379096],[-0.3936876,51.1376881],[-0.3939008,51.1374435],[-0.3942686,51.1369913],[-0.3944966,51.1367144],[-0.3946069,51.1366406],[-0.3954673,51.1353854],[-0.3956144,51.1352516],[-0.3956512,51.1352054],[-0.3956274,51.1351414],[-0.395688,51.1347993],[-0.3957174,51.1344948],[-0.3958277,51.1342917],[-0.3959601,51.1341163],[-0.3959748,51.1340102],[-0.3959307,51.1339364],[-0.3958571,51.1338302],[-0.3958939,51.1337102],[-0.3959895,51.1336179],[-0.3960998,51.1335302],[-0.3961954,51.1333964],[-0.3963278,51.1332164],[-0.3964013,51.1330894],[-0.3964209,51.1330607],[-0.3964427,51.1330348],[-0.3964811,51.1329994],[-0.3965365,51.1329513],[-0.3966757,51.1328312],[-0.3968429,51.1326696],[-0.3969467,51.1325578],[-0.3969823,51.1325196],[-0.3971588,51.1323442],[-0.3972462,51.1322574],[-0.3973459,51.1321563],[-0.3973719,51.132135],[-0.3974059,51.1321122],[-0.3974359,51.1320975],[-0.3974693,51.1320872],[-0.3975039,51.1320804],[-0.3975551,51.1320723],[-0.3976262,51.1320647],[-0.3976946,51.1320607],[-0.3977645,51.1320582],[-0.3978339,51.1320592],[-0.3978991,51.1320636],[-0.3979733,51.132068],[-0.3980426,51.1320703],[-0.3981052,51.1320693],[-0.3981622,51.1320667],[-0.3982192,51.1320606],[-0.3982743,51.1320504],[-0.3983275,51.1320376],[-0.3984679,51.1319981],[-0.3985239,51.1319773],[-0.3985709,51.1319565],[-0.3987547,51.1318504],[-0.3989239,51.1317627],[-0.399809,51.1311649],[-0.3998693,51.131118],[-0.3999272,51.1310697],[-0.3999839,51.1310154],[-0.4000197,51.1309781],[-0.4002697,51.1306874],[-0.4006007,51.1302258],[-0.4007551,51.1300253],[-0.4007583,51.1300122],[-0.4007549,51.1299949],[-0.400748,51.1299813],[-0.4007408,51.1299709],[-0.4007265,51.1299559],[-0.4007031,51.1299366]]]}},
{"type":"Feature","properties":{"highway":"footway","name":null,"category":"Footpath (pedestrian only)"},"geometry":{"type":"MultiLineString","coordinates":[[[-0.3892991,51.1398426],[-0.3896022,51.1399154],[-0.3896695,51.1399411],[-0.3897211,51.1399667],[-0.3897662,51.1399928],[-0.3900666,51.1402654],[-0.3904236,51.1406347],[-0.3904497,51.1406701],[-0.3904627,51.140709],[-0.39046,51.1407437],[-0.3904377,51.1407922],[-0.3903885,51.1408814],[-0.3903643,51.1409347],[-0.3903402,51.1409992],[-0.3903317,51.1410365],[-0.3903254,51.1410808],[-0.3903415,51.1411189],[-0.3903697,51.1411534],[-0.3904173,51.1411973],[-0.3905051,51.1412665],[-0.3905557,51.1413037],[-0.39065,51.1413669],[-0.3912544,51.1416824],[-0.3913393,51.1417262],[-0.3914075,51.141768],[-0.3914556,51.1417957],[-0.3915579,51.1418404],[-0.3916581,51.1418739],[-0.3917886,51.1419107],[-0.3919281,51.1419516],[-0.3921056,51.1420094],[-0.3922647,51.142059],[-0.3923277,51.1420778],[-0.3924137,51.1421124],[-0.3924461,51.1421358],[-0.392616,51.1424483],[-0.3926395,51.1424777],[-0.3927486,51.1426443],[-0.3927726,51.1426651],[-0.3928021,51.1426815],[-0.3928538,51.1426955],[-0.3928919,51.1427007],[-0.3929483,51.1427028],[-0.3930046,51.1426979],[-0.3931968,51.1426665],[-0.3932862,51.1426589],[-0.3933564,51.1426643],[-0.3934176,51.1426808],[-0.393473,51.1427055],[-0.3937077,51.1428463],[-0.3938003,51.1429075],[-0.3938584,51.1429543],[-0.3939377,51.1430158],[-0.3939767,51.1430381],[-0.3940366,51.1430591]]]}},
{"type":"Feature","properties":{"highway":"track","name":"Green Lane","category":"Track"},"geometry":{"type":"MultiLineString","coordinates":[[[-0.3940366,51.1430591],[-0.3939989,51.1428177],[-0.393796,51.1419214],[-0.3936985,51.141458],[-0.3935268,51.1407984],[-0.3935054,51.1400714],[-0.3935912,51.1390078],[-0.3935655,51.1389503],[-0.393441,51.1386712],[-0.3933198,51.1381502],[-0.3933128,51.1379004],[-0.3932198,51.1377152]]]}},
{"type":"Feature","properties":{"highway":"track","name":null,"category":"Track"},"geometry":{"type":"MultiLineString","coordinates":[[[-0.3880887,51.1404117],[-0.38807,51.1404329],[-0.3880513,51.1404583],[-0.3880201,51.1404574],[-0.3879864,51.1404588],[-0.3879553,51.1404608],[-0.3876562,51.1405005],[-0.3871112,51.1405669],[-0.3868057,51.1405765],[-0.3863795,51.1405543],[-0.3861401,51.1405128],[-0.3858752,51.1404668],[-0.3857701,51.1404533],[-0.3856795,51.1404521],[-0.3855739,51.1404558],[-0.3853342,51.1404678],[-0.3851783,51.1404741],[-0.3850862,51.1404798],[-0.3850635,51.1404813]]]}},
{"type":"Feature","properties":{"highway":"footway","name":null,"category":"Footpath (pedestrian only)"},"geometry":{"type":"MultiLineString","coordinates":[[[-0.387785,51.1399216],[-0.3881674,51.140001],[-0.3885863,51.1401329],[-0.3887076,51.1401437],[-0.3889008,51.1401807],[-0.3892763,51.1402716]]]}},
{"type":"Feature","properties":{"highway":"footway","name":null,"category":"Footpath (pedestrian only)"},"geometry":{"type":"MultiLineString","coordinates":[[[-0.3875275,51.1401841],[-0.3881674,51.140001]]]}},
{"type":"Feature","properties":{"highway":"track","name":null,"category":"Track"},"geometry":{"type":"MultiLineString","coordinates":[[[-0.3850635,51.1404813],[-0.3850039,51.1404911]]]}},
{"type":"Feature","properties":{"highway":"track","name":null,"category":"Track"},"geometry":{"type":"MultiLineString","coordinates":[[[-0.3847348,51.1406152],[-0.3841984,51.1409383]]]}},
{"type":"Feature","properties":{"highway":"footway","name":null,"category":"Footpath (pedestrian only)"},"geometry":{"type":"MultiLineString","coordinates":[[[-0.387354,51.138519],[-0.3873869,51.1385186],[-0.3877639,51.1385085],[-0.387834,51.1385024],[-0.3880227,51.1384829],[-0.3881242,51.1384737],[-0.3883112,51.1384532],[-0.3883723,51.1384487],[-0.3883994,51.1384445]]]}},
{"type":"Feature","properties":{"highway":"footway","name":null,"category":"Footpath (pedestrian only)"},"geometry":{"type":"MultiLineString","coordinates":[[[-0.387834,51.1385024],[-0.387859,51.138748]]]}},
{"type":"Feature","properties":{"highway":"footway","name":null,"category":"Footpath (pedestrian only)"},"geometry":{"type":"MultiLineString","coordinates":[[[-0.3880476,51.1381818],[-0.3880573,51.1381838],[-0.388071,51.1381904],[-0.3880875,51.138202],[-0.3883994,51.1384445],[-0.3885514,51.1386365]]]}},
{"type":"Feature","properties":{"highway":"footway","name":null,"category":"Footpath (pedestrian only)"},"geometry":{"type":"MultiLineString","coordinates":[[[-0.388186,51.1371501],[-0.388211,51.1371934],[-0.3882243,51.1372199],[-0.3882351,51.1372443],[-0.3882421,51.1372709],[-0.388247,51.1373022],[-0.3882479,51.1373305],[-0.3882464,51.1373724],[-0.3882426,51.1374123],[-0.3882378,51.1374441],[-0.3882314,51.1374733],[-0.3882209,51.1375063],[-0.3882087,51.1375375],[-0.3881967,51.1375648],[-0.3881759,51.1376076],[-0.3881366,51.1376882],[-0.3881187,51.1377247],[-0.388102,51.1377585],[-0.3880914,51.1377837],[-0.3880859,51.1378028],[-0.3880806,51.1378254],[-0.3880752,51.1378692],[-0.3880583,51.1380477],[-0.3880476,51.1381818],[-0.3880441,51.1382065],[-0.3880361,51.1383113],[-0.3880227,51.1384829]]]}},
{"type":"Feature","properties":{"highway":"track","name":null,"category":"Track"},"geometry":{"type":"MultiLineString","coordinates":[[[-0.3850039,51.1404911],[-0.3849622,51.1405007],[-0.384928,51.1405118],[-0.3848997,51.1405243],[-0.3848557,51.1405453],[-0.3847617,51.1405957],[-0.3847348,51.1406152]]]}},
{"type":"Feature","properties":{"highway":"footway","name":null,"category":"Footpath (pedestrian only)"},"geometry":{"type":"MultiLineString","coordinates":[[[-0.3847348,51.1406152],[-0.3845663,51.1407024],[-0.3844665,51.1407386]]]}},
{"type":"Feature","properties":{"highway":"footway","name":null,"category":"Footpath (pedestrian only)"},"geometry":{"type":"MultiLineString","coordinates":[[[-0.3857179,51.1409397],[-0.3857671,51.1409224],[-0.3857955,51.1409089],[-0.3858322,51.1408801],[-0.3858652,51.1408512],[-0.3859069,51.1408213],[-0.385943,51.1407896],[-0.3859522,51.1407803],[-0.3859752,51.1407547],[-0.3860593,51.1406572],[-0.3861401,51.1405128]]]}},
{"type":"Feature","properties":{"highway":"path","name":null,"category":"Shared path"},"geometry":{"type":"MultiLineString","coordinates":[[[-0.3893449,51.1308295],[-0.3897412,51.1308804],[-0.3899621,51.1308966]]]}},
{"type":"Feature","properties":{"highway":"footway","name":null,"category":"Footpath (pedestrian only)"},"geometry":{"type":"MultiLineString","coordinates":[[[-0.3800692,51.1302089],[-0.3804924,51.1302113],[-0.3810669,51.1301618],[-0.3817643,51.1300776],[-0.3829625,51.1300542],[-0.3830611,51.1300477],[-0.3831782,51.1300294],[-0.3834513,51.1299747],[-0.3835208,51.1299656],[-0.3835836,51.1299691],[-0.3836511,51.1299903],[-0.3837407,51.1300318],[-0.3838079,51.1300722],[-0.3838638,51.130112],[-0.3839208,51.1301613],[-0.3839734,51.1302079],[-0.3844567,51.1301765],[-0.3845141,51.1302093],[-0.3845707,51.130232],[-0.3846588,51.1302552],[-0.384761,51.1302752],[-0.3848814,51.1302922],[-0.3850444,51.130312],[-0.3853236,51.1303401],[-0.3858575,51.1303918],[-0.3860396,51.1304036],[-0.3861507,51.1304096],[-0.3862484,51.1304071],[-0.3863647,51.130394],[-0.3864776,51.130375],[-0.3872023,51.1302137],[-0.3874482,51.1301855],[-0.3876553,51.1301864],[-0.3879555,51.1302037],[-0.388363,51.1302435],[-0.3884948,51.1302331],[-0.3885974,51.1302241],[-0.3887804,51.1302012],[-0.3889043,51.1301853],[-0.3891058,51.1301601]]]}},
{"type":"Feature","properties":{"highway":"footway","name":null,"category":"Footpath (pedestrian only)"},"geometry":{"type":"MultiLineString","coordinates":[[[-0.3842174,51.1309781],[-0.3842421,51.1310562],[-0.3847399,51.1321398],[-0.3850546,51.1326144],[-0.3853033,51.1329279],[-0.3859991,51.1336679]]]}},
{"type":"Feature","properties":{"highway":"footway","name":null,"category":"Footpath (pedestrian only)"},"geometry":{"type":"MultiLineString","coordinates":[[[-0.3929479,51.1279437],[-0.3928649,51.1281234],[-0.3928417,51.1282069],[-0.3927767,51.1284792],[-0.3927449,51.1285466],[-0.3927156,51.1285915],[-0.3926786,51.1286308],[-0.3926377,51.1286631],[-0.3925611,51.1287038],[-0.3922963,51.1288202],[-0.3919262,51.1290287],[-0.3914868,51.1294387],[-0.3912722,51.1296467],[-0.3908334,51.1299221],[-0.3904042,51.1301302],[-0.3902213,51.1301696],[-0.3900122,51.1302147],[-0.3899084,51.1302384],[-0.3898295,51.1302586],[-0.3897974,51.1302696],[-0.3897811,51.1302804],[-0.3897709,51.1302949],[-0.389742,51.1303792],[-0.3897333,51.1303912],[-0.3897221,51.1303982],[-0.3897121,51.1304039]]]}},
{"type":"Feature","properties":{"highway":"footway","name":null,"category":"Footpath (pedestrian only)"},"geometry":{"type":"MultiLineString","coordinates":[[[-0.3906094,51.1310827],[-0.3905872,51.1309898]]]}},
{"type":"Feature","properties":{"highway":"footway","name":null,"category":"Footpath (pedestrian only)"},"geometry":{"type":"MultiLineString","coordinates":[[[-0.3903647,51.130917],[-0.3903043,51.1308037],[-0.3902618,51.1307409],[-0.3902037,51.1306825],[-0.3901297,51.1306217]]]}},
{"type":"Feature","properties":{"highway":"footway","name":null,"category":"Footpath (pedestrian only)"},"geometry":{"type":"MultiLineString","coordinates":[[[-0.3935655,51.1389503],[-0.3939509,51.1391689],[-0.3965959,51.1401302],[-0.39715,51.1402302],[-0.3977834,51.1405462],[-0.3981531,51.140565],[-0.3990528,51.1406108]]]}},
{"type":"Feature","properties":{"highway":"footway","name":null,"category":"Footpath (pedestrian only)"},"geometry":{"type":"MultiLineString","coordinates":[[[-0.3786988,51.1331496],[-0.3797808,51.1332735],[-0.3801699,51.133333],[-0.3803593,51.1333705],[-0.3826585,51.1340114],[-0.3838784,51.1338148],[-0.3843822,51.1337924],[-0.3844666,51.133802],[-0.3845603,51.1338278],[-0.3846428,51.1338618],[-0.3847087,51.133897],[-0.3848774,51.1340136]]]}},
{"type":"Feature","properties":{"highway":"footway","name":null,"category":"Footpath (pedestrian only)"},"geometry":{"type":"MultiLineString","coordinates":[[[-0.3844567,51.1301765],[-0.3844061,51.1301322],[-0.3843562,51.1300764],[-0.3842966,51.1299945],[-0.3840962,51.1296755],[-0.3840673,51.1296411],[-0.3839992,51.129586],[-0.3839271,51.1295347],[-0.3836852,51.1293935],[-0.3834096,51.1292042],[-0.3825211,51.1283963],[-0.3819421,51.1281327],[-0.3816929,51.1280192],[-0.3806844,51.127898],[-0.3797498,51.1278114],[-0.3789792,51.1273305]]]}},
{"type":"Feature","properties":{"highway":"footway","name":null,"category":"Footpath (pedestrian only)"},"geometry":{"type":"MultiLineString","coordinates":[[[-0.3836852,51.1293935],[-0.386748,51.1281191],[-0.3869769,51.1280164],[-0.3871074,51.1279418],[-0.3872076,51.1278711],[-0.3878084,51.1269823],[-0.3879356,51.1267488]]]}},
{"type":"Feature","properties":{"highway":"footway","name":null,"category":"Footpath (pedestrian only)"},"geometry":{"type":"MultiLineString","coordinates":[[[-0.3906269,51.1309546],[-0.3908039,51.1309828]]]}},
{"type":"Feature","properties":{"highway":"footway","name":null,"category":"Footpath (pedestrian only)"},"geometry":{"type":"MultiLineString","coordinates":[[[-0.3908039,51.1309828],[-0.3916171,51.1310234],[-0.3921868,51.1308544],[-0.3929475,51.1304713],[-0.3939775,51.1301751],[-0.3948143,51.1298384],[-0.3961297,51.1294364],[-0.3973152,51.1295131],[-0.3984206,51.1296033],[-0.3987447,51.1296503],[-0.3998029,51.1297921],[-0.3999625,51.129819],[-0.4001358,51.1298519],[-0.4007551,51.1300253],[-0.4010231,51.1301041]]]}},
{"type":"Feature","properties":{"highway":"footway","name":null,"category":"Footpath (pedestrian only)"},"geometry":{"type":"MultiLineString","coordinates":[[[-0.3901297,51.1306217],[-0.3900706,51.1305857]]]}},
{"type":"Feature","properties":{"highway":"footway","name":null,"category":"Footpath (pedestrian only)"},"geometry":{"type":"MultiLineString","coordinates":[[[-0.3905872,51.1309898],[-0.3905854,51.1309469]]]}},
{"type":"Feature","properties":{"highway":"track","name":null,"category":"Track"},"geometry":{"type":"MultiLineString","coordinates":[[[-0.3911518,51.1351503],[-0.3912062,51.1350076],[-0.3912074,51.1349863],[-0.3911997,51.1349615],[-0.3911849,51.1349341],[-0.3906253,51.1340138],[-0.3906103,51.1339882],[-0.3906022,51.1339597],[-0.3906039,51.1339401],[-0.3906123,51.1339205],[-0.3906268,51.1339022],[-0.3906559,51.133877],[-0.3907497,51.1338209],[-0.3908207,51.1337792],[-0.3908889,51.133742],[-0.3909135,51.133728],[-0.3909492,51.1337062],[-0.3909738,51.1336859]]]}},
{"type":"Feature","properties":{"highway":"track","name":null,"category":"Track"},"geometry":{"type":"MultiLineString","coordinates":[[[-0.3890278,51.1308678],[-0.3890384,51.1308405],[-0.3890485,51.1308012],[-0.3890938,51.1306411],[-0.3891789,51.1303979],[-0.3892518,51.130186],[-0.3892643,51.1301567],[-0.3892796,51.130131],[-0.389303,51.1301016],[-0.3893343,51.1300721],[-0.3893712,51.1300462],[-0.3894271,51.1300111],[-0.3894785,51.1299838],[-0.3895299,51.1299613],[-0.3895914,51.129941],[-0.3896383,51.1299283],[-0.3896998,51.1299171],[-0.3897568,51.1299108],[-0.3898395,51.1299052],[-0.3899088,51.1299052],[-0.3900038,51.1299101],[-0.3900317,51.1299101],[-0.3900552,51.1299059],[-0.3900742,51.1298975],[-0.390101,51.1298792]]]}},
{"type":"Feature","properties":{"highway":"footway","name":null,"category":"Footpath (pedestrian only)"},"geometry":{"type":"MultiLineString","coordinates":[[[-0.3897297,51.1304873],[-0.3897546,51.1305688],[-0.3897594,51.1306042],[-0.3897593,51.1306177],[-0.3897529,51.1306317],[-0.3897395,51.1306525],[-0.3897206,51.1306705],[-0.3896857,51.1306932],[-0.3896367,51.1307169],[-0.3893449,51.1308295],[-0.3892543,51.1308697],[-0.3892091,51.1308891]]]}},
{"type":"Feature","properties":{"highway":"path","name":null,"category":"Shared path"},"geometry":{"type":"MultiLineString","coordinates":[[[-0.3882709,51.1354007],[-0.3882296,51.1352443],[-0.3882106,51.1351489],[-0.3882061,51.1351103],[-0.3882072,51.1350641],[-0.3882106,51.1350346],[-0.3882184,51.1350016],[-0.3882296,51.1349677],[-0.3882467,51.1349438],[-0.3882637,51.134927],[-0.3882854,51.1349119],[-0.3883093,51.1348989],[-0.388337,51.1348897],[-0.3883746,51.1348832],[-0.388411,51.1348802],[-0.3884527,51.1348812],[-0.3884915,51.1348861],[-0.388528,51.1348967],[-0.3885542,51.134908],[-0.3887184,51.1350021],[-0.3887695,51.1350316],[-0.3887938,51.13504],[-0.3888222,51.1350443],[-0.388919,51.1350517],[-0.3889533,51.135059],[-0.3889771,51.1350681],[-0.3893511,51.1352686],[-0.3896707,51.1353586],[-0.3899607,51.1354527],[-0.3902622,51.1356553],[-0.3906921,51.1358638],[-0.3906518,51.1358882],[-0.3905981,51.1359231],[-0.3906064,51.1359417],[-0.3906083,51.1359516],[-0.3906104,51.135991],[-0.3906169,51.1360079],[-0.3906267,51.136025],[-0.3906429,51.1360411],[-0.3906607,51.136053],[-0.3906943,51.1360691],[-0.3907256,51.1360796],[-0.3907636,51.1360895],[-0.3907971,51.1361]]]}},
{"type":"Feature","properties":{"highway":"path","name":null,"category":"Shared path"},"geometry":{"type":"MultiLineString","coordinates":[[[-0.3899409,51.1363221],[-0.390397,51.1360384],[-0.3905981,51.1359231]]]}},
{"type":"Feature","properties":{"highway":"path","name":null,"category":"Shared path"},"geometry":{"type":"MultiLineString","coordinates":[[[-0.3906921,51.1358638],[-0.390744,51.1358267],[-0.3908085,51.1357741],[-0.3908962,51.1356982],[-0.3910184,51.1355876],[-0.3910601,51.1355542],[-0.3910943,51.1355323],[-0.3912524,51.1354537]]]}},
{"type":"Feature","properties":{"highway":"path","name":null,"category":"Shared path"},"geometry":{"type":"MultiLineString","coordinates":[[[-0.3895653,51.1415187],[-0.389303,51.1415655],[-0.3891829,51.1415805],[-0.3890605,51.1415913],[-0.3889725,51.1415934],[-0.3888309,51.1415871],[-0.3887671,51.141581],[-0.3887099,51.1415805],[-0.3886278,51.141588],[-0.3885509,51.1415973],[-0.3884875,51.1416122],[-0.388431,51.1416361],[-0.3883756,51.1416644],[-0.38833,51.1416841],[-0.3882755,51.1416982],[-0.3882178,51.1417024],[-0.3881466,51.1417018],[-0.3880617,51.141693],[-0.3878875,51.1416702],[-0.3878099,51.1416549],[-0.3877421,51.141636],[-0.3876475,51.1416003],[-0.3873358,51.1414604],[-0.3872769,51.1414234],[-0.3872474,51.1413951],[-0.3872224,51.1413626],[-0.3869736,51.1413995],[-0.3868883,51.1414126],[-0.3867987,51.1414192],[-0.3866957,51.1414229],[-0.3865767,51.1414197],[-0.3862834,51.1413996],[-0.3861972,51.1413966],[-0.385929,51.141398]]]}},
{"type":"Feature","properties":{"highway":"path","name":null,"category":"Shared path"},"geometry":{"type":"MultiLineString","coordinates":[[[-0.3876745,51.1413119],[-0.3878909,51.1412724],[-0.3879487,51.1412637],[-0.3882615,51.1412271]]]}},
{"type":"Feature","properties":{"highway":"path","name":null,"category":"Shared path"},"geometry":{"type":"MultiLineString","coordinates":[[[-0.3885787,51.1413615],[-0.3886744,51.1415314],[-0.3887099,51.1415805]]]}},
{"type":"Feature","properties":{"highway":"path","name":null,"category":"Shared path"},"geometry":{"type":"MultiLineString","coordinates":[[[-0.3888309,51.1415871],[-0.3890737,51.1416882]]]}},
{"type":"Feature","properties":{"highway":"path","name":null,"category":"Shared path"},"geometry":{"type":"MultiLineString","coordinates":[[[-0.3864807,51.1391042],[-0.3864507,51.1391438],[-0.3864155,51.1391807],[-0.3863823,51.1392155],[-0.3863358,51.1392616]]]}},
{"type":"Feature","properties":{"highway":"footway","name":null,"category":"Footpath (pedestrian only)"},"geometry":{"type":"MultiLineString","coordinates":[[[-0.38877,51.1372247],[-0.3889258,51.1370732]]]}},
{"type":"Feature","properties":{"highway":"footway","name":null,"category":"Footpath (pedestrian only)"},"geometry":{"type":"MultiLineString","coordinates":[[[-0.3839734,51.1302079],[-0.3840125,51.130258],[-0.3840404,51.1303233],[-0.3840747,51.1304253],[-0.384191,51.1308947]]]}},
{"type":"Feature","properties":{"highway":"footway","name":null,"category":"Footpath (pedestrian only)"},"geometry":{"type":"MultiLineString","coordinates":[[[-0.384191,51.1308947],[-0.3842174,51.1309781]]]}},
{"type":"Feature","properties":{"highway":"path","name":null,"category":"Shared path"},"geometry":{"type":"MultiLineString","coordinates":[[[-0.389728,51.1304769],[-0.3896994,51.1304744]]]}},
{"type":"Feature","properties":{"highway":"path","name":null,"category":"Shared path"},"geometry":{"type":"MultiLineString","coordinates":[[[-0.3900915,51.1309061],[-0.3901543,51.1309107],[-0.3902751,51.1309132],[-0.3903647,51.130917]]]}},
{"type":"Feature","properties":{"highway":"path","name":null,"category":"Shared path"},"geometry":{"type":"MultiLineString","coordinates":[[[-0.3899621,51.1308966],[-0.3900915,51.1309061]]]}},
{"type":"Feature","properties":{"highway":"footway","name":null,"category":"Footpath (pedestrian only)"},"geometry":{"type":"MultiLineString","coordinates":[[[-0.3786988,51.1331496],[-0.3789373,51.1327269],[-0.3789917,51.1326613],[-0.3791664,51.132519],[-0.3793621,51.1323614],[-0.3794147,51.1323105],[-0.3794517,51.1322497],[-0.3794619,51.1321776],[-0.3794916,51.1319797],[-0.3794899,51.1319342],[-0.3795045,51.131803],[-0.3795268,51.1316757],[-0.3797404,51.1308833],[-0.3797704,51.1308068],[-0.3798082,51.130742],[-0.3798616,51.1306729],[-0.3799192,51.1305993],[-0.3799451,51.130539],[-0.3799716,51.1304032],[-0.3800226,51.130275]]]}},
{"type":"Feature","properties":{"highway":"track","name":null,"category":"Track"},"geometry":{"type":"MultiLineString","coordinates":[[[-0.3889144,51.1309527],[-0.3889666,51.1309312],[-0.3889919,51.1309168],[-0.3890091,51.130899]]]}},
{"type":"Feature","properties":{"highway":"track","name":null,"category":"Track"},"geometry":{"type":"MultiLineString","coordinates":[[[-0.3890091,51.130899],[-0.3890278,51.1308678]]]}},
{"type":"Feature","properties":{"highway":"footway","name":null,"category":"Footpath (pedestrian only)"},"geometry":{"type":"MultiLineString","coordinates":[[[-0.3891191,51.1309169],[-0.3890436,51.1309313],[-0.3889144,51.1309527]]]}},
{"type":"Feature","properties":{"highway":"footway","name":null,"category":"Footpath (pedestrian only)"},"geometry":{"type":"MultiLineString","coordinates":[[[-0.3892091,51.1308891],[-0.3891191,51.1309169]]]}},
{"type":"Feature","properties":{"highway":"track","name":null,"category":"Track"},"geometry":{"type":"MultiLineString","coordinates":[[[-0.3905671,51.1350113],[-0.390633,51.1348795],[-0.3906386,51.1348676],[-0.3906386,51.1348521],[-0.390633,51.1348374],[-0.390614,51.1348065],[-0.3906084,51.1347932],[-0.3906061,51.1347785],[-0.3906129,51.1347603],[-0.3906419,51.1347126],[-0.3906453,51.1347014],[-0.3906464,51.1346761],[-0.3906408,51.1346319],[-0.3906162,51.1345043],[-0.3906095,51.1344636],[-0.3906006,51.1344398],[-0.3905883,51.1344159],[-0.3905279,51.1343114],[-0.3905179,51.1342988],[-0.3905078,51.1342918],[-0.3904955,51.1342855],[-0.3904698,51.1342827],[-0.3904441,51.1342855],[-0.3904039,51.1342974],[-0.3902742,51.1343493],[-0.3902463,51.1343633],[-0.3902239,51.1343767],[-0.3901859,51.1344033],[-0.3901435,51.1344405],[-0.3900384,51.1345309],[-0.3899904,51.1345702],[-0.3899367,51.1346102],[-0.3898652,51.1346558],[-0.3897758,51.1347112],[-0.3897545,51.1347266],[-0.3897355,51.1347427],[-0.3897154,51.1347673],[-0.3896937,51.1348036]]]}},
{"type":"Feature","properties":{"highway":"path","name":null,"category":"Shared path"},"geometry":{"type":"MultiLineString","coordinates":[[[-0.3904598,51.1346836],[-0.3904474,51.1347056],[-0.3904441,51.1347147],[-0.3904441,51.1347259],[-0.3904519,51.1347385],[-0.3905268,51.1348213],[-0.390538,51.1348311],[-0.3905476,51.13484]]]}},
{"type":"Feature","properties":{"highway":"track","name":null,"category":"Track"},"geometry":{"type":"MultiLineString","coordinates":[[[-0.3761361,51.1343893],[-0.3761756,51.1344095],[-0.3762025,51.1344418],[-0.3762226,51.1344824],[-0.3762963,51.1347111],[-0.3763612,51.1349144],[-0.3763656,51.1349607],[-0.3763522,51.1350238],[-0.3763343,51.1350561],[-0.3763008,51.135108],[-0.3760996,51.1353492],[-0.3758784,51.1356017],[-0.3758515,51.1356438],[-0.3758404,51.135683],[-0.3758448,51.1357237],[-0.3758694,51.1357812],[-0.3760192,51.1360519],[-0.3761622,51.1363029],[-0.3762315,51.1363843],[-0.376274,51.1364334],[-0.3763075,51.1364811],[-0.3765511,51.1370589],[-0.3765824,51.1371178],[-0.3766115,51.1371613],[-0.3766517,51.1371963],[-0.3767031,51.1372216],[-0.3767612,51.137237],[-0.3768238,51.1372384],[-0.3771658,51.1372174],[-0.377329,51.1372103],[-0.3774117,51.1372146],[-0.3774609,51.1372174],[-0.3775614,51.1372356],[-0.3776397,51.1372566],[-0.3777067,51.1372819],[-0.3777738,51.1373296],[-0.3778044,51.1373675],[-0.3778475,51.1374333],[-0.3779012,51.1375287],[-0.3779437,51.137589],[-0.3779839,51.1376171],[-0.3780286,51.1376353],[-0.3781247,51.1376507],[-0.3783058,51.1376662],[-0.378413,51.1376788],[-0.3784734,51.1376956],[-0.3785472,51.1377208],[-0.3785595,51.1377268]]]}},
{"type":"Feature","properties":{"highway":"track","name":null,"category":"Track"},"geometry":{"type":"MultiLineString","coordinates":[[[-0.3833122,51.1326043],[-0.3838574,51.1327225],[-0.3841927,51.1327996],[-0.3842575,51.132822],[-0.3843245,51.1328501],[-0.3843737,51.1328795],[-0.3844207,51.1329132],[-0.3844609,51.1329581],[-0.3845034,51.1330142],[-0.3845436,51.1330801],[-0.3845928,51.1331769],[-0.3846285,51.1332625],[-0.3846911,51.133428],[-0.3847962,51.1337253],[-0.3848051,51.1337898],[-0.3848051,51.1338445],[-0.3848051,51.1338824],[-0.3848118,51.1339147],[-0.3848275,51.1339427],[-0.3848957,51.1340065]]]}},
{"type":"Feature","properties":{"highway":"path","name":null,"category":"Shared path"},"geometry":{"type":"MultiLineString","coordinates":[[[-0.3810305,51.1429766],[-0.3809155,51.1429915],[-0.3801443,51.1430916]]]}},
{"type":"Feature","properties":{"highway":"path","name":null,"category":"Shared path"},"geometry":{"type":"MultiLineString","coordinates":[[[-0.3809155,51.1429915],[-0.3809389,51.1430635],[-0.3809422,51.1430831],[-0.3809422,51.1431007],[-0.3809377,51.1431182],[-0.3809266,51.1431483],[-0.3808986,51.1432037],[-0.3808852,51.1432325],[-0.3808718,51.1432626],[-0.3808629,51.1432886]]]}},
{"type":"Feature","properties":{"highway":"footway","name":null,"category":"Footpath (pedestrian only)"},"geometry":{"type":"MultiLineString","coordinates":[[[-0.3813877,51.1440033],[-0.3814114,51.143961],[-0.3815006,51.1437867],[-0.3814906,51.1436514],[-0.3814869,51.1435908],[-0.3815006,51.1434853],[-0.3815075,51.1433906],[-0.3815708,51.1431999],[-0.3815779,51.1431735],[-0.3815787,51.1431509],[-0.3815762,51.1431282],[-0.3815623,51.1430843],[-0.3815098,51.1429559],[-0.3815087,51.1429417],[-0.3815144,51.1429205],[-0.3815378,51.1428808],[-0.3815971,51.1428095],[-0.3816929,51.1426797],[-0.381714,51.1426414],[-0.3817256,51.1426146],[-0.3817351,51.1425899],[-0.3817442,51.1425527],[-0.3817456,51.1425204],[-0.3817389,51.1424939],[-0.38173,51.1424659],[-0.3816928,51.1423811],[-0.3816794,51.1422657]]]}},
{"type":"Feature","properties":{"highway":"footway","name":null,"category":"Footpath (pedestrian only)"},"geometry":{"type":"MultiLineString","coordinates":[[[-0.3816731,51.1422362],[-0.3816304,51.1421056],[-0.3816192,51.1420254],[-0.3816103,51.1419663],[-0.3816013,51.1419283],[-0.3815801,51.1418714],[-0.3815443,51.1417689],[-0.3815091,51.1415829],[-0.3815552,51.1412638]]]}},
{"type":"Feature","properties":{"highway":"footway","name":null,"category":"Footpath (pedestrian only)"},"geometry":{"type":"MultiLineString","coordinates":[[[-0.3816794,51.1422657],[-0.3816731,51.1422362]]]}},
{"type":"Feature","properties":{"highway":"path","name":null,"category":"Shared path"},"geometry":{"type":"MultiLineString","coordinates":[[[-0.3830617,51.1423951],[-0.3831031,51.142365],[-0.3831455,51.1423355],[-0.3831791,51.1423145],[-0.383226,51.1422879],[-0.3836082,51.1420978],[-0.383654,51.1420733],[-0.3836943,51.1420474],[-0.3837859,51.1419899],[-0.3839502,51.1418833],[-0.3841659,51.1417311],[-0.3842039,51.1417073],[-0.3842542,51.1416757],[-0.3843022,51.1416456],[-0.3843704,51.1415965],[-0.384433,51.1415502],[-0.3845068,51.1414955],[-0.3845504,51.1414654],[-0.3845738,51.1414528],[-0.3845973,51.1414415],[-0.3846322,51.1414304],[-0.3847046,51.1414142],[-0.3847571,51.141403],[-0.3847884,51.1413918],[-0.384823,51.1413749],[-0.384851,51.1413581],[-0.3848879,51.1413287],[-0.3849985,51.1412361],[-0.3850343,51.1412095],[-0.3851907,51.1411106],[-0.3852522,51.1410741],[-0.3853047,51.1410496],[-0.385345,51.1410349],[-0.385393,51.1410187],[-0.3854478,51.1410054],[-0.3856445,51.1409605],[-0.3857179,51.1409397]]]}},
{"type":"Feature","properties":{"highway":"path","name":null,"category":"Shared path"},"geometry":{"type":"MultiLineString","coordinates":[[[-0.3908429,51.1361154],[-0.3909447,51.1361549]]]}},
{"type":"Feature","properties":{"highway":"path","name":null,"category":"Shared path"},"geometry":{"type":"MultiLineString","coordinates":[[[-0.3907971,51.1361],[-0.3908429,51.1361154]]]}},
{"type":"Feature","properties":{"highway":"path","name":null,"category":"Shared path"},"geometry":{"type":"MultiLineString","coordinates":[[[-0.3889245,51.1383982],[-0.3895007,51.1384425],[-0.3895499,51.1384495],[-0.3895901,51.1384635],[-0.3896348,51.1384859],[-0.3896951,51.1385238],[-0.3898583,51.1386655],[-0.3899187,51.1387075],[-0.3899947,51.1387552],[-0.3900863,51.1388001],[-0.390169,51.1388422],[-0.3902472,51.1388842],[-0.3903433,51.1389459],[-0.390473,51.1390469],[-0.3907077,51.1392194],[-0.3907501,51.1392433],[-0.3907904,51.1392559],[-0.3908418,51.1392657],[-0.3909021,51.1392741],[-0.3909848,51.1392811],[-0.3910251,51.1392853],[-0.3910564,51.1392923],[-0.3910731,51.1392983]]]}},
{"type":"Feature","properties":{"highway":"path","name":null,"category":"Shared path"},"geometry":{"type":"MultiLineString","coordinates":[[[-0.3920018,51.1397197],[-0.3920242,51.1397344],[-0.3920421,51.1397513],[-0.3920577,51.1397681],[-0.3920734,51.1397969],[-0.3920857,51.1398228],[-0.3920912,51.1398431],[-0.3920912,51.1398635],[-0.3920879,51.1398824],[-0.3920799,51.139904],[-0.3920634,51.1399351],[-0.3920182,51.1400083],[-0.3919896,51.1400574],[-0.3919753,51.1400891],[-0.3919665,51.1401182],[-0.3919599,51.1401492],[-0.3919593,51.1401651],[-0.3919588,51.1401824],[-0.391961,51.1401983]]]}},
{"type":"Feature","properties":{"highway":"path","name":null,"category":"Shared path"},"geometry":{"type":"MultiLineString","coordinates":[[[-0.3910731,51.1392983],[-0.3914129,51.1395108]]]}},
{"type":"Feature","properties":{"highway":"path","name":null,"category":"Shared path"},"geometry":{"type":"MultiLineString","coordinates":[[[-0.3914129,51.1395108],[-0.3915269,51.1395802],[-0.3915436,51.1395858],[-0.3915626,51.1395893],[-0.3915772,51.13959],[-0.391604,51.1395886],[-0.3916364,51.1395802],[-0.3916699,51.1395739],[-0.391699,51.1395711],[-0.3917202,51.1395711],[-0.3917392,51.1395753],[-0.3917627,51.1395844],[-0.3917817,51.1395984],[-0.3918007,51.139618],[-0.3918398,51.1396601],[-0.3918532,51.1396713],[-0.3918744,51.1396819],[-0.3919135,51.1396952],[-0.3919826,51.1397113]]]}},
{"type":"Feature","properties":{"highway":"path","name":null,"category":"Shared path"},"geometry":{"type":"MultiLineString","coordinates":[[[-0.3919826,51.1397113],[-0.3920018,51.1397197]]]}},
{"type":"Feature","properties":{"highway":"footway","name":null,"category":"Footpath (pedestrian only)"},"geometry":{"type":"MultiLineString","coordinates":[[[-0.3851942,51.1391747],[-0.3852182,51.1391501],[-0.3852493,51.1391048],[-0.3852736,51.1390742],[-0.3853013,51.13905],[-0.3853245,51.1390342],[-0.385392,51.1390066],[-0.3855082,51.1389714],[-0.3857716,51.1388742],[-0.3858093,51.1388639],[-0.385838,51.1388607],[-0.3858731,51.1388598],[-0.3859119,51.1388621],[-0.3859517,51.1388669],[-0.3861838,51.1389156],[-0.386566,51.1389877],[-0.3866405,51.1388809],[-0.3866526,51.138867],[-0.3866725,51.1388544],[-0.3866966,51.1388433],[-0.386718,51.1388373],[-0.3867455,51.1388316],[-0.3869493,51.1388118],[-0.3871543,51.1388068],[-0.3872183,51.1388158],[-0.3873035,51.1388158],[-0.3874586,51.1387966],[-0.3876239,51.1387653]]]}},
{"type":"Feature","properties":{"highway":"footway","name":null,"category":"Footpath (pedestrian only)"},"geometry":{"type":"MultiLineString","coordinates":[[[-0.3851224,51.1392194],[-0.3851942,51.1391747]]]}},
{"type":"Feature","properties":{"highway":"path","name":null,"category":"Shared path"},"geometry":{"type":"MultiLineString","coordinates":[[[-0.386503,51.1390749],[-0.3864807,51.1391042]]]}},
{"type":"Feature","properties":{"highway":"path","name":null,"category":"Shared path"},"geometry":{"type":"MultiLineString","coordinates":[[[-0.386566,51.1389877],[-0.386503,51.1390749]]]}},
{"type":"Feature","properties":{"highway":"path","name":null,"category":"Shared path"},"geometry":{"type":"MultiLineString","coordinates":[[[-0.3872224,51.1413626],[-0.3873264,51.1413529],[-0.3874357,51.1413486],[-0.387524,51.1413395],[-0.3875719,51.1413331],[-0.387632,51.1413219]]]}},
{"type":"Feature","properties":{"highway":"path","name":null,"category":"Shared path"},"geometry":{"type":"MultiLineString","coordinates":[[[-0.387632,51.1413219],[-0.3876745,51.1413119]]]}},
{"type":"Feature","properties":{"highway":"bridleway","name":null,"category":"Bridleway"},"geometry":{"type":"MultiLineString","coordinates":[[[-0.3777739,51.1331034],[-0.3779429,51.1330774],[-0.3780789,51.1330532],[-0.3781513,51.1330439],[-0.3782143,51.1330476],[-0.378266,51.1330551],[-0.3784115,51.1330935],[-0.3786335,51.1331369],[-0.3786988,51.1331496],[-0.3778338,51.1344942],[-0.3782608,51.1348132],[-0.3786273,51.1349978],[-0.3788654,51.1350472],[-0.378969,51.1352601],[-0.3794687,51.1353021],[-0.3805271,51.1353439],[-0.3811361,51.1350509],[-0.3819724,51.1349245],[-0.3820723,51.1349146],[-0.3821918,51.1349108],[-0.3831862,51.1349591]]]}},
{"type":"Feature","properties":{"highway":"bridleway","name":null,"category":"Bridleway"},"geometry":{"type":"MultiLineString","coordinates":[[[-0.3845083,51.1381094],[-0.3842715,51.1378445],[-0.3842581,51.1378277],[-0.3842413,51.1378024],[-0.3842301,51.1377891],[-0.384219,51.1377786],[-0.384208,51.1377703]]]}},
{"type":"Feature","properties":{"highway":"path","name":null,"category":"Shared path"},"geometry":{"type":"MultiLineString","coordinates":[[[-0.3789004,51.1372366],[-0.3789402,51.1372532],[-0.3789622,51.1372685],[-0.3789755,51.1372885],[-0.3789854,51.1373197],[-0.3789887,51.1373398],[-0.3789843,51.1373578],[-0.3789744,51.1373827],[-0.3789665,51.1374024],[-0.3789622,51.1374173],[-0.3789622,51.1374312],[-0.3789655,51.1374478],[-0.3789744,51.1374631],[-0.3789876,51.1374769],[-0.379002,51.1374887],[-0.379024,51.1374991],[-0.3790737,51.1375198],[-0.3791002,51.1375323],[-0.379119,51.137542],[-0.3791333,51.1375517],[-0.3791532,51.1375711],[-0.3791797,51.1375995],[-0.3791929,51.1376071],[-0.3792051,51.1376099],[-0.3792238,51.1376085],[-0.3792397,51.1376076]]]}},
{"type":"Feature","properties":{"highway":"path","name":null,"category":"Shared path"},"geometry":{"type":"MultiLineString","coordinates":[[[-0.3786455,51.1371476],[-0.3788541,51.13722]]]}},
{"type":"Feature","properties":{"highway":"path","name":null,"category":"Shared path"},"geometry":{"type":"MultiLineString","coordinates":[[[-0.3788541,51.13722],[-0.3789004,51.1372366]]]}},
{"type":"Feature","properties":{"highway":"path","name":null,"category":"Shared path"},"geometry":{"type":"MultiLineString","coordinates":[[[-0.3785929,51.1371575],[-0.3786267,51.1371694],[-0.3786455,51.1371476],[-0.3786728,51.1371157]]]}},
{"type":"Feature","properties":{"highway":"path","name":null,"category":"Shared path"},"geometry":{"type":"MultiLineString","coordinates":[[[-0.3786728,51.1371157],[-0.3787763,51.1371523],[-0.3788342,51.137088],[-0.3786298,51.1370156],[-0.3785719,51.1370799],[-0.3786728,51.1371157]]]}},
{"type":"Feature","properties":{"highway":"path","name":null,"category":"Shared path"},"geometry":{"type":"MultiLineString","coordinates":[[[-0.3801295,51.1381661],[-0.3802299,51.1380736]]]}},
{"type":"Feature","properties":{"highway":"track","name":null,"category":"Track"},"geometry":{"type":"MultiLineString","coordinates":[[[-0.3786366,51.1377643],[-0.3787036,51.1378134],[-0.3788176,51.1379074],[-0.378869,51.1379508],[-0.3789227,51.1379873],[-0.3790265,51.1380488]]]}},
{"type":"Feature","properties":{"highway":"track","name":null,"category":"Track"},"geometry":{"type":"MultiLineString","coordinates":[[[-0.3785595,51.1377268],[-0.3786366,51.1377643]]]}},
{"type":"Feature","properties":{"highway":"path","name":null,"category":"Shared path"},"geometry":{"type":"MultiLineString","coordinates":[[[-0.3869511,51.1350164],[-0.3869812,51.1350869],[-0.3870058,51.1351584],[-0.3870215,51.1352453],[-0.3870215,51.1353211],[-0.3870058,51.1354487],[-0.3869835,51.1355623],[-0.3869634,51.1356296],[-0.3869432,51.1356745],[-0.3868963,51.1357376],[-0.3868315,51.1357979],[-0.3866638,51.1359228],[-0.3865856,51.1359789],[-0.3865677,51.1359999],[-0.3865631,51.1360246]]]}}
]
}
