{
"type": "FeatureCollection",
"name": "MOLVA_281_walking",
"crs": { "type": "name", "properties": { "name": "urn:ogc:def:crs:OGC:1.3:CRS84" } },
"features": [
{"type":"Feature","properties":{"highway":"footway","name":null,"category":"Footpath (pedestrian only)"},"geometry":{"type":"MultiLineString","coordinates":[[[-0.358021,51.224121],[-0.358342,51.2240538],[-0.3592092,51.2239652],[-0.3597043,51.2238923],[-0.36076,51.2236591],[-0.3617127,51.2234011],[-0.3623822,51.2232345],[-0.3628189,51.2231302],[-0.3631981,51.2230678],[-0.3639701,51.222912],[-0.3644831,51.2228905],[-0.36498,51.2228997],[-0.3657157,51.2229122],[-0.3657472,51.222908],[-0.365874,51.2229052]]]}},
{"type":"Feature","properties":{"highway":"footway","name":"FP 163","category":"Footpath (pedestrian only)"},"geometry":{"type":"MultiLineString","coordinates":[[[-0.3675933,51.2231627],[-0.3682313,51.2230647],[-0.3687715,51.2231205],[-0.3695405,51.2230893],[-0.3698589,51.2230444]]]}},
{"type":"Feature","properties":{"highway":"footway","name":null,"category":"Footpath (pedestrian only)"},"geometry":{"type":"MultiLineString","coordinates":[[[-0.3671571,51.223119],[-0.3671887,51.2228421],[-0.3673175,51.2224658],[-0.3673684,51.2221194],[-0.3674358,51.221663],[-0.3674559,51.2214987],[-0.3674391,51.2214653]]]}},
{"type":"Feature","properties":{"highway":"bridleway","name":null,"category":"Bridleway"},"geometry":{"type":"MultiLineString","coordinates":[[[-0.3733644,51.2079364],[-0.3729159,51.2080577],[-0.3723151,51.2081061],[-0.3714966,51.2081613],[-0.3709657,51.2081185],[-0.3705899,51.208219],[-0.370224,51.2083321],[-0.3692938,51.2086062]]]}},
{"type":"Feature","properties":{"highway":"bridleway","name":null,"category":"Bridleway"},"geometry":{"type":"MultiLineString","coordinates":[[[-0.3666159,51.2098106],[-0.3655173,51.2092622],[-0.3651739,51.2090363],[-0.3650109,51.2087567],[-0.3649851,51.2083857],[-0.364925,51.2081061],[-0.3647448,51.2077673]]]}},
{"type":"Feature","properties":{"highway":"track","name":null,"category":"Track"},"geometry":{"type":"MultiLineString","coordinates":[[[-0.3633623,51.2134049],[-0.3633402,51.2134786],[-0.363335,51.2136147],[-0.363327,51.2138209],[-0.3633296,51.2141684],[-0.3633064,51.2142459],[-0.3630226,51.2147631],[-0.3628936,51.2150686],[-0.362897,51.2151331],[-0.3629013,51.2152157],[-0.3629297,51.2153401],[-0.3629916,51.2154613],[-0.3630286,51.2155184],[-0.363076,51.2155835],[-0.3631326,51.2156361],[-0.3631746,51.2156589],[-0.3632418,51.215677],[-0.3633283,51.2156843],[-0.3633941,51.2157021],[-0.3636817,51.2159058],[-0.3640795,51.2162337],[-0.364302,51.216452],[-0.3648256,51.2169868],[-0.3655298,51.2178199],[-0.3656269,51.217958],[-0.3657051,51.2181131],[-0.3658065,51.2182673],[-0.3659306,51.2183884],[-0.3660982,51.2185407],[-0.3662808,51.2188364],[-0.366394,51.2196157],[-0.3664245,51.2197356],[-0.366554,51.2198579],[-0.3667403,51.2200513],[-0.3667552,51.2200842],[-0.3671967,51.220979],[-0.3672441,51.221075],[-0.3673641,51.2213144],[-0.3674391,51.2214653]]]}},
{"type":"Feature","properties":{"highway":"footway","name":null,"category":"Footpath (pedestrian only)"},"geometry":{"type":"MultiLineString","coordinates":[[[-0.3612986,51.2164885],[-0.3612175,51.2166004],[-0.3610478,51.2168647],[-0.360903,51.2170346],[-0.3608124,51.2172],[-0.3606191,51.2173023],[-0.3603081,51.2175309],[-0.3601581,51.2176377],[-0.3593171,51.2179983],[-0.3577663,51.2187828],[-0.3576378,51.2188434]]]}},
{"type":"Feature","properties":{"highway":"footway","name":null,"category":"Footpath (pedestrian only)"},"geometry":{"type":"MultiLineString","coordinates":[[[-0.3698589,51.2230444],[-0.3701481,51.2229649],[-0.3709745,51.2229956],[-0.3730379,51.2226831],[-0.373612,51.2226301],[-0.3738034,51.22267],[-0.3742352,51.2227607],[-0.3746054,51.2228431],[-0.3750784,51.2229127],[-0.3754719,51.222914],[-0.3759259,51.2230317],[-0.3761497,51.2230996],[-0.376486,51.2231411],[-0.3767181,51.2232151]]]}},
{"type":"Feature","properties":{"highway":"footway","name":null,"category":"Footpath (pedestrian only)"},"geometry":{"type":"MultiLineString","coordinates":[[[-0.3641049,51.2076159],[-0.3641176,51.208142],[-0.3638903,51.2087047],[-0.3631393,51.2097533],[-0.3627165,51.210272]]]}},
{"type":"Feature","properties":{"highway":"footway","name":null,"category":"Footpath (pedestrian only)"},"geometry":{"type":"MultiLineString","coordinates":[[[-0.3626723,51.2103262],[-0.3626243,51.2103851],[-0.362517,51.2112992],[-0.3625406,51.2113429],[-0.3635179,51.2121656],[-0.363224,51.2132497],[-0.3631851,51.2133151]]]}},
{"type":"Feature","properties":{"highway":"footway","name":null,"category":"Footpath (pedestrian only)"},"geometry":{"type":"MultiLineString","coordinates":[[[-0.3627165,51.210272],[-0.3626723,51.2103262]]]}},
{"type":"Feature","properties":{"highway":"track","name":null,"category":"Track"},"geometry":{"type":"MultiLineString","coordinates":[[[-0.3661071,51.2211419],[-0.3667818,51.2210261],[-0.3671967,51.220979]]]}},
{"type":"Feature","properties":{"highway":"track","name":null,"category":"Track"},"geometry":{"type":"MultiLineString","coordinates":[[[-0.373237,51.2161853],[-0.3732837,51.216118],[-0.3732207,51.2160581],[-0.3725015,51.215729],[-0.3718734,51.2152844],[-0.3717193,51.2151366],[-0.3715372,51.2149436],[-0.371341,51.2148514],[-0.3708927,51.2147841],[-0.370386,51.2148382],[-0.3699354,51.2148968],[-0.3689056,51.2152024],[-0.3687375,51.2153048],[-0.3685881,51.2154818],[-0.3685733,51.2155197],[-0.3684993,51.21571],[-0.3684596,51.2158065],[-0.3684202,51.2158275],[-0.3683826,51.2158475],[-0.3681538,51.2159162]]]}},
{"type":"Feature","properties":{"highway":"track","name":null,"category":"Track"},"geometry":{"type":"MultiLineString","coordinates":[[[-0.3687353,51.2160665],[-0.3686831,51.2160013],[-0.3685477,51.2159603],[-0.3684963,51.2158682],[-0.3684202,51.2158275]]]}},
{"type":"Feature","properties":{"highway":"track","name":null,"category":"Track"},"geometry":{"type":"MultiLineString","coordinates":[[[-0.3685733,51.2155197],[-0.3683912,51.2154309],[-0.3681851,51.215382],[-0.3680081,51.2153492],[-0.3674012,51.2154326]]]}},
{"type":"Feature","properties":{"highway":"track","name":null,"category":"Track"},"geometry":{"type":"MultiLineString","coordinates":[[[-0.3610393,51.2118995],[-0.3613357,51.2117408],[-0.361455,51.2116769],[-0.3615878,51.2116651],[-0.3617715,51.211776],[-0.361222,51.2121595],[-0.3610808,51.2122449],[-0.3604527,51.2125518],[-0.3600014,51.2127071],[-0.3595237,51.2128128],[-0.3585947,51.2130357],[-0.358298,51.2131299],[-0.3579097,51.2132751],[-0.3575885,51.2134291],[-0.3572796,51.2134724],[-0.3568974,51.2135017]]]}},
{"type":"Feature","properties":{"highway":"track","name":null,"category":"Track"},"geometry":{"type":"MultiLineString","coordinates":[[[-0.3613357,51.2117408],[-0.3611479,51.2116063]]]}},
{"type":"Feature","properties":{"highway":"track","name":null,"category":"Track"},"geometry":{"type":"MultiLineString","coordinates":[[[-0.3617715,51.211776],[-0.362343,51.2114278]]]}},
{"type":"Feature","properties":{"highway":"track","name":null,"category":"Track"},"geometry":{"type":"MultiLineString","coordinates":[[[-0.3689648,51.2099708],[-0.3689621,51.209801],[-0.3687743,51.2097053],[-0.3686751,51.2096582],[-0.3683747,51.2093507],[-0.3682432,51.2093322],[-0.3678651,51.2093289],[-0.3676784,51.2093545],[-0.3670685,51.2094382]]]}},
{"type":"Feature","properties":{"highway":"track","name":null,"category":"Track"},"geometry":{"type":"MultiLineString","coordinates":[[[-0.3676784,51.2093545],[-0.3676448,51.2092636]]]}},
{"type":"Feature","properties":{"highway":"track","name":null,"category":"Track"},"geometry":{"type":"MultiLineString","coordinates":[[[-0.3666954,51.2097452],[-0.3666243,51.2096981],[-0.3665979,51.2096306],[-0.3666263,51.2095644],[-0.3669312,51.2092345],[-0.3669983,51.2091212],[-0.3670085,51.2090563],[-0.3669048,51.208948],[-0.3666975,51.2088423],[-0.366171,51.2086322],[-0.3659515,51.2085036],[-0.3658844,51.2084195],[-0.3658559,51.2083138],[-0.3659149,51.208268]]]}},
{"type":"Feature","properties":{"highway":"track","name":null,"category":"Track"},"geometry":{"type":"MultiLineString","coordinates":[[[-0.3682838,51.2088218],[-0.368256,51.2087123],[-0.3682067,51.2085482],[-0.3680649,51.208389],[-0.3679633,51.2084266]]]}},
{"type":"Feature","properties":{"highway":"track","name":null,"category":"Track"},"geometry":{"type":"MultiLineString","coordinates":[[[-0.3662291,51.2129027],[-0.3659813,51.2126595],[-0.3658097,51.212405],[-0.3657195,51.2122897],[-0.3655439,51.2121662],[-0.36522,51.2119352]]]}},
{"type":"Feature","properties":{"highway":"track","name":null,"category":"Track"},"geometry":{"type":"MultiLineString","coordinates":[[[-0.3671009,51.2144761],[-0.3674576,51.2142888]]]}},
{"type":"Feature","properties":{"highway":"footway","name":null,"category":"Footpath (pedestrian only)"},"geometry":{"type":"MultiLineString","coordinates":[[[-0.3613419,51.2164379],[-0.3612986,51.2164885]]]}},
{"type":"Feature","properties":{"highway":"footway","name":null,"category":"Footpath (pedestrian only)"},"geometry":{"type":"MultiLineString","coordinates":[[[-0.3628936,51.2150686],[-0.3629052,51.2151214],[-0.3628606,51.2151377],[-0.3625832,51.2153514],[-0.3620247,51.2157883],[-0.3614366,51.2162991],[-0.3613419,51.2164379]]]}},
{"type":"Feature","properties":{"highway":"track","name":null,"category":"Track"},"geometry":{"type":"MultiLineString","coordinates":[[[-0.362897,51.2151331],[-0.3628606,51.2151377],[-0.3626747,51.2151588],[-0.3625411,51.2151787],[-0.3622963,51.215236],[-0.3621767,51.2152694],[-0.3620777,51.2152916],[-0.3619777,51.215308],[-0.3619058,51.2153279],[-0.3618441,51.2153478],[-0.361789,51.2153613],[-0.3617236,51.2153742],[-0.3616236,51.2153987],[-0.3614909,51.2154292],[-0.3613835,51.2154467],[-0.3612957,51.2154637],[-0.3612293,51.2154795],[-0.3611761,51.2155041],[-0.3611303,51.2155392],[-0.3610799,51.2155813],[-0.3610275,51.21561],[-0.3609696,51.2156322],[-0.3607952,51.215665]]]}},
{"type":"Feature","properties":{"highway":"footway","name":null,"category":"Footpath (pedestrian only)"},"geometry":{"type":"MultiLineString","coordinates":[[[-0.366623,51.2229861],[-0.3667075,51.2230512],[-0.3670557,51.2231157],[-0.3671571,51.223119],[-0.3675933,51.2231627]]]}}
]
}
